{"type":"FeatureCollection","features":[{"type":"Feature","properties":{"ageMa":230},"geometry":{"type":"MultiPolygon","coordinates":[[[[-62.724999999999994,-8.0],[-62.983193277310924,-9.016806722689076],[-63.0,-11.0],[-63.55670103092783,-11.443298969072163],[-63.922077922077925,-12.0],[-64.0,-12.399999999999999],[-64.4,-12.6],[-64.5625,-13.0],[-64.875,-14.125],[-64.96825396825398,-15.031746031746032],[-64.89333333333333,-15.893333333333334],[-65.0,-16.102564102564102],[-65.09876543209876,-15.901234567901234],[-65.02898550724638,-15.028985507246377],[-65.20289855072464,-13.202898550724637],[-65.07874015748031,-12.078740157480315],[-64.54022988505747,-11.459770114942529],[-64.51807228915663,-11.0],[-64.0,-10.232142857142858],[-63.69047619047619,-10.30952380952381],[-63.07407407407407,-9.925925925925927],[-63.027027027027025,-9.0],[-63.30985915492958,-8.309859154929578],[-63.88235294117647,-7.882352941176471],[-64.06315789473685,-7.063157894736842],[-65.02264150943395,-7.022641509433962],[-65.1897810218978,-6.18978102189781],[-65.43333333333334,-6.0],[-65.66666666666667,-5.0],[-65.18181818181819,-4.818181818181818],[-64.0,-5.121212121212121],[-63.63522012578616,-5.635220125786164],[-62.973333333333336,-5.973333333333333],[-62.608391608391614,-6.608391608391608],[-62.096774193548384,-7.0],[-62.724999999999994,-8.0]]],[[[-69.76190476190476,1.2380952380952381],[-70.0,1.2380952380952381],[-70.42105263157895,2.0],[-70.52688172043011,2.4731182795698925],[-71.04761904761905,3.047619047619048],[-70.42857142857143,4.0],[-70.08,4.08],[-69.94915254237287,3.9491525423728815],[-69.57894736842104,2.4210526315789473],[-69.0,1.9230769230769231],[-68.85882352941177,1.0],[-69.0,-1.0],[-69.76190476190476,1.2380952380952381]]],[[[-23.666666666666668,28.66666666666667],[-24.0,28.0],[-24.5,28.5],[-24.5,29.0],[-24.285714285714285,29.285714285714285],[-23.799999999999997,29.2],[-23.666666666666668,29.0],[-23.666666666666668,28.66666666666667]]],[[[-58.565217391304344,40.56521739130435],[-58.0,41.0],[-58.0,42.0],[-57.4,41.6],[-57.00000000000001,41.66666666666667],[-56.6,41.400000000000006],[-56.333333333333336,41.0],[-56.400000000000006,40.6],[-56.0,40.0],[-60.21739130434783,40.0],[-60.227272727272734,40.22727272727273],[-60.0,40.5],[-58.565217391304344,40.56521739130435]]],[[[-61.8,43.8],[-62.25,43.0],[-62.333333333333336,42.333333333333336],[-62.5,42.0],[-63.0,41.8],[-64.0,41.66666666666667],[-64.13333333333333,41.86666666666667],[-66.016,41.984],[-66.3125,42.6875],[-67.025,43.0],[-66.51282051282051,43.51282051282052],[-66.32142857142857,44.0],[-66.0,45.833333333333336],[-65.875,46.0],[-65.0,46.170731707317074],[-64.45454545454545,46.45454545454545],[-64.08759124087591,47.08759124087591],[-63.333333333333336,47.333333333333336],[-63.02919708029197,48.02919708029197],[-62.10714285714286,48.10714285714286],[-62.0,48.42857142857143],[-61.66666666666667,48.333333333333336],[-61.30769230769231,47.69230769230769],[-61.16666666666667,47.00000000000001],[-61.2,46.2],[-61.666666666666664,45.0],[-61.8,43.8]]],[[[-13.363636363636363,56.0],[-13.421052631578947,56.421052631578945],[-13.0,57.0],[-12.0,57.0],[-11.400000000000002,56.6],[-10.0,56.0],[-10.0,52.0],[-11.0,52.0],[-11.0,51.0],[-16.0,51.0],[-16.0,53.0],[-16.8,53.2],[-17.0,53.5],[-18.0,53.333333333333336],[-18.400000000000002,53.400000000000006],[-19.0,53.0],[-19.0,54.0],[-22.0,54.0],[-22.0,56.0],[-21.77777777777778,56.77777777777778],[-21.0,57.0],[-16.0,57.0],[-15.523809523809522,56.47619047619047],[-15.479999999999999,55.52],[-15.0,55.14285714285714],[-13.621621621621623,55.62162162162162],[-13.363636363636363,56.0]]],[[[0.0,56.599999999999994],[-0.3157894736842105,56.315789473684205],[-0.7142857142857142,55.71428571428571],[-2.0,55.400000000000006],[-2.5999999999999996,56.0],[-3.0,56.66666666666667],[-3.4000000000000004,56.6],[-4.0,57.0],[-4.0,59.0],[-3.0,59.0],[-2.6,58.400000000000006],[-2.0,58.0],[-1.3333333333333333,58.33333333333334],[0.18181818181818182,58.18181818181818],[0.5,58.0],[0.6666666666666667,57.00000000000001],[0.33333333333333337,56.66666666666667],[0.0,56.599999999999994]]],[[[-56.76744186046511,65.76744186046511],[-56.794871794871796,65.2051282051282],[-56.961722488038276,64.96172248803828],[-57.947826086956525,64.94782608695652],[-58.18181818181818,64.81818181818181],[-58.78378378378378,64.78378378378378],[-58.756097560975604,64.2439024390244],[-58.868421052631575,64.0],[-59.5609756097561,63.5609756097561],[-59.77142857142857,63.0],[-59.955555555555556,61.955555555555556],[-59.94285714285714,60.05714285714286],[-59.6,59.400000000000006],[-59.0,59.142857142857146],[-58.97333333333333,59.026666666666664],[-58.666666666666664,59.0],[-58.36363636363636,58.63636363636364],[-58.0,58.5],[-57.79166666666667,57.20833333333333],[-56.95348837209303,57.04651162790698],[-56.73584905660377,56.264150943396224],[-55.95384615384615,56.04615384615384],[-55.87692307692308,55.12307692307692],[-55.53333333333334,54.46666666666667],[-54.9344262295082,54.0655737704918],[-53.66666666666667,54.0],[-53.2,53.00000000000001],[-53.66666666666667,52.0],[-53.90697674418605,51.90697674418604],[-54.00000000000001,51.33333333333334],[-55.0,51.5],[-56.0,51.25],[-56.57894736842105,50.578947368421055],[-57.00000000000001,50.333333333333336],[-57.6,50.400000000000006],[-58.0,51.0],[-58.23529411764706,51.76470588235294],[-59.0,53.0],[-59.63636363636364,53.36363636363637],[-60.0,54.142857142857146],[-60.375,56.625],[-60.75,57.0],[-61.0722891566265,57.92771084337349],[-61.75,58.0],[-61.75,59.25],[-62.0,59.5],[-63.0,60.0],[-63.90243902439025,59.90243902439025],[-64.4,60.0],[-64.68421052631578,60.315789473684205],[-65.0,60.42857142857143],[-65.19047619047619,60.80952380952381],[-65.75999999999999,60.760000000000005],[-66.09448818897638,60.90551181102362],[-67.88888888888889,61.0],[-68.15189873417722,61.84810126582279],[-68.816091954023,61.81609195402299],[-69.17021276595744,62.0],[-69.31372549019608,62.31372549019608],[-69.19354838709677,62.80645161290323],[-69.67272727272727,62.67272727272727],[-70.12676056338027,62.87323943661971],[-71.03603603603604,62.96396396396397],[-71.17777777777778,63.17777777777778],[-71.22641509433961,63.77358490566038],[-71.79591836734694,63.79591836734694],[-72.38461538461539,64.0],[-72.38461538461539,64.38461538461539],[-72.0,64.83333333333334],[-70.0,65.04761904761905],[-67.0,65.02325581395348],[-66.21538461538462,65.21538461538462],[-65.80000000000001,66.0],[-65.17391304347825,66.17391304347825],[-63.30188679245283,66.30188679245283],[-63.0,66.5],[-61.71428571428571,66.71428571428571],[-61.400000000000006,67.0],[-57.0,67.07692307692308],[-56.81395348837209,66.81395348837209],[-56.787234042553195,66.2127659574468],[-55.333333333333336,66.0],[-56.76744186046511,65.76744186046511]]],[[[-77.0,68.0],[-75.97727272727273,68.0],[-76.0,67.0],[-77.0,67.0],[-77.0,68.0]]],[[[-16.0,69.98850574712644],[-16.095238095238095,70.09523809523809],[-16.0,71.0],[-15.0,71.0],[-15.0,70.0],[-16.0,69.98850574712644]]],[[[-76.0,80.0],[-76.5,80.5],[-76.5,81.0],[-74.91011235955057,81.08988764044945],[-71.0,81.0],[-71.0,79.0],[-75.0,79.0],[-75.0,80.0],[-76.0,80.0]]],[[[-34.0,82.0],[-32.0,82.0],[-31.25,82.25],[-31.0,83.0],[-30.0,83.0],[-30.0,81.0],[-32.0,81.0],[-32.0,80.0],[-34.0,80.0],[-34.0,82.0]]],[[[-27.0,81.0],[-29.0,81.0],[-29.0,83.0],[-24.0,83.0],[-24.0,82.0],[-27.0,82.0],[-27.0,81.0]]],[[[-119.0,89.825],[-119.17948717948718,90.0],[-111.33333333333334,90.0],[-112.0,89.85],[-115.0,89.92307692307692],[-117.0,89.8157894736842],[-119.0,89.825]]],[[[-8.152173913043478,90.0],[-5.0,90.0],[-8.0,89.84782608695652],[-8.152173913043478,90.0]]],[[[-109.38461538461539,90.0],[-106.625,90.0],[-107.0,89.85365853658537],[-109.0,89.86486486486486],[-109.38461538461539,90.0]]],[[[-132.15,90.0],[-129.78571428571428,90.0],[-130.14457831325302,89.85542168674698],[-132.0,89.86046511627907],[-132.15,90.0]]],[[[-155.0,89.88636363636363],[-155.23809523809524,90.0],[-152.84375,90.0],[-153.0,89.86842105263158],[-155.0,89.88636363636363]]],[[[47.0,-12.0],[44.0,-12.0],[44.0,-10.0],[46.0,-10.0],[47.0,-11.0],[47.0,-12.0]]],[[[100.0,-6.0],[100.0,-5.0],[102.0,-5.0],[102.0,-6.0],[100.0,-6.0]]],[[[115.0,2.0],[114.0,2.0],[113.60000000000001,0.6000000000000001],[114.0,0.0],[111.90476190476191,0.09523809523809523],[111.80000000000001,-0.2],[112.0,-1.0],[111.0,-1.0],[111.0,-2.0],[108.85714285714286,-1.8571428571428572],[108.71428571428571,-2.2857142857142856],[109.0,-3.0],[108.28571428571428,-2.714285714285714],[107.5,-3.0],[107.5,-3.5],[107.0,-4.0],[105.0,-4.0],[105.0,-5.0],[103.0,-5.0],[103.0,-4.0],[100.875,-3.875],[100.0,-4.0],[94.0,-4.0],[94.0,-2.0],[95.0,-2.0],[95.0,-1.0],[97.0,-1.0],[97.0,0.0],[99.0,0.0],[99.0,-1.0],[106.0,-1.0],[106.0,0.0],[108.0,0.0],[108.0,1.0],[110.0,1.0],[110.0,2.0],[111.0,2.0],[111.0,3.0],[112.0,3.0],[112.0,4.0],[113.0,4.0],[113.0,5.0],[113.60000000000001,5.4],[114.0,5.333333333333333],[114.03773584905662,5.037735849056604],[114.25,5.0],[114.60000000000001,4.6],[115.0,4.571428571428571],[115.11940298507463,4.119402985074627],[115.3076923076923,4.0],[115.47619047619048,3.476190476190476],[115.83333333333334,3.0],[115.71428571428571,2.2857142857142856],[115.0,2.0]]],[[[4.164383561643835,82.16438356164383],[14.0,82.02380952380953],[20.0,82.07142857142857],[20.6,82.0],[20.789473684210527,81.78947368421052],[22.1875,81.1875],[24.07894736842105,81.07894736842104],[43.0,81.09302325581395],[44.0,81.0],[44.513513513513516,80.51351351351352],[45.22727272727273,80.22727272727272],[46.142857142857146,80.14285714285714],[56.0,80.07142857142857],[58.0,80.25],[59.0,80.2051282051282],[60.04651162790698,80.04651162790698],[60.56756756756757,79.56756756756756],[62.0,79.17948717948718],[67.0,79.42857142857143],[69.0,79.22448979591837],[71.0,79.23809523809524],[72.0,79.36956521739131],[75.24444444444444,79.24444444444444],[76.10526315789474,79.10526315789474],[76.53488372093024,78.53488372093022],[77.26315789473685,78.26315789473685],[82.0,78.18604651162791],[84.33333333333334,78.0],[84.5,77.5],[85.0909090909091,77.0909090909091],[86.0,77.0],[86.0,76.0],[87.0,76.0],[87.0,75.0],[88.0,75.0],[88.0,72.0],[86.0,72.0],[86.0,69.0],[85.0,69.0],[85.0,65.0],[84.08695652173914,64.91304347826087],[84.0,63.0],[83.0,63.0],[83.0,60.0],[82.4,59.6],[82.0,59.0],[82.0,58.0],[80.0,58.0],[80.0,55.0],[81.0,55.0],[81.18604651162791,54.18604651162791],[82.80000000000001,54.0],[83.32432432432434,53.32432432432432],[84.0,53.17857142857143],[85.76190476190476,53.23809523809524],[86.0,53.45454545454545],[87.0,53.33333333333333],[88.66666666666666,54.0],[96.94,54.06],[97.80281690140845,54.19718309859155],[98.92857142857143,55.0],[101.77358490566039,55.22641509433962],[102.00000000000001,55.66666666666667],[102.6,56.0],[106.9423076923077,56.05769230769231],[108.77358490566039,56.22641509433962],[110.5,57.0],[113.86666666666667,57.13333333333333],[114.61538461538461,57.38461538461538],[114.86363636363636,58.0],[115.0,58.033707865168545],[119.02020202020202,58.02020202020202],[119.36363636363636,57.36363636363637],[120.08695652173914,57.08695652173913],[124.0,57.0],[124.29411764705881,56.294117647058826],[124.70588235294117,56.294117647058826],[125.10309278350515,56.103092783505154],[127.6,56.0],[129.0,55.52173913043478],[131.4090909090909,55.590909090909086],[133.5,56.0],[138.33333333333334,56.0],[139.0,55.55555555555556],[141.0,55.857142857142854],[141.42857142857144,55.0],[141.0,53.75],[140.0,53.2],[139.88888888888889,52.99999999999999],[140.42105263157893,52.421052631578945],[140.57142857142856,52.0],[140.41666666666666,51.0],[140.2325581395349,50.76744186046511],[140.0,49.714285714285715],[139.66666666666669,49.33333333333334],[139.58333333333331,49.0],[139.2258064516129,48.774193548387096],[139.04999999999998,48.0],[138.46341463414635,47.536585365853654],[138.23529411764704,47.0],[138.0,46.77777777777778],[137.68831168831167,46.688311688311686],[137.1081081081081,46.891891891891895],[136.86666666666667,46.13333333333334],[135.86666666666667,45.866666666666674],[135.13333333333333,45.866666666666674],[135.0,45.0],[131.0,45.0],[130.77777777777777,44.22222222222222],[130.5,44.0],[130.5,43.5],[130.0,43.0],[129.60000000000002,43.60000000000001],[129.5,44.0],[129.0,44.142857142857146],[128.8,44.0],[128.60000000000002,42.6],[129.0,42.0],[128.0,42.0],[127.28571428571428,42.285714285714285],[126.33333333333334,42.0],[126.4,41.6],[126.0,41.0],[125.4,40.6],[124.0,40.5],[123.73913043478262,40.26086956521739],[123.0,40.0],[123.0,39.0],[121.0,39.0],[121.0,40.0],[120.0,40.0],[120.0,39.0],[118.0,39.0],[118.0,38.0],[116.0,38.0],[116.0,39.0],[115.0,39.0],[115.0,35.0],[116.0,34.0],[116.0,32.0],[115.36363636363636,31.636363636363637],[115.22222222222221,31.0],[115.04878048780488,30.951219512195124],[115.0,29.974358974358974],[114.15686274509804,29.84313725490196],[114.00000000000001,29.333333333333336],[113.04761904761905,28.952380952380953],[113.0,28.0],[112.0,28.0],[112.0,27.0],[111.0,27.0],[110.0,26.0],[110.0,25.0],[109.0,25.0],[109.0,24.0],[108.0,24.0],[108.0,23.0],[107.0,23.0],[107.0,21.0],[106.0,21.0],[106.0,20.0],[104.0,20.0],[104.0,19.0],[103.0,19.0],[103.0,17.0],[102.0,17.0],[102.0,12.0],[101.60000000000001,10.600000000000001],[102.0,10.0],[98.0,10.0],[97.5,10.5],[97.5,11.0],[97.33333333333334,11.333333333333334],[97.0,11.666666666666668],[96.66666666666667,11.666666666666668],[96.5,12.0],[96.0,12.25],[95.71428571428571,12.285714285714285],[95.0,12.0],[93.0,12.0],[93.0,13.0],[92.0,13.0],[92.0,14.0],[91.0,14.0],[90.83333333333334,14.833333333333334],[90.0,14.90909090909091],[89.70270270270271,16.297297297297295],[89.89473684210526,16.894736842105264],[89.5,17.5],[89.0,17.7],[88.925,18.075],[89.0,19.5],[89.33333333333334,19.666666666666668],[89.71428571428571,20.285714285714285],[90.25,20.75],[90.33333333333334,21.0],[90.4,21.4],[90.0,22.0],[91.0,22.0],[91.75,21.75],[93.0,22.0],[94.0,22.0],[94.0,24.0],[93.0,24.0],[93.0,27.0],[94.0,27.0],[94.0,29.0],[95.0,29.0],[95.0,32.0],[97.0,32.0],[97.0,31.0],[99.0,31.0],[99.0,29.0],[102.0,29.0],[102.0,31.0],[103.0,31.0],[103.0,34.0],[102.0,34.0],[102.0,36.0],[101.0,36.0],[101.0,37.0],[94.0,37.0],[94.0,38.0],[92.0,38.0],[92.0,39.0],[89.0,39.0],[89.0,40.0],[78.0,40.0],[77.5,40.5],[77.0,40.66666666666667],[76.0,40.66666666666667],[75.55555555555556,40.44444444444444],[75.0,40.400000000000006],[74.0,40.57142857142857],[72.57142857142857,40.42857142857143],[71.5,40.0],[68.11320754716982,39.88679245283019],[67.6470588235294,39.647058823529406],[67.35294117647058,39.647058823529406],[67.07692307692308,39.0],[65.0,39.0],[65.0,38.0],[64.02222222222223,37.977777777777774],[63.3125,37.6875],[63.0,37.0],[62.074999999999996,36.925],[61.63636363636363,36.36363636363636],[61.09090909090909,36.0],[60.0,35.599999999999994],[59.674418604651166,35.32558139534884],[59.5625,35.0],[59.0,34.59090909090909],[58.5438596491228,34.45614035087719],[58.02816901408451,33.971830985915496],[56.652892561983464,33.34710743801653],[56.5,33.0],[55.70629370629371,32.70629370629371],[55.28776978417267,32.71223021582733],[55.0,32.48717948717949],[54.59574468085107,32.40425531914894],[54.387096774193544,32.0],[54.0,31.77777777777778],[53.31428571428572,31.685714285714287],[52.791044776119406,31.208955223880597],[52.820512820512825,31.0],[52.0,30.56164383561644],[51.511904761904766,30.488095238095237],[51.06896551724138,29.93103448275862],[49.76608187134503,29.76608187134503],[49.074766355140184,29.925233644859812],[48.086956521739125,29.91304347826087],[47.72727272727272,29.727272727272727],[47.272727272727266,29.727272727272727],[47.272727272727266,29.272727272727273],[47.13636363636364,29.0],[46.957142857142856,28.957142857142856],[45.0,28.754716981132074],[43.15384615384615,28.846153846153847],[42.61538461538461,28.38461538461538],[42.6,28.0],[42.0,27.80263157894737],[39.46666666666667,27.533333333333335],[39.0,27.0],[38.016666666666666,26.983333333333334],[34.82142857142857,26.17857142857143],[34.72222222222222,26.0],[34.252427184466015,25.74757281553398],[34.0,25.071428571428573],[33.75,25.0],[30.563636363636366,24.563636363636363],[30.230769230769234,24.76923076923077],[30.0,24.25],[29.714285714285715,24.285714285714285],[29.0,24.0],[28.77777777777778,24.77777777777778],[26.96078431372549,24.96078431372549],[24.0,25.0],[24.0,26.0],[23.0,26.0],[23.0,25.0],[21.0,25.0],[20.523809523809522,24.476190476190474],[20.375,24.0],[20.075949367088604,23.924050632911392],[20.0,23.5],[19.625,23.375],[19.22222222222222,22.77777777777778],[19.0,22.0],[18.153846153846153,21.846153846153847],[18.0,21.25],[17.5,21.0],[16.114285714285714,20.885714285714286],[16.0,20.6],[15.5,20.5],[14.5,19.5],[14.333333333333334,18.666666666666668],[14.0,18.0],[14.0,17.0],[11.0,17.0],[11.0,18.0],[10.5,17.5],[7.000000000000001,17.200000000000003],[6.800000000000001,17.0],[7.894736842105264,16.894736842105264],[8.444444444444445,16.444444444444443],[8.5,16.0],[9.384615384615383,15.384615384615383],[10.0,14.4],[10.285714285714285,14.285714285714285],[10.75,13.0],[10.5,12.5],[10.0,12.25],[9.8,12.000000000000002],[9.75,11.0],[9.5,10.5],[9.0,10.25],[8.571428571428573,10.571428571428571],[8.5,11.0],[8.285714285714285,11.285714285714285],[7.523809523809524,11.523809523809524],[7.0,12.0],[7.200000000000001,13.0],[7.1,13.1],[7.1,13.9],[6.999999999999999,14.083333333333332],[6.5,14.0],[6.4,13.600000000000001],[6.0,13.0],[5.4,13.4],[4.727272727272727,13.272727272727273],[4.4,13.0],[4.333333333333334,12.666666666666668],[3.8,12.2],[3.4615384615384617,11.53846153846154],[3.0,11.0],[4.0,10.0],[5.0,10.0],[6.0,9.0],[9.0,9.0],[9.5,9.5],[10.0,9.666666666666668],[10.4,9.600000000000001],[11.0,10.0],[11.0,9.0],[12.0,9.0],[12.0,6.0],[11.666666666666668,5.333333333333334],[11.666666666666666,5.0],[12.0,4.5],[12.5,4.5],[13.0,4.0],[14.0,4.0],[14.0,3.0],[16.0,3.0],[16.0,2.0],[15.600000000000001,1.4000000000000001],[15.5,1.0],[16.333333333333336,0.6666666666666667],[17.0,1.0],[17.0,0.0],[18.0,0.0],[18.0,1.0],[21.0,1.0],[21.0,0.0],[23.0,0.0],[23.0,-1.0],[25.0,-1.0],[24.6,-1.6],[24.75,-2.25],[25.0,-2.5],[25.400000000000002,-2.4],[26.0,-2.0],[29.0,-2.0],[29.0,-3.0],[31.0,-3.0],[31.0,-4.0],[34.0,-4.0],[34.0,-3.0],[36.0,-3.0],[36.0,-4.0],[37.0,-4.0],[37.0,-6.0],[38.0,-6.0],[38.0,-13.0],[39.0,-13.0],[39.0,-14.0],[40.0,-14.0],[40.0,-20.0],[45.0,-20.0],[45.0,-19.0],[46.0,-19.0],[46.77777777777777,-19.22222222222222],[47.18181818181819,-19.18181818181818],[47.5,-19.0],[47.66666666666667,-18.666666666666668],[49.0,-18.0],[49.0,-17.0],[50.0,-16.5],[50.111111111111114,-17.0],[50.0,-19.0],[49.5,-20.0],[49.16666666666667,-20.166666666666664],[49.16666666666667,-21.166666666666668],[49.0,-22.0],[48.0,-22.0],[48.0,-23.0],[46.0,-23.0],[46.0,-25.0],[48.0,-25.0],[48.0,-26.0],[49.18181818181818,-26.181818181818183],[50.0,-26.0],[51.0,-26.0],[51.0,-28.0],[52.0,-28.0],[52.0,-29.0],[53.0,-29.0],[53.0,-30.0],[54.0,-30.0],[54.0,-33.0],[55.0,-33.0],[55.0,-38.0],[56.0,-38.0],[55.60000000000001,-38.6],[55.66666666666667,-39.0],[56.0,-39.333333333333336],[56.400000000000006,-39.400000000000006],[57.0,-39.0],[57.0,-40.0],[58.0,-40.0],[58.0,-41.0],[59.0,-41.0],[59.5,-40.5],[60.400000000000006,-40.4],[61.0,-40.0],[65.0,-40.0],[65.0,-39.0],[68.0,-39.0],[68.0,-38.0],[70.0,-38.0],[70.63636363636364,-38.36363636363636],[71.3076923076923,-38.30769230769231],[71.66666666666667,-38.0],[71.60000000000001,-37.6],[72.0,-37.0],[72.0,-36.0],[74.0,-36.0],[74.0,-35.0],[77.0,-35.0],[77.0,-36.0],[79.0,-36.0],[79.0,-34.0],[81.0,-34.0],[81.0,-35.0],[82.0,-35.0],[82.0,-36.0],[86.0,-36.0],[86.0,-35.0],[88.0,-35.0],[88.0,-34.0],[91.0,-34.0],[92.00000000000001,-34.2],[93.19999999999999,-34.2],[94.0,-34.0],[99.0,-34.0],[99.0,-33.0],[103.0,-33.0],[104.0,-32.0],[108.0,-32.0],[109.0,-31.0],[110.0,-31.0],[111.0,-31.5],[111.19999999999999,-31.8],[111.66666666666667,-31.66666666666667],[112.1090909090909,-31.89090909090909],[113.0,-32.0],[113.31578947368419,-32.68421052631579],[113.65217391304348,-32.652173913043484],[114.1311475409836,-32.868852459016395],[115.0,-32.94871794871795],[115.41666666666666,-33.583333333333336],[116.66666666666669,-34.0],[117.00000000000001,-34.333333333333336],[117.19354838709678,-34.806451612903224],[117.75,-35.0],[117.76470588235294,-35.23529411764706],[118.0,-35.5],[118.2,-36.8],[118.60000000000001,-37.4],[119.0,-37.666666666666664],[119.05479452054794,-38.054794520547944],[119.0,-38.66666666666667],[118.83333333333334,-38.833333333333336],[118.71428571428571,-39.28571428571428],[119.0,-40.0],[118.0,-40.0],[118.0,-41.0],[117.0,-41.0],[117.0,-46.0],[118.0,-46.0],[118.0,-47.0],[119.0,-47.0],[119.0,-48.0],[120.0,-48.0],[121.0,-49.0],[122.0,-49.0],[122.0,-52.0],[121.5,-52.5],[121.0,-52.5],[120.75,-53.0],[121.0,-54.0],[122.0,-55.0],[122.0,-57.0],[123.0,-57.0],[123.0,-59.0],[121.0,-59.0],[121.0,-61.0],[119.0,-61.0],[118.33333333333334,-61.33333333333334],[118.0,-61.25],[117.0,-61.5],[116.0,-62.0],[116.0,-65.0],[114.0,-65.0],[114.0,-69.0],[116.0,-69.0],[116.5,-68.5],[117.4,-68.4],[118.0,-68.0],[118.44444444444444,-67.44444444444444],[118.5,-66.5],[119.0,-66.0],[119.60000000000001,-66.4],[120.0,-67.0],[121.0,-67.0],[121.0,-69.0],[121.4,-69.6],[121.5,-70.0],[121.0377358490566,-70.0377358490566],[120.35294117647058,-70.35294117647058],[120.0909090909091,-71.0],[119.25,-71.25],[119.25,-71.75],[119.07339449541284,-72.07339449541284],[118.0,-72.25],[117.5,-72.5],[117.11320754716981,-73.11320754716981],[115.1917808219178,-73.1917808219178],[114.35897435897436,-73.35897435897436],[114.0,-73.875],[113.0,-73.75],[112.0,-74.0],[102.0,-74.0],[102.0,-75.0],[99.0,-75.0],[99.0,-76.0],[98.30769230769232,-76.30769230769232],[98.1111111111111,-77.0],[96.0,-77.0],[95.15789473684211,-77.15789473684211],[95.0,-77.6],[94.71428571428572,-77.71428571428571],[91.58333333333333,-78.58333333333334],[91.23076923076923,-79.0],[91.35294117647058,-79.6470588235294],[91.75,-80.0],[91.66666666666667,-81.33333333333334],[92.0,-82.0],[79.0,-82.15384615384616],[77.2803738317757,-82.2803738317757],[69.0,-82.1764705882353],[60.0,-82.34883720930233],[56.88888888888889,-82.11111111111111],[54.0,-82.22448979591837],[53.27956989247312,-81.72043010752688],[52.53333333333333,-81.46666666666667],[50.0,-81.23076923076923],[43.0,-81.38888888888889],[39.0,-81.27083333333334],[37.0,-81.55172413793103],[35.0,-81.5],[34.0,-81.6],[33.111111111111114,-82.11111111111111],[32.0,-82.18],[28.0,-82.04651162790698],[14.0,-82.06976744186046],[11.782178217821782,-82.21782178217822],[7.0,-82.06818181818181],[3.0,-82.13043478260869],[-0.04597701149425287,-82.04597701149426],[-1.0,-81.85714285714286],[-3.0,-82.0],[-4.0,-81.625],[-6.0,-82.0],[-6.684210526315789,-81.68421052631578],[-7.375,-81.625],[-9.0,-82.0],[-10.428571428571429,-81.42857142857143],[-11.0,-81.0],[-11.714285714285714,-80.71428571428572],[-15.0,-80.6],[-16.636363636363637,-81.36363636363636],[-17.22222222222222,-81.77777777777777],[-17.333333333333336,-82.0],[-18.0,-82.04761904761905],[-20.0,-81.66666666666667],[-20.186046511627907,-81.18604651162791],[-21.0,-81.0],[-23.0,-81.0],[-23.5632183908046,-80.5632183908046],[-24.0,-80.44117647058823],[-25.0,-80.43589743589743],[-26.0,-80.0],[-28.0,-80.0],[-28.0,-79.0],[-30.0,-79.0],[-30.0,-78.0],[-31.0,-78.0],[-31.0,-77.0],[-33.0,-77.0],[-33.0,-76.0],[-35.0,-76.0],[-35.0,-75.0],[-36.0,-75.0],[-36.0,-73.0],[-39.0,-73.0],[-39.0,-72.0],[-41.0,-72.0],[-41.0,-71.0],[-42.0,-71.0],[-42.0,-70.0],[-43.0,-70.0],[-43.0,-69.0],[-44.0,-69.0],[-44.0,-64.0],[-45.0,-64.0],[-45.0,-63.0],[-44.0,-62.0],[-44.0,-60.0],[-43.0,-60.0],[-43.0,-59.0],[-44.0,-59.0],[-44.0,-57.0],[-43.0,-57.0],[-43.0,-55.0],[-42.0,-55.0],[-42.0,-52.0],[-41.66666666666667,-51.00000000000001],[-41.114285714285714,-50.885714285714286],[-41.0,-50.0],[-41.0,-47.0],[-40.8,-45.2],[-40.0,-45.0],[-40.0,-37.0],[-41.0,-37.0],[-41.0,-34.0],[-41.96153846153847,-33.96153846153846],[-42.03636363636364,-33.03636363636363],[-43.0,-33.0],[-43.09836065573771,-32.09836065573771],[-44.0,-32.0],[-44.27368421052631,-31.273684210526312],[-45.0,-31.0],[-45.138888888888886,-30.138888888888893],[-46.0,-30.0],[-46.0,-29.0],[-46.73913043478261,-28.73913043478261],[-47.0,-28.25],[-47.054054054054056,-27.054054054054053],[-48.0,-27.0],[-48.0,-26.0],[-49.0,-26.0],[-49.0,-18.0],[-48.0,-18.0],[-48.0,-15.0],[-47.25,-15.25],[-46.888888888888886,-14.999999999999998],[-47.0,-14.0],[-48.0,-14.0],[-48.0,-13.0],[-47.5,-12.5],[-47.0,-12.5],[-46.925925925925924,-12.074074074074073],[-47.08,-11.92],[-49.0,-12.0],[-49.0,-9.0],[-50.0,-9.0],[-50.0,-8.0],[-51.0,-8.0],[-51.0,-6.0],[-50.707317073170735,-4.707317073170732],[-51.0,-4.0],[-51.0,-3.0],[-50.28571428571428,-3.2857142857142856],[-50.0,-3.2],[-49.95744680851064,-3.042553191489362],[-50.0,2.0],[-51.0,2.0],[-51.0,4.0],[-52.0,4.0],[-52.03738317757009,5.962616822429906],[-52.1978021978022,6.802197802197803],[-52.46808510638298,7.531914893617021],[-53.0,8.0],[-53.22727272727273,10.0],[-53.510791366906474,10.489208633093526],[-54.18421052631579,10.81578947368421],[-54.46153846153847,11.53846153846154],[-55.18518518518518,12.0],[-55.400000000000006,12.6],[-56.0,12.879999999999999],[-56.21212121212121,13.787878787878787],[-57.0,14.200000000000001],[-57.205128205128204,14.794871794871796],[-58.0,15.071428571428571],[-58.288888888888884,15.711111111111109],[-59.05555555555556,16.0],[-59.43333333333334,16.566666666666666],[-60.14666666666666,16.85333333333333],[-61.0,17.0],[-61.14754098360656,17.852459016393443],[-61.40909090909091,18.0],[-62.0,18.764705882352942],[-62.426966292134836,19.573033707865168],[-63.1063829787234,20.0],[-63.349999999999994,20.65],[-63.93333333333334,21.0],[-64.25,22.75],[-65.0,23.833333333333332],[-65.33663366336634,24.663366336633665],[-66.01612903225806,25.0],[-66.08219178082192,25.917808219178085],[-66.42857142857143,26.0],[-66.16216216216216,26.16216216216216],[-66.03846153846153,27.0],[-65.0,27.0],[-64.72173913043478,26.278260869565216],[-64.11111111111111,26.0],[-63.883495145631066,25.11650485436893],[-63.53846153846154,25.0],[-63.0,24.53333333333333],[-62.81818181818181,24.0],[-62.46451612903226,23.53548387096774],[-61.85401459854015,23.145985401459853],[-61.434782608695656,22.565217391304348],[-61.0,22.285714285714285],[-60.0,22.098039215686274],[-59.86486486486486,21.864864864864863],[-59.846153846153854,21.153846153846153],[-59.0,21.054794520547947],[-58.836734693877546,20.163265306122447],[-57.97014925373135,20.0],[-57.90243902439025,19.097560975609756],[-57.65714285714286,18.34285714285714],[-56.96491228070175,18.0],[-56.86,17.0],[-56.62162162162162,16.37837837837838],[-55.95092024539878,16.049079754601227],[-55.75,15.25],[-55.0,15.0],[-54.82142857142857,14.178571428571427],[-54.0,14.023255813953488],[-53.28571428571428,14.285714285714285],[-53.01398601398601,15.013986013986015],[-52.21818181818182,15.218181818181819],[-52.0,17.0],[-51.66666666666667,17.666666666666668],[-51.18181818181818,18.181818181818183],[-51.0,19.0],[-51.0,20.0],[-49.0,20.0],[-49.0,19.0],[-48.0,19.0],[-48.0,17.0],[-47.0,17.0],[-47.0,16.0],[-46.0,16.0],[-46.0,14.0],[-45.0,14.0],[-45.0,13.0],[-44.0,13.0],[-44.0,14.0],[-43.0,14.0],[-43.0,23.0],[-44.0,23.0],[-44.0,24.0],[-45.0,24.0],[-45.0,25.0],[-46.0,25.0],[-46.0,29.0],[-45.0,29.0],[-45.0,32.0],[-44.0,32.0],[-44.0,34.0],[-45.0,34.0],[-45.0,35.0],[-47.0,35.0],[-47.0,36.0],[-48.0,36.0],[-48.0,37.0],[-49.0,37.0],[-49.0,40.0],[-49.6,40.4],[-49.8,41.2],[-50.5,41.5],[-51.0,42.0],[-50.5,43.0],[-50.0,43.5],[-49.5,43.5],[-49.0,43.0],[-49.0,44.0],[-42.0,44.0],[-42.0,45.0],[-41.0,45.0],[-41.0,46.0],[-40.0,46.0],[-40.0,47.0],[-39.0,47.0],[-39.0,48.0],[-38.0,48.0],[-38.0,51.0],[-39.0,51.0],[-39.0,53.0],[-35.0,53.0],[-34.2,52.8],[-33.0,53.0],[-33.0,54.0],[-27.0,54.0],[-27.0,52.0],[-26.0,52.0],[-26.0,49.0],[-27.0,49.0],[-27.166666666666668,47.833333333333336],[-27.0,47.5],[-26.5,47.5],[-26.0,47.0],[-26.0,45.0],[-24.0,45.0],[-24.0,43.0],[-23.5,42.5],[-23.5,42.0],[-23.0,41.75],[-22.5,42.0],[-22.5,42.5],[-22.0,43.0],[-21.0,43.0],[-21.0,44.0],[-20.0,44.0],[-20.0,45.0],[-18.0,45.0],[-18.0,46.0],[-17.4,45.6],[-17.0,45.66666666666667],[-16.666666666666668,46.333333333333336],[-17.0,47.0],[-16.0,47.0],[-15.153846153846153,46.84615384615385],[-14.666666666666668,47.0],[-14.600000000000001,47.4],[-15.0,48.0],[-12.0,48.0],[-12.0,49.0],[-8.0,49.0],[-8.0,51.0],[-7.0,51.0],[-6.0,50.66666666666667],[-5.666666666666667,51.333333333333336],[-6.0,52.0],[-5.0,52.0],[-4.5,52.5],[-3.0,53.0],[-2.666666666666667,52.0],[-2.5,51.0],[-2.0,50.66666666666667],[-0.75,50.25],[-0.5,50.0],[-0.6666666666666667,49.66666666666667],[-1.0,49.5],[-1.5,48.5],[-2.0,48.0],[-1.4615384615384615,47.53846153846154],[-1.0,47.400000000000006],[-0.5,47.5],[0.0,48.0],[0.5,47.5],[0.25,45.0],[-0.2222222222222222,44.22222222222222],[-0.14285714285714285,43.0],[0.5,42.5],[1.0,41.857142857142854],[1.5384615384615383,41.53846153846154],[2.0,40.800000000000004],[2.666666666666667,40.66666666666667],[3.0,40.0],[2.8000000000000003,39.0],[3.0,38.66666666666667],[3.4000000000000004,38.6],[4.0,39.0],[4.0,37.0],[4.4,36.400000000000006],[4.6,35.6],[5.0,35.5],[5.153846153846154,37.15384615384615],[5.0,38.0],[5.0,39.0],[5.242424242424242,39.75757575757576],[5.242424242424242,40.24242424242424],[5.0,41.25],[4.666666666666667,41.333333333333336],[4.0,41.0],[4.0,43.0],[5.0,43.0],[5.0,44.0],[5.571428571428571,45.0],[5.8,46.2],[8.0,47.75],[9.0,48.0],[12.0,48.0],[12.833333333333332,47.833333333333336],[17.0,48.0],[17.0,50.0],[18.0,50.0],[18.0,53.0],[19.0,53.0],[18.6,53.60000000000001],[19.166666666666668,55.83333333333333],[19.333333333333336,56.0],[19.133333333333333,56.13333333333333],[17.77777777777778,56.22222222222223],[16.0,56.0],[14.833333333333334,56.166666666666664],[14.0,56.0],[12.0,56.599999999999994],[11.5,56.5],[11.4,56.0],[12.0,55.5],[12.375,55.375],[12.5,55.0],[13.0,54.75],[14.454545454545455,54.45454545454545],[15.0,54.0],[15.5,53.5],[15.555555555555554,52.55555555555555],[16.0,52.0],[16.0,51.0],[12.0,51.0],[12.0,52.0],[10.0,52.0],[10.0,53.0],[8.0,53.0],[8.0,54.0],[7.6,54.6],[7.5,55.0],[7.0,55.5],[6.0,56.0],[5.0,56.0],[4.666666666666666,57.0],[5.0,58.0],[5.0,59.0],[4.5,60.0],[3.666666666666667,60.66666666666667],[3.5,61.0],[2.75,61.25],[2.0,61.0],[1.6,61.6],[1.6666666666666665,62.0],[1.3333333333333333,62.333333333333336],[0.5555555555555556,62.55555555555555],[0.0,62.599999999999994],[-1.0,62.2],[-2.0,62.333333333333336],[-3.0,62.0],[-5.0,62.0],[-5.0,64.0],[-4.0,64.0],[-3.25,63.75],[-2.8666666666666663,63.86666666666667],[-3.0,66.0],[-3.5,66.5],[-3.6000000000000005,67.4],[-4.0,68.0],[-5.0,68.0],[-5.0,69.0],[-6.0,69.0],[-6.0,70.0],[-8.0,70.0],[-8.0,71.0],[-10.0,71.0],[-10.0,72.0],[-11.0,72.0],[-11.0,74.0],[-12.0,74.0],[-12.0,76.0],[-7.0,76.0],[-7.0,77.0],[-9.0,77.0],[-9.0,78.0],[-10.0,78.0],[-10.0,79.0],[-12.0,79.0],[-12.0,80.0],[-13.0,80.0],[-13.0,81.0],[-15.0,81.0],[-15.0,82.0],[-17.0,82.0],[-17.0,83.0],[-14.0,83.09756097560975],[-4.0,83.0],[1.0,83.09677419354838],[1.6,83.0],[2.413793103448276,82.41379310344828],[4.164383561643835,82.16438356164383]],[[94.0,21.0],[95.0,21.0],[95.0,20.0],[96.0,20.0],[96.0,22.0],[94.0,22.0],[94.0,21.0]],[[11.333333333333334,57.00000000000001],[10.75,57.25],[10.0,57.0],[10.88888888888889,56.88888888888889],[11.0,56.66666666666667],[11.5,56.5],[11.333333333333334,57.00000000000001]],[[96.0,-74.66666666666667],[95.83333333333334,-74.83333333333334],[96.0,-75.25],[97.0,-75.0],[96.0,-74.66666666666667]],[[43.0,30.599999999999998],[43.21052631578947,30.789473684210527],[43.30769230769231,31.30769230769231],[43.0,32.0],[44.0,32.0],[44.0,33.0],[46.0,33.0],[46.0,34.0],[44.0,34.0],[44.0,39.0],[43.0,39.0],[43.0,38.0],[42.0,38.0],[42.0,37.0],[40.0,37.0],[40.0,34.0],[41.0,34.0],[41.0,33.0],[42.0,33.0],[42.0,31.0],[43.0,30.599999999999998]],[[119.2,43.0],[119.00000000000001,43.142857142857146],[118.75,43.0],[118.73333333333332,42.733333333333334],[119.0,42.0],[119.25,42.75],[119.2,43.0]],[[136.84615384615384,49.84615384615385],[138.0,50.0],[136.75,50.0],[136.84615384615384,49.84615384615385]],[[15.000000000000002,-36.66666666666667],[14.75,-36.75],[14.400000000000002,-37.4],[13.5,-38.0],[13.4,-38.4],[13.0,-39.0],[15.0,-39.2],[15.333333333333336,-39.0],[16.0,-38.0],[15.181818181818182,-36.81818181818182],[15.000000000000002,-36.66666666666667]],[[29.333333333333336,-37.333333333333336],[30.0,-37.0],[31.0,-36.0],[31.333333333333336,-35.0],[31.285714285714285,-34.71428571428571],[30.0,-34.0],[30.400000000000002,-33.4],[30.5,-33.0],[30.25,-32.75],[29.0,-32.66666666666667],[28.0,-33.0],[27.53846153846154,-33.53846153846154],[27.4,-34.0],[27.5,-35.0],[28.153846153846153,-35.84615384615385],[28.22222222222222,-36.22222222222222],[28.0,-37.0],[28.66666666666667,-37.333333333333336],[29.0,-38.0],[29.333333333333336,-37.333333333333336]],[[40.5,-31.0],[40.333333333333336,-30.666666666666668],[39.66666666666667,-30.666666666666668],[38.4,-31.400000000000002],[38.0,-31.5],[37.5,-32.0],[37.6,-32.4],[38.0,-32.5],[38.25,-32.25],[39.0,-32.16666666666667],[39.75,-32.25],[40.0,-32.5],[40.5,-32.0],[40.5,-31.0]],[[73.44444444444444,-42.55555555555556],[73.0,-42.142857142857146],[72.0,-42.833333333333336],[71.0,-42.66666666666667],[70.77777777777777,-42.77777777777778],[70.66666666666667,-43.0],[70.85714285714286,-43.14285714285714],[71.33333333333334,-43.333333333333336],[71.75,-43.25],[71.75,-43.75],[71.88888888888889,-43.99999999999999],[73.0,-44.44444444444444],[73.30769230769232,-44.30769230769231],[73.5,-44.0],[73.6,-43.0],[73.44444444444444,-42.55555555555556]],[[79.89999999999999,-70.9],[79.5,-71.0],[79.85714285714286,-71.14285714285714],[80.33333333333334,-71.0],[79.89999999999999,-70.9]],[[85.0,-77.52941176470588],[83.0,-78.0],[82.4,-78.4],[81.66666666666667,-78.66666666666667],[81.66666666666667,-79.0],[81.88888888888889,-79.11111111111111],[82.85714285714286,-79.14285714285714],[85.0,-78.88888888888889],[85.54545454545453,-78.54545454545455],[86.0,-78.0],[85.38095238095238,-77.61904761904762],[85.0,-77.52941176470588]],[[104.0,-70.0],[103.0,-71.0],[104.0,-71.5],[105.0,-71.0],[105.0,-70.0],[104.0,-70.0]],[[107.0,-70.0],[107.4,-70.60000000000001],[108.0,-71.0],[109.0,-71.0],[111.0,-70.0],[110.0,-69.0],[109.0,-69.0],[107.6,-69.4],[107.0,-69.0],[107.0,-70.0]],[[-23.0,27.0],[-22.0,27.0],[-22.0,28.0],[-21.666666666666668,28.66666666666667],[-21.666666666666668,29.333333333333336],[-23.400000000000002,30.6],[-24.0,30.799999999999997],[-24.470588235294116,30.47058823529412],[-24.799999999999997,30.0],[-24.714285714285715,29.714285714285715],[-25.333333333333336,29.333333333333336],[-25.5,29.0],[-25.5,28.5],[-26.0,28.0],[-26.0,27.0],[-25.0,27.0],[-25.0,28.0],[-24.0,28.0],[-23.0,27.0]],[[-18.0,32.5],[-17.5,33.0],[-18.0,33.333333333333336],[-19.0,33.0],[-18.0,32.5]],[[-11.0,-68.0],[-12.666666666666666,-68.0],[-12.0,-68.5],[-11.5,-68.5],[-11.0,-69.0],[-11.0,-68.0]],[[-10.25,-69.25],[-9.714285714285714,-69.28571428571428],[-9.5,-69.0],[-10.0,-68.66666666666667],[-10.4,-68.60000000000001],[-11.0,-69.0],[-10.25,-69.25]],[[2.5,21.0],[2.0,21.5],[1.5,21.0],[1.6666666666666665,20.666666666666668],[2.0,20.5],[2.3333333333333335,20.666666666666668],[2.5,21.0]],[[4.333333333333334,28.333333333333336],[4.666666666666667,27.666666666666668],[5.4,27.4],[6.0,27.0],[5.5,26.5],[5.0,26.5],[4.818181818181818,26.181818181818183],[5.0,25.5],[5.5,25.5],[6.0,25.0],[6.0,26.0],[7.0,26.0],[7.5,25.5],[7.5,25.0],[7.666666666666668,24.666666666666668],[8.0,24.5],[9.0,24.5],[9.5,25.0],[9.5,25.5],[10.0,26.0],[11.0,26.0],[11.0,27.0],[14.0,27.0],[14.0,28.0],[17.0,28.0],[18.0,27.833333333333336],[18.2,28.200000000000003],[18.0,29.0],[18.0,30.0],[19.0,30.0],[19.0,31.0],[18.0,31.0],[17.5,31.5],[17.0,31.666666666666664],[16.555555555555554,31.444444444444443],[16.333333333333332,31.0],[16.5,30.5],[17.0,30.0],[17.0,29.0],[16.0,29.0],[15.333333333333334,29.333333333333336],[14.0,29.25],[13.0,29.0],[10.0,29.0],[9.4,29.400000000000002],[8.0,30.0],[8.0,31.0],[7.444444444444444,30.555555555555554],[6.636363636363637,30.636363636363637],[6.105263157894736,31.105263157894736],[6.0,31.5],[5.7142857142857135,31.714285714285715],[5.666666666666667,32.0],[5.25,32.25],[4.0,34.0],[3.5384615384615383,33.46153846153846],[2.6666666666666665,33.0],[3.0,32.0],[3.0,31.0],[2.5,30.0],[3.0,29.5],[3.444444444444444,29.444444444444443],[4.0,28.5],[4.333333333333334,28.333333333333336]],[[15.5,45.0],[16.0,44.333333333333336],[16.333333333333336,44.333333333333336],[17.0,44.0],[18.0,44.0],[18.0,45.0],[17.333333333333336,45.333333333333336],[17.0,45.333333333333336],[16.8,45.2],[16.285714285714285,45.285714285714285],[15.5,45.0]],[[15.857142857142858,-66.0],[16.0,-66.1],[16.09090909090909,-66.0],[16.0,-65.91666666666667],[15.857142857142858,-66.0]],[[27.857142857142858,-44.0],[27.999999999999996,-44.18181818181818],[28.285714285714285,-44.0],[28.0,-43.0],[27.857142857142858,-44.0]],[[36.5,-34.0],[36.400000000000006,-33.6],[36.0,-33.5],[35.75,-34.0],[35.75,-34.25],[36.0,-34.5],[36.13333333333333,-34.13333333333333],[36.5,-34.0]],[[3.0,15.5],[2.6666666666666665,15.000000000000002],[2.7777777777777777,14.777777777777779],[3.0,14.75],[3.25,15.0],[3.0,15.5]]],[[[93.0,1.0],[93.0,3.0],[95.0,3.0],[95.0,1.0],[93.0,1.0]]],[[[61.0,7.0],[60.0,7.0],[60.0,9.0],[61.0,9.0],[61.33333333333333,8.0],[61.0,7.0]]],[[[46.0,10.0],[48.0,10.0],[48.0,9.0],[46.0,9.0],[46.0,10.0]]],[[[6.0,13.0],[7.0,12.0],[6.0,11.5],[5.666666666666667,12.0],[6.0,13.0]]],[[[75.51724137931035,17.517241379310345],[76.0,17.363636363636363],[76.15686274509804,17.15686274509804],[78.0,17.0],[78.66666666666667,16.666666666666668],[79.0,16.333333333333332],[79.02631578947368,16.026315789473685],[79.33333333333334,16.0],[79.66666666666667,15.666666666666668],[80.4,14.400000000000002],[81.0,13.0],[81.86666666666666,12.866666666666667],[82.6,12.6],[83.18181818181819,12.181818181818183],[84.0,12.0],[86.0,10.0],[87.0,10.0],[87.0,6.0],[86.18181818181819,6.181818181818182],[85.92592592592594,6.0740740740740735],[82.0,6.0],[82.0,8.0],[81.0,8.0],[81.0,9.0],[80.0,9.0],[80.0,10.0],[79.0,10.0],[79.0,11.0],[78.0,11.0],[78.0,12.0],[76.0,12.0],[76.0,13.0],[75.0,13.0],[75.0,14.0],[64.0,14.0],[64.0,13.0],[63.0,13.0],[63.0,12.0],[61.0,12.0],[61.0,16.0],[62.0,16.0],[62.0,18.0],[64.0,18.0],[65.0,18.333333333333336],[65.13333333333333,18.133333333333333],[66.0,18.083333333333336],[67.0,18.5],[67.24000000000001,18.24],[69.07692307692308,18.076923076923077],[75.22222222222223,18.0],[75.51724137931035,17.517241379310345]]],[[[41.0,15.0],[43.0,15.0],[43.0,13.0],[41.0,13.0],[41.0,15.0]]],[[[44.0,13.0],[44.0,15.0],[46.0,15.0],[46.0,13.0],[44.0,13.0]]],[[[18.0,14.0],[18.0,15.0],[19.2,15.0],[19.285714285714285,14.714285714285712],[19.0,14.0],[18.0,14.0]]],[[[46.0,18.0],[48.0,18.0],[48.0,16.0],[46.0,16.0],[46.0,18.0]]],[[[52.0,19.0],[54.0,19.0],[54.0,17.0],[52.0,17.0],[52.0,19.0]]],[[[90.60000000000001,24.400000000000002],[91.0,25.0],[91.5,24.5],[91.60000000000001,23.6],[92.0,23.0],[91.0,22.0],[90.5,22.5],[90.4,23.400000000000002],[90.0,24.0],[90.60000000000001,24.400000000000002]]],[[[3.0,90.0],[15.152173913043478,90.0],[14.833333333333334,89.83333333333334],[-4.0,89.81081081081082],[-5.0,90.0],[3.0,90.0]]],[[[67.0,89.85106382978724],[60.0,89.85106382978724],[58.33333333333333,90.0],[70.83333333333334,90.0],[67.0,89.85106382978724]]]]}}]}