{"type":"FeatureCollection","features":[{"type":"Feature","properties":{"ageMa":520},"geometry":{"type":"MultiPolygon","coordinates":[[[[-18.5,-44.0],[-17.571428571428573,-44.57142857142858],[-17.0,-44.75],[-15.9,-44.9],[-14.400000000000002,-45.4],[-12.0,-45.888888888888886],[-11.384615384615383,-46.38461538461539],[-9.0,-47.0],[-8.48,-47.480000000000004],[-7.133333333333333,-48.13333333333333],[-6.0,-48.33333333333333],[-5.0,-48.833333333333336],[-4.0,-49.0],[-3.5,-49.5],[-2.769230769230769,-49.769230769230774],[-2.2222222222222223,-50.22222222222222],[-0.8,-51.0],[1.0,-52.28571428571429],[1.2272727272727273,-52.77272727272727],[1.5555555555555556,-53.0],[1.8333333333333335,-54.0],[1.1111111111111112,-55.0],[-0.35714285714285715,-55.642857142857146],[-1.0,-56.375],[-2.3529411764705883,-56.647058823529406],[-3.0,-57.0],[-5.285714285714286,-57.71428571428571],[-5.7,-58.300000000000004],[-6.444444444444445,-58.55555555555556],[-6.866666666666666,-59.13333333333333],[-8.181818181818182,-59.81818181818181],[-8.5,-60.5],[-8.666666666666668,-61.33333333333334],[-9.0,-62.0],[-9.476190476190476,-62.52380952380952],[-9.625,-63.0],[-10.1875,-63.1875],[-10.8125,-63.1875],[-11.0,-63.42857142857143],[-12.781818181818181,-64.21818181818182],[-13.0,-64.6],[-14.363636363636363,-64.63636363636364],[-15.0,-64.75],[-15.285714285714286,-65.0],[-17.84313725490196,-65.15686274509804],[-18.32,-65.32],[-18.764705882352942,-65.23529411764706],[-20.0,-65.5],[-24.0,-65.33333333333333],[-25.0,-65.11111111111111],[-27.0,-65.125],[-27.666666666666668,-64.66666666666667],[-31.0,-64.0],[-32.4,-63.400000000000006],[-35.0,-63.125],[-35.625,-62.625],[-36.0,-62.5],[-37.0,-62.375],[-38.0,-62.44444444444444],[-39.5,-62.0],[-39.8,-61.8],[-42.285714285714285,-61.28571428571428],[-44.444444444444436,-60.444444444444436],[-45.45454545454545,-59.45454545454545],[-45.84615384615385,-57.84615384615385],[-46.66666666666667,-56.0],[-46.66666666666667,-55.0],[-46.470588235294116,-54.529411764705884],[-45.52941176470588,-53.470588235294116],[-45.0,-52.333333333333336],[-44.36363636363637,-51.63636363636363],[-44.0,-51.0],[-43.0,-50.25],[-41.0,-49.333333333333336],[-40.63636363636364,-49.63636363636363],[-39.88235294117647,-49.88235294117647],[-38.0,-50.0],[-37.77777777777777,-50.77777777777778],[-37.0,-51.33333333333334],[-36.5,-51.0],[-35.916666666666664,-50.916666666666664],[-35.5,-51.5],[-34.307692307692314,-52.30769230769231],[-32.80952380952381,-52.80952380952381],[-32.0,-54.0],[-31.461538461538463,-54.46153846153847],[-30.769230769230766,-54.769230769230774],[-29.7,-55.7],[-29.0,-56.0],[-28.43478260869565,-56.43478260869565],[-27.0,-57.0],[-26.384615384615383,-57.38461538461538],[-25.0,-57.77777777777778],[-24.0,-58.0],[-23.0,-57.888888888888886],[-22.0,-58.0],[-20.0,-57.714285714285715],[-19.0,-57.800000000000004],[-17.0,-57.0],[-16.400000000000002,-56.6],[-16.0,-56.0],[-14.666666666666668,-55.33333333333334],[-14.5,-55.0],[-14.600000000000001,-54.6],[-15.0,-54.0],[-15.0,-53.0],[-14.400000000000002,-52.6],[-13.666666666666668,-52.33333333333334],[-13.5,-52.0],[-13.666666666666668,-51.66666666666667],[-14.0,-51.5],[-15.0,-51.5],[-15.333333333333334,-51.333333333333336],[-17.0,-51.0],[-17.666666666666668,-50.66666666666667],[-19.0,-50.5],[-19.285714285714285,-50.28571428571428],[-20.0,-50.199999999999996],[-20.692307692307693,-49.69230769230769],[-21.0,-49.6],[-22.0,-49.66666666666667],[-23.142857142857146,-49.14285714285714],[-24.0,-49.0],[-24.555555555555554,-48.55555555555555],[-26.0,-48.0],[-27.0,-47.33333333333333],[-27.571428571428573,-46.57142857142858],[-28.142857142857142,-46.142857142857146],[-28.5,-45.0],[-28.0,-44.0],[-27.0,-43.5],[-25.0,-43.5],[-24.000000000000004,-43.2],[-21.0,-43.42857142857143],[-18.5,-44.0]],[[-5.0,-55.0],[-5.0,-54.0],[-6.0,-54.0],[-6.0,-55.0],[-5.0,-55.0]],[[-2.8000000000000003,-54.0],[-3.0,-53.83333333333333],[-3.5,-54.0],[-3.0000000000000004,-54.2],[-2.8000000000000003,-54.0]]],[[[41.607142857142854,-54.0],[41.55555555555555,-53.444444444444436],[40.8421052631579,-53.0],[42.13333333333333,-53.0],[42.916666666666664,-54.0],[42.0,-54.14473684210526],[41.607142857142854,-54.0]]],[[[54.0,-48.95652173913044],[54.0,-49.04347826086956],[52.943396226415096,-49.0],[53.0,-48.785714285714285],[54.0,-48.95652173913044]]],[[[-20.400000000000002,-86.60000000000001],[-18.25,-86.75],[-17.0,-87.0],[-16.0,-87.0],[-14.0,-88.0],[-13.636363636363637,-88.63636363636363],[-13.153846153846153,-89.15384615384616],[-12.0,-89.6],[-11.333333333333332,-90.0],[-180.0,-90.0],[-180.0,-4.6],[-179.8,-4.0],[-180.0,-1.0],[-180.0,2.0],[-179.75,6.0],[-180.0,6.800000000000001],[-180.0,32.333333333333336],[-179.55555555555554,32.55555555555555],[-179.0,32.6],[-177.75,32.25],[-177.0,32.0],[-175.0,31.0],[-174.0909090909091,30.90909090909091],[-173.66666666666669,30.666666666666668],[-173.33333333333334,30.666666666666668],[-173.0,30.0],[-172.12121212121212,29.87878787878788],[-172.0,29.66666666666667],[-171.0,29.200000000000003],[-169.0,28.75],[-168.4,28.0],[-168.33333333333334,27.666666666666668],[-167.69230769230768,27.307692307692307],[-166.89473684210526,27.10526315789474],[-166.44444444444446,26.555555555555554],[-164.85714285714286,26.142857142857146],[-162.86666666666667,25.133333333333333],[-162.16666666666666,24.0],[-162.4,23.400000000000002],[-163.0,23.0],[-165.0,23.375],[-166.26086956521738,23.73913043478261],[-167.0,24.5],[-168.60000000000002,25.400000000000002],[-169.0,25.5],[-169.4,25.400000000000002],[-170.0,25.0],[-170.4,25.6],[-171.0,26.0],[-172.0,26.0],[-173.0,27.0],[-174.0,27.0],[-174.0,26.0],[-173.28571428571428,25.714285714285715],[-173.0,25.0],[-172.0,25.0],[-171.66666666666666,24.0],[-171.30769230769232,23.692307692307693],[-170.0,23.0],[-169.5,22.5],[-168.5,22.0],[-167.0,20.0],[-165.8095238095238,19.19047619047619],[-165.5,18.5],[-165.0,18.0],[-164.63636363636363,17.363636363636363],[-163.9047619047619,17.095238095238095],[-163.5,16.5],[-162.90476190476193,16.095238095238095],[-162.57142857142858,15.428571428571429],[-162.0,15.0],[-161.375,13.625],[-160.77777777777777,13.222222222222221],[-160.4,11.0],[-159.89473684210526,10.105263157894736],[-160.33333333333334,9.0],[-160.16666666666669,8.0],[-159.71428571428572,7.285714285714286],[-159.33333333333334,5.666666666666667],[-159.0,5.0],[-158.85714285714286,4.142857142857142],[-158.4,3.0],[-158.13333333333333,1.8666666666666667],[-157.33333333333334,0.0],[-157.33333333333334,-3.0],[-156.8,-4.0],[-156.71428571428572,-4.7142857142857135],[-156.0,-6.0],[-156.0,-10.0],[-155.0,-10.0],[-155.0,-11.0],[-155.4,-11.600000000000001],[-156.28571428571428,-13.714285714285714],[-156.5,-15.0],[-156.33333333333334,-15.333333333333334],[-156.25,-16.0],[-156.25,-18.0],[-155.6,-21.0],[-155.3,-21.3],[-155.25,-22.75],[-155.66666666666669,-23.0],[-156.0,-24.0],[-160.0,-26.0],[-158.44444444444443,-27.444444444444443],[-158.0,-27.666666666666664],[-157.66666666666669,-27.666666666666668],[-156.0,-27.5],[-155.0,-27.0],[-153.0,-25.0],[-152.0,-25.0],[-151.4,-24.6],[-150.60000000000002,-24.400000000000002],[-150.0,-24.333333333333332],[-149.0,-25.0],[-148.0,-24.799999999999997],[-147.36363636363637,-25.363636363636363],[-146.66666666666669,-25.66666666666667],[-145.76470588235293,-25.764705882352942],[-145.0,-26.0],[-144.5,-26.5],[-143.84615384615384,-26.846153846153847],[-143.42857142857144,-27.42857142857143],[-142.0,-28.333333333333336],[-141.22222222222223,-29.22222222222222],[-140.0,-30.0],[-139.33333333333334,-32.0],[-139.33333333333334,-32.333333333333336],[-139.0,-33.0],[-139.33333333333334,-33.66666666666667],[-139.79999999999998,-36.0],[-140.0,-36.5],[-140.4,-36.6],[-141.0,-37.0],[-142.0,-38.0],[-143.0,-38.0],[-143.0,-39.0],[-143.5,-39.5],[-143.75,-40.0],[-143.4,-41.0],[-142.5,-42.5],[-142.0,-43.0],[-141.1818181818182,-43.18181818181818],[-138.91666666666669,-42.91666666666667],[-138.35714285714286,-43.35714285714286],[-137.0,-43.599999999999994],[-136.0,-44.42857142857143],[-133.9047619047619,-44.904761904761905],[-133.0,-45.800000000000004],[-130.5,-46.5],[-129.0,-46.6],[-128.0,-47.0],[-127.53846153846155,-47.53846153846154],[-127.4,-48.0],[-128.0,-49.0],[-128.60000000000002,-49.400000000000006],[-129.0,-50.0],[-129.63636363636363,-50.36363636363636],[-130.0,-51.0],[-130.66666666666669,-51.333333333333336],[-131.16666666666666,-51.83333333333333],[-132.44444444444443,-53.55555555555555],[-132.57142857142858,-54.0],[-133.43478260869566,-54.565217391304344],[-133.8125,-55.1875],[-135.0,-55.285714285714285],[-136.25,-55.75],[-138.0,-56.83333333333333],[-138.57894736842104,-57.421052631578945],[-139.5,-58.0],[-139.66666666666669,-58.33333333333334],[-141.0,-59.0],[-142.0,-59.0],[-142.55555555555554,-59.44444444444444],[-144.0,-60.0],[-146.0,-60.0],[-146.0,-61.0],[-144.0,-61.0],[-143.33333333333334,-61.33333333333334],[-142.28571428571428,-61.28571428571428],[-141.8,-61.2],[-141.0,-60.66666666666667],[-140.0,-60.5],[-139.0,-60.5],[-138.66666666666669,-60.333333333333336],[-137.0,-60.0],[-136.0,-59.5],[-134.66666666666669,-59.66666666666667],[-134.0,-60.0],[-133.5,-60.5],[-133.5,-61.0],[-133.0,-62.0],[-132.28571428571428,-62.285714285714285],[-131.5,-63.0],[-130.0,-64.0],[-129.0,-65.5],[-128.60000000000002,-65.60000000000001],[-128.5,-66.5],[-129.0,-67.0],[-127.0,-67.0],[-127.0,-66.0],[-128.0,-65.0],[-127.0,-64.66666666666666],[-126.66666666666667,-64.66666666666667],[-126.0,-65.0],[-125.60000000000001,-64.4],[-125.0,-64.0],[-124.0,-63.0],[-122.0,-63.0],[-120.0,-61.0],[-119.60000000000001,-60.400000000000006],[-119.5,-60.0],[-119.60000000000001,-59.6],[-120.0,-59.0],[-120.0,-58.0],[-116.80000000000001,-57.8],[-116.0,-58.0],[-115.2,-57.8],[-113.35294117647058,-57.647058823529406],[-112.0,-57.714285714285715],[-111.76470588235294,-57.76470588235294],[-111.5,-58.0],[-111.36363636363636,-58.36363636363636],[-110.77777777777777,-58.77777777777778],[-108.89473684210526,-58.89473684210527],[-108.55555555555556,-59.55555555555555],[-108.0,-60.0],[-107.23529411764706,-59.76470588235294],[-106.33333333333334,-60.00000000000001],[-106.0,-61.0],[-104.0,-61.0],[-103.0,-60.75],[-102.5,-60.5],[-102.0,-60.0],[-101.00000000000001,-60.2],[-100.0,-60.57142857142857],[-98.0,-60.833333333333336],[-97.0,-60.66666666666667],[-96.76470588235294,-60.76470588235294],[-96.42857142857143,-61.42857142857143],[-96.0,-61.75],[-94.75,-61.75],[-94.0,-62.0],[-93.44444444444443,-62.444444444444436],[-91.0,-62.83333333333333],[-90.42105263157893,-63.421052631578945],[-90.0,-63.57142857142857],[-89.0,-63.8],[-87.75,-63.75],[-86.33333333333334,-64.33333333333334],[-85.0,-64.5],[-82.875,-65.875],[-82.71428571428571,-66.28571428571428],[-82.71428571428571,-66.71428571428571],[-82.0,-67.0],[-82.66666666666667,-67.33333333333334],[-82.83333333333333,-68.16666666666666],[-83.0,-68.33333333333333],[-84.0,-68.33333333333333],[-84.5,-68.5],[-85.0,-69.0],[-85.0,-70.0],[-84.66666666666667,-71.0],[-84.66666666666667,-71.33333333333334],[-85.0,-72.0],[-84.60000000000001,-72.6],[-84.4,-73.4],[-84.0,-74.0],[-84.0,-75.0],[-83.0,-75.0],[-83.0,-76.0],[-82.0,-77.0],[-82.4,-77.6],[-82.5,-78.0],[-82.4,-78.4],[-81.60000000000001,-78.60000000000001],[-81.0,-79.0],[-80.0,-79.0],[-79.4,-79.4],[-77.6,-79.6],[-77.0,-80.0],[-76.60000000000001,-79.4],[-76.5,-79.0],[-75.5,-78.0],[-75.18181818181819,-77.81818181818181],[-74.0,-77.6],[-72.0,-78.33333333333334],[-71.0,-79.33333333333334],[-69.66666666666667,-80.0],[-69.0,-81.0],[-68.5,-81.5],[-67.77777777777777,-81.77777777777777],[-67.0,-81.83333333333334],[-66.0,-82.25],[-65.0,-82.14285714285715],[-61.61904761904761,-82.61904761904762],[-60.800000000000004,-82.8],[-60.0,-83.16666666666667],[-58.8,-83.19999999999999],[-58.0,-83.0],[-57.0,-83.0],[-56.400000000000006,-83.4],[-56.0,-84.0],[-55.0,-84.16666666666667],[-54.0,-84.0],[-53.0,-84.0],[-52.0,-84.2],[-51.2,-83.8],[-48.71428571428571,-83.71428571428571],[-47.80952380952381,-83.80952380952381],[-47.0,-84.2],[-45.0,-84.55555555555554],[-41.68421052631579,-84.68421052631578],[-40.0,-85.0],[-38.0,-84.72727272727272],[-36.0,-84.8888888888889],[-35.5,-85.0],[-35.0,-85.5],[-33.0,-85.5],[-32.0,-86.0],[-25.0,-86.0],[-25.0,-85.0],[-24.0,-84.875],[-23.5,-85.0],[-23.5,-85.5],[-24.0,-86.0],[-23.0,-86.0],[-23.0,-87.0],[-21.0,-87.0],[-20.400000000000002,-86.60000000000001]],[[-175.33333333333334,-1.0],[-175.0,-2.0],[-174.0,-2.0],[-173.0,-2.3333333333333335],[-172.0,-2.3333333333333335],[-171.0,-2.0],[-171.0,-1.0],[-170.0,-1.0],[-169.6,-0.4],[-169.5,0.0],[-169.6,0.4],[-170.0,1.0],[-171.0,1.0],[-171.0,3.0],[-171.40000000000003,3.6000000000000005],[-171.5,4.0],[-171.5,4.5],[-171.0,5.0],[-172.0,5.0],[-172.0,8.0],[-173.0,8.0],[-173.0,6.0],[-174.0,6.0],[-174.0,5.0],[-174.36363636363637,4.363636363636363],[-174.33333333333334,3.0],[-175.0,2.0],[-175.0,1.0],[-175.33333333333334,0.0],[-175.33333333333334,-1.0]],[[-164.0,-26.0],[-165.0,-25.0],[-166.0,-25.0],[-165.5,-25.5],[-165.5,-26.0],[-165.0,-26.5],[-164.5,-26.5],[-164.0,-27.0],[-163.0,-27.0],[-162.6,-26.400000000000002],[-162.5,-26.0],[-163.0,-25.5],[-163.4,-25.6],[-164.0,-26.0]]],[[[-69.5,-7.0],[-68.71428571428571,-7.7142857142857135],[-68.44444444444444,-8.444444444444445],[-68.0,-9.0],[-67.75,-9.75],[-67.5,-10.0],[-67.4,-10.4],[-67.0,-11.0],[-67.0,-12.0],[-67.25,-12.75],[-67.0,-14.0],[-67.0,-16.0],[-67.33333333333334,-17.0],[-67.33333333333334,-19.0],[-67.5,-20.0],[-67.33333333333334,-21.0],[-68.0,-23.0],[-67.44444444444444,-23.444444444444443],[-66.0,-23.6],[-65.0,-23.200000000000003],[-64.0,-23.0],[-63.44444444444444,-23.444444444444443],[-62.0,-23.875],[-60.0,-24.0],[-59.0,-24.4],[-58.0,-24.25],[-57.0,-24.666666666666664],[-56.0,-24.5],[-55.333333333333336,-25.0],[-54.66666666666667,-26.0],[-54.8,-27.0],[-54.647058823529406,-29.64705882352941],[-54.72727272727273,-30.272727272727273],[-55.0,-31.0],[-55.60000000000001,-31.400000000000002],[-55.904761904761905,-32.095238095238095],[-56.5,-32.5],[-56.88888888888889,-33.111111111111114],[-57.421052631578945,-33.578947368421055],[-57.72727272727272,-34.272727272727266],[-58.38095238095238,-34.61904761904762],[-58.71428571428571,-35.285714285714285],[-59.375,-35.625],[-60.470588235294116,-36.529411764705884],[-60.882352941176464,-37.11764705882353],[-62.0,-37.33333333333333],[-62.444444444444436,-37.55555555555555],[-62.888888888888886,-38.111111111111114],[-64.5,-38.5],[-65.88235294117648,-39.11764705882353],[-68.27272727272727,-39.272727272727266],[-70.0,-39.111111111111114],[-73.0,-39.22222222222222],[-76.08695652173913,-39.08695652173913],[-76.5,-39.0],[-77.0,-38.5],[-77.4,-38.6],[-78.0,-39.0],[-78.5,-38.5],[-79.18181818181819,-38.18181818181818],[-80.0,-38.0],[-81.44444444444444,-37.44444444444444],[-83.0,-37.125],[-83.52380952380952,-36.52380952380952],[-85.0,-36.0],[-85.0,-35.0],[-86.0,-35.0],[-86.28571428571428,-33.714285714285715],[-86.0,-33.0],[-85.0,-32.0],[-85.60000000000001,-31.6],[-86.0,-31.0],[-87.0,-31.0],[-87.0,-30.0],[-88.0,-29.0],[-87.71428571428572,-28.285714285714285],[-87.77777777777777,-27.77777777777778],[-88.0,-27.0],[-88.4,-26.400000000000002],[-88.5,-26.0],[-90.0,-25.0],[-92.0,-25.0],[-92.6,-26.400000000000002],[-93.0,-27.0],[-93.4,-26.400000000000002],[-93.5,-26.0],[-94.0,-25.5],[-94.4,-25.6],[-95.0,-26.0],[-95.33333333333333,-25.0],[-96.0,-24.0],[-97.00000000000001,-23.800000000000004],[-98.0,-23.25],[-99.0,-23.11111111111111],[-99.53846153846155,-22.53846153846154],[-101.09523809523809,-22.095238095238095],[-101.6470588235294,-21.647058823529413],[-102.31578947368419,-21.31578947368421],[-104.57142857142858,-19.571428571428573],[-105.25,-19.25],[-105.6923076923077,-18.692307692307693],[-107.19047619047619,-18.19047619047619],[-107.52941176470588,-17.52941176470588],[-108.16666666666666,-17.0],[-108.42857142857142,-14.0],[-108.57894736842104,-13.578947368421051],[-109.125,-13.0],[-109.23529411764706,-11.764705882352942],[-109.0,-11.0],[-109.55555555555554,-9.555555555555555],[-110.0,-9.333333333333334],[-110.16666666666667,-9.0],[-109.71428571428571,-8.714285714285714],[-109.28571428571428,-8.714285714285714],[-109.0,-8.0],[-107.27272727272727,-6.727272727272727],[-105.0,-6.75],[-104.3,-7.300000000000001],[-102.80952380952381,-7.809523809523809],[-101.66666666666667,-8.666666666666668],[-100.75,-9.0],[-99.55555555555556,-10.555555555555554],[-99.0,-11.0],[-96.30769230769232,-12.307692307692308],[-96.0,-12.399999999999999],[-94.0,-12.333333333333332],[-93.0,-12.666666666666666],[-92.0,-12.666666666666666],[-91.0,-12.5],[-89.0,-12.5],[-87.36363636363637,-11.636363636363637],[-86.22222222222223,-10.777777777777779],[-85.0,-10.5],[-83.71428571428571,-9.285714285714285],[-83.0,-9.0],[-82.0,-9.0],[-81.4,-8.600000000000001],[-81.0,-8.666666666666668],[-80.5,-8.5],[-80.0,-8.0],[-79.0,-8.0],[-78.28571428571428,-7.7142857142857135],[-78.0,-7.0],[-77.23529411764706,-6.764705882352941],[-76.60000000000001,-6.4],[-76.1,-5.9],[-74.6923076923077,-5.307692307692308],[-73.44444444444444,-4.555555555555555],[-73.0,-4.0],[-72.4,-4.4],[-71.0,-4.75],[-70.5,-5.0],[-70.4,-5.4],[-69.6,-6.6000000000000005],[-69.5,-7.0]]],[[[2.0,-0.7368421052631579],[2.1149425287356323,-0.8850574712643677],[3.909090909090909,-1.0909090909090908],[5.2368421052631575,-1.763157894736842],[9.8125,-2.1875],[10.600000000000001,-2.4],[11.0,-2.75],[16.272727272727273,-2.727272727272727],[17.5,-3.0],[17.333333333333332,-4.0],[17.153846153846153,-4.153846153846153],[15.777777777777779,-4.777777777777778],[15.266666666666666,-5.266666666666667],[14.0,-6.0],[13.600000000000001,-6.6000000000000005],[13.0,-7.0],[12.636363636363637,-7.636363636363637],[12.117647058823529,-8.117647058823529],[10.826086956521738,-8.826086956521738],[10.0,-9.57142857142857],[9.647058823529411,-9.647058823529411],[9.0,-10.125],[8.5,-10.0],[8.0,-9.0],[8.0,-8.0],[8.166666666666668,-7.0],[7.444444444444444,-6.555555555555555],[7.25,-6.0],[7.0,-5.866666666666667],[5.0,-5.5],[3.0,-5.357142857142857],[1.4705882352941175,-5.470588235294118],[-1.0,-6.833333333333334],[-1.5454545454545454,-7.454545454545455],[-2.0,-7.714285714285714],[-3.0,-8.0],[-4.0,-9.0],[-5.25,-9.75],[-7.333333333333334,-10.666666666666668],[-9.0,-11.2],[-11.2,-11.2],[-12.461538461538462,-10.461538461538463],[-13.26086956521739,-10.26086956521739],[-13.8,-9.8],[-16.0,-9.0],[-17.0,-8.285714285714285],[-17.666666666666668,-8.0],[-17.8,-7.000000000000001],[-17.444444444444443,-6.555555555555555],[-16.266666666666666,-5.7333333333333325],[-13.866666666666667,-5.133333333333334],[-13.0,-5.111111111111112],[-10.555555555555554,-4.444444444444445],[-10.0,-4.0],[-9.266666666666666,-3.7333333333333334],[-9.0,-3.454545454545454],[-7.833333333333334,-3.0],[-7.416666666666666,-2.5833333333333335],[-7.0,-2.375],[-6.0,-2.25],[-5.625,-2.0],[-5.384615384615384,-1.6153846153846154],[-5.0,-1.4444444444444444],[-3.0,-0.7272727272727273],[-1.0,-0.36363636363636365],[0.0,-0.5],[1.0,-0.36363636363636365],[2.0,-0.7368421052631579]]],[[[27.0,1.6349206349206349],[26.67142857142857,2.0],[27.0,2.4893617021276597],[27.33093525179856,2.330935251798561],[27.479166666666668,2.0],[27.0,1.6349206349206349]]],[[[34.0,4.797101449275362],[33.611111111111114,5.0],[34.0,5.5600000000000005],[34.266666666666666,5.266666666666667],[34.325581395348834,5.0],[34.0,4.797101449275362]]],[[[64.91428571428571,7.085714285714286],[65.0,7.75],[65.25,7.25],[65.61538461538461,7.384615384615383],[66.0,7.294117647058823],[66.18518518518518,7.0],[66.0,6.777777777777778],[65.0,6.931818181818182],[64.91428571428571,7.085714285714286]]],[[[44.0,9.183673469387756],[44.69230769230769,9.0],[44.07692307692308,8.0],[43.66666666666667,8.0],[43.266666666666666,8.266666666666666],[43.1,9.0],[44.0,9.183673469387756]]],[[[54.8,10.0],[55.0,10.266666666666667],[55.521126760563384,10.47887323943662],[56.0,10.566666666666666],[56.80952380952381,10.0],[56.73913043478261,9.26086956521739],[56.25,9.0],[55.9375,9.0],[54.8,10.0]]],[[[-6.6000000000000005,-89.0],[-6.636363636363637,-88.63636363636363],[-7.0,-88.0],[-6.6000000000000005,-87.4],[-6.0,-87.0],[-5.0,-87.0],[-3.0,-86.6],[-2.0,-86.0],[0.0,-85.875],[1.0,-86.0],[2.0,-86.4],[3.0,-86.16666666666667],[4.0,-86.33333333333334],[4.894736842105264,-85.89473684210526],[6.0,-85.77777777777777],[8.0,-85.8],[9.0,-86.2],[10.0,-85.9],[11.0,-86.28571428571428],[12.932203389830509,-85.9322033898305],[15.962962962962964,-85.96296296296296],[17.0,-85.83333333333334],[20.0,-86.0],[20.0,-87.0],[23.0,-87.0],[23.733333333333334,-86.73333333333333],[25.0,-86.66666666666667],[26.0,-86.4],[26.266666666666666,-86.26666666666667],[26.4,-86.0],[27.0,-85.66666666666666],[30.133333333333333,-85.86666666666667],[33.0,-86.42857142857142],[35.0,-85.88888888888889],[36.0,-86.2],[37.0,-86.25],[39.0,-86.66666666666667],[41.0,-86.66666666666667],[42.0,-86.5],[45.0,-86.5],[46.0,-86.625],[49.0,-86.66666666666667],[50.0,-86.57142857142857],[51.75,-86.75],[54.0,-86.625],[55.0,-86.83333333333333],[55.78947368421052,-86.78947368421052],[59.0,-86.2],[60.0,-85.75],[61.0,-86.0],[62.0,-85.875],[63.0,-86.0],[64.8,-85.80000000000001],[66.125,-85.875],[69.0,-85.7],[71.0,-85.42857142857142],[72.0,-85.6],[73.0,-85.0],[76.0,-85.5],[78.0,-85.5],[79.0,-85.66666666666666],[81.0,-85.0],[82.0,-85.0],[83.0,-85.16666666666667],[84.73913043478261,-84.73913043478261],[86.0,-84.63636363636364],[88.0,-84.72727272727272],[89.0,-85.16666666666667],[91.0,-85.33333333333334],[93.92307692307692,-84.92307692307692],[96.23529411764707,-84.76470588235294],[96.84615384615384,-84.84615384615384],[98.0,-84.5],[99.0,-84.71428571428572],[101.0,-84.75],[102.63636363636364,-84.63636363636363],[103.0,-84.5],[104.0,-84.6],[105.0,-84.0],[107.0,-83.77777777777777],[108.0,-83.83333333333333],[109.0,-83.5],[110.0,-83.4],[110.66666666666667,-83.0],[111.22222222222223,-82.22222222222223],[111.33333333333334,-82.0],[111.33333333333334,-81.0],[110.80000000000001,-80.0],[109.89999999999999,-79.1],[109.625,-78.0],[110.16666666666667,-77.0],[110.0,-76.0],[110.0,-75.0],[111.25,-74.25],[111.77777777777777,-73.77777777777777],[113.0,-73.33333333333334],[113.33333333333334,-73.33333333333334],[114.0,-73.0],[114.5,-72.0],[114.19999999999999,-71.8],[113.0,-71.5],[112.0,-71.0],[112.72727272727272,-70.72727272727272],[113.35294117647058,-70.6470588235294],[117.0,-70.4],[117.26666666666667,-70.26666666666667],[117.4,-70.0],[118.0,-69.7],[118.6,-70.0],[118.73333333333332,-70.26666666666667],[119.0,-70.4],[120.2,-70.2],[120.9047619047619,-69.9047619047619],[124.63636363636363,-69.63636363636364],[125.0,-69.33333333333334],[126.00000000000001,-69.33333333333334],[128.0,-70.0],[129.4,-70.60000000000001],[130.0,-71.0],[131.0,-71.0],[131.4,-71.60000000000001],[133.0,-72.5],[134.0,-73.5],[135.0,-73.5],[136.0,-74.5],[137.0,-74.5],[139.28571428571428,-75.71428571428571],[141.0,-76.33333333333334],[142.0,-77.0],[143.0,-77.0],[143.60000000000002,-77.4],[144.0,-78.0],[145.28571428571428,-78.71428571428571],[146.5,-80.0],[146.66666666666669,-80.33333333333334],[147.25,-80.75],[148.0,-81.0],[149.0,-82.0],[150.0,-82.0],[151.0,-82.5],[152.4,-82.6],[153.0,-83.0],[153.4,-83.6],[153.5,-84.0],[154.0,-84.5],[154.4,-84.60000000000001],[155.0,-85.0],[157.0,-85.0],[158.00000000000003,-85.16666666666667],[159.0,-84.75],[160.0,-84.66666666666667],[161.30769230769232,-84.3076923076923],[163.22222222222223,-83.22222222222223],[164.22222222222223,-82.22222222222223],[165.0,-81.0],[165.0,-79.0],[161.0,-79.0],[160.0,-78.0],[158.0,-78.0],[157.0,-79.0],[156.4,-79.4],[156.0,-79.5],[155.60000000000002,-79.4],[155.0,-79.0],[154.60000000000002,-78.4],[154.0,-78.0],[153.5,-77.0],[153.0,-76.75],[152.0,-76.66666666666667],[150.77777777777777,-76.22222222222223],[150.0,-75.66666666666667],[149.0,-75.5],[148.0,-75.0],[147.6,-74.4],[147.0,-74.0],[146.0,-73.66666666666667],[144.0,-72.33333333333334],[143.0,-72.0],[142.55555555555554,-71.44444444444444],[141.0,-70.33333333333333],[137.0,-69.25],[136.0,-68.75],[134.63636363636363,-68.36363636363636],[134.0,-68.0],[133.0,-67.0],[132.0,-66.5],[131.16666666666666,-65.83333333333334],[130.4,-65.60000000000001],[130.0,-65.33333333333333],[129.0,-65.25],[128.875,-65.125],[128.0,-65.0],[127.69230769230771,-64.3076923076923],[126.92592592592592,-64.07407407407408],[126.66666666666667,-63.333333333333336],[126.0,-63.0],[125.73333333333335,-62.266666666666666],[125.0,-61.33333333333333],[123.0,-60.0],[122.375,-58.625],[121.88235294117646,-58.11764705882353],[121.25,-54.0],[120.75,-53.0],[120.66666666666666,-52.0],[120.25,-51.0],[120.33333333333334,-49.0],[120.0,-48.0],[120.28571428571428,-47.285714285714285],[120.7142857142857,-46.71428571428571],[121.44444444444444,-46.44444444444444],[122.0,-46.0],[123.0,-46.0],[123.60000000000001,-45.6],[124.0,-45.0],[126.0,-45.0],[126.4,-44.400000000000006],[127.0,-44.0],[128.0,-44.0],[129.0,-43.66666666666667],[130.0,-43.0],[130.71428571428572,-42.71428571428571],[132.0,-42.5],[134.0,-41.5],[135.0,-42.0],[136.0,-41.66666666666667],[136.33333333333334,-41.66666666666667],[137.0,-42.0],[137.4,-41.400000000000006],[139.0,-40.5],[139.4,-40.6],[140.0,-41.0],[141.0,-41.0],[141.0,-38.0],[141.5,-37.0],[141.33333333333334,-36.66666666666667],[141.0,-36.5],[140.5,-36.5],[140.0,-36.0],[140.4,-35.400000000000006],[140.5,-35.0],[140.4,-34.6],[140.0,-34.0],[139.8,-33.2],[139.83333333333334,-32.0],[140.28571428571428,-31.714285714285715],[140.7142857142857,-31.714285714285715],[140.875,-30.0],[141.0,-29.799999999999997],[141.33333333333334,-29.666666666666668],[142.0,-30.0],[141.66666666666669,-29.333333333333336],[141.8,-29.0],[141.875,-27.875],[142.4,-27.6],[143.0,-28.0],[142.6,-27.4],[142.75,-27.0],[143.0,-26.666666666666668],[143.5,-26.5],[144.0,-25.5],[144.4,-25.400000000000002],[144.5,-25.0],[145.0,-24.5],[145.4,-24.400000000000002],[145.5,-24.0],[146.5,-23.5],[146.60000000000002,-23.0],[146.78947368421052,-22.789473684210527],[147.36363636363637,-22.636363636363637],[150.0,-22.833333333333336],[151.0,-23.0],[152.0,-23.5],[153.0,-23.666666666666668],[154.36363636363637,-23.363636363636363],[155.60000000000002,-22.6],[156.30769230769232,-22.307692307692307],[157.5,-21.0],[158.55555555555554,-20.555555555555554],[159.0,-20.0],[160.0,-20.0],[160.66666666666669,-19.666666666666668],[161.0,-19.0],[162.0,-19.0],[162.6,-18.6],[163.0,-18.0],[165.0,-18.0],[165.0,-17.0],[167.0,-17.0],[167.6,-16.6],[168.33333333333334,-16.333333333333336],[168.5,-16.0],[169.4,-15.600000000000001],[170.0,-16.0],[169.6,-15.4],[169.75,-15.0],[170.28571428571428,-14.714285714285712],[170.7142857142857,-14.714285714285712],[171.28571428571428,-14.285714285714285],[172.0,-13.0],[173.0,-13.0],[172.71428571428572,-12.285714285714285],[172.8,-12.0],[172.71428571428572,-11.285714285714285],[172.5,-11.0],[172.75,-10.75],[172.8888888888889,-9.88888888888889],[173.77777777777777,-9.777777777777779],[174.5,-9.5],[175.0,-9.0],[176.0,-9.0],[176.60000000000002,-8.600000000000001],[177.0,-8.5],[177.5,-8.5],[177.5,-9.0],[177.7142857142857,-9.285714285714285],[178.0,-9.333333333333334],[178.5,-9.0],[178.60000000000002,-8.600000000000001],[179.0,-8.666666666666668],[179.39999999999998,-8.0],[179.3478260869565,-7.6521739130434785],[179.0,-7.0],[179.54545454545456,-6.545454545454546],[180.0,-4.6],[180.0,-90.0],[-7.25,-90.0],[-6.6923076923076925,-89.30769230769232],[-6.6000000000000005,-89.0]],[[40.7,-88.0],[41.0,-88.25],[41.3,-88.0],[41.3,-87.7],[41.0,-87.4],[40.7,-87.7],[40.7,-88.0]],[[141.60000000000002,-50.0],[141.74193548387098,-50.25806451612903],[142.0,-50.400000000000006],[142.25806451612902,-50.25806451612903],[142.4,-50.0],[142.26666666666665,-49.733333333333334],[142.0,-49.6],[141.73333333333335,-49.733333333333334],[141.60000000000002,-50.0]]],[[[141.0,-38.0],[140.4,-38.4],[139.75,-38.25],[139.60000000000002,-37.6],[140.0,-37.0],[141.0,-38.0]]],[[[66.0,-36.09090909090909],[66.57692307692308,-36.42307692307692],[67.02702702702703,-36.972972972972975],[66.38461538461537,-37.38461538461538],[66.0,-37.45454545454545],[65.04761904761904,-36.99999999999999],[66.0,-36.09090909090909]]],[[[72.0,-25.766666666666666],[72.28,-26.0],[72.35,-27.0],[71.890625,-27.109375],[71.5,-27.0],[71.72,-26.0],[72.0,-25.766666666666666]]],[[[74.0,-12.918367346938775],[74.19444444444444,-14.0],[74.0,-14.142857142857144],[73.5,-14.0],[73.82608695652173,-13.0],[74.0,-12.918367346938775]]],[[[178.0,-7.5],[178.33333333333334,-7.666666666666668],[178.4,-8.4],[177.5,-8.5],[177.5,-8.0],[177.8181818181818,-7.818181818181818],[178.0,-7.5]]],[[[71.0,-0.33333333333333337],[70.98830409356725,0.011695906432748537],[71.52631578947368,-0.4736842105263158],[72.0,-0.42857142857142855],[72.375,-1.0],[72.0,-1.3243243243243243],[71.14285714285714,-1.0],[71.4,-0.6000000000000001],[71.0,-0.33333333333333337]]],[[[152.0,26.0],[152.5,25.5],[153.33333333333334,24.0],[153.5,23.0],[153.5,22.0],[153.33333333333334,21.0],[152.5,18.5],[152.0,17.666666666666668],[151.76470588235293,15.235294117647058],[151.5,14.5],[151.0,14.0],[150.82608695652175,13.17391304347826],[150.47058823529412,12.52941176470588],[150.0,12.200000000000001],[149.875,11.875],[149.875,11.125],[149.55555555555554,10.444444444444443],[149.0,10.0],[148.84615384615384,9.153846153846153],[148.5,9.0],[148.0,8.0],[148.0,7.0],[147.7142857142857,6.285714285714285],[147.0,6.0],[147.0,5.0],[146.5,4.0],[146.28571428571428,2.714285714285714],[146.0,2.0],[145.0,1.0],[144.66666666666669,0.33333333333333337],[144.0,0.0],[143.0,-1.0],[142.71428571428572,-1.7142857142857142],[142.1818181818182,-2.1818181818181817],[141.47058823529412,-2.4705882352941178],[140.0,-2.75],[139.5,-2.0],[139.5,-1.0],[139.33333333333334,0.0],[139.66666666666666,1.0],[139.84,1.16],[140.22222222222223,2.7777777777777777],[140.7142857142857,3.2857142857142856],[141.2,4.8],[142.0,5.5],[142.56521739130434,7.434782608695651],[143.37037037037035,8.62962962962963],[143.71428571428572,11.0],[144.28571428571428,11.714285714285714],[144.375,15.0],[144.625,18.0],[144.85714285714286,19.0],[144.66666666666666,20.0],[145.3,21.0],[144.9,22.900000000000002],[144.83333333333331,23.833333333333336],[145.0,25.5],[145.57142857142858,27.0],[146.0,29.0],[147.0,29.4],[148.42857142857144,29.42857142857143],[149.23529411764707,29.235294117647058],[150.25,28.0],[151.35294117647058,27.352941176470587],[151.77777777777777,26.77777777777778],[152.0,26.0]]],[[[179.0,9.0],[178.0,10.0],[177.5,9.5],[177.0,9.333333333333334],[176.5,10.0],[176.40000000000003,10.4],[175.66666666666669,11.0],[175.5,11.5],[174.5,12.0],[174.4,12.4],[173.0,12.666666666666666],[172.0,13.0],[171.5,14.0],[171.5,15.0],[171.60000000000002,15.4],[172.0,16.0],[171.40000000000003,16.400000000000002],[170.7142857142857,17.714285714285715],[170.5,20.0],[170.5,21.0],[170.66666666666669,22.0],[171.0,23.0],[171.47619047619045,23.523809523809522],[171.9375,25.0625],[172.68421052631578,25.31578947368421],[173.25,26.0],[176.13333333333333,27.866666666666667],[177.15384615384616,28.846153846153847],[178.0,30.0],[178.71428571428572,30.285714285714285],[179.6,31.400000000000002],[180.0,32.333333333333336],[180.0,27.0],[180.0,6.800000000000001],[179.36363636363637,8.0],[179.0,9.0]]],[[[146.6923076923077,41.30769230769231],[146.28571428571428,40.71428571428571],[146.0,40.57142857142857],[145.0,40.66666666666667],[144.0,41.0],[144.5,41.5],[144.66666666666666,42.0],[145.54545454545456,42.45454545454545],[147.0,43.57142857142857],[148.0,43.85714285714286],[148.48,43.48],[148.6,43.0],[148.4,42.6],[147.7142857142857,42.285714285714285],[147.4,41.6],[146.6923076923077,41.30769230769231]]],[[[105.6796875,90.0],[112.0,90.0],[131.3203125,90.0],[131.0,89.6796875],[106.0,89.6796875],[105.6796875,90.0]]]]}}]}