{"type":"FeatureCollection","features":[{"type":"Feature","properties":{"ageMa":450},"geometry":{"type":"MultiPolygon","coordinates":[[[[-86.80000000000001,-73.0],[-87.0,-73.5],[-87.5,-74.0],[-87.6,-74.4],[-88.0,-75.0],[-88.6,-75.4],[-91.0,-76.33333333333333],[-93.0,-76.66666666666667],[-94.0,-76.5],[-94.28571428571428,-76.71428571428572],[-96.0,-77.33333333333333],[-97.0,-77.25],[-97.66666666666669,-77.33333333333334],[-98.0,-77.5],[-98.5,-77.5],[-99.5,-76.5],[-101.0,-76.0],[-100.66666666666669,-75.33333333333334],[-100.66666666666667,-75.0],[-100.30769230769232,-74.6923076923077],[-99.0,-74.25],[-98.42105263157895,-73.57894736842105],[-97.0,-73.0],[-96.5,-72.5],[-94.66666666666667,-72.0],[-94.4,-71.60000000000001],[-93.77777777777777,-71.22222222222221],[-92.14285714285715,-71.14285714285714],[-91.75,-71.0],[-91.5,-70.5],[-90.5,-70.0],[-90.33333333333334,-69.66666666666667],[-89.75,-69.25],[-89.0,-69.0],[-89.0,-68.0],[-88.0,-68.0],[-86.66666666666667,-68.66666666666667],[-86.5,-69.0],[-86.5,-70.0],[-86.60000000000001,-70.4],[-87.0,-71.0],[-86.71428571428571,-71.71428571428571],[-86.80000000000001,-73.0]]],[[[-37.333333333333336,-46.0],[-37.0,-46.333333333333336],[-36.0,-46.0],[-35.08888888888889,-45.91111111111111],[-33.0,-45.913043478260875],[-31.0,-45.61904761904762],[-30.0,-45.666666666666664],[-29.5,-46.0],[-28.8,-47.0],[-29.352941176470587,-47.647058823529406],[-31.0,-48.421052631578945],[-32.390243902439025,-48.390243902439025],[-34.0,-47.599999999999994],[-34.36363636363636,-47.63636363636364],[-35.0,-48.0],[-35.53846153846154,-47.53846153846154],[-36.0,-47.400000000000006],[-37.0,-47.666666666666664],[-37.15384615384615,-47.84615384615384],[-39.511111111111106,-48.48888888888889],[-41.0,-48.6],[-43.0,-48.15384615384615],[-44.16666666666667,-48.16666666666667],[-45.0,-48.0],[-46.0,-47.599999999999994],[-47.0,-47.0],[-47.125,-46.0],[-46.0,-45.55555555555556],[-45.0,-45.57142857142857],[-44.0,-45.888888888888886],[-41.541666666666664,-45.45833333333333],[-40.0,-45.44],[-37.333333333333336,-46.0]]],[[[-1.9555555555555555,-43.955555555555556],[-0.3333333333333333,-44.0],[-0.7142857142857142,-44.285714285714285],[-2.0,-44.333333333333336],[-2.5789473684210527,-45.421052631578945],[-3.0869565217391304,-45.91304347826087],[-3.769230769230769,-46.230769230769226],[-4.75,-47.0],[-5.105263157894737,-47.10526315789474],[-6.0,-47.0],[-8.0,-48.0],[-10.0,-48.5],[-11.400000000000002,-48.400000000000006],[-12.0,-48.0],[-14.0,-48.0],[-16.0,-47.666666666666664],[-17.0,-47.25],[-19.0,-46.0],[-19.200000000000003,-45.2],[-19.0,-44.0],[-18.43478260869565,-43.565217391304344],[-17.714285714285715,-43.28571428571428],[-16.81818181818182,-43.18181818181818],[-16.31578947368421,-43.315789473684205],[-14.0,-43.285714285714285],[-12.0,-43.625],[-11.0,-43.57142857142857],[-9.0,-42.857142857142854],[-6.0,-42.42857142857143],[-5.25,-42.0],[-3.2,-42.2],[-3.0,-42.5],[-2.9393939393939394,-42.93939393939394],[-2.0,-43.75],[-1.9555555555555555,-43.955555555555556]]],[[[170.0,10.0],[170.2,9.2],[170.5,9.0],[170.60000000000002,8.600000000000001],[171.0,8.0],[172.0,8.0],[172.1818181818182,7.181818181818182],[172.8181818181818,7.181818181818182],[173.33333333333334,7.0],[173.55555555555554,6.555555555555555],[174.0,6.333333333333334],[174.07407407407408,6.0740740740740735],[174.33333333333334,6.0],[175.63636363636363,4.636363636363637],[176.36363636363637,3.3636363636363633],[177.0,3.142857142857143],[177.4,2.4],[178.28571428571428,2.0],[178.5,1.5],[179.0,1.1666666666666665],[180.0,1.526315789473684],[180.0,-90.0],[-180.0,-90.0],[-180.0,1.5263157894736843],[-179.57142857142856,2.0],[-179.1904761904762,2.1904761904761907],[-178.73913043478262,2.2608695652173916],[-178.14285714285717,2.0],[-178.46511627906975,1.4651162790697674],[-178.60000000000002,0.6000000000000001],[-178.875,0.0],[-179.0,-1.0],[-178.75,-2.0],[-178.66666666666669,-3.0],[-178.44444444444443,-3.444444444444444],[-178.0,-3.6666666666666665],[-176.85714285714286,-4.857142857142858],[-176.35294117647058,-6.352941176470588],[-176.0,-7.0],[-175.75,-8.0],[-174.0,-10.25],[-173.38095238095235,-11.38095238095238],[-172.71428571428572,-12.0],[-172.25,-13.0],[-172.0,-14.0],[-171.5,-15.0],[-170.7142857142857,-15.714285714285712],[-169.5,-17.5],[-169.0,-18.0],[-169.0,-20.0],[-168.0,-22.0],[-168.0,-23.0],[-167.0,-24.0],[-166.40000000000003,-24.400000000000002],[-166.0,-25.0],[-165.0,-25.0],[-165.0,-26.0],[-164.0,-27.0],[-163.0,-27.0],[-162.0,-28.0],[-161.0,-28.0],[-161.0,-29.0],[-159.0,-29.0],[-158.0,-30.0],[-157.0,-30.0],[-156.4,-30.400000000000002],[-155.0,-31.0],[-154.0,-31.0],[-153.0,-31.666666666666664],[-152.0,-31.75],[-151.16666666666666,-32.166666666666664],[-149.28571428571428,-32.285714285714285],[-148.0,-32.66666666666667],[-146.71428571428572,-32.71428571428571],[-144.0,-33.5],[-142.77777777777777,-33.22222222222222],[-142.5,-33.0],[-142.77777777777777,-32.77777777777778],[-143.0,-32.0],[-143.60000000000002,-31.6],[-144.0,-31.0],[-143.75,-30.0],[-142.89473684210526,-27.89473684210526],[-142.89473684210526,-27.10526315789474],[-142.4,-26.6],[-141.76470588235293,-26.235294117647058],[-140.33333333333334,-25.66666666666667],[-139.63636363636363,-25.636363636363637],[-139.0,-26.0],[-138.11764705882354,-26.11764705882353],[-137.5,-26.5],[-137.0,-27.25],[-136.57142857142858,-27.571428571428573],[-136.14285714285714,-28.142857142857142],[-136.14285714285714,-28.857142857142858],[-135.8181818181818,-29.81818181818182],[-135.75,-31.25],[-136.0,-32.0],[-136.4,-32.6],[-136.6,-33.4],[-137.0,-34.0],[-136.33333333333334,-34.333333333333336],[-136.0,-35.0],[-135.33333333333334,-34.66666666666667],[-135.0,-34.666666666666664],[-133.0,-35.25],[-132.625,-35.625],[-131.8,-36.0],[-131.0,-37.0],[-129.25,-37.25],[-127.66666666666666,-38.0],[-127.4,-39.0],[-127.33333333333334,-40.0],[-127.6,-40.4],[-128.33333333333334,-41.0],[-128.4,-41.400000000000006],[-128.0,-42.0],[-127.00000000000001,-42.2],[-126.0,-42.0],[-121.0,-42.0],[-118.55555555555554,-42.55555555555556],[-112.0,-43.0],[-111.00000000000001,-43.2],[-110.0,-43.0],[-109.0,-43.0],[-108.22222222222223,-43.22222222222222],[-106.0,-43.5],[-105.5,-44.0],[-105.0,-44.2],[-104.0,-44.0],[-103.0,-44.0],[-102.33333333333334,-44.333333333333336],[-101.0,-44.57142857142857],[-100.0,-45.0],[-99.42857142857143,-45.42857142857143],[-98.69230769230771,-45.69230769230769],[-98.0,-45.75],[-97.33333333333334,-46.0],[-96.55555555555554,-46.55555555555555],[-96.0,-46.625],[-95.0,-47.0],[-94.5,-47.5],[-94.0,-47.625],[-93.4,-48.0],[-93.28571428571428,-48.28571428571428],[-93.0,-48.5],[-91.33333333333334,-49.0],[-90.6923076923077,-49.69230769230769],[-90.0,-50.0],[-89.60000000000001,-50.60000000000001],[-89.5,-51.0],[-88.55555555555554,-51.55555555555556],[-88.5,-52.0],[-88.0,-52.666666666666664],[-87.66666666666667,-52.66666666666667],[-87.5,-53.0],[-87.19999999999999,-53.2],[-86.4,-53.400000000000006],[-86.0,-54.0],[-85.33333333333334,-54.333333333333336],[-85.0,-55.0],[-85.55555555555556,-56.44444444444444],[-86.0,-57.0],[-85.66666666666666,-58.0],[-85.71428571428571,-58.71428571428571],[-86.5,-62.0],[-86.6923076923077,-63.307692307692314],[-87.4,-64.6],[-88.0,-64.75],[-88.33333333333334,-65.0],[-89.4,-66.60000000000001],[-90.0,-67.0],[-91.0,-67.0],[-91.60000000000001,-67.4],[-92.0,-67.5],[-92.66666666666667,-68.33333333333334],[-93.28571428571428,-68.71428571428571],[-94.0,-69.0],[-95.0,-69.0],[-95.66666666666667,-69.33333333333334],[-96.0,-69.33333333333334],[-96.4,-69.6],[-97.0,-70.5],[-98.0,-70.66666666666667],[-99.0,-70.5],[-100.0,-71.66666666666667],[-102.0,-72.5],[-103.25,-72.75],[-103.75,-73.25],[-106.28571428571428,-73.71428571428571],[-107.0,-74.0],[-107.6,-74.4],[-108.0,-75.0],[-109.0,-75.25],[-109.5,-75.5],[-110.0,-76.0],[-111.0,-76.0],[-111.60000000000001,-76.4],[-112.0,-77.0],[-113.0,-77.0],[-114.0,-77.5],[-114.5,-77.5],[-115.0,-77.0],[-116.0,-77.0],[-116.0,-78.0],[-117.0,-78.0],[-117.0,-79.0],[-115.0,-79.0],[-114.60000000000001,-79.6],[-114.0,-80.0],[-113.0,-80.0],[-112.0,-80.33333333333334],[-111.66666666666667,-80.33333333333334],[-111.0,-80.0],[-110.4,-80.4],[-108.71428571428571,-80.71428571428572],[-108.0,-81.0],[-107.0,-81.0],[-106.0,-81.33333333333334],[-105.00000000000001,-81.33333333333334],[-104.0,-81.0],[-103.0,-81.33333333333334],[-102.00000000000001,-81.33333333333334],[-101.5,-81.5],[-101.0,-82.0],[-100.0,-82.0],[-99.00000000000001,-82.33333333333334],[-98.0,-81.80000000000001],[-97.0,-82.0],[-94.0,-82.0],[-93.0,-82.20000000000002],[-92.00000000000001,-82.20000000000002],[-91.0,-82.0],[-88.0,-82.0],[-87.6,-81.4],[-87.5,-81.0],[-87.0,-80.5],[-86.60000000000001,-80.60000000000001],[-86.0,-81.0],[-85.0,-81.0],[-85.0,-82.0],[-81.0,-82.0],[-81.0,-83.0],[-78.0,-83.0],[-78.0,-81.0],[-76.0,-81.0],[-75.0,-82.0],[-73.0,-82.0],[-73.0,-83.0],[-65.0,-83.0],[-65.0,-84.0],[-59.0,-84.0],[-58.400000000000006,-83.6],[-57.6,-83.4],[-57.0,-83.0],[-53.0,-83.0],[-52.22222222222222,-82.77777777777777],[-51.77777777777778,-82.77777777777777],[-50.0,-83.33333333333334],[-49.0,-83.0],[-47.81818181818182,-82.81818181818181],[-47.0,-83.0],[-45.0,-83.0],[-44.0,-83.25],[-43.18181818181818,-82.81818181818181],[-42.0,-82.75],[-41.0,-82.5],[-40.0,-82.8],[-39.0,-82.6],[-38.0,-82.83333333333334],[-36.875,-82.875],[-36.22222222222222,-83.22222222222223],[-34.0,-83.5],[-31.0,-83.5],[-30.0,-83.75],[-28.0,-83.66666666666667],[-27.0,-84.0],[-27.0,-85.0],[-26.0,-85.0],[-25.285714285714285,-85.28571428571428],[-24.0,-85.5],[-23.0,-85.33333333333334],[-18.6,-85.4],[-17.0,-85.25],[-13.8,-85.2],[-13.0,-85.0],[-11.0,-85.0],[-10.25,-85.25],[-7.0,-85.33333333333334],[-6.0,-85.0],[-2.0,-85.0],[-1.0,-85.33333333333334],[0.0,-85.0],[1.1538461538461537,-84.84615384615384],[2.0,-85.0],[3.0,-84.71428571428572],[4.7142857142857135,-85.28571428571428],[7.0,-85.5],[10.0,-85.33333333333334],[11.777777777777779,-84.77777777777777],[13.0,-84.66666666666667],[14.0,-85.0],[17.0,-85.0],[18.0,-84.5],[19.0,-84.66666666666667],[22.0,-84.66666666666667],[23.0,-84.5],[24.0,-84.5],[24.400000000000002,-84.60000000000001],[25.0,-85.0],[25.5,-84.5],[26.0,-84.33333333333334],[29.0,-84.5],[37.0,-84.16666666666667],[42.0,-84.16666666666667],[43.5,-83.5],[44.0,-83.0],[45.0,-83.0],[46.55555555555555,-82.55555555555554],[49.0,-82.20000000000002],[50.2,-82.19999999999999],[52.55555555555555,-81.55555555555556],[56.307692307692314,-81.3076923076923],[58.0,-81.0],[58.72727272727272,-80.72727272727272],[60.5,-80.5],[61.25,-80.0],[62.0,-79.0],[62.285714285714285,-78.28571428571428],[62.714285714285715,-77.71428571428571],[63.0,-77.66666666666667],[63.25,-77.25],[63.60000000000001,-75.60000000000001],[64.18181818181819,-75.18181818181819],[64.5,-74.5],[65.0,-74.0],[64.0,-71.0],[63.5,-70.5],[63.5,-70.0],[64.0,-69.0],[65.0,-68.5],[67.0,-68.5],[67.33333333333334,-68.66666666666667],[68.0,-69.5],[69.0,-69.0],[70.0,-69.0],[70.60000000000001,-68.60000000000001],[71.0,-68.0],[71.25,-67.0],[71.0,-66.0],[71.66666666666667,-65.0],[72.0,-64.0],[73.0,-64.0],[73.5,-63.5],[74.0,-62.0],[74.0,-60.0],[74.5,-58.0],[76.0,-57.0],[77.0,-56.66666666666667],[79.0,-56.333333333333336],[80.0,-56.599999999999994],[81.0,-56.42857142857143],[83.0,-56.42857142857143],[84.0,-56.714285714285715],[85.0,-56.66666666666667],[85.66666666666667,-57.00000000000001],[90.0,-57.875],[91.0,-57.857142857142854],[92.22222222222223,-58.22222222222222],[94.0,-58.333333333333336],[96.0,-59.0],[96.55555555555554,-59.44444444444444],[98.71428571428571,-60.28571428571428],[99.0,-60.5],[99.5,-60.5],[100.0,-61.0],[103.0,-61.0],[103.60000000000001,-61.400000000000006],[104.4,-61.6],[105.0,-62.0],[107.0,-62.0],[107.75,-61.75],[109.0,-62.0],[109.0,-63.0],[110.0,-63.0],[110.0,-62.0],[110.60000000000001,-61.6],[111.0,-61.0],[112.0,-62.0],[112.0,-63.0],[113.0,-63.0],[113.60000000000001,-62.6],[114.0,-62.5],[114.33333333333334,-62.66666666666667],[114.66666666666667,-63.333333333333336],[115.4,-63.60000000000001],[116.0,-64.0],[117.0,-64.0],[117.6,-64.4],[118.0,-64.5],[118.4,-64.4],[119.0,-64.0],[120.0,-64.0],[121.0,-65.0],[123.0,-65.0],[124.0,-64.0],[122.4,-63.60000000000001],[122.0,-63.0],[121.0,-63.0],[119.5,-62.5],[119.0,-62.0],[118.28571428571428,-61.71428571428571],[117.4,-61.6],[116.66666666666667,-61.33333333333334],[116.33333333333334,-60.66666666666667],[115.0,-60.0],[114.0,-59.0],[113.0,-59.0],[112.5,-58.0],[113.60000000000001,-57.6],[114.0,-57.0],[117.0,-55.0],[118.0,-55.0],[119.0,-54.66666666666667],[120.0,-54.0],[121.0,-54.0],[121.60000000000001,-52.6],[122.0,-52.0],[122.66666666666667,-51.66666666666667],[123.0,-51.0],[124.0,-50.333333333333336],[125.46153846153847,-48.46153846153847],[126.16666666666667,-47.16666666666667],[126.63636363636363,-45.63636363636364],[127.22222222222223,-45.22222222222222],[128.0,-45.0],[128.0,-44.0],[128.5,-43.5],[129.0,-43.5],[129.5,-43.0],[129.4,-42.6],[129.0,-42.0],[128.0,-43.0],[127.6,-42.4],[127.5,-42.0],[128.0,-41.0],[129.0,-41.0],[129.0,-40.0],[129.4,-39.400000000000006],[129.5,-39.0],[130.0,-38.5],[130.4,-38.4],[131.6,-37.6],[132.4,-37.4],[133.0,-37.0],[135.0,-37.0],[135.71428571428572,-35.71428571428571],[136.33333333333334,-35.333333333333336],[136.5,-35.0],[137.5,-34.5],[138.4,-33.4],[139.0,-32.0],[139.0,-31.0],[139.4,-30.400000000000002],[140.0,-29.0],[141.0,-28.0],[141.6,-27.6],[142.0,-27.0],[142.66666666666669,-26.666666666666668],[143.0,-26.0],[144.4,-25.400000000000002],[145.5,-24.5],[146.0,-23.0],[146.0,-22.0],[147.0,-22.0],[147.0,-16.0],[146.6,-15.4],[146.4,-14.600000000000001],[146.0,-14.0],[147.0,-13.0],[148.0,-13.0],[148.0,-15.0],[149.0,-15.0],[149.0,-24.0],[148.0,-24.0],[148.0,-27.0],[147.0,-27.0],[147.0,-29.0],[146.0,-29.0],[146.0,-30.0],[145.0,-30.0],[145.0,-32.0],[144.0,-32.0],[144.5,-32.5],[144.5,-33.0],[144.77777777777777,-33.22222222222222],[146.0,-33.0],[146.25,-32.25],[147.0,-32.0],[147.33333333333334,-31.333333333333336],[148.0,-31.0],[148.4,-30.400000000000002],[148.60000000000002,-29.6],[150.0,-29.0],[150.0,-28.0],[150.5,-27.0],[150.5,-26.0],[150.60000000000002,-25.6],[151.0,-25.0],[151.0,-24.0],[151.6,-22.6],[152.0,-22.0],[152.0,-21.0],[151.5,-20.5],[151.33333333333334,-20.0],[151.5,-19.5],[152.0,-19.0],[152.0,-18.0],[151.6,-17.4],[151.5,-17.0],[151.5,-16.0],[151.33333333333334,-15.666666666666668],[151.25,-15.0],[151.33333333333334,-14.0],[151.0,-13.0],[151.25,-12.0],[151.0,-11.5],[150.66666666666669,-11.333333333333334],[150.5,-11.0],[150.33333333333334,-10.0],[150.0,-9.0],[150.0,-8.0],[149.5,-7.5],[149.33333333333334,-7.0],[149.33333333333334,-5.0],[149.0,-4.0],[149.0,-2.0],[149.5,-1.0],[149.4,-0.6000000000000001],[149.0,0.0],[149.60000000000002,0.4],[150.0,0.5],[150.25,1.0],[150.33333333333334,2.0],[150.55555555555554,2.4444444444444446],[151.2,2.8],[151.5,3.5],[152.0,4.0],[152.55555555555554,5.444444444444444],[153.2,5.8],[153.33333333333334,6.0],[153.5,7.0],[153.71428571428572,7.285714285714286],[155.25,8.75],[156.0,9.0],[156.33333333333334,9.666666666666668],[157.0,10.0],[157.75,11.25],[159.28571428571428,11.714285714285714],[161.2,11.8],[162.0,12.333333333333334],[162.33333333333334,12.333333333333334],[163.0,12.0],[163.66666666666669,12.333333333333334],[168.0,12.5],[168.30769230769232,12.307692307692308],[168.66666666666669,12.0],[169.25,10.25],[170.0,10.0]],[[-30.0,-84.5],[-31.0,-85.0],[-30.0,-85.25],[-29.5,-85.0],[-29.666666666666668,-84.66666666666667],[-30.0,-84.5]],[[13.222222222222221,-86.22222222222223],[13.5,-86.0],[13.4,-85.60000000000001],[13.0,-85.5],[12.666666666666668,-85.66666666666667],[12.5,-86.0],[12.777777777777779,-86.22222222222223],[13.222222222222221,-86.22222222222223]]],[[[10.0,-15.0],[13.0,-17.0],[14.042553191489361,-17.95744680851064],[15.0,-18.5],[15.212765957446809,-18.78723404255319],[15.833333333333334,-19.0],[16.30769230769231,-19.692307692307693],[17.043478260869563,-20.0],[17.235294117647058,-20.764705882352942],[17.8,-21.0],[18.0,-21.333333333333336],[18.09090909090909,-21.909090909090907],[18.53846153846154,-22.461538461538463],[19.22222222222222,-23.0],[19.333333333333336,-23.666666666666668],[20.0,-24.333333333333332],[20.19047619047619,-24.80952380952381],[20.5,-25.0],[20.285714285714285,-26.0],[20.0,-26.5],[19.166666666666668,-27.166666666666668],[18.5,-28.0],[18.266666666666666,-29.266666666666666],[18.0,-30.0],[18.2,-31.0],[18.0,-32.0],[17.6,-33.0],[17.0,-34.0],[16.0,-34.66666666666667],[14.555555555555554,-36.55555555555556],[14.0,-37.0],[13.25,-37.25],[12.81818181818182,-37.81818181818181],[12.5,-38.0],[11.600000000000001,-39.6],[11.285714285714285,-40.285714285714285],[11.2,-41.0],[11.074074074074074,-41.07407407407407],[9.117647058823529,-41.11764705882353],[9.0,-41.25],[8.948717948717949,-41.05128205128205],[8.0,-41.0],[7.857142857142858,-40.142857142857146],[4.0,-40.0],[3.75,-39.25],[2.0,-38.66666666666667],[1.794871794871795,-38.205128205128204],[0.75,-38.0],[0.14285714285714285,-36.85714285714286],[-0.36363636363636365,-36.36363636363636],[-0.5,-36.0],[-0.33333333333333337,-35.0],[-0.5,-34.5],[-1.0,-34.0],[-0.4,-33.6],[-0.25,-33.0],[-0.11764705882352944,-32.88235294117647],[1.4000000000000001,-32.4],[2.0,-32.0],[4.0,-31.5],[7.2,-29.2],[8.0,-28.0],[9.0,-26.0],[8.666666666666668,-25.333333333333336],[8.0,-25.0],[7.0,-25.4],[5.0,-25.285714285714285],[2.4210526315789473,-26.421052631578945],[1.625,-26.625],[1.0,-27.0],[-2.0,-27.75],[-3.0,-27.333333333333336],[-4.0,-27.4],[-4.4,-27.0],[-4.8,-25.8],[-5.153846153846154,-25.153846153846153],[-5.333333333333333,-24.0],[-6.333333333333334,-22.0],[-6.333333333333334,-21.0],[-6.0,-20.666666666666668],[-5.0,-20.5],[-4.75,-20.25],[-4.333333333333334,-19.666666666666668],[-3.125,-17.0],[0.0,-15.875],[1.6666666666666665,-15.0],[3.0,-14.5],[4.545454545454545,-13.545454545454545],[7.0,-13.0],[7.75,-13.25],[8.222222222222221,-13.777777777777779],[9.0,-14.0],[10.0,-15.0]]],[[[-27.200000000000003,-12.000000000000002],[-27.0,-13.0],[-26.25,-14.0],[-26.200000000000003,-15.0],[-26.666666666666668,-17.0],[-27.0,-17.5],[-27.347826086956523,-18.652173913043477],[-28.22222222222222,-19.77777777777778],[-28.666666666666664,-21.0],[-29.315789473684212,-21.684210526315788],[-29.428571428571423,-22.0],[-29.771428571428572,-22.228571428571428],[-30.0,-22.57142857142857],[-30.916666666666668,-23.083333333333332],[-31.8,-24.0],[-32.54545454545455,-24.454545454545453],[-33.0,-25.0],[-33.72972972972973,-25.270270270270274],[-34.85714285714286,-26.0],[-36.5,-26.5],[-37.0,-27.0],[-37.95238095238095,-27.047619047619047],[-38.760000000000005,-27.240000000000002],[-39.44444444444444,-27.555555555555554],[-39.8,-28.0],[-40.81818181818182,-28.18181818181818],[-42.08333333333333,-28.916666666666668],[-44.54545454545455,-29.454545454545453],[-45.3,-29.7],[-45.75,-30.0],[-47.0,-30.25],[-48.75,-30.25],[-50.0,-30.75],[-51.00000000000001,-30.8],[-51.33333333333334,-31.0],[-52.0,-31.08695652173913],[-54.21428571428571,-31.214285714285715],[-55.857142857142854,-31.142857142857142],[-57.0,-31.875],[-57.63636363636364,-31.636363636363637],[-57.875,-31.0],[-57.66666666666667,-30.333333333333336],[-57.0,-30.0],[-56.55555555555556,-29.444444444444443],[-55.0,-28.857142857142854],[-53.875,-28.125],[-49.66666666666667,-27.333333333333336],[-49.0,-27.0],[-47.19047619047619,-26.80952380952381],[-45.68,-26.32],[-44.0,-26.0],[-43.44444444444444,-25.555555555555554],[-41.84615384615385,-25.153846153846153],[-41.0,-24.666666666666664],[-38.66666666666667,-24.333333333333336],[-37.0,-23.28571428571429],[-36.0,-22.0],[-35.66666666666667,-21.0],[-36.30769230769231,-20.30769230769231],[-38.0,-20.0],[-39.400000000000006,-19.400000000000002],[-40.0,-19.0],[-39.6,-18.400000000000002],[-39.5,-18.0],[-37.4,-15.600000000000001],[-36.75,-15.25],[-36.266666666666666,-14.733333333333334],[-35.0,-14.0],[-34.0,-13.714285714285714],[-33.6,-13.4],[-33.25,-12.75],[-32.63636363636364,-12.363636363636363],[-32.26086956521739,-11.73913043478261],[-31.6,-11.400000000000002],[-31.11764705882353,-10.88235294117647],[-29.0,-10.571428571428573],[-28.684210526315788,-10.684210526315788],[-28.235294117647058,-11.235294117647058],[-27.578947368421048,-11.578947368421053],[-27.200000000000003,-12.000000000000002]]],[[[-43.60000000000001,-23.400000000000002],[-43.66666666666667,-24.0],[-43.85714285714286,-24.142857142857142],[-45.0,-24.0],[-45.0,-23.0],[-46.0,-23.0],[-46.0,-22.0],[-49.0,-22.0],[-49.5,-21.5],[-49.5,-20.5],[-48.400000000000006,-19.6],[-48.0,-19.0],[-46.55555555555555,-18.444444444444443],[-46.0,-17.0],[-45.0,-18.0],[-45.0,-20.0],[-43.0,-20.0],[-43.0,-21.0],[-42.0,-22.0],[-43.333333333333336,-22.666666666666668],[-43.60000000000001,-23.400000000000002]]],[[[-145.0,-20.166666666666668],[-146.0,-20.333333333333332],[-147.0,-20.333333333333332],[-147.66666666666669,-19.666666666666668],[-147.88235294117646,-18.88235294117647],[-147.66666666666669,-17.0],[-146.91666666666666,-16.083333333333332],[-146.10526315789474,-15.894736842105264],[-145.0769230769231,-16.076923076923077],[-144.0,-17.0],[-143.55555555555554,-18.0],[-143.8,-19.200000000000003],[-144.29629629629628,-19.703703703703702],[-145.0,-20.166666666666668]]],[[[-153.4,-15.600000000000001],[-155.0,-15.75],[-155.46153846153848,-15.461538461538462],[-156.25,-14.25],[-156.33333333333334,-13.0],[-156.0,-12.0],[-155.0,-12.045454545454547],[-154.0,-12.333333333333332],[-153.41176470588235,-13.0],[-152.78571428571428,-14.0],[-152.8,-15.0],[-153.0,-15.333333333333334],[-153.4,-15.600000000000001]]],[[[-52.0,-13.0],[-51.285714285714285,-12.714285714285714],[-50.71428571428571,-12.714285714285714],[-50.5,-13.0],[-50.5,-14.0],[-50.66666666666667,-14.333333333333334],[-51.0,-14.5],[-51.5,-14.5],[-52.0,-14.0],[-52.0,-13.0]]],[[[12.375,-9.0],[13.0,-8.453125],[13.74468085106383,-9.0],[13.0,-9.60344827586207],[12.375,-9.0]]],[[[-165.10526315789474,-7.894736842105264],[-165.33333333333334,-8.0],[-165.57894736842104,-8.421052631578947],[-166.0,-8.8],[-167.13793103448276,-8.137931034482758],[-168.06060606060606,-7.0606060606060606],[-168.44444444444446,-6.0],[-168.11764705882354,-4.882352941176471],[-168.0,-4.8],[-166.9294117647059,-4.929411764705883],[-166.0,-5.307692307692308],[-165.74647887323943,-5.746478873239436],[-165.21818181818182,-6.218181818181819],[-164.8181818181818,-7.0],[-165.10526315789474,-7.894736842105264]]],[[[-46.75,4.0],[-46.42857142857143,3.571428571428571],[-45.0,2.75],[-44.421052631578945,1.5789473684210527],[-43.882352941176464,1.1176470588235294],[-43.5,0.5],[-43.0,0.0],[-42.0,-3.0],[-42.5,-4.0],[-42.5,-4.5],[-43.0,-5.0],[-42.0,-5.0],[-42.0,-6.0],[-43.0,-7.0],[-42.6,-7.6],[-42.5,-8.0],[-43.0,-9.0],[-43.0,-11.0],[-43.400000000000006,-11.600000000000001],[-43.66666666666667,-13.0],[-44.0,-13.333333333333332],[-45.25,-13.25],[-46.0,-13.0],[-47.0,-13.0],[-47.0,-12.0],[-48.0,-12.0],[-48.60000000000001,-12.4],[-49.0,-12.5],[-49.33333333333334,-12.333333333333334],[-50.0,-11.0],[-51.0,-11.0],[-52.0,-10.333333333333332],[-53.0,-10.0],[-54.0,-10.0],[-55.0,-9.0],[-56.0,-8.666666666666668],[-57.0,-7.5],[-57.14285714285714,-7.0],[-57.0,-5.0],[-56.53846153846154,-4.461538461538462],[-56.0,-3.5],[-55.5,-3.0],[-55.5,-2.0],[-55.0,-1.0],[-55.5,0.0],[-55.66666666666667,1.0],[-55.33333333333333,2.0],[-55.66666666666667,3.0],[-55.66666666666667,4.0],[-55.28571428571428,5.285714285714286],[-55.0,6.0],[-53.53846153846154,6.538461538461538],[-53.0,6.666666666666667],[-51.6,6.4],[-50.375,5.625],[-48.0,5.0],[-47.53846153846154,4.461538461538462],[-46.75,4.0]]],[[[-177.92857142857142,2.0714285714285716],[-177.7142857142857,2.714285714285714],[-177.77777777777777,3.0],[-177.0,3.509090909090909],[-176.5447154471545,3.4552845528455283],[-175.89690721649484,3.1030927835051547],[-175.8,2.8],[-176.0487804878049,2.048780487804878],[-176.67741935483872,1.6774193548387097],[-177.0,1.5454545454545454],[-177.92857142857142,2.0714285714285716]]],[[[-29.714285714285715,8.285714285714285],[-29.0,8.0],[-29.0,7.0],[-30.0,7.0],[-31.0,8.0],[-32.0,8.0],[-33.285714285714285,8.714285714285714],[-33.66666666666667,9.333333333333334],[-34.0,9.5],[-35.0,9.5],[-35.5,10.0],[-35.5,10.5],[-35.0,11.0],[-33.0,11.0],[-32.4,10.600000000000001],[-32.0,10.5],[-31.8,10.2],[-31.0,10.0],[-30.75,9.25],[-30.0,9.0],[-29.714285714285715,8.285714285714285]]],[[[-174.66666666666666,9.0],[-175.0,8.80952380952381],[-176.0,8.68],[-177.0,9.0],[-177.58823529411762,10.0],[-177.6969696969697,11.0],[-177.6,11.600000000000001],[-177.0,11.958333333333334],[-176.1081081081081,11.891891891891891],[-175.0,11.333333333333332],[-174.53488372093025,10.465116279069766],[-174.41176470588238,10.0],[-174.51219512195124,9.512195121951219],[-174.66666666666666,9.0]]],[[[-175.85714285714286,16.0],[-176.0,15.923076923076923],[-177.0,16.125],[-178.0,16.583333333333336],[-178.9230769230769,18.0],[-178.92,18.919999999999998],[-178.0,19.0],[-176.9277108433735,18.072289156626507],[-176.0,17.692307692307693],[-175.8235294117647,17.176470588235293],[-175.64,17.0],[-175.625,16.625],[-175.85714285714286,16.0]]],[[[20.6,-15.0],[21.0,-14.540983606557376],[21.528301886792452,-15.0],[21.0,-15.509090909090908],[20.6,-15.0]]],[[[44.85714285714286,-14.142857142857142],[44.272727272727266,-13.727272727272727],[44.17647058823529,-13.0],[44.32432432432432,-12.324324324324326],[45.05333333333333,-11.053333333333333],[45.63636363636364,-10.636363636363637],[46.0,-10.538461538461538],[47.15,-10.85],[47.61538461538461,-11.384615384615383],[47.75,-12.0],[46.57303370786517,-13.573033707865168],[45.99999999999999,-13.921052631578949],[44.85714285714286,-14.142857142857142]]],[[[122.84615384615384,8.846153846153847],[123.0,8.0],[123.5,7.5],[124.0,6.0],[124.375,5.375],[124.88235294117646,2.8823529411764706],[125.26666666666668,2.2666666666666666],[125.57142857142857,1.0],[125.73333333333335,-2.2666666666666666],[126.0,-4.0],[126.33333333333334,-5.666666666666667],[126.60000000000001,-6.4],[127.0,-7.0],[127.0,-8.0],[127.33333333333333,-9.0],[127.33333333333333,-10.0],[127.5,-11.0],[127.5,-16.0],[127.6,-16.400000000000002],[128.0,-17.0],[128.0,-18.0],[127.6,-18.6],[127.5,-19.0],[126.66666666666667,-19.666666666666668],[126.5,-20.0],[125.66666666666667,-20.666666666666668],[125.5,-21.0],[124.66666666666669,-21.666666666666668],[124.5,-22.0],[123.5,-22.5],[123.0,-23.0],[122.33333333333334,-23.333333333333336],[122.0,-24.0],[121.0,-24.25],[120.5,-24.0],[120.33333333333334,-23.666666666666668],[119.60000000000001,-23.400000000000002],[119.0,-23.333333333333332],[118.22222222222223,-22.77777777777778],[117.0,-22.25],[115.7,-21.3],[115.57142857142857,-21.0],[115.61538461538461,-20.0],[116.0,-18.0],[116.4,-17.4],[116.65714285714286,-16.65714285714286],[117.0,-15.0],[118.55555555555556,-10.0],[118.88888888888889,-6.888888888888889],[119.22222222222223,-5.222222222222221],[118.85714285714286,-3.0],[118.55555555555556,0.0],[117.88888888888889,4.0],[117.5,9.0],[117.57142857142858,10.0],[117.64705882352942,10.352941176470587],[118.4,11.600000000000001],[118.5,12.0],[119.0,12.25],[121.0,12.0],[121.33333333333334,11.333333333333334],[122.0,11.0],[122.66666666666669,9.0],[122.84615384615384,8.846153846153847]]],[[[52.6,-6.4],[52.28571428571429,-6.0],[52.42857142857142,-5.0],[53.12244897959184,-4.122448979591837],[54.0,-3.8333333333333335],[55.0,-4.0],[55.064516129032256,-5.0],[54.824175824175825,-5.824175824175825],[54.16901408450704,-6.169014084507042],[54.0,-6.461538461538462],[53.0,-6.625],[52.6,-6.4]]],[[[147.0,-5.0],[146.5,-5.5],[146.0,-5.5],[145.66666666666666,-5.0],[145.66666666666669,-4.666666666666667],[146.0,-4.0],[147.0,-4.0],[147.0,-5.0]]],[[[145.0,-2.0],[144.5,-1.0],[144.5,0.0],[144.4,0.4],[144.0,1.0],[144.0,2.0],[144.4,2.6],[144.5,3.0],[145.33333333333334,3.666666666666667],[146.0,5.0],[147.0,6.0],[147.6,6.4],[148.5,6.5],[149.0,6.0],[149.0,5.0],[148.0,5.0],[148.0,4.0],[147.0,4.0],[147.0,-1.0],[146.0,-1.0],[146.0,-2.0],[145.0,-2.0]]],[[[131.0,9.5],[130.5,10.0],[130.66666666666669,10.333333333333334],[131.4,10.600000000000001],[133.0,11.5],[134.0,11.5],[135.0,11.0],[135.0,10.0],[133.0,10.0],[133.0,9.0],[132.0,9.0],[131.4,9.4],[131.0,9.5]]],[[[66.0,11.711864406779661],[66.48554913294798,11.485549132947977],[66.875,11.0],[66.57142857142858,10.428571428571429],[66.0,10.125],[65.50295857988166,10.502958579881655],[65.26315789473685,11.0],[65.5625,11.4375],[66.0,11.711864406779661]]],[[[131.5,16.5],[132.0,17.0],[132.6,16.6],[133.4,16.400000000000002],[134.0,16.0],[133.4,15.600000000000001],[132.0,15.5],[131.66666666666669,15.666666666666668],[131.5,16.0],[131.5,16.5]]],[[[156.77777777777777,24.77777777777778],[158.0,24.5],[158.4,24.6],[159.0,25.0],[159.66666666666669,24.666666666666668],[160.0,24.666666666666668],[161.0,24.333333333333336],[161.77777777777777,23.77777777777778],[162.6,23.6],[163.0,23.0],[163.0,22.0],[164.0,22.0],[164.0,20.0],[163.0,19.666666666666664],[162.63636363636363,19.363636363636363],[162.26666666666665,18.733333333333334],[161.53846153846155,18.46153846153846],[161.0,18.0],[159.60000000000002,17.4],[159.0,17.0],[157.5,15.5],[156.83333333333331,15.166666666666668],[156.5,14.5],[155.60000000000002,13.4],[154.8,13.2],[154.36363636363637,12.636363636363637],[153.5,12.5],[152.4,11.600000000000001],[151.66666666666669,11.333333333333334],[151.4,10.600000000000001],[151.28571428571428,9.714285714285714],[150.75,9.25],[150.5,8.5],[150.0,8.0],[150.0,7.0],[149.0,7.0],[148.4,7.4],[148.0,8.0],[148.0,9.0],[148.60000000000002,9.4],[149.0,10.0],[149.0,11.0],[151.0,13.0],[149.60000000000002,13.4],[149.0,13.0],[149.0,14.0],[148.60000000000002,14.600000000000001],[148.5,15.0],[148.5,15.5],[149.0,16.0],[149.0,17.0],[148.5,17.5],[148.60000000000002,18.400000000000002],[149.0,19.0],[150.0,19.5],[150.25,19.75],[150.66666666666666,21.0],[150.66666666666669,21.333333333333336],[151.0,22.0],[151.0,24.0],[152.0,24.0],[152.0,26.0],[151.6,26.6],[151.5,27.0],[151.66666666666669,27.333333333333336],[152.4,27.6],[152.5,28.0],[153.0,28.333333333333332],[154.0,28.333333333333332],[155.0,28.0],[155.33333333333334,27.333333333333336],[156.0,27.0],[157.0,26.0],[156.5,25.0],[156.77777777777777,24.77777777777778]]],[[[129.5,19.5],[130.0,20.0],[130.4,19.400000000000002],[130.5,19.0],[130.4,18.6],[130.0,18.0],[129.0,18.0],[128.0,19.0],[129.5,19.5]]],[[[23.0,26.142857142857142],[23.5,26.0],[27.258064516129032,25.258064516129032],[29.66666666666667,25.0],[30.666666666666668,24.666666666666668],[33.0,24.333333333333336],[33.125,24.0],[32.22727272727273,23.772727272727273],[32.0,23.375],[31.727272727272727,23.272727272727273],[31.5,23.0],[30.400000000000002,22.6],[30.11764705882353,22.0],[29.34285714285714,21.65714285714286],[28.857142857142858,21.0],[28.244897959183675,20.755102040816325],[27.235294117647058,19.0],[26.885714285714286,17.114285714285714],[26.272727272727273,15.727272727272727],[26.0,14.0],[26.0,13.0],[25.333333333333332,12.0],[24.470588235294116,11.529411764705882],[24.0,11.0],[23.6,11.600000000000001],[23.5,12.0],[23.28571428571429,14.0],[23.333333333333336,15.000000000000002],[23.0,16.0],[22.53846153846154,16.53846153846154],[22.21276595744681,17.21276595744681],[20.789473684210527,17.789473684210527],[20.0,18.333333333333336],[17.0,18.833333333333332],[15.0,19.384615384615387],[14.0,19.416666666666664],[11.0,19.133333333333336],[10.0,18.714285714285715],[8.0,18.333333333333336],[7.0,18.0],[6.0,18.0],[5.315789473684211,17.684210526315788],[3.75,17.25],[3.0,16.833333333333336],[1.7777777777777777,16.77777777777778],[1.352941176470588,16.647058823529413],[0.0,16.7],[-1.0,17.0],[-2.0,17.0],[-3.666666666666667,17.333333333333336],[-4.0,17.5],[-4.25,19.0],[-3.8333333333333335,20.0],[-3.0,21.2],[-2.0,21.5],[-1.0,21.555555555555557],[0.75,22.0],[2.3,22.700000000000003],[3.8461538461538463,23.153846153846153],[5.0,23.818181818181813],[5.875,24.125],[7.068965517241379,24.93103448275862],[10.454545454545453,26.545454545454543],[13.0,27.142857142857146],[16.0,27.454545454545453],[18.0,27.444444444444443],[21.0,27.0],[21.799999999999997,26.8],[23.0,26.142857142857142]]],[[[68.38095238095238,20.38095238095238],[68.61538461538463,20.0],[68.0,19.36842105263158],[67.63076923076923,19.630769230769232],[67.47826086956522,20.0],[67.64444444444445,20.355555555555554],[68.0,20.64864864864865],[68.38095238095238,20.38095238095238]]],[[[178.4090909090909,23.0],[179.0,23.59090909090909],[179.3132530120482,23.313253012048193],[179.44827586206898,22.448275862068964],[179.38518518518518,21.614814814814814],[179.0,20.625],[178.30769230769232,21.307692307692307],[178.13333333333335,22.0],[178.4090909090909,23.0]]],[[[175.23076923076923,24.0],[176.0,24.322580645161292],[176.30769230769232,24.30769230769231],[176.9090909090909,24.0],[177.0,23.0],[176.0,22.57142857142857],[175.55,22.55],[175.0,22.57142857142857],[174.75,22.75],[174.66666666666666,23.0],[175.23076923076923,24.0]]],[[[144.0,31.333333333333332],[146.25,31.0],[146.25,30.0],[145.53846153846155,29.461538461538463],[145.13333333333333,28.866666666666667],[142.44444444444443,27.555555555555554],[140.86666666666667,27.133333333333333],[139.0,27.0],[135.0,28.0],[135.0,29.0],[132.0,29.0],[131.6,29.6],[130.5,30.0],[130.4,30.400000000000002],[130.0,31.0],[130.0,32.0],[131.57894736842104,32.421052631578945],[134.0,32.66666666666667],[136.35714285714286,32.35714285714286],[141.0,32.294117647058826],[142.0,32.15625],[143.60000000000002,31.6],[144.0,31.333333333333332]]]]}}]}