{"type":"FeatureCollection","features":[{"type":"Feature","properties":{"ageMa":420},"geometry":{"type":"MultiPolygon","coordinates":[[[[-2.0,-90.0],[-1.4000000000000001,-89.60000000000001],[-1.0,-89.5],[-0.6666666666666667,-89.66666666666667],[-0.5,-90.0],[-2.0,-90.0]]],[[[8.0,-86.0],[7.4,-86.4],[7.0,-86.5],[6.666666666666667,-86.33333333333334],[6.5,-86.0],[7.0,-85.5],[7.4,-85.60000000000001],[8.0,-86.0]]],[[[-177.0,-34.0],[-176.25,-35.0],[-175.56521739130434,-35.565217391304344],[-175.0,-37.0],[-174.54545454545453,-37.54545454545454],[-174.28571428571428,-38.285714285714285],[-173.76470588235293,-38.76470588235294],[-173.16666666666669,-41.00000000000001],[-172.8181818181818,-41.18181818181818],[-172.1818181818182,-41.18181818181818],[-171.73333333333335,-41.733333333333334],[-171.375,-43.0],[-171.44444444444446,-44.0],[-171.0,-46.0],[-170.66666666666669,-47.0],[-170.30769230769232,-47.30769230769231],[-169.0,-47.599999999999994],[-168.0,-47.599999999999994],[-167.0,-47.800000000000004],[-166.0,-47.75],[-164.0,-48.285714285714285],[-162.73333333333335,-48.733333333333334],[-162.0,-49.14285714285714],[-160.0,-49.16666666666667],[-159.0,-49.375],[-157.0,-49.5],[-153.0,-49.5],[-150.8181818181818,-49.81818181818181],[-149.22222222222223,-50.22222222222222],[-148.0,-50.142857142857146],[-147.0,-50.400000000000006],[-145.0,-50.44444444444444],[-144.0,-50.66666666666667],[-142.0,-50.5],[-141.0,-50.5],[-140.0,-50.66666666666667],[-138.0,-50.44444444444444],[-136.47058823529412,-50.470588235294116],[-134.64705882352942,-50.647058823529406],[-133.0,-51.33333333333334],[-131.0,-51.142857142857146],[-127.76470588235294,-51.23529411764706],[-124.0,-50.57142857142857],[-121.0,-50.400000000000006],[-117.0,-50.400000000000006],[-115.86666666666667,-50.86666666666667],[-115.33333333333334,-52.0],[-115.58620689655173,-52.41379310344828],[-117.17391304347825,-52.82608695652174],[-117.63636363636363,-53.36363636363637],[-118.0,-53.5],[-121.33333333333334,-54.00000000000001],[-121.63636363636363,-54.36363636363637],[-122.44444444444444,-54.55555555555556],[-127.0,-54.6],[-128.25,-54.75],[-129.0,-55.199999999999996],[-131.0,-55.800000000000004],[-132.15384615384616,-55.84615384615384],[-135.0,-57.0],[-134.4,-57.4],[-134.0,-58.0],[-130.55555555555554,-58.55555555555556],[-128.57894736842104,-58.578947368421055],[-127.85714285714286,-58.85714285714286],[-127.30000000000001,-59.3],[-125.84615384615384,-59.846153846153854],[-125.22222222222221,-60.22222222222222],[-123.6470588235294,-60.647058823529406],[-120.85714285714286,-61.857142857142854],[-120.31578947368419,-62.315789473684205],[-120.0,-62.42857142857142],[-118.0,-62.599999999999994],[-116.0,-62.57142857142857],[-115.625,-62.625],[-114.0,-63.4],[-112.0,-63.5],[-111.625,-63.625],[-111.0,-64.0],[-110.14285714285714,-65.14285714285714],[-109.55555555555554,-65.55555555555556],[-109.13333333333333,-66.13333333333334],[-108.2,-67.0],[-108.4,-67.6],[-109.30769230769232,-68.6923076923077],[-109.625,-70.375],[-110.75,-72.25],[-111.33333333333334,-72.66666666666667],[-111.69999999999999,-73.30000000000001],[-113.21052631578947,-73.78947368421052],[-113.68421052631578,-74.3157894736842],[-114.0,-74.42857142857143],[-116.31578947368422,-74.68421052631578],[-116.85714285714286,-75.14285714285714],[-119.14285714285714,-75.85714285714286],[-119.6470588235294,-76.35294117647058],[-120.35294117647058,-76.6470588235294],[-120.85714285714286,-77.14285714285714],[-123.0,-78.0],[-124.0,-78.66666666666667],[-125.0,-79.0],[-125.5,-80.0],[-126.4,-80.60000000000001],[-126.66666666666666,-81.0],[-126.4,-81.4],[-126.0,-81.66666666666667],[-125.0,-82.0],[-122.99999999999999,-82.42857142857142],[-120.0,-82.375],[-119.0,-82.16666666666667],[-118.0,-82.33333333333334],[-117.00000000000001,-82.20000000000002],[-115.99999999999999,-82.42857142857142],[-115.0,-82.42857142857142],[-111.0,-82.16666666666667],[-109.375,-81.625],[-108.0,-81.44444444444444],[-105.0,-81.375],[-103.0,-81.5],[-102.0,-81.375],[-101.0,-81.5],[-97.0,-81.57142857142857],[-94.0,-81.33333333333334],[-93.0,-80.8],[-92.0,-80.57142857142858],[-86.625,-80.375],[-85.0,-80.2],[-84.26666666666667,-79.73333333333333],[-82.0,-79.0],[-80.73333333333332,-78.26666666666667],[-80.25,-77.75],[-77.0,-77.0],[-76.0,-76.5],[-75.0,-76.33333333333334],[-74.0,-76.4],[-72.71428571428571,-76.28571428571428],[-70.60000000000001,-75.4],[-70.0,-75.0],[-70.0,-74.0],[-70.66666666666667,-73.66666666666667],[-71.0,-73.75],[-73.66666666666667,-72.66666666666667],[-74.0,-72.66666666666667],[-76.0,-72.0],[-76.53846153846153,-71.53846153846153],[-78.0,-70.66666666666667],[-78.63636363636364,-69.63636363636364],[-79.18181818181819,-69.18181818181819],[-79.5,-68.0],[-80.0,-67.0],[-79.75,-66.0],[-80.0,-65.0],[-79.53846153846155,-64.46153846153847],[-79.30769230769232,-63.69230769230769],[-78.13333333333333,-61.86666666666666],[-77.55555555555556,-61.44444444444444],[-77.13333333333333,-60.86666666666666],[-76.52941176470588,-60.470588235294116],[-76.14285714285714,-59.85714285714286],[-75.57142857142858,-59.42857142857144],[-75.0,-58.75],[-73.0,-57.66666666666667],[-71.0,-57.25],[-70.0,-57.5],[-69.0,-57.33333333333334],[-68.81818181818181,-57.18181818181819],[-68.5,-56.0],[-68.0,-55.75],[-67.15384615384616,-54.84615384615384],[-65.16666666666666,-53.833333333333336],[-64.0,-53.5],[-61.00000000000001,-53.2],[-58.75,-54.0],[-58.0,-55.0],[-58.0,-56.0],[-56.0,-56.0],[-54.0,-56.75],[-52.733333333333334,-57.733333333333334],[-52.42857142857143,-58.42857142857143],[-52.0,-59.0],[-51.75,-60.0],[-51.6,-61.6],[-51.333333333333336,-62.333333333333336],[-50.71428571428571,-62.714285714285715],[-49.85714285714286,-62.85714285714286],[-49.400000000000006,-63.400000000000006],[-49.0,-63.6],[-47.0,-63.8],[-46.333333333333336,-64.33333333333334],[-43.0,-64.28571428571428],[-41.0,-64.42857142857142],[-39.81818181818181,-64.81818181818181],[-37.92307692307692,-64.92307692307692],[-35.0,-64.72727272727272],[-33.0,-64.28571428571428],[-32.0,-64.25],[-27.0,-64.55555555555556],[-23.0,-64.25],[-20.0,-64.44444444444444],[-19.0,-64.66666666666666],[-15.0,-64.6],[-14.733333333333334,-64.73333333333333],[-13.75,-66.0],[-14.0,-67.0],[-15.0,-68.0],[-16.5,-68.5],[-17.0,-69.0],[-18.0,-69.25],[-19.0,-69.2],[-20.0,-69.5],[-22.0,-69.6],[-24.0,-70.0],[-25.0,-70.0],[-25.6,-70.4],[-27.315789473684212,-70.68421052631578],[-28.0,-71.25],[-29.0,-71.2],[-30.0,-71.5],[-31.0,-71.5],[-32.0,-71.8],[-32.578947368421055,-72.42105263157895],[-33.0,-72.66666666666667],[-35.400000000000006,-73.60000000000001],[-39.0,-74.0],[-39.647058823529406,-74.35294117647058],[-41.0,-74.55555555555556],[-43.0,-74.5],[-44.0,-74.8],[-45.0,-74.71428571428571],[-46.0,-75.0],[-47.0,-75.0],[-48.0,-74.83333333333333],[-48.83333333333333,-75.16666666666667],[-49.69230769230769,-75.30769230769232],[-52.0,-75.25],[-53.0,-75.5],[-54.0,-75.42857142857143],[-55.0,-75.80000000000001],[-58.42857142857143,-76.57142857142857],[-59.833333333333336,-77.16666666666666],[-60.75,-77.25],[-61.0,-77.33333333333333],[-61.83333333333333,-78.16666666666667],[-62.6,-78.4],[-63.2,-78.8],[-63.63636363636363,-79.36363636363636],[-64.5,-79.5],[-65.0,-79.0],[-65.0,-80.0],[-64.6,-80.60000000000001],[-64.0,-81.0],[-63.285714285714285,-81.28571428571428],[-61.0,-81.66666666666667],[-59.0,-82.20000000000002],[-56.84615384615385,-82.84615384615384],[-56.0,-83.25],[-50.69230769230769,-83.6923076923077],[-49.85714285714286,-83.85714285714286],[-49.0,-84.375],[-48.0,-84.33333333333334],[-47.0,-84.57142857142857],[-45.0,-84.57142857142857],[-44.0,-85.0],[-43.15384615384615,-85.15384615384616],[-40.0,-85.5],[-39.0,-85.5],[-38.0,-85.8],[-33.0,-85.57142857142857],[-32.0,-86.0],[-30.0,-86.0],[-29.363636363636367,-86.36363636363637],[-29.0,-86.4],[-27.8,-86.2],[-27.0,-85.8],[-26.0,-86.0],[-25.375,-85.625],[-25.0,-85.57142857142857],[-23.71428571428571,-85.71428571428571],[-22.0,-85.5],[-20.0,-85.5],[-19.0,-85.8],[-15.0,-85.5],[-11.0,-85.5],[-10.0,-85.66666666666666],[-8.0,-85.71428571428572],[-6.0,-85.625],[-5.0,-85.8],[-3.0,-85.83333333333334],[-0.6000000000000001,-85.60000000000001],[0.0,-86.0],[0.6000000000000001,-85.60000000000001],[1.4000000000000001,-85.4],[2.0,-85.0],[2.5,-85.5],[3.0,-85.66666666666666],[4.0,-85.5],[5.0,-85.0],[5.666666666666666,-86.0],[5.5,-86.5],[5.0,-87.0],[4.0,-87.33333333333334],[3.666666666666667,-87.33333333333334],[2.4,-86.60000000000001],[2.0,-86.5],[0.25,-87.25],[0.0,-87.5],[-1.0,-87.0],[-2.0,-87.0],[-3.0,-87.5],[-4.0,-87.66666666666667],[-4.4,-87.6],[-5.0,-88.0],[-4.4,-88.4],[-3.6000000000000005,-88.6],[-2.4,-89.4],[-2.0,-90.0],[-180.0,-90.0],[-180.0,-24.6],[-179.54545454545456,-25.545454545454543],[-179.28571428571428,-28.285714285714285],[-178.42857142857142,-30.999999999999996],[-178.1904761904762,-32.19047619047619],[-177.25,-33.0],[-177.0,-34.0]],[[-65.60000000000001,-79.6],[-67.0,-80.0],[-67.0,-81.0],[-66.0,-81.0],[-65.0,-80.0],[-65.60000000000001,-79.6]],[[-158.75,-63.75],[-159.2,-63.8],[-159.5,-64.0],[-159.0,-64.2],[-158.0,-64.0],[-158.75,-63.75]],[[-157.28571428571428,-64.28571428571428],[-156.73333333333335,-64.26666666666667],[-156.33333333333334,-64.0],[-156.6,-63.60000000000001],[-157.0,-63.6],[-157.36363636363637,-63.63636363636363],[-158.0,-64.0],[-157.28571428571428,-64.28571428571428]],[[-68.71428571428571,-82.71428571428571],[-69.33333333333334,-82.66666666666667],[-70.0,-83.0],[-69.33333333333334,-83.33333333333334],[-68.75,-83.25],[-68.5,-83.0],[-68.71428571428571,-82.71428571428571]]],[[[-129.78571428571428,-41.78571428571429],[-129.33333333333334,-43.0],[-129.51999999999998,-43.48],[-131.0,-45.0],[-131.88235294117646,-46.11764705882353],[-132.44444444444443,-46.55555555555555],[-132.75,-47.25],[-133.0,-47.375],[-135.0,-47.75],[-137.0,-47.33333333333333],[-137.68,-46.68],[-138.4,-46.400000000000006],[-139.2,-45.0],[-138.73913043478262,-44.26086956521739],[-138.55555555555554,-43.0],[-138.3846153846154,-42.61538461538461],[-137.76,-42.239999999999995],[-137.3,-41.7],[-136.63636363636363,-41.36363636363637],[-136.13333333333333,-40.86666666666667],[-134.73333333333335,-40.266666666666666],[-134.4,-39.6],[-134.0,-39.4],[-133.0,-39.5],[-132.66666666666669,-39.66666666666667],[-132.28571428571428,-40.285714285714285],[-131.0,-40.44444444444444],[-130.62962962962962,-40.62962962962963],[-130.30769230769232,-41.30769230769231],[-129.78571428571428,-41.78571428571429]]],[[[-39.833333333333336,-37.0],[-40.470588235294116,-37.529411764705884],[-41.0,-37.66666666666667],[-41.13333333333333,-37.86666666666667],[-42.285714285714285,-38.0],[-42.61538461538461,-38.38461538461539],[-43.0,-38.55555555555556],[-44.2,-38.8],[-47.52941176470588,-38.529411764705884],[-48.28571428571428,-38.285714285714285],[-48.42857142857143,-38.0],[-48.28571428571428,-37.71428571428571],[-47.703703703703695,-37.29629629629629],[-47.41379310344828,-36.58620689655172],[-47.0,-36.333333333333336],[-46.0,-36.333333333333336],[-45.839999999999996,-36.16],[-44.333333333333336,-36.0],[-44.18181818181819,-35.81818181818182],[-42.0,-35.30769230769231],[-41.0,-35.30769230769231],[-40.470588235294116,-35.470588235294116],[-40.0,-36.0],[-39.833333333333336,-37.0]]],[[[-140.44444444444446,-34.0],[-140.86666666666667,-35.13333333333333],[-142.53846153846155,-36.46153846153846],[-143.0,-36.6],[-145.0,-36.875],[-145.5,-36.5],[-145.86206896551724,-35.86206896551724],[-146.44444444444446,-35.44444444444444],[-146.66666666666669,-35.0],[-146.55555555555554,-33.0],[-146.37037037037038,-32.629629629629626],[-146.0,-32.44444444444444],[-144.66666666666669,-32.333333333333336],[-143.0,-31.666666666666664],[-141.6153846153846,-32.61538461538461],[-141.44444444444446,-33.0],[-141.0,-33.44444444444444],[-140.62962962962962,-33.629629629629626],[-140.44444444444446,-34.0]]],[[[-156.0,-33.63636363636364],[-156.53846153846155,-33.53846153846154],[-157.15384615384616,-33.15384615384615],[-157.6,-32.6],[-157.72727272727272,-32.0],[-157.57894736842104,-31.421052631578945],[-157.22222222222223,-30.77777777777778],[-156.57894736842104,-30.421052631578945],[-154.16666666666666,-29.833333333333336],[-153.85714285714286,-29.85714285714286],[-153.28571428571428,-30.285714285714285],[-153.0,-31.0],[-153.6153846153846,-32.38461538461538],[-154.5,-33.0],[-154.66666666666669,-33.333333333333336],[-155.0,-33.5],[-156.0,-33.63636363636364]]],[[[-167.47058823529412,-24.52941176470588],[-167.77777777777777,-25.22222222222222],[-169.0,-26.0],[-170.0,-26.0],[-170.6470588235294,-26.352941176470587],[-171.35294117647058,-26.352941176470587],[-172.0,-26.0],[-172.5,-25.5],[-173.0,-24.0],[-172.15384615384616,-22.846153846153847],[-171.57142857142856,-22.42857142857143],[-170.17391304347825,-22.17391304347826],[-169.0,-22.333333333333336],[-168.66666666666669,-22.666666666666668],[-167.88235294117646,-23.0],[-167.6470588235294,-23.64705882352941],[-167.33333333333334,-24.0],[-167.47058823529412,-24.52941176470588]]],[[[-55.0,-20.75],[-56.13333333333333,-20.133333333333333],[-56.85714285714286,-19.000000000000004],[-56.5,-18.5],[-56.0,-18.25],[-54.6,-18.6],[-54.10526315789474,-19.105263157894736],[-52.66666666666667,-19.666666666666668],[-52.5,-20.0],[-52.66666666666667,-20.333333333333336],[-54.00000000000001,-20.857142857142858],[-55.0,-20.75]]],[[[-175.42857142857144,-19.0],[-175.60000000000002,-19.400000000000002],[-176.0,-19.8],[-176.40000000000003,-19.400000000000002],[-177.15384615384616,-18.153846153846153],[-177.73684210526318,-17.736842105263158],[-177.8846153846154,-17.0],[-177.89743589743588,-15.897435897435898],[-178.05,-15.049999999999999],[-178.2,-15.0],[-178.15384615384616,-14.846153846153847],[-178.0,-14.666666666666668],[-177.86666666666667,-14.866666666666667],[-177.29629629629628,-14.703703703703702],[-177.0,-14.777777777777777],[-176.42105263157893,-15.421052631578947],[-176.125,-16.0],[-176.0,-16.666666666666664],[-175.4,-18.0],[-175.42857142857144,-19.0]]],[[[-21.636363636363637,7.363636363636364],[-21.333333333333336,7.0],[-20.444444444444443,6.555555555555555],[-20.0,6.0],[-19.18181818181818,5.818181818181818],[-18.375,5.0],[-17.759999999999998,4.76],[-17.275862068965516,4.724137931034482],[-16.714285714285715,4.285714285714286],[-16.57142857142857,4.0],[-16.137931034482758,3.862068965517241],[-16.0,3.5555555555555554],[-15.375,3.0],[-15.083333333333332,2.9166666666666665],[-13.627118644067796,1.3728813559322035],[-13.0,1.0769230769230769],[-12.518518518518519,0.4814814814814815],[-11.884615384615385,0.11538461538461536],[-10.0,-0.7222222222222222],[-8.727272727272727,-0.7272727272727273],[-8.0,-1.0],[-6.800000000000001,-0.2],[-5.833333333333334,0.8333333333333333],[-5.0,2.0],[-3.4000000000000004,2.4],[-2.8333333333333335,2.8333333333333335],[-2.3157894736842106,4.315789473684211],[-1.5,5.0],[-1.5,6.0],[-1.3478260869565217,6.3478260869565215],[-1.0,6.571428571428571],[0.0,6.857142857142857],[2.0,6.333333333333334],[3.0,6.444444444444445],[3.2105263157894735,6.2105263157894735],[3.7894736842105265,6.2105263157894735],[4.666666666666667,6.0],[5.0,5.5],[7.0,5.285714285714286],[7.578947368421053,4.578947368421052],[8.333333333333334,4.333333333333334],[8.75,4.0],[8.777777777777779,3.7777777777777777],[9.222222222222221,3.2222222222222223],[9.8,2.8],[12.352941176470587,2.3529411764705883],[13.0,2.0],[13.266666666666666,1.2666666666666666],[13.652173913043477,1.3478260869565217],[14.0,1.2352941176470589],[14.307692307692307,1.0],[14.538461538461538,0.5384615384615385],[15.4,0.0],[16.25,-1.0],[16.166666666666668,-2.166666666666667],[15.8,-3.2],[16.0,-4.0],[16.400000000000002,-4.6],[16.5,-5.0],[16.42857142857143,-6.0],[16.8,-7.2],[17.333333333333332,-8.0],[17.42857142857143,-9.0],[17.14814814814815,-10.148148148148149],[17.072727272727274,-11.072727272727272],[15.333333333333334,-11.333333333333334],[14.75,-12.0],[14.0,-12.428571428571429],[13.0,-12.5],[11.0,-13.2],[9.0,-13.333333333333332],[8.0,-13.0],[7.0,-13.0],[6.470588235294117,-12.52941176470588],[6.0,-12.333333333333334],[5.0,-12.25],[4.0,-12.0],[3.0,-12.0],[2.4761904761904763,-11.523809523809524],[0.6,-11.0],[0.33333333333333337,-10.666666666666668],[-0.34782608695652173,-10.347826086956522],[-1.0,-9.6],[-2.2666666666666666,-9.266666666666666],[-3.0,-8.666666666666668],[-4.0,-8.25],[-4.666666666666667,-8.333333333333334],[-5.0,-8.5],[-5.142857142857143,-9.0],[-5.0,-10.0],[-4.666666666666666,-11.0],[-4.666666666666666,-12.0],[-4.2105263157894735,-13.210526315789474],[-3.125,-14.125],[-0.5555555555555556,-14.555555555555554],[1.0,-14.600000000000001],[2.0,-15.25],[3.0,-15.25],[4.0,-15.666666666666668],[5.0,-15.666666666666668],[5.666666666666666,-16.0],[6.914893617021277,-16.085106382978722],[7.000000000000001,-16.200000000000003],[8.444444444444445,-16.555555555555554],[8.857142857142858,-17.0],[8.222222222222221,-18.22222222222222],[7.0,-18.6],[6.789473684210526,-18.789473684210527],[5.0,-18.95],[0.6190476190476191,-18.61904761904762],[-3.0,-18.6],[-4.105263157894737,-18.894736842105264],[-4.733333333333333,-19.266666666666666],[-6.0,-19.75],[-7.0,-20.0],[-8.0,-19.6],[-9.0,-19.75],[-9.333333333333334,-20.0],[-9.647058823529411,-21.352941176470587],[-10.25,-22.75],[-10.636363636363637,-24.363636363636367],[-11.2,-24.8],[-11.866666666666667,-26.133333333333333],[-13.142857142857142,-26.857142857142854],[-13.666666666666668,-27.333333333333336],[-14.0,-27.428571428571427],[-14.352941176470587,-27.352941176470587],[-14.857142857142858,-26.857142857142854],[-15.181818181818182,-26.818181818181817],[-16.0,-27.333333333333336],[-16.846153846153847,-28.153846153846153],[-19.0,-29.0],[-19.38095238095238,-29.619047619047617],[-20.142857142857146,-30.0],[-20.555555555555554,-30.444444444444443],[-21.307692307692307,-30.692307692307693],[-21.916666666666668,-31.083333333333336],[-23.451612903225808,-31.548387096774192],[-23.875,-32.0],[-24.806451612903224,-32.193548387096776],[-26.0,-33.0],[-27.65714285714286,-33.34285714285714],[-30.428571428571427,-35.0],[-31.66037735849057,-35.339622641509436],[-32.0,-35.599999999999994],[-33.0,-36.0],[-33.86486486486486,-36.13513513513514],[-34.0,-36.3125],[-35.75,-37.0],[-36.25,-37.0],[-36.6,-36.6],[-36.77777777777778,-36.0],[-36.588235294117645,-35.0],[-36.3921568627451,-34.6078431372549],[-35.66666666666667,-34.0],[-35.44444444444444,-33.55555555555555],[-34.935483870967744,-33.064516129032256],[-34.66666666666667,-33.0],[-33.83783783783784,-32.16216216216216],[-33.5,-32.0],[-33.0,-31.0],[-32.0,-30.5],[-30.684210526315788,-30.315789473684212],[-30.0,-29.799999999999997],[-29.0,-29.75],[-27.692307692307693,-29.307692307692307],[-26.64705882352941,-28.352941176470587],[-26.4,-28.0],[-26.444444444444443,-27.555555555555554],[-26.0,-27.0],[-28.0,-27.0],[-29.0,-27.5],[-31.0,-27.4],[-32.0,-27.57142857142857],[-32.916666666666664,-28.083333333333336],[-34.0,-28.285714285714285],[-35.13333333333333,-28.133333333333333],[-35.57142857142857,-27.571428571428573],[-36.142857142857146,-27.142857142857142],[-36.57142857142857,-26.0],[-36.57142857142857,-24.0],[-36.333333333333336,-22.0],[-35.85714285714286,-21.142857142857142],[-35.5,-20.0],[-35.18181818181819,-15.818181818181818],[-35.0,-15.0],[-34.5,-14.0],[-34.25,-12.75],[-33.6,-12.0],[-33.142857142857146,-10.857142857142858],[-32.7,-10.3],[-32.43478260869565,-9.565217391304348],[-31.444444444444443,-8.555555555555555],[-30.333333333333336,-7.666666666666668],[-29.63636363636364,-7.363636363636364],[-29.333333333333336,-6.666666666666667],[-28.454545454545453,-5.545454545454545],[-27.789473684210524,-5.210526315789474],[-27.266666666666666,-4.733333333333333],[-25.81818181818182,-4.181818181818182],[-24.733333333333334,-3.2666666666666666],[-24.38095238095238,-2.6190476190476186],[-24.0,-2.4285714285714284],[-21.733333333333334,-2.2666666666666666],[-20.5,-1.5],[-20.0,-1.0],[-20.0,0.0],[-20.0,1.0],[-20.692307692307693,1.3076923076923077],[-21.0,2.0],[-21.57894736842105,2.4210526315789473],[-21.81818181818182,2.9999999999999996],[-22.849999999999998,3.15],[-23.470588235294116,3.5294117647058822],[-23.727272727272727,4.0],[-25.619047619047617,4.3809523809523805],[-26.66666666666667,5.0],[-28.347826086956523,5.6521739130434785],[-28.57142857142857,6.0],[-28.625,6.375],[-29.0,7.0],[-28.71428571428571,7.7142857142857135],[-27.77777777777778,8.777777777777779],[-27.0,9.2],[-26.0,9.2],[-25.22222222222222,8.777777777777779],[-23.6,8.4],[-23.28571428571429,8.0],[-23.0,7.846153846153847],[-21.636363636363637,7.363636363636364]],[[-19.400000000000002,-0.4],[-19.0,-0.3333333333333333],[-18.846153846153847,-0.15384615384615385],[-18.928571428571427,0.07142857142857145],[-19.200000000000003,0.2],[-20.0,0.0],[-19.400000000000002,-0.4]]],[[[-36.44444444444444,-3.444444444444444],[-36.0,-4.0],[-36.0,-5.0],[-36.333333333333336,-6.0],[-36.578947368421055,-6.421052631578947],[-37.64705882352941,-7.352941176470589],[-39.3,-7.7],[-39.76470588235294,-8.235294117647058],[-41.25,-8.75],[-41.63636363636364,-9.363636363636363],[-42.0,-9.5],[-43.25,-9.25],[-43.5,-9.0],[-43.42857142857143,-7.0],[-43.625,-6.0],[-43.400000000000006,-3.6000000000000005],[-41.400000000000006,-0.6000000000000001],[-41.0,-0.4444444444444444],[-39.44444444444444,-0.5555555555555556],[-38.75,-0.75],[-37.66666666666667,-1.6666666666666665],[-37.333333333333336,-2.3333333333333335],[-36.7,-2.7],[-36.44444444444444,-3.444444444444444]]],[[[25.88888888888889,-2.0],[26.047619047619047,-2.0],[26.789473684210527,-3.0],[26.0,-3.217391304347826],[25.53125,-3.0],[25.565217391304348,-2.5652173913043477],[25.88888888888889,-2.0]]],[[[21.0,4.0625],[20.42307692307692,5.0],[21.0,5.365853658536586],[21.46875,5.0],[21.405405405405403,4.594594594594595],[21.0,4.0625]]],[[[15.8,9.0],[16.03448275862069,9.0],[16.25,8.0],[16.0,7.897435897435898],[15.529411764705882,8.0],[15.555555555555554,8.444444444444445],[15.8,9.0]]],[[[6.0,13.303030303030303],[7.0,13.681818181818183],[7.555555555555555,13.0],[7.434782608695651,12.565217391304348],[7.0,11.882352941176471],[6.0,11.636363636363637],[5.821428571428571,12.821428571428571],[6.0,13.303030303030303]]],[[[15.0,42.85714285714286],[16.0,42.66666666666667],[17.666666666666668,42.66666666666667],[18.0,42.0],[17.0,41.0],[16.555555555555557,40.0],[16.192307692307693,39.80769230769231],[16.0,39.166666666666664],[15.8,39.0],[15.119402985074627,38.88059701492537],[14.48,38.52],[14.176470588235293,38.0],[13.266666666666666,37.733333333333334],[13.0,37.333333333333336],[12.7,37.3],[11.625,36.375],[11.5,36.0],[11.571428571428571,35.0],[11.0,33.0],[11.2,32.0],[11.0,31.0],[10.4,30.0],[10.0,29.6],[9.0,29.0],[8.0,29.0],[7.4,29.400000000000002],[6.666666666666667,30.666666666666668],[6.555555555555555,32.55555555555555],[6.363636363636363,33.36363636363636],[5.173913043478262,35.17391304347826],[2.0,36.0],[0.0,36.666666666666664],[-5.0,36.57142857142857],[-9.0,35.8],[-10.4,35.400000000000006],[-12.0,35.214285714285715],[-13.5,34.5],[-15.2,34.2],[-17.0,33.666666666666664],[-18.0,33.666666666666664],[-19.0,34.0],[-21.0,33.75],[-21.5,34.0],[-21.714285714285715,34.285714285714285],[-22.0,35.0],[-22.0,36.0],[-22.25,36.75],[-23.333333333333332,38.0],[-22.71428571428571,38.285714285714285],[-22.285714285714285,38.285714285714285],[-21.77777777777778,38.77777777777778],[-21.75,39.0],[-21.333333333333336,39.333333333333336],[-20.0,39.8],[-19.0,39.833333333333336],[-18.0,39.6],[-16.25,40.0],[-14.714285714285715,41.0],[-14.322580645161292,41.32258064516129],[-14.0,42.0],[-13.315789473684209,42.315789473684205],[-12.8,42.8],[-11.461538461538463,43.46153846153846],[-9.0,44.285714285714285],[-7.0,45.38461538461539],[-4.699999999999999,45.7],[-3.0,46.10526315789473],[-2.0,46.2],[4.333333333333334,46.0],[5.0,45.599999999999994],[7.333333333333334,45.333333333333336],[11.333333333333332,44.0],[12.777777777777779,43.77777777777778],[15.0,42.85714285714286]]],[[[18.17391304347826,43.826086956521735],[19.0,43.90625],[19.608247422680414,43.608247422680414],[19.828571428571426,43.0],[19.696202531645568,42.69620253164557],[19.718309859154928,42.28169014084507],[19.0,42.07936507936508],[18.0,42.0],[18.17391304347826,43.826086956521735]]],[[[40.66666666666667,-56.66666666666667],[40.833333333333336,-57.0],[42.333333333333336,-58.0],[42.5,-59.0],[42.0,-59.4],[40.0,-59.6],[38.0,-59.6],[37.0,-59.4],[36.0,-59.42857142857143],[34.733333333333334,-59.266666666666666],[33.66666666666667,-58.33333333333334],[33.5,-58.0],[33.714285714285715,-57.71428571428571],[34.666666666666664,-57.0],[35.0,-56.83333333333333],[37.0,-56.66666666666667],[38.0,-56.3],[39.84615384615385,-56.15384615384615],[40.66666666666667,-56.333333333333336],[40.66666666666667,-56.66666666666667]]],[[[50.66666666666667,-54.00000000000001],[50.83333333333333,-55.0],[50.36363636363636,-56.36363636363637],[49.7,-56.7],[48.0,-57.2],[46.0,-57.22222222222222],[45.0,-57.0],[44.0,-56.400000000000006],[41.71428571428571,-56.285714285714285],[41.333333333333336,-56.0],[41.28571428571428,-55.71428571428571],[41.00000000000001,-55.800000000000004],[40.333333333333336,-55.66666666666667],[40.0,-55.0],[40.6,-54.6],[41.0,-54.5],[41.38095238095238,-54.61904761904761],[41.66666666666667,-55.0],[41.63636363636364,-55.36363636363637],[42.0,-55.5],[42.23529411764706,-55.23529411764706],[42.519999999999996,-54.52],[43.0,-54.25],[44.0,-54.25],[45.22222222222222,-53.77777777777777],[47.38461538461538,-53.38461538461539],[48.0,-53.142857142857146],[50.0,-53.333333333333336],[50.42857142857143,-53.57142857142858],[50.66666666666667,-54.00000000000001]]],[[[65.0,-52.599999999999994],[63.55555555555556,-52.44444444444444],[63.0,-52.25],[62.0,-52.625],[60.42857142857143,-52.57142857142857],[58.733333333333334,-52.266666666666666],[56.9,-51.1],[56.5,-50.0],[56.66666666666667,-49.66666666666667],[57.0,-49.42857142857143],[58.0,-49.375],[59.00000000000001,-49.14285714285714],[60.22222222222222,-49.22222222222223],[61.0,-48.8],[62.0,-49.0],[62.53846153846154,-49.46153846153846],[64.0,-49.5],[64.33333333333334,-49.66666666666667],[65.375,-51.0],[65.6,-52.0],[65.0,-52.599999999999994]]],[[[11.0,-85.0],[12.0,-85.0],[12.714285714285714,-85.28571428571428],[14.0,-85.33333333333334],[14.5,-85.5],[15.0,-86.0],[15.666666666666668,-85.66666666666667],[17.0,-85.66666666666666],[17.5,-85.5],[18.0,-85.0],[19.0,-85.0],[20.692307692307693,-84.6923076923077],[23.0,-84.57142857142857],[25.0,-84.71428571428572],[26.0,-84.57142857142857],[28.0,-84.66666666666667],[29.0,-84.25],[29.285714285714285,-84.28571428571428],[29.5,-84.0],[29.833333333333336,-83.83333333333334],[32.3,-83.30000000000001],[33.0,-83.0],[34.14285714285714,-83.14285714285714],[34.833333333333336,-82.83333333333333],[37.0,-82.4],[38.285714285714285,-82.28571428571428],[39.0,-82.0],[40.22222222222222,-81.22222222222223],[40.69230769230769,-80.6923076923077],[41.333333333333336,-80.33333333333334],[41.69230769230769,-79.6923076923077],[42.18181818181818,-79.18181818181819],[43.0,-77.0],[43.5,-76.5],[44.3,-75.3],[44.54545454545455,-74.54545454545453],[45.83333333333333,-72.83333333333333],[47.0,-72.0],[47.5,-71.0],[47.0,-70.0],[47.0,-69.0],[47.625,-68.625],[48.400000000000006,-68.4],[49.6,-68.4],[50.0,-68.66666666666667],[50.36363636363636,-68.36363636363636],[51.0,-68.16666666666667],[52.0,-67.6],[53.0,-67.8],[54.0,-67.8],[54.8,-68.2],[57.0,-68.75],[57.25,-69.0],[58.0,-69.33333333333334],[59.0,-69.25],[60.0,-69.66666666666667],[61.18181818181819,-69.81818181818181],[61.89473684210526,-70.10526315789474],[63.0,-70.28571428571428],[64.22222222222223,-70.22222222222223],[65.55555555555556,-70.44444444444444],[66.0,-70.66666666666666],[67.0,-70.66666666666666],[67.5,-71.0],[69.0,-71.57142857142857],[70.0,-71.5],[70.33333333333334,-71.66666666666667],[70.80000000000001,-72.19999999999999],[71.5,-72.5],[72.0,-73.0],[74.0,-73.6],[75.0,-74.2],[78.0,-75.0],[83.0,-76.66666666666666],[84.0,-76.8],[85.0,-76.66666666666666],[87.0,-77.33333333333334],[89.0,-77.33333333333334],[90.0,-77.6],[91.0,-77.5],[92.0,-78.0],[93.0,-78.0],[93.75,-78.25],[95.0,-78.4],[96.0,-78.25],[97.0,-78.4],[98.16666666666666,-78.16666666666667],[99.0,-77.8],[100.0,-78.2],[102.0,-78.0],[104.0,-78.33333333333334],[106.0,-79.0],[106.63636363636363,-79.36363636363636],[108.0,-79.71428571428572],[109.0,-79.66666666666666],[110.0,-79.8],[112.0,-79.5],[115.75,-79.75],[117.0,-79.6],[118.0,-80.0],[120.0,-79.6],[120.36363636363637,-79.63636363636364],[121.0,-80.0],[122.22222222222223,-79.22222222222223],[122.33333333333334,-79.0],[122.0,-78.0],[121.33333333333334,-77.0],[121.33333333333334,-76.66666666666667],[121.0,-76.0],[120.33333333333334,-75.66666666666667],[120.00000000000001,-75.66666666666667],[118.0,-74.2],[116.0,-74.2],[115.0,-73.5],[114.0,-73.125],[112.75,-73.25],[112.0,-72.5],[111.66666666666667,-72.33333333333334],[110.0,-72.0],[109.0,-71.5],[107.0,-71.2],[106.0,-71.4],[105.0,-71.0],[104.0,-71.0],[101.60000000000001,-70.4],[100.25,-69.75],[98.69999999999999,-69.3],[98.25,-68.75],[96.5,-68.0],[93.85714285714285,-67.14285714285714],[93.27272727272727,-66.72727272727272],[91.54545454545453,-66.45454545454545],[90.28571428571428,-65.71428571428571],[88.86666666666667,-65.13333333333333],[88.33333333333334,-64.66666666666667],[86.6470588235294,-64.35294117647058],[84.0,-63.0],[82.84615384615384,-62.15384615384615],[82.11764705882354,-60.882352941176464],[81.60000000000001,-60.400000000000006],[81.4,-60.0],[81.4,-57.0],[81.66666666666667,-56.66666666666667],[82.3157894736842,-56.315789473684205],[82.7,-55.7],[83.0,-55.57142857142857],[84.0,-55.5],[85.0,-55.800000000000004],[88.0,-55.0],[93.0,-55.0],[94.0,-55.2],[95.0,-55.0],[97.0,-55.285714285714285],[98.0,-55.16666666666667],[99.0,-55.25],[102.47058823529412,-54.47058823529412],[103.16666666666666,-54.16666666666667],[103.73333333333332,-53.733333333333334],[105.0,-53.5],[105.33333333333334,-53.333333333333336],[105.68421052631578,-52.68421052631578],[106.35294117647058,-52.35294117647059],[106.5,-52.0],[105.85714285714286,-51.142857142857146],[105.5,-50.0],[105.60000000000001,-49.6],[106.0,-49.0],[106.16666666666667,-48.0],[106.5,-47.5],[108.0,-46.0],[110.0,-45.5],[112.0,-45.5],[113.0,-45.333333333333336],[116.0,-45.5],[116.4,-45.6],[117.64705882352942,-46.35294117647059],[118.0,-46.42857142857143],[122.75,-46.75],[123.66666666666667,-46.66666666666667],[124.25,-46.25],[124.33333333333334,-46.0],[122.75,-44.0],[122.33333333333334,-42.66666666666667],[121.76470588235294,-42.23529411764706],[121.5,-41.0],[121.66666666666666,-40.0],[121.33333333333334,-39.0],[121.76470588235294,-37.76470588235294],[122.42857142857144,-37.42857142857143],[123.22222222222223,-37.22222222222222],[123.75,-36.75],[125.0,-36.44444444444444],[128.0,-36.44444444444444],[129.0,-36.25],[130.0,-36.375],[133.0,-36.0],[134.0,-36.0],[135.0,-36.57142857142857],[136.0,-36.4],[139.0,-36.8],[140.0,-36.666666666666664],[141.77777777777777,-36.77777777777778],[144.0,-36.4],[145.64705882352942,-35.647058823529406],[147.0,-35.57142857142857],[148.6470588235294,-34.64705882352941],[150.0,-34.5],[150.33333333333334,-34.333333333333336],[150.76470588235293,-33.76470588235294],[152.28571428571428,-33.285714285714285],[153.0,-32.5],[154.0,-32.0],[154.42857142857144,-31.42857142857143],[154.71428571428572,-30.71428571428571],[155.16666666666666,-30.166666666666668],[155.77777777777777,-27.77777777777778],[155.7142857142857,-24.285714285714285],[155.25,-23.75],[154.71428571428572,-22.285714285714285],[153.6923076923077,-21.307692307692307],[153.0,-20.0],[152.47058823529412,-19.52941176470588],[151.73333333333335,-19.266666666666666],[151.15384615384616,-18.846153846153847],[149.66666666666669,-18.333333333333336],[148.0,-17.0],[147.7142857142857,-16.285714285714285],[146.66666666666669,-15.0],[146.4,-13.600000000000001],[146.0,-13.0],[145.77777777777777,-12.222222222222221],[145.71428571428572,-10.285714285714285],[145.25,-9.0],[146.4,-7.4],[147.0,-7.0],[147.0,-6.0],[148.0,-6.0],[149.0,-5.5],[150.0,-5.5],[152.0,-4.5],[153.25,-4.25],[154.28571428571428,-3.2857142857142856],[154.1818181818182,-2.8181818181818183],[153.60000000000002,-2.4],[153.2,-1.8],[152.0,-1.0],[151.0,-1.6666666666666667],[150.0,-1.8],[149.52941176470588,-1.4705882352941175],[149.2,-1.0],[148.5,1.0],[148.25,3.0],[148.5,7.0],[148.0,8.0],[148.33333333333334,9.666666666666668],[148.5,10.0],[148.8,10.2],[150.35294117647058,10.647058823529411],[151.66666666666669,11.333333333333334],[153.0,11.571428571428571],[154.0,11.25],[155.4,11.400000000000002],[156.0,11.0],[156.66666666666669,11.333333333333334],[158.0,11.333333333333332],[159.0,11.0],[159.0,10.0],[160.0,9.8],[161.23529411764707,9.235294117647058],[161.625,8.625],[163.0,8.0],[164.0,7.0],[165.66666666666669,6.0],[166.2,5.2],[166.77777777777777,4.777777777777778],[167.0,4.0],[167.5,3.5],[168.0,3.3333333333333335],[168.25,3.0],[168.5,1.0],[168.33333333333334,0.6666666666666667],[168.5,-1.0],[168.6470588235294,-1.352941176470588],[169.23529411764707,-1.7647058823529411],[170.15384615384616,-3.8461538461538463],[170.875,-6.125],[171.375,-6.625],[172.0,-10.0],[172.4,-11.0],[172.42857142857144,-12.0],[172.73333333333335,-13.266666666666666],[173.3157894736842,-13.684210526315788],[173.42857142857144,-14.0],[173.33333333333334,-15.0],[173.55555555555554,-15.444444444444443],[174.13333333333333,-15.866666666666667],[174.5,-17.0],[175.3,-17.7],[175.42857142857144,-18.0],[175.5,-19.0],[176.14285714285714,-19.857142857142858],[176.77777777777777,-21.22222222222222],[177.0,-21.25],[179.13333333333333,-22.866666666666667],[180.0,-24.6],[180.0,-90.0],[15.0,-90.0],[15.600000000000001,-89.60000000000001],[17.0,-89.33333333333334],[17.5,-89.0],[17.6,-88.6],[18.400000000000002,-88.4],[19.0,-88.0],[18.400000000000002,-87.6],[18.0,-87.5],[17.6,-87.6],[16.5,-88.5],[16.0,-88.66666666666667],[14.600000000000001,-88.4],[14.0,-88.0],[13.0,-89.0],[12.0,-88.0],[12.0,-87.0],[11.600000000000001,-86.4],[11.0,-86.0],[10.0,-86.5],[8.666666666666668,-86.33333333333334],[8.0,-86.0],[9.0,-85.0],[10.0,-84.83333333333334],[11.0,-85.0]],[[15.0,-87.0],[15.666666666666668,-87.33333333333334],[16.333333333333336,-87.33333333333334],[16.5,-87.0],[16.333333333333336,-86.66666666666667],[16.0,-86.5],[15.5,-86.5],[15.0,-86.0],[15.0,-87.0]],[[124.0,-76.83333333333334],[123.5,-77.0],[124.0,-77.33333333333334],[124.4,-77.4],[125.0,-77.0],[124.0,-76.83333333333334]],[[143.0,-51.166666666666664],[143.5,-51.0],[142.77777777777777,-50.77777777777778],[142.0,-51.0],[143.0,-51.166666666666664]],[[144.0,-77.0],[143.66666666666669,-77.66666666666667],[143.0,-78.0],[143.0,-79.0],[142.4,-78.60000000000001],[141.7142857142857,-78.71428571428571],[141.5,-79.0],[141.6,-79.4],[142.0,-80.0],[143.0,-80.5],[145.0,-80.5],[146.0,-80.66666666666667],[147.0,-81.0],[148.0,-80.5],[149.0,-81.0],[149.71428571428572,-80.71428571428572],[151.44444444444443,-80.44444444444444],[152.0,-80.0],[153.0,-80.0],[153.0,-79.0],[152.0,-79.0],[152.0,-78.0],[151.4,-77.6],[151.0,-77.0],[151.0,-76.0],[152.36363636363637,-75.36363636363637],[152.66666666666669,-75.0],[152.0,-74.0],[151.25,-74.25],[150.8,-74.2],[150.5,-74.0],[150.33333333333334,-73.66666666666667],[149.0,-73.0],[148.4,-73.4],[147.0,-73.5],[146.63636363636363,-73.63636363636363],[146.33333333333334,-74.0],[146.5,-74.5],[147.0,-75.0],[146.0,-75.33333333333334],[145.60000000000002,-75.60000000000001],[145.33333333333331,-76.0],[145.0,-77.0],[144.0,-77.0]]],[[[113.23529411764707,-36.23529411764706],[111.75,-37.0],[110.75,-38.0],[110.22222222222223,-39.22222222222222],[110.0,-39.333333333333336],[109.0,-39.5],[107.0,-39.42857142857143],[106.0,-39.57142857142857],[102.0,-39.5],[101.61904761904762,-39.38095238095238],[101.10526315789474,-38.89473684210526],[99.58333333333334,-38.41666666666667],[98.4,-37.0],[98.33333333333334,-36.0],[98.66666666666667,-35.66666666666667],[100.0,-35.0],[101.6470588235294,-33.647058823529406],[102.0,-33.5],[104.0,-33.400000000000006],[107.0,-33.800000000000004],[109.0,-33.666666666666664],[110.0,-34.0],[115.2,-32.8],[116.0,-33.0],[115.8,-33.8],[115.85714285714286,-34.0],[115.47999999999999,-34.48],[114.82608695652173,-34.826086956521735],[114.41666666666667,-35.41666666666667],[113.69999999999999,-35.7],[113.23529411764707,-36.23529411764706]]],[[[123.33333333333334,-2.0],[123.55555555555554,-4.0],[123.55555555555554,-9.0],[123.33333333333334,-11.0],[123.42857142857142,-12.0],[123.33333333333334,-13.0],[123.22222222222223,-13.222222222222221],[122.55555555555556,-13.555555555555555],[122.33333333333334,-14.0],[122.14285714285714,-15.142857142857142],[121.57142857142858,-15.571428571428573],[121.4,-16.0],[121.33333333333333,-17.0],[121.80000000000001,-18.0],[121.66666666666667,-19.0],[121.83333333333334,-21.0],[121.42857142857143,-24.0],[121.31578947368419,-24.31578947368421],[120.76470588235294,-24.764705882352942],[120.35294117647058,-25.352941176470587],[119.75,-25.75],[119.0,-26.5],[118.0,-26.57142857142857],[117.7,-26.7],[117.14285714285714,-27.142857142857142],[115.77777777777777,-27.77777777777778],[115.25,-28.25],[112.0,-29.0],[109.53846153846155,-28.461538461538463],[107.46153846153847,-27.53846153846154],[107.0,-27.0],[106.35294117647058,-26.64705882352941],[106.04878048780488,-25.951219512195124],[106.0,-24.75],[105.71428571428571,-24.285714285714285],[105.69999999999999,-24.0],[107.0,-22.22222222222222],[107.69230769230771,-21.692307692307693],[107.875,-21.0],[108.45454545454544,-20.454545454545453],[109.375,-19.0],[111.0,-17.25],[111.51219512195122,-16.51219512195122],[112.0,-16.166666666666668],[112.18181818181819,-15.818181818181818],[112.23076923076923,-15.23076923076923],[112.6,-15.0],[113.56521739130434,-13.565217391304346],[114.16666666666667,-13.166666666666668],[114.5,-12.5],[115.0,-12.0],[115.42857142857142,-11.0],[115.73333333333333,-8.733333333333334],[116.10526315789474,-8.105263157894736],[116.32,-7.32],[116.44444444444443,-5.444444444444444],[116.64705882352942,-4.647058823529411],[117.0,-4.0],[117.14285714285714,-3.142857142857143],[117.29999999999998,-1.0],[117.5,-0.5],[118.0,0.0],[117.33333333333334,1.3333333333333333],[117.23529411764706,2.0],[117.33333333333334,4.0],[117.57894736842105,4.421052631578947],[118.0,4.8],[119.0,5.0],[121.0,4.666666666666667],[122.25,4.0],[122.6,2.0],[123.33333333333334,0.0],[123.33333333333334,-2.0]]],[[[178.85714285714286,-5.0],[178.5609756097561,-4.439024390243903],[178.35714285714283,-3.0],[179.0,-1.75],[179.77142857142857,-2.2285714285714286],[180.0,-2.571428571428571],[180.0,-3.0],[180.0,-5.666666666666666],[179.6923076923077,-5.307692307692308],[179.0,-5.199999999999999],[178.85714285714286,-5.0]]],[[[132.3157894736842,-1.6842105263157894],[131.6153846153846,-1.3846153846153846],[131.44444444444446,-1.0],[131.52380952380952,-0.5238095238095237],[131.76470588235296,0.23529411764705882],[132.0,0.4],[135.0,0.5],[135.22222222222223,0.2222222222222222],[135.42857142857144,-1.0],[135.0,-1.375],[133.0,-2.2],[132.3157894736842,-1.6842105263157894]]],[[[177.0,4.0],[177.73076923076923,4.269230769230769],[178.0,4.7],[178.4516129032258,4.451612903225806],[178.88235294117646,3.8823529411764706],[178.94871794871796,2.9999999999999996],[178.82978723404256,2.170212765957447],[178.0,2.0],[177.12765957446808,2.127659574468085],[177.0,2.75],[176.79999999999998,3.0],[177.0,4.0]]],[[[133.65217391304347,11.652173913043478],[133.89473684210526,10.894736842105264],[134.38095238095238,10.380952380952381],[134.5,10.0],[134.77777777777777,7.777777777777778],[135.08333333333331,7.083333333333334],[135.60000000000002,3.6000000000000005],[136.0,3.0],[135.0,1.5],[134.47058823529412,2.4705882352941178],[133.86666666666667,2.8666666666666663],[133.47058823529412,3.4705882352941173],[132.75,3.75],[132.0,4.333333333333334],[129.84615384615384,4.846153846153847],[128.60000000000002,5.6000000000000005],[128.25,6.25],[127.75,6.75],[127.5,8.0],[127.0,9.0],[127.16666666666667,10.0],[127.5,11.0],[127.5,12.0],[127.65217391304348,12.347826086956522],[128.28571428571428,12.714285714285714],[128.75,13.25],[129.42857142857144,13.571428571428573],[131.0,13.857142857142858],[132.0,13.857142857142858],[133.4,13.4],[133.6,13.0],[133.65217391304347,11.652173913043478]]],[[[172.27027027027026,8.0],[173.0,8.964285714285715],[173.8,8.8],[174.0,8.333333333333334],[174.33333333333334,8.0],[174.0,7.666666666666666],[173.7948717948718,7.205128205128205],[173.0,7.068965517241379],[172.27027027027026,8.0]]],[[[43.760000000000005,14.24],[43.599999999999994,13.0],[42.924050632911396,12.075949367088608],[42.75,11.0],[41.47482014388489,9.525179856115107],[40.873873873873876,9.126126126126126],[40.0,8.24],[39.0,8.181818181818182],[38.66666666666667,8.0],[37.88235294117647,7.117647058823529],[37.38709677419355,5.612903225806451],[36.66666666666667,5.0],[36.0,4.142857142857143],[35.0,3.5],[34.63636363636364,4.0],[34.6,5.0],[34.333333333333336,6.0],[34.333333333333336,7.666666666666668],[34.714285714285715,9.0],[35.333333333333336,9.666666666666668],[35.375,10.0],[35.61538461538461,10.384615384615385],[36.2962962962963,10.703703703703702],[36.66666666666667,11.333333333333334],[38.14285714285714,11.857142857142858],[38.53333333333334,12.466666666666667],[39.22222222222222,12.777777777777779],[39.7,13.3],[40.333333333333336,13.666666666666668],[40.80952380952381,14.190476190476192],[42.0,15.125],[43.0,15.5],[44.0,15.625],[44.38461538461538,15.384615384615383],[44.45454545454545,15.0],[44.0,14.375],[43.760000000000005,14.24]]],[[[32.5,11.0],[32.2962962962963,10.703703703703702],[32.0,10.555555555555557],[31.0,10.615384615384617],[30.68,10.32],[30.692307692307693,10.0],[30.310344827586206,9.689655172413794],[30.0,9.666666666666666],[29.419354838709676,10.0],[29.461538461538463,10.53846153846154],[29.666666666666668,11.0],[28.875,12.0],[29.0,13.0],[30.769230769230766,13.23076923076923],[31.0,13.428571428571427],[32.0,13.31578947368421],[32.4,13.0],[32.526315789473685,12.526315789473685],[32.85714285714286,12.0],[32.5,11.0]]],[[[120.7,17.3],[121.0,18.25],[121.28571428571428,18.285714285714285],[121.5,18.0],[121.66666666666669,17.666666666666668],[121.75,17.0],[121.26666666666667,15.733333333333333],[121.0,15.333333333333336],[120.63636363636364,15.636363636363637],[120.5,16.0],[120.7,17.3]]],[[[49.278260869565216,23.721739130434784],[50.0,23.98611111111111],[50.55725190839694,23.557251908396946],[50.731958762886606,23.0],[50.0,22.027397260273972],[49.028985507246375,22.028985507246375],[49.04054054054053,23.0],[49.278260869565216,23.721739130434784]]],[[[56.46575342465753,32.465753424657535],[56.653846153846146,32.0],[56.40909090909091,31.0],[56.0,30.615384615384613],[55.32835820895522,30.999999999999996],[56.0,32.77272727272727],[56.46575342465753,32.465753424657535]]],[[[51.34146341463414,38.65853658536585],[51.99999999999999,38.98684210526316],[52.5017793594306,38.50177935943061],[52.66079295154185,38.0],[52.434153400868304,37.56584659913169],[52.0,37.333333333333336],[51.50900163666121,37.50900163666121],[51.050632911392405,38.0],[51.34146341463414,38.65853658536585]]],[[[32.054794520547944,42.0],[32.28,42.72],[33.0,42.90789473684211],[33.84905660377358,42.84905660377359],[34.40816326530612,42.0],[34.30534351145038,41.69465648854962],[33.849999999999994,41.15],[33.0,40.95454545454545],[32.11904761904762,41.11904761904762],[32.054794520547944,42.0]]]]}}]}