{"type":"FeatureCollection","features":[{"type":"Feature","properties":{"ageMa":490},"geometry":{"type":"MultiPolygon","coordinates":[[[[-60.0,-67.0],[-60.75,-67.25],[-61.333333333333336,-68.0],[-62.199999999999996,-68.8],[-63.0,-69.0],[-63.60000000000001,-69.4],[-64.0,-69.5],[-64.05882352941177,-69.05882352941177],[-65.0,-68.0],[-66.0,-67.80000000000001],[-66.26666666666667,-67.26666666666667],[-67.0909090909091,-67.0],[-67.46153846153847,-66.46153846153847],[-68.0,-66.0909090909091],[-68.08695652173913,-65.08695652173913],[-68.25,-65.0],[-68.0,-63.0],[-67.0,-63.0],[-66.4,-62.6],[-65.0,-62.333333333333336],[-64.0,-63.0],[-63.0,-64.0],[-61.0,-64.0],[-60.400000000000006,-64.4],[-60.0,-65.0],[-60.0,-67.0]]],[[[10.0,-38.0],[10.25,-38.75],[11.0,-39.0],[11.285714285714285,-39.71428571428571],[12.142857142857142,-39.85714285714286],[13.0,-39.714285714285715],[13.222222222222221,-40.0],[13.3125,-41.0],[13.0,-41.714285714285715],[12.692307692307693,-41.69230769230769],[12.166666666666668,-42.16666666666667],[12.0,-43.0],[11.19047619047619,-44.19047619047619],[11.0,-45.0],[10.5,-46.0],[10.636363636363637,-46.36363636363637],[11.25,-47.0],[11.400000000000002,-47.6],[12.0,-48.0],[13.0,-47.92857142857142],[13.559322033898304,-48.440677966101696],[13.756756756756758,-49.0],[13.495575221238937,-49.49557522123894],[13.0,-50.0],[12.266666666666666,-50.266666666666666],[11.0,-53.0],[11.400000000000002,-54.6],[12.0,-55.0],[11.222222222222221,-55.22222222222222],[11.0,-55.5],[10.0,-55.33333333333333],[9.4,-55.400000000000006],[9.0,-55.5],[8.5,-56.0],[6.0,-56.22222222222222],[5.0,-56.5],[4.0,-56.599999999999994],[3.0,-57.0],[0.09090909090909088,-57.09090909090909],[-0.75,-57.25],[-1.4615384615384615,-57.53846153846154],[-2.0,-58.0],[-2.8095238095238093,-58.19047619047619],[-3.0,-58.5],[-3.444444444444444,-58.55555555555556],[-4.0,-59.0],[-4.6,-58.60000000000001],[-7.0,-58.2],[-8.0,-57.714285714285715],[-9.666666666666668,-57.66666666666667],[-11.0,-57.25],[-13.0,-57.4],[-14.0,-57.0],[-16.0,-57.0],[-20.0,-56.0],[-22.444444444444443,-54.44444444444444],[-23.0,-54.0],[-23.42857142857143,-53.42857142857143],[-23.75,-52.0],[-23.666666666666664,-51.00000000000001],[-23.400000000000002,-50.60000000000001],[-22.0,-50.25],[-21.31578947368421,-49.68421052631578],[-19.733333333333334,-49.266666666666666],[-19.133333333333333,-48.86666666666667],[-17.333333333333336,-48.66666666666667],[-15.0,-47.5],[-14.0,-46.66666666666667],[-13.0,-46.333333333333336],[-12.666666666666668,-46.0],[-12.5,-45.5],[-12.0,-45.333333333333336],[-11.0,-45.5],[-9.0,-45.5],[-8.571428571428573,-45.42857142857143],[-8.0,-45.0],[-8.333333333333334,-44.333333333333336],[-9.0,-44.0],[-10.0,-43.0],[-10.818181818181818,-43.18181818181818],[-11.5,-43.0],[-11.75,-42.75],[-12.444444444444445,-42.44444444444444],[-14.0,-42.0],[-14.600000000000001,-41.6],[-15.333333333333334,-41.333333333333336],[-15.5,-41.0],[-15.5,-40.5],[-15.0,-40.0],[-14.400000000000002,-40.4],[-14.0,-40.5],[-13.600000000000001,-40.4],[-13.0,-40.0],[-12.0,-40.0],[-12.0,-39.0],[-9.866666666666667,-38.13333333333333],[-9.363636363636363,-37.63636363636364],[-8.666666666666668,-37.333333333333336],[-8.266666666666666,-36.733333333333334],[-7.0,-36.333333333333336],[-6.0,-36.5],[-5.0,-36.333333333333336],[-3.0,-37.0],[-2.0,-37.0],[-1.0,-36.5],[0.0,-36.5],[1.0,-36.0],[4.0,-36.0],[5.0,-35.714285714285715],[7.0,-36.333333333333336],[7.4,-37.0],[8.8,-38.0],[9.0,-38.333333333333336],[9.333333333333334,-38.333333333333336],[10.0,-38.0]]],[[[-63.72727272727273,-45.0],[-65.0,-45.48148148148148],[-67.20689655172414,-45.20689655172414],[-67.61643835616438,-45.38356164383561],[-68.0,-45.37837837837838],[-69.11111111111111,-45.0],[-68.46666666666667,-44.53333333333333],[-68.0,-44.0],[-67.23076923076923,-44.230769230769226],[-67.0,-44.5],[-66.625,-44.625],[-66.0,-44.64285714285714],[-65.0,-44.38095238095238],[-63.72727272727273,-45.0]]],[[[-55.0,-44.7037037037037],[-55.61111111111111,-44.611111111111114],[-56.14545454545454,-44.14545454545454],[-56.16666666666667,-44.0],[-55.526315789473685,-43.47368421052632],[-55.10362694300518,-42.89637305699482],[-53.698630136986296,-42.698630136986296],[-52.88235294117647,-43.0],[-53.48,-43.519999999999996],[-53.69230769230769,-44.0],[-54.0,-44.205128205128204],[-55.0,-44.7037037037037]]],[[[-76.5974025974026,-41.5974025974026],[-76.0,-42.0],[-76.28,-42.72],[-77.00000000000001,-42.939393939393945],[-77.78947368421052,-42.78947368421053],[-77.91176470588235,-42.0],[-77.0,-41.49180327868852],[-76.5974025974026,-41.5974025974026]]],[[[-91.04761904761904,-40.0],[-90.31155778894473,-39.688442211055275],[-89.67368421052632,-39.67368421052632],[-88.81818181818183,-40.0],[-89.55072463768116,-40.44927536231884],[-90.0,-40.574074074074076],[-90.45588235294117,-40.455882352941174],[-91.04761904761904,-40.0]]],[[[-90.5,-32.0],[-90.92,-32.08],[-91.1,-31.9],[-91.21428571428572,-31.214285714285715],[-91.6,-31.0],[-91.71428571428571,-30.71428571428571],[-92.0,-30.666666666666668],[-92.18367346938776,-29.183673469387752],[-92.01492537313432,-28.0],[-92.0,-26.25],[-91.16666666666667,-25.833333333333336],[-91.0,-25.333333333333336],[-90.73333333333333,-25.733333333333334],[-90.42857142857142,-28.0],[-90.75,-30.0],[-90.4,-31.0],[-90.4,-31.6],[-90.5,-32.0]]],[[[-133.20000000000002,-23.000000000000004],[-133.57894736842104,-23.421052631578945],[-134.0,-23.666666666666664],[-135.0,-23.833333333333332],[-136.0,-23.800000000000004],[-136.5,-23.5],[-136.66666666666669,-23.0],[-136.88235294117646,-21.88235294117647],[-137.5,-20.0],[-137.15384615384613,-19.846153846153847],[-135.0,-19.666666666666664],[-134.16,-20.16],[-133.625,-21.0],[-133.25,-22.0],[-133.20000000000002,-23.000000000000004]]],[[[-57.71428571428571,-3.7142857142857144],[-57.0,-4.0],[-55.470588235294116,-6.470588235294117],[-54.857142857142854,-6.857142857142857],[-54.4,-8.0],[-54.5,-9.0],[-53.66666666666667,-12.0],[-53.733333333333334,-13.266666666666666],[-54.25,-15.0],[-55.0,-16.0],[-55.0,-17.0],[-55.75,-18.0],[-56.0,-19.0],[-57.0,-20.0],[-57.25,-21.0],[-58.0,-22.0],[-58.25,-23.0],[-58.57142857142858,-23.42857142857143],[-59.5,-24.0],[-59.5,-25.0],[-58.55555555555556,-25.555555555555554],[-57.0,-26.0],[-53.63636363636364,-25.363636363636363],[-52.2,-24.8],[-51.0,-24.6],[-50.0,-24.625],[-48.0,-24.4],[-47.53846153846154,-24.53846153846154],[-46.0,-26.0],[-47.0,-27.0],[-47.4,-27.6],[-48.60000000000001,-28.400000000000002],[-49.0,-28.5],[-49.22222222222223,-28.77777777777778],[-50.0,-29.0],[-51.00000000000001,-29.66666666666667],[-52.0,-30.0],[-53.0,-31.0],[-55.0,-32.0],[-56.63636363636364,-32.36363636363636],[-58.0,-32.5],[-59.0,-33.0],[-60.0,-32.75],[-61.0,-33.0],[-65.0,-32.4],[-67.3076923076923,-32.30769230769231],[-69.0,-32.0],[-69.28571428571428,-31.285714285714285],[-72.0,-30.333333333333336],[-73.14285714285714,-30.142857142857146],[-73.53846153846155,-29.53846153846154],[-74.5,-29.0],[-75.63636363636364,-27.636363636363637],[-76.0,-27.5],[-76.5,-27.0],[-76.75,-26.0],[-76.81818181818181,-24.81818181818182],[-77.0,-24.0],[-77.33333333333334,-23.333333333333336],[-77.5,-22.0],[-77.0,-21.333333333333336],[-76.0,-21.5],[-75.66666666666667,-21.0],[-76.25,-19.25],[-77.0,-18.666666666666668],[-77.75,-17.75],[-79.19047619047619,-17.19047619047619],[-79.76470588235294,-16.764705882352942],[-82.0,-16.0],[-83.0,-15.5],[-84.0,-15.6],[-85.0,-15.5],[-87.0,-15.0],[-87.66666666666667,-14.0],[-87.5,-13.5],[-87.0,-13.0],[-87.0,-12.0],[-86.0,-11.666666666666668],[-84.71428571428571,-11.714285714285714],[-84.0,-12.0],[-80.0,-12.0],[-79.4,-12.4],[-78.0,-12.666666666666666],[-77.0,-13.0],[-76.0,-13.0],[-75.28571428571428,-12.714285714285714],[-74.0,-12.5],[-73.5,-12.0],[-73.4,-11.600000000000001],[-73.0,-11.0],[-73.0,-10.0],[-72.4,-9.600000000000001],[-72.0,-9.5],[-71.44444444444444,-8.555555555555555],[-70.5,-7.5],[-70.18181818181819,-6.818181818181818],[-69.6923076923077,-6.307692307692308],[-69.33333333333334,-5.666666666666667],[-68.8,-5.2],[-67.16666666666667,-2.8333333333333335],[-66.60000000000001,-2.4],[-65.22222222222223,-0.7777777777777778],[-64.0,-0.25],[-62.0,0.25],[-59.63636363636364,-0.6363636363636364],[-59.22222222222222,-1.2222222222222223],[-59.0,-2.0],[-58.400000000000006,-2.4],[-57.71428571428571,-3.7142857142857144]]],[[[-141.57142857142858,-16.42857142857143],[-142.0,-16.6],[-143.0,-16.333333333333332],[-143.5,-16.0],[-143.92,-15.92],[-144.57142857142858,-15.571428571428573],[-145.0,-15.0],[-145.25,-14.0],[-144.625,-13.375],[-143.91304347826087,-13.08695652173913],[-143.05405405405403,-12.945945945945946],[-142.0,-13.416666666666666],[-141.05,-14.049999999999999],[-140.7037037037037,-14.703703703703702],[-140.33333333333334,-15.000000000000002],[-141.0,-16.0],[-141.57142857142858,-16.42857142857143]]],[[[-92.0,-11.0],[-92.6,-11.400000000000002],[-93.0,-11.5],[-94.0,-11.0],[-94.0,-10.0],[-93.0,-10.0],[-92.4,-10.4],[-92.0,-11.0]]],[[[-150.0,-8.0],[-152.0,-7.7407407407407405],[-152.48192771084337,-7.481927710843373],[-152.83333333333334,-7.0],[-153.26086956521738,-5.739130434782609],[-153.0,-5.0],[-152.35714285714286,-4.642857142857142],[-152.0,-4.583333333333334],[-151.80769230769232,-4.8076923076923075],[-151.0,-5.1],[-150.6896551724138,-5.689655172413793],[-150.30769230769232,-6.0],[-149.83333333333334,-6.833333333333333],[-149.57142857142856,-7.0],[-149.625,-7.375],[-150.0,-8.0]]],[[[-161.5,-5.5],[-161.40000000000003,-4.6],[-161.0,-4.5],[-160.84615384615384,-5.153846153846154],[-161.0,-5.5],[-161.5,-5.5]]],[[[-158.81395348837208,2.186046511627907],[-159.0,2.090909090909091],[-159.58762886597935,2.4123711340206184],[-160.05882352941177,3.0],[-160.4375,4.0],[-160.0,4.212121212121212],[-158.86516853932585,4.134831460674157],[-158.28571428571428,3.7142857142857144],[-158.1304347826087,3.0],[-158.23529411764707,2.764705882352941],[-158.15384615384616,2.1538461538461537],[-158.81395348837208,2.186046511627907]]],[[[-158.0,10.789473684210526],[-159.0,10.916666666666666],[-159.71428571428572,11.285714285714285],[-160.025,12.0],[-160.0,13.333333333333332],[-159.6521739130435,13.652173913043477],[-158.8095238095238,13.80952380952381],[-158.0,13.666666666666668],[-157.06451612903226,12.935483870967742],[-156.63636363636363,12.0],[-156.85714285714283,11.0],[-158.0,10.789473684210526]]],[[[-157.0,17.333333333333336],[-157.4255319148936,17.574468085106382],[-157.71428571428572,18.0],[-158.0625,19.0],[-158.0,19.166666666666668],[-157.4,19.400000000000002],[-156.0,19.114285714285714],[-155.68421052631578,18.31578947368421],[-155.35714285714286,18.0],[-155.53846153846155,17.538461538461537],[-156.0,17.1],[-157.0,17.333333333333336]]],[[[-178.5,23.0],[-179.66666666666669,24.0],[-180.0,24.5],[-180.0,26.0],[-179.0,26.0],[-178.5,25.5],[-178.16666666666666,24.833333333333332],[-177.0,24.0],[-176.8181818181818,23.18181818181818],[-176.77777777777777,22.77777777777778],[-177.0,22.0],[-177.4,22.6],[-178.5,23.0]]],[[[-166.0,26.5],[-166.21875,26.78125],[-166.73684210526318,27.0],[-166.7560975609756,27.24390243902439],[-167.0,27.416666666666664],[-167.15384615384616,27.846153846153847],[-167.63636363636363,28.0],[-167.26415094339623,28.264150943396224],[-166.0,28.135135135135137],[-165.475,27.525],[-164.82608695652175,27.0],[-165.0,26.0],[-165.53333333333333,26.46666666666667],[-166.0,26.5]]],[[[-55.0,-70.8],[-54.0,-70.6],[-52.0,-71.0],[-51.285714285714285,-71.28571428571428],[-51.0,-72.0],[-50.44444444444444,-72.44444444444444],[-50.2,-73.0],[-50.25,-74.0],[-50.5,-74.5],[-51.0,-75.0],[-50.36363636363636,-75.36363636363637],[-48.55555555555555,-75.44444444444444],[-48.0,-75.0],[-43.0,-75.0],[-40.0,-75.5],[-39.0,-75.5],[-36.0,-75.83333333333333],[-34.0,-75.5],[-33.53846153846154,-75.53846153846155],[-31.75,-75.75],[-31.0,-76.14285714285715],[-29.0,-75.8],[-28.125,-76.125],[-27.0,-76.0],[-24.400000000000002,-76.4],[-23.0,-76.42857142857142],[-20.0,-77.0],[-19.0,-77.33333333333334],[-16.0,-77.66666666666667],[-15.0,-77.66666666666667],[-13.266666666666666,-78.26666666666667],[-12.0,-78.5],[-9.0,-78.57142857142857],[-8.529411764705882,-78.47058823529412],[-8.0,-78.0],[-7.4,-78.4],[-5.846153846153846,-78.84615384615385],[-5.0,-79.0],[-4.0,-79.0],[-1.0,-79.66666666666666],[1.0,-79.42857142857142],[2.0,-79.6],[7.0,-79.36363636363637],[14.0,-79.5],[20.0,-79.0],[35.07142857142857,-78.92857142857143],[38.14285714285714,-79.14285714285714],[39.0,-79.0],[42.0,-79.0],[43.0,-78.8],[43.99999999999999,-79.1111111111111],[45.0,-78.8],[46.0,-78.75],[48.0,-79.0],[49.0,-78.75],[52.71428571428571,-78.71428571428571],[55.0,-78.42857142857142],[56.0,-78.57142857142857],[59.142857142857146,-78.14285714285714],[60.0,-77.83333333333333],[61.00000000000001,-78.2],[62.0,-77.8],[65.0,-77.83333333333333],[66.0,-78.25],[67.0,-79.0],[66.0,-81.0],[61.15584415584416,-81.15584415584416],[60.65714285714286,-81.34285714285714],[60.322580645161295,-81.32258064516128],[60.0,-81.71428571428571],[59.0,-81.83333333333334],[58.0,-81.75],[56.0,-82.0],[47.20779220779221,-82.20779220779221],[45.51111111111111,-82.5111111111111],[43.92857142857143,-83.07142857142857],[43.07142857142857,-83.07142857142857],[42.36363636363636,-83.36363636363636],[42.2,-84.0],[42.0,-84.05],[9.158730158730158,-84.15873015873015],[7.357142857142858,-84.35714285714286],[6.0,-85.0],[3.0,-85.0],[2.3,-84.69999999999999],[0.0,-84.57142857142857],[-0.9746835443037974,-85.0253164556962],[-8.0,-85.07499999999999],[-13.0,-85.0],[-14.0,-84.71428571428572],[-19.315789473684212,-84.3157894736842],[-21.0,-84.0],[-24.75,-84.25],[-26.0,-84.07692307692308],[-28.0,-84.2],[-36.0,-84.05128205128206],[-36.25,-84.0],[-36.5,-83.5],[-37.17391304347826,-83.17391304347825],[-40.42857142857143,-83.0],[-40.63636363636364,-82.63636363636363],[-41.214285714285715,-82.21428571428572],[-42.0,-82.14285714285714],[-42.66666666666667,-81.66666666666667],[-43.0,-81.57142857142857],[-43.275862068965516,-81.27586206896552],[-44.99999999999999,-80.76470588235294],[-46.42424242424242,-79.42424242424242],[-46.63636363636364,-79.0],[-46.800000000000004,-78.0],[-46.55555555555555,-77.44444444444444],[-46.0,-77.0],[-47.0,-76.33333333333333],[-47.5,-76.5],[-48.0,-77.0],[-47.5,-78.0],[-52.0,-78.14285714285714],[-52.5,-78.0],[-52.647058823529406,-77.6470588235294],[-53.14814814814815,-77.14814814814815],[-54.0,-77.0],[-54.529411764705884,-76.52941176470588],[-55.0,-76.33333333333333],[-55.421052631578945,-76.57894736842105],[-55.666666666666664,-77.0],[-56.125,-77.125],[-57.0,-77.0909090909091],[-57.333333333333336,-77.0],[-58.28571428571428,-76.28571428571428],[-62.06666666666666,-75.06666666666666],[-63.083333333333336,-75.0],[-63.0,-74.85714285714285],[-62.4,-74.6],[-62.14285714285714,-74.0],[-62.57142857142858,-72.57142857142857],[-63.0,-72.0],[-62.5,-71.5],[-62.33333333333333,-71.0],[-62.36363636363636,-70.63636363636364],[-62.0,-70.0],[-61.28571428571428,-70.28571428571428],[-59.53846153846154,-70.53846153846155],[-59.0,-71.0],[-57.111111111111114,-71.11111111111111],[-56.15384615384615,-70.84615384615384],[-55.0,-70.8]]],[[[37.63636363636363,-50.0],[38.0,-49.885714285714286],[38.800000000000004,-50.0],[38.0,-50.66666666666667],[37.63636363636363,-50.0]]],[[[-171.5,10.5],[-171.13333333333333,9.866666666666667],[-170.625,9.375],[-170.3,8.7],[-169.0,7.4],[-168.9,7.1],[-168.6,7.0],[-168.23529411764707,5.764705882352942],[-166.5,4.5],[-165.55555555555554,3.444444444444444],[-165.3,2.7],[-164.4,1.6],[-164.0,0.6666666666666667],[-163.7142857142857,0.7142857142857142],[-163.25,1.25],[-163.0,1.3333333333333335],[-162.8,1.0],[-162.6,-0.4],[-163.0,-1.0],[-162.0,-1.0],[-161.85714285714286,-2.142857142857143],[-162.0,-4.0],[-162.5,-5.0],[-162.0,-5.5],[-161.5,-5.5],[-161.5,-6.0],[-160.60000000000002,-7.6],[-160.36363636363637,-8.363636363636363],[-160.0,-9.0],[-160.0,-10.0],[-159.71428571428572,-10.714285714285715],[-159.0,-12.0],[-158.44444444444443,-13.444444444444445],[-158.0,-14.0],[-157.5,-15.5],[-157.0,-16.0],[-156.76470588235293,-16.764705882352942],[-156.66666666666669,-18.333333333333336],[-157.33333333333334,-18.666666666666668],[-157.5,-19.0],[-157.25,-19.25],[-157.0,-20.0],[-156.0,-20.333333333333336],[-155.0,-20.5],[-154.75,-20.75],[-154.66666666666666,-21.0],[-154.0,-21.666666666666668],[-153.33333333333334,-23.333333333333336],[-152.75,-24.0],[-152.66666666666669,-24.666666666666668],[-152.0,-26.0],[-151.55555555555554,-26.555555555555554],[-149.79999999999998,-28.0],[-149.55555555555554,-28.555555555555554],[-149.0,-29.0],[-148.7142857142857,-29.714285714285715],[-148.0,-30.333333333333336],[-147.44444444444446,-31.444444444444443],[-146.45454545454547,-32.45454545454545],[-145.78947368421052,-32.78947368421053],[-145.0,-33.400000000000006],[-144.0,-33.5],[-142.0,-34.666666666666664],[-141.0,-35.0],[-140.0,-35.0],[-139.0,-35.5],[-138.71428571428572,-35.285714285714285],[-138.0,-35.2],[-137.6,-34.400000000000006],[-137.0,-34.11111111111111],[-136.56521739130434,-33.43478260869565],[-135.91666666666666,-33.0],[-135.6521739130435,-32.34782608695652],[-135.0,-31.8],[-134.69230769230768,-31.0],[-134.625,-30.375],[-134.0,-29.0],[-133.25,-28.0],[-133.0,-27.8],[-132.0,-28.0],[-131.16666666666669,-29.0],[-130.0,-30.0],[-129.84615384615384,-31.153846153846153],[-130.06666666666666,-32.0],[-130.0,-33.0],[-130.13333333333333,-35.13333333333333],[-129.83333333333334,-36.0],[-129.0,-37.0],[-128.64705882352942,-37.64705882352941],[-128.0,-38.333333333333336],[-127.66666666666669,-39.66666666666667],[-127.34782608695653,-40.34782608695652],[-126.80000000000001,-41.0],[-125.84615384615384,-44.84615384615385],[-125.60000000000001,-45.6],[-125.33333333333334,-46.0],[-125.25,-47.0],[-125.0,-47.333333333333336],[-124.0,-48.0],[-123.30769230769232,-49.30769230769231],[-122.16666666666666,-50.166666666666664],[-121.36363636363636,-50.36363636363636],[-120.0,-50.400000000000006],[-118.28571428571428,-51.285714285714285],[-117.0,-50.875],[-115.0,-51.0],[-114.00000000000001,-51.33333333333334],[-111.0,-52.0],[-110.0,-52.0],[-109.0,-52.333333333333336],[-108.00000000000001,-52.333333333333336],[-105.25,-53.25],[-103.0,-53.5],[-102.00000000000001,-53.333333333333336],[-101.4,-53.400000000000006],[-100.60000000000001,-53.60000000000001],[-100.0,-54.0],[-99.4,-53.60000000000001],[-99.0,-53.5],[-97.28571428571428,-54.285714285714285],[-94.55555555555556,-54.55555555555556],[-93.0,-55.0],[-92.0,-55.0],[-91.0,-56.0],[-89.77777777777777,-56.77777777777778],[-89.0,-57.5],[-87.71428571428572,-57.71428571428571],[-87.0,-58.0],[-86.0,-58.0],[-85.66666666666667,-58.66666666666667],[-85.0,-59.0],[-84.0,-59.0],[-82.0,-59.66666666666667],[-79.0,-59.5],[-78.66666666666667,-59.66666666666667],[-77.0,-60.0],[-75.9047619047619,-60.904761904761905],[-75.16666666666667,-61.16666666666667],[-74.84615384615384,-61.84615384615384],[-74.0,-61.95238095238095],[-74.0,-63.0],[-74.75,-65.0],[-74.57142857142857,-66.0],[-75.0,-68.0],[-74.25,-70.25],[-74.0,-70.5],[-73.5,-70.5],[-73.0,-71.0],[-73.0,-70.0],[-71.0,-70.0],[-71.0,-71.2],[-71.5,-71.5],[-71.80952380952381,-72.19047619047619],[-71.85294117647058,-74.0],[-71.6923076923077,-75.0],[-72.34408602150538,-75.65591397849462],[-72.9622641509434,-77.03773584905662],[-73.63333333333334,-77.36666666666667],[-73.91666666666667,-78.08333333333333],[-74.7910447761194,-78.2089552238806],[-75.49180327868852,-78.50819672131148],[-75.78947368421052,-79.0],[-76.2051282051282,-79.2051282051282],[-76.76744186046511,-79.23255813953489],[-77.0,-79.625],[-77.28571428571428,-79.71428571428571],[-78.0,-80.4],[-79.30769230769232,-80.6923076923077],[-80.76923076923077,-81.23076923076923],[-82.0,-81.22222222222223],[-84.0,-81.625],[-85.0,-82.11111111111111],[-85.75,-82.25],[-87.5,-83.0],[-88.66666666666667,-83.33333333333334],[-89.5,-84.0],[-89.60000000000001,-84.4],[-91.0,-85.0],[-90.4,-85.4],[-90.0,-85.5],[-89.0,-85.0],[-88.19999999999999,-84.80000000000001],[-86.88235294117648,-84.88235294117648],[-86.0,-85.33333333333334],[-85.71428571428571,-85.28571428571428],[-85.5,-85.0],[-85.0,-84.8],[-84.66666666666667,-85.0],[-84.44444444444443,-85.44444444444444],[-84.0,-85.66666666666666],[-83.86666666666666,-85.86666666666667],[-83.21052631578948,-85.78947368421052],[-82.92307692307692,-85.92307692307693],[-80.33333333333334,-86.0],[-79.84615384615385,-86.84615384615384],[-79.23529411764706,-86.76470588235294],[-78.87878787878788,-86.87878787878788],[-75.96363636363637,-86.96363636363637],[-67.0,-86.92857142857143],[-64.125,-87.125],[-62.02597402597403,-86.97402597402598],[-59.0,-87.0],[-56.53846153846154,-87.53846153846155],[-53.0,-87.78947368421052],[-23.0,-87.88888888888889],[-18.0,-88.0],[28.0,-87.88372093023256],[32.73684210526316,-87.73684210526316],[33.61904761904762,-87.6190476190476],[35.0,-87.0],[36.0,-86.97500000000001],[36.5,-87.0],[37.583333333333336,-87.41666666666667],[38.45454545454545,-87.54545454545455],[39.578947368421055,-87.57894736842104],[41.0,-87.42857142857142],[44.0,-87.76923076923077],[45.61904761904762,-87.6190476190476],[46.75,-87.0],[47.0,-86.97560975609755],[59.0,-87.0],[69.75,-86.75],[72.88888888888889,-86.88888888888889],[74.78947368421053,-86.78947368421052],[75.0,-86.6],[76.0,-86.33333333333334],[79.0,-86.5],[80.28571428571428,-86.28571428571428],[81.0,-86.0],[80.28571428571428,-85.71428571428571],[78.0,-85.5],[77.71428571428571,-85.28571428571428],[77.66666666666667,-85.0],[77.84615384615384,-84.84615384615384],[79.0,-84.66666666666667],[80.66666666666667,-84.66666666666667],[82.0,-84.33333333333334],[84.33333333333334,-84.66666666666667],[85.0,-85.0],[85.60000000000001,-84.60000000000001],[86.0,-84.5],[88.0,-84.6],[89.0,-84.33333333333334],[91.0,-84.66666666666667],[92.0,-84.66666666666667],[94.0,-84.0],[97.0,-84.0],[97.83333333333334,-83.83333333333334],[99.0,-84.0],[101.0,-84.0],[102.16666666666667,-83.83333333333334],[104.0,-84.16666666666667],[105.0,-84.0],[106.0,-84.0],[108.00000000000001,-84.33333333333334],[109.0,-84.0],[109.0,-83.0],[108.0,-83.0],[107.0,-83.5],[106.5,-83.5],[106.0,-83.0],[106.0,-82.0],[108.0,-82.0],[108.0,-81.0],[109.0,-81.0],[109.0,-79.0],[109.4,-78.4],[109.5,-78.0],[109.0,-77.5],[108.5,-77.5],[107.4,-76.60000000000001],[105.60000000000001,-76.4],[105.28571428571428,-75.71428571428571],[104.0,-75.66666666666667],[102.66666666666666,-75.0],[102.0,-74.0],[101.75,-73.0],[101.0,-71.5],[100.5,-71.0],[100.33333333333334,-70.0],[100.0,-69.5],[99.66666666666667,-69.33333333333334],[99.22222222222223,-68.77777777777777],[99.0,-68.0],[98.5,-67.5],[97.875,-67.125],[97.1,-65.0],[96.58974358974359,-64.41025641025641],[95.72727272727272,-63.0],[95.375,-62.0],[95.5,-61.0],[96.25,-59.25],[96.4,-58.0],[96.25,-57.0],[96.28571428571428,-56.0],[96.74358974358974,-55.74358974358974],[97.5,-54.5],[98.75,-53.0],[99.33333333333334,-52.0],[99.33333333333334,-51.00000000000001],[99.75,-50.0],[100.4,-49.400000000000006],[100.6923076923077,-48.69230769230769],[101.25,-48.0],[100.8,-47.2],[100.57142857142857,-46.0],[101.33333333333334,-45.333333333333336],[102.0,-45.0],[104.0,-44.41935483870968],[106.0,-44.55882352941177],[108.85714285714286,-45.142857142857146],[110.25,-45.75],[113.10526315789474,-45.89473684210526],[113.5,-46.0],[114.0,-46.5],[115.22222222222223,-46.77777777777777],[116.0,-46.75],[117.00000000000001,-47.2],[120.2,-47.2],[121.0,-47.0],[122.0,-47.0],[122.73333333333332,-46.733333333333334],[124.0,-46.5],[125.0,-46.0],[127.0,-45.666666666666664],[129.0,-45.599999999999994],[130.15384615384616,-45.15384615384615],[131.0,-44.0],[131.57142857142858,-43.57142857142858],[132.0,-43.0],[134.36363636363637,-41.36363636363637],[134.60000000000002,-40.6],[135.4,-39.400000000000006],[135.5,-39.0],[136.26666666666665,-38.266666666666666],[137.7,-35.7],[138.4,-35.0],[139.44444444444446,-33.44444444444444],[140.0,-33.0],[141.0,-32.66666666666667],[142.0,-32.0],[143.0,-32.0],[144.0,-31.0],[145.0,-31.0],[146.0,-30.5],[146.4,-30.6],[147.0,-31.0],[147.6,-30.6],[149.25,-30.25],[149.84615384615384,-29.846153846153847],[150.75,-29.75],[151.5,-29.5],[152.0,-29.0],[153.0,-29.0],[154.0,-28.666666666666664],[155.0,-28.5],[155.5,-28.0],[156.55555555555554,-27.555555555555554],[157.0,-27.0],[158.0,-27.0],[158.60000000000002,-26.6],[159.0,-26.0],[160.0,-25.5],[160.4,-25.6],[161.0,-26.0],[161.5,-25.5],[162.5,-25.0],[162.6,-24.6],[163.0,-24.0],[165.71428571428572,-22.71428571428571],[166.33333333333334,-22.333333333333336],[167.0,-21.5],[167.4,-21.4],[168.0,-21.0],[168.0,-20.0],[168.4,-19.400000000000002],[168.66666666666669,-18.666666666666668],[169.28571428571428,-18.285714285714285],[169.5,-18.0],[169.6,-16.6],[170.0,-16.0],[170.0,-14.0],[170.5,-13.0],[170.0,-12.5],[169.6,-12.4],[169.0,-11.0],[168.75,-9.0],[168.33333333333334,-7.0],[168.0,-6.0],[168.0,-5.0],[168.20000000000002,-4.0],[167.66666666666669,-3.0],[167.66666666666669,-2.0],[167.4,0.0],[167.0,2.0],[166.60000000000002,3.0],[166.5,4.0],[166.66666666666669,5.333333333333334],[167.33333333333334,7.0],[168.0,10.0],[168.5,10.5],[168.66666666666666,11.0],[169.4,11.600000000000001],[169.66666666666669,12.0],[170.60000000000002,12.4],[171.40000000000003,13.600000000000001],[173.0,14.5],[174.0,15.5],[175.0,16.0],[175.4,16.6],[176.60000000000002,17.4],[177.0,18.0],[177.66666666666669,17.666666666666668],[178.0,17.666666666666668],[178.36363636363635,17.363636363636363],[179.66666666666669,17.0],[180.0,16.75],[180.0,-90.0],[-180.0,-90.0],[-180.0,16.75],[-179.0,17.5],[-178.0,17.0],[-177.6,16.400000000000002],[-177.0,16.0],[-176.60000000000002,15.4],[-174.71428571428572,14.285714285714285],[-174.0,13.0],[-172.5,11.5],[-172.125,10.875],[-171.5,10.5]],[[-96.0,-86.0],[-95.0,-86.2],[-94.5,-86.0],[-95.18181818181819,-85.81818181818181],[-96.0,-86.0]]],[[[58.0,-32.27777777777778],[57.37837837837838,-32.37837837837838],[57.0,-32.368421052631575],[56.68888888888889,-32.0],[57.0,-31.5],[57.43076923076923,-31.430769230769233],[58.0,-30.81818181818182],[59.13333333333333,-31.0],[59.0,-31.4],[58.7,-31.7],[58.625,-32.0],[58.0,-32.27777777777778]]],[[[65.80000000000001,-24.000000000000004],[65.0,-24.285714285714285],[64.66666666666666,-24.0],[64.86206896551724,-23.862068965517242],[65.0,-23.428571428571427],[65.44444444444444,-23.555555555555557],[65.80000000000001,-24.000000000000004]]],[[[70.0,-16.476190476190474],[69.68253968253968,-16.317460317460316],[69.13043478260869,-16.0],[70.0,-15.583333333333332],[70.625,-16.0],[70.0,-16.476190476190474]]],[[[74.0,-5.142857142857143],[74.8,-6.000000000000001],[74.0,-6.4],[73.6,-6.0],[74.0,-5.142857142857143]]],[[[22.75,5.75],[23.42857142857143,5.428571428571429],[24.272727272727273,5.2727272727272725],[26.0,5.291666666666667],[27.5,5.0],[27.727272727272727,4.727272727272727],[28.0,4.0],[27.476190476190474,3.5238095238095237],[26.555555555555557,3.0],[25.933333333333334,2.0666666666666664],[25.0,1.0],[23.22222222222222,-0.2222222222222222],[22.846153846153847,-0.8461538461538461],[22.0,-1.5],[21.0,-1.25],[18.714285714285715,0.7142857142857142],[17.0,1.5],[15.0,1.6],[12.666666666666668,1.3333333333333333],[9.894736842105264,0.10526315789473684],[9.0,-0.5],[7.0,-0.75],[6.0,-1.6],[4.0,-1.7142857142857144],[3.0,-1.5],[2.0,-1.625],[0.0,-1.6],[-1.2857142857142856,-1.2857142857142856],[-2.5,-0.5],[-3.6470588235294112,1.352941176470588],[-3.875,2.0],[-3.7333333333333334,2.7333333333333334],[-3.6,3.0],[-3.0,3.428571428571429],[-1.8461538461538463,3.8461538461538463],[-1.0,4.0],[1.0869565217391304,4.913043478260869],[2.830508474576271,5.169491525423728],[4.6,6.0],[9.0,7.550000000000001],[12.0,8.333333333333334],[12.658536585365852,8.341463414634147],[15.879999999999999,7.88],[17.0,7.333333333333333],[18.57142857142857,7.0],[21.046511627906977,6.046511627906977],[22.25,5.75],[22.75,5.75]]],[[[73.7,5.0],[74.0,5.111111111111112],[74.42857142857143,5.0],[74.73333333333333,4.733333333333333],[75.0,4.2],[75.0,3.9375],[74.0,3.391304347826087],[73.26315789473685,4.0],[73.42424242424242,4.575757575757576],[73.7,5.0]]],[[[139.48275862068968,20.482758620689655],[139.71428571428572,19.714285714285715],[139.65384615384613,18.0],[139.85714285714286,14.857142857142858],[140.0,14.0],[141.0,11.5],[141.5,8.0],[141.4,7.6],[141.0,7.0],[141.0,6.0],[140.5,5.0],[139.71428571428572,4.285714285714286],[139.4,3.6000000000000005],[138.875,3.125],[138.31578947368422,1.6842105263157894],[137.79310344827587,1.206896551724138],[137.57894736842104,0.42105263157894735],[137.2,0.0],[137.0,-0.5],[136.7837837837838,-1.7837837837837838],[136.35714285714286,-2.357142857142857],[136.0,-2.5555555555555554],[135.45714285714286,-3.457142857142857],[135.0,-3.888888888888889],[134.23529411764707,-5.235294117647059],[133.57142857142856,-6.0],[133.43243243243245,-6.4324324324324325],[132.66666666666669,-7.0],[132.13333333333333,-8.133333333333333],[131.0,-8.75],[130.84615384615384,-8.153846153846153],[131.0,-5.875],[132.21428571428572,-2.2142857142857144],[132.8181818181818,-1.8181818181818181],[133.6,1.0],[133.86666666666667,1.1333333333333333],[134.0,2.0],[134.0,5.0],[134.44444444444446,6.0],[134.5,7.0],[134.27272727272725,9.0],[134.0,10.0],[133.79166666666666,11.791666666666666],[133.33333333333334,13.0],[133.0,14.5],[133.0,16.0],[133.25,17.0],[133.16666666666669,18.0],[133.57142857142858,19.0],[133.76470588235293,20.235294117647058],[134.6,21.0],[134.66666666666669,22.0],[135.5,23.0],[136.0,23.333333333333332],[137.0,23.0],[138.0,23.0],[138.5,22.0],[138.8,21.799999999999997],[138.71428571428572,21.285714285714285],[138.8,21.0],[139.48275862068968,20.482758620689655]]],[[[66.3859649122807,9.614035087719298],[67.0,9.966666666666667],[67.65079365079364,9.65079365079365],[68.0,9.153846153846153],[68.0,8.666666666666668],[67.8048780487805,8.195121951219512],[67.0,8.064516129032258],[66.12121212121212,9.0],[66.3859649122807,9.614035087719298]]],[[[58.69565217391305,11.304347826086957],[58.09090909090909,11.09090909090909],[57.26315789473685,11.263157894736842],[57.125,12.0],[58.0,12.466666666666667],[58.93333333333334,12.0],[58.69565217391305,11.304347826086957]]],[[[167.35294117647058,17.64705882352941],[166.75,17.25],[166.40000000000003,16.6],[166.0,16.333333333333336],[165.6923076923077,16.30769230769231],[165.0,15.5],[164.6923076923077,15.692307692307693],[164.5,16.0],[165.25,19.0],[166.0,20.0],[166.23529411764707,20.764705882352942],[167.30769230769232,22.692307692307693],[168.0,23.0],[168.28571428571428,23.71428571428571],[169.0,23.833333333333332],[169.33333333333334,23.666666666666668],[169.66666666666669,23.666666666666668],[169.66666666666669,23.333333333333336],[170.16666666666669,22.0],[169.28571428571428,19.714285714285715],[168.5,19.0],[168.33333333333334,18.666666666666668],[167.35294117647058,17.64705882352941]]],[[[178.0,29.333333333333336],[179.0,29.333333333333336],[179.26666666666665,27.266666666666666],[179.53846153846155,26.53846153846154],[180.0,26.0],[180.0,24.5],[179.6,24.400000000000002],[179.0,24.0],[178.0,24.0],[177.22222222222223,23.77777777777778],[176.0,23.666666666666668],[175.66666666666669,24.0],[175.5,24.5],[175.0,25.0],[174.16666666666669,23.833333333333336],[173.5,23.5],[173.0,23.4],[172.0,24.0],[171.5,25.0],[171.39999999999998,26.0],[171.30769230769232,26.30769230769231],[170.86666666666667,26.866666666666667],[170.875,27.125],[172.15384615384616,27.846153846153847],[172.6470588235294,28.352941176470587],[173.4,28.6],[174.0,29.25],[175.0,29.0],[175.60000000000002,27.6],[176.0,27.0],[176.40000000000003,27.6],[176.5,28.0],[177.5,28.5],[178.0,29.333333333333336]]],[[[132.0,33.6],[132.4,33.6],[133.0,34.0],[133.2,33.0],[133.0,32.75],[132.0,32.25],[131.53846153846155,32.53846153846154],[131.25,33.0],[132.0,33.6]]],[[[134.2,35.2],[135.0,35.199999999999996],[135.2,35.0],[135.0,34.8],[134.0,34.75],[133.75,34.75],[133.66666666666666,35.0],[133.84615384615387,35.15384615384615],[134.2,35.2]]],[[[166.32,39.32],[169.0,39.0],[169.4,38.4],[169.5,38.0],[168.0,37.0],[166.5,36.5],[166.25,36.0],[166.0,35.857142857142854],[163.22222222222223,35.77777777777778],[161.42857142857144,35.57142857142857],[160.0,35.599999999999994],[158.0,35.0],[157.0,35.0],[156.0,34.75],[153.8,35.2],[153.2,35.2],[152.5,35.5],[152.0,36.0],[151.33333333333334,37.0],[151.22222222222223,38.22222222222222],[151.0,39.0],[150.33333333333334,38.66666666666667],[149.0,38.66666666666667],[148.66666666666666,39.0],[148.33333333333334,40.0],[148.5,41.0],[148.66666666666669,41.333333333333336],[149.5,42.0],[153.0,42.0],[158.0625,41.0625],[160.33333333333331,41.0],[162.0,40.42857142857143],[165.66666666666669,39.66666666666667],[166.32,39.32]]]]}}]}