{"type":"FeatureCollection","features":[{"type":"Feature","properties":{"ageMa":320},"geometry":{"type":"MultiPolygon","coordinates":[[[[10.5,36.0],[10.5,35.0],[10.666666666666668,34.0],[10.5,33.0],[10.75,32.0],[10.75,31.0],[10.333333333333334,28.66666666666667],[10.0,28.0],[9.8,27.0],[9.777777777777779,25.22222222222222],[9.333333333333334,23.0],[9.333333333333334,22.0],[10.0,21.0],[10.0,20.0],[10.5,19.5],[10.5,19.0],[10.714285714285715,18.714285714285715],[11.0,18.666666666666668],[11.5,19.0],[11.600000000000001,19.400000000000002],[12.0,19.5],[12.222222222222221,19.77777777777778],[13.0,20.0],[20.0,20.0],[23.0,19.333333333333336],[24.0,19.0],[24.5,18.0],[24.666666666666668,17.0],[24.333333333333336,15.0],[23.75,13.0],[23.81818181818182,10.818181818181818],[25.0,9.0],[27.0,8.75],[28.0,8.75],[29.0,8.333333333333334],[29.25,8.0],[29.4,7.0],[29.2,5.8],[28.818181818181817,5.181818181818182],[28.5,5.0],[28.400000000000002,4.6],[28.0,4.0],[28.0,3.0],[26.0,3.0],[25.0,2.5],[20.0,2.166666666666667],[18.0,2.25],[17.5,2.0],[18.0,1.5],[19.0,1.5],[19.333333333333336,1.3333333333333333],[19.5,1.0],[22.625,0.625],[23.333333333333336,0.33333333333333337],[24.25,-0.75],[24.333333333333336,-2.0],[23.6,-3.6000000000000005],[23.142857142857146,-4.142857142857142],[22.0,-5.0],[21.6,-5.6000000000000005],[20.5,-6.5],[18.0,-8.0],[17.6,-9.0],[18.25,-11.0],[18.25,-12.0],[17.666666666666668,-14.0],[17.181818181818183,-15.181818181818182],[16.0,-17.0],[16.0,-18.0],[14.0,-20.0],[13.333333333333332,-21.0],[13.4,-22.6],[14.0,-24.0],[14.0,-25.0],[15.0,-26.0],[15.0,-27.0],[16.0,-28.0],[18.0,-28.0],[21.0,-31.0],[22.0,-31.0],[23.0,-32.0],[25.0,-32.0],[26.0,-33.0],[27.0,-32.0],[27.6,-32.4],[28.0,-32.5],[28.400000000000002,-32.4],[30.0,-31.5],[32.0,-31.5],[33.0,-31.0],[34.0,-31.0],[35.333333333333336,-30.333333333333336],[35.71428571428571,-29.714285714285715],[36.0,-29.5],[37.0,-29.5],[38.285714285714285,-29.285714285714285],[40.0,-28.666666666666664],[43.28571428571428,-28.71428571428571],[44.0,-29.0],[45.0,-30.5],[46.0,-31.0],[46.0,-32.0],[47.0,-32.5],[47.63636363636364,-33.36363636363636],[48.18181818181819,-33.81818181818182],[49.0,-35.0],[50.36363636363636,-35.63636363636364],[50.81818181818181,-36.18181818181819],[52.0,-37.0],[53.333333333333336,-37.66666666666667],[53.77777777777777,-38.22222222222222],[55.2,-38.8],[55.77777777777778,-39.22222222222222],[57.22222222222222,-39.77777777777777],[57.77777777777777,-40.22222222222222],[59.25,-40.75],[60.28571428571428,-41.71428571428571],[60.71428571428571,-42.285714285714285],[61.28571428571428,-42.71428571428571],[62.0,-44.0],[64.25,-44.75],[64.75,-45.25],[65.44444444444444,-45.55555555555556],[66.0,-46.0],[67.0,-46.333333333333336],[68.60000000000001,-47.4],[69.33333333333334,-47.66666666666667],[69.75,-48.25],[71.0,-49.5],[72.71428571428571,-50.28571428571428],[75.28571428571428,-50.71428571428571],[79.0,-52.0],[81.0,-52.0],[82.0,-52.333333333333336],[85.0,-52.666666666666664],[86.0,-52.666666666666664],[87.0,-52.5],[88.0,-52.5],[89.0,-52.666666666666664],[90.0,-52.5],[92.0,-52.5],[93.0,-52.333333333333336],[94.0,-52.333333333333336],[94.75,-51.75],[97.71428571428571,-50.71428571428571],[100.77777777777777,-49.77777777777778],[104.0,-49.0],[105.0,-48.5],[109.0,-47.333333333333336],[110.22222222222223,-47.22222222222222],[111.0,-47.0],[112.0,-47.0],[112.77777777777777,-47.22222222222222],[115.0,-47.5],[116.0,-47.333333333333336],[117.0,-47.5],[118.0,-47.5],[119.28571428571428,-47.71428571428571],[120.60000000000001,-48.400000000000006],[122.0,-48.5],[122.4,-48.60000000000001],[123.0,-49.0],[124.0,-49.0],[124.0,-48.0],[123.25,-47.75],[122.66666666666667,-47.333333333333336],[122.5,-47.0],[121.36363636363636,-46.63636363636364],[119.60000000000001,-45.4],[119.19999999999999,-44.8],[119.14285714285715,-44.0],[119.30769230769232,-43.30769230769231],[119.69230769230771,-42.69230769230769],[120.36363636363637,-42.36363636363636],[122.0,-42.166666666666664],[124.0,-42.4],[125.0,-42.0],[124.63636363636363,-41.36363636363637],[124.5,-39.0],[124.60000000000001,-38.6],[125.0,-38.0],[125.53846153846155,-37.53846153846155],[126.69230769230771,-36.69230769230769],[127.4,-36.400000000000006],[128.625,-35.625],[129.35294117647058,-35.35294117647059],[129.84615384615384,-34.84615384615385],[131.16666666666666,-34.166666666666664],[131.73333333333332,-33.733333333333334],[134.0,-33.5],[135.4,-33.6],[136.0,-34.0],[137.4,-34.6],[139.6923076923077,-36.30769230769231],[142.30769230769232,-37.69230769230769],[143.0,-38.5],[143.66666666666669,-39.0],[144.63636363636363,-39.36363636363636],[145.0,-40.0],[145.9047619047619,-40.095238095238095],[146.4,-40.4],[146.6,-40.4],[146.8,-41.00000000000001],[147.9,-41.1],[148.46153846153848,-41.53846153846154],[148.75,-42.0],[149.13333333333333,-42.13333333333333],[149.86666666666667,-42.13333333333333],[150.0,-42.5],[150.5,-43.0],[150.9090909090909,-43.09090909090909],[151.0,-43.25],[151.66666666666669,-43.333333333333336],[152.4,-43.60000000000001],[153.0,-44.0],[154.44444444444443,-44.55555555555555],[155.0,-45.0],[155.8,-45.2],[157.1818181818182,-45.81818181818182],[158.0,-46.5],[161.71428571428572,-48.28571428571428],[164.42857142857142,-50.57142857142858],[164.75,-51.0],[165.0,-52.0],[166.0,-54.0],[168.0,-56.0],[168.60000000000002,-56.400000000000006],[169.0,-57.0],[170.0,-57.5],[170.77777777777777,-58.22222222222222],[171.40000000000003,-58.60000000000001],[171.66666666666669,-59.0],[172.0,-60.0],[174.0,-62.0],[174.0,-63.0],[174.4,-63.60000000000001],[175.0,-65.0],[176.0,-66.5],[176.5,-67.0],[178.0,-68.0],[179.0,-69.0],[179.06666666666666,-73.93333333333334],[179.19444444444446,-74.80555555555556],[179.58333333333331,-75.0],[179.73333333333335,-77.0],[180.0,-77.57142857142857],[180.0,-85.85714285714288],[179.45454545454547,-86.45454545454545],[179.0,-86.71428571428572],[175.77777777777777,-86.22222222222223],[171.71428571428572,-85.28571428571428],[170.0,-84.75],[168.0,-84.5],[164.0,-84.5],[163.60000000000002,-84.60000000000001],[163.0,-85.0],[162.0,-85.0],[161.40000000000003,-84.60000000000001],[161.0,-84.5],[160.60000000000002,-84.60000000000001],[160.0,-85.0],[155.0,-85.0],[155.0,-86.0],[154.0,-86.0],[154.0,-87.0],[151.0,-87.0],[151.0,-88.0],[149.0,-88.0],[149.0,-89.0],[148.0,-89.0],[148.0,-90.0],[-65.0,-90.0],[-65.0,-89.0],[-64.4,-88.6],[-62.6,-88.4],[-62.0,-88.0],[-61.0,-88.0],[-61.0,-87.0],[-59.0,-87.0],[-58.400000000000006,-87.4],[-57.6,-87.6],[-57.0,-88.0],[-56.0,-87.0],[-55.0,-87.0],[-55.0,-88.0],[-53.0,-88.0],[-53.0,-87.0],[-51.0,-87.0],[-51.0,-88.0],[-50.0,-88.0],[-50.0,-86.0],[-53.0,-86.0],[-54.0,-85.0],[-55.400000000000006,-84.4],[-56.0,-84.0],[-58.0,-84.0],[-58.60000000000001,-83.6],[-60.0,-83.0],[-61.0,-83.0],[-61.5,-82.0],[-61.75,-81.75],[-63.0,-81.5],[-64.5,-80.0],[-65.0,-79.0],[-65.5,-77.5],[-66.0,-77.0],[-65.0,-76.5],[-64.44444444444444,-75.55555555555556],[-63.5,-74.5],[-62.66666666666667,-74.0],[-61.83333333333333,-73.16666666666667],[-61.0,-72.75],[-59.625,-71.375],[-59.0,-71.0],[-58.57142857142858,-70.42857142857143],[-58.0,-70.0],[-57.625,-69.375],[-56.25,-67.75],[-54.625,-66.375],[-53.800000000000004,-66.0],[-53.444444444444436,-65.55555555555556],[-52.5,-65.0],[-51.68421052631579,-64.3157894736842],[-50.75,-64.0],[-50.375,-63.625],[-49.73913043478261,-63.26086956521739],[-48.800000000000004,-63.00000000000001],[-48.400000000000006,-62.6],[-47.75,-62.25],[-46.800000000000004,-62.0],[-46.400000000000006,-61.6],[-45.72727272727273,-61.272727272727266],[-45.0,-61.09090909090909],[-44.45454545454545,-60.54545454545455],[-43.826086956521735,-60.173913043478265],[-43.0,-60.0],[-42.5,-59.5],[-41.826086956521735,-59.173913043478265],[-41.0,-59.0],[-40.470588235294116,-58.52941176470588],[-39.333333333333336,-58.0],[-38.75,-57.0],[-38.75,-54.0],[-39.25,-53.25],[-39.5,-52.0],[-40.0,-51.0],[-40.0,-48.0],[-41.0,-48.0],[-42.0,-49.0],[-43.0,-49.0],[-45.0,-50.0],[-45.77777777777778,-51.22222222222223],[-46.36363636363637,-51.63636363636363],[-47.10526315789474,-51.89473684210526],[-47.54545454545455,-52.45454545454545],[-49.11764705882353,-52.882352941176464],[-49.733333333333334,-53.266666666666666],[-53.0,-54.0],[-53.60000000000001,-54.400000000000006],[-55.21052631578948,-54.78947368421053],[-55.75,-55.25],[-56.5,-55.5],[-62.0,-57.0],[-62.54545454545454,-57.45454545454545],[-64.0,-58.0],[-64.54545454545455,-58.45454545454545],[-65.28571428571428,-58.71428571428571],[-65.85714285714286,-59.142857142857146],[-67.28571428571428,-59.71428571428571],[-67.85714285714286,-60.142857142857146],[-69.28571428571428,-60.71428571428571],[-69.85714285714286,-61.14285714285714],[-72.0,-62.0],[-72.46153846153845,-62.53846153846154],[-73.18181818181819,-62.81818181818182],[-73.73333333333333,-63.266666666666666],[-75.0909090909091,-63.90909090909091],[-75.55555555555556,-64.44444444444444],[-76.66666666666666,-65.0],[-76.81818181818181,-65.18181818181819],[-80.66666666666667,-67.0],[-81.4,-67.6],[-82.08333333333334,-67.91666666666667],[-82.52380952380952,-68.47619047619048],[-83.66666666666667,-69.0],[-84.4,-69.6],[-85.4,-70.0],[-85.6470588235294,-70.35294117647058],[-87.25,-71.0],[-87.6,-71.4],[-88.0,-71.6],[-89.0,-71.75],[-89.5,-72.0],[-89.69230769230771,-72.30769230769232],[-90.28571428571428,-72.71428571428571],[-91.0,-73.0],[-91.4,-73.60000000000001],[-92.5,-74.0],[-93.36363636363636,-74.63636363636363],[-95.0,-75.0],[-95.5,-75.5],[-96.16666666666667,-75.83333333333333],[-98.0,-76.0],[-99.0,-76.33333333333333],[-100.0,-76.33333333333333],[-103.0,-76.66666666666667],[-104.0,-77.0],[-105.0,-77.0],[-105.53846153846155,-77.46153846153847],[-107.0,-77.71428571428572],[-110.0,-78.57142857142856],[-112.0,-78.77777777777777],[-117.0,-79.0],[-117.66666666666667,-79.33333333333334],[-119.26666666666667,-79.73333333333333],[-121.0,-79.9],[-122.63636363636363,-80.36363636363636],[-126.22222222222223,-80.77777777777777],[-131.0,-81.0],[-132.0,-81.5],[-133.0,-81.6],[-134.0,-81.5],[-136.0,-81.66666666666667],[-138.0,-82.0],[-138.53846153846155,-82.46153846153847],[-139.28571428571428,-82.71428571428571],[-141.0,-83.0],[-143.0,-83.80000000000001],[-144.73333333333335,-83.73333333333333],[-149.0,-84.0],[-150.0,-84.33333333333334],[-151.0,-84.5],[-152.0,-84.5],[-155.0,-85.0],[-155.60000000000002,-85.4],[-157.0,-86.0],[-167.0,-86.0],[-168.0,-85.8],[-169.8181818181818,-85.81818181818181],[-173.0,-85.6],[-177.15384615384616,-85.84615384615385],[-180.0,-85.85714285714286],[-180.0,-77.57142857142857],[-179.0,-77.375],[-157.0,-77.375],[-155.0,-77.5],[-153.0,-78.0],[-150.0,-78.07142857142857],[-148.36363636363637,-77.63636363636364],[-146.0,-77.33333333333334],[-144.0,-77.28571428571428],[-142.88888888888889,-77.11111111111111],[-142.0,-76.8],[-141.0,-76.75],[-140.0,-76.5],[-133.88888888888889,-76.11111111111111],[-133.16666666666666,-75.83333333333333],[-131.5,-75.5],[-130.0,-75.42857142857142],[-126.375,-74.625],[-123.0,-74.125],[-121.375,-73.625],[-119.0,-73.2],[-117.375,-72.625],[-115.0,-72.125],[-114.26666666666667,-71.73333333333333],[-111.9,-71.1],[-111.26666666666668,-70.73333333333333],[-108.89473684210526,-70.10526315789474],[-108.26666666666667,-69.73333333333332],[-106.72727272727272,-69.27272727272727],[-106.0,-68.8],[-105.0,-68.57142857142857],[-103.89473684210526,-68.10526315789474],[-103.33333333333334,-67.66666666666667],[-102.0,-67.28571428571429],[-101.25,-66.75],[-100.0,-66.28571428571429],[-97.33333333333334,-64.66666666666667],[-96.0,-64.125],[-95.33333333333334,-63.66666666666667],[-94.0,-63.25],[-93.33333333333334,-62.66666666666667],[-91.42105263157895,-61.57894736842105],[-90.0,-61.0],[-88.5,-60.0],[-88.3157894736842,-59.68421052631578],[-85.4,-58.0],[-84.67999999999999,-57.32000000000001],[-84.00000000000001,-57.07692307692308],[-83.5,-56.5],[-82.5,-56.0],[-82.3157894736842,-55.684210526315795],[-81.76923076923077,-55.230769230769226],[-81.0,-55.0],[-80.60000000000001,-54.400000000000006],[-79.75,-54.0],[-79.44444444444443,-53.55555555555555],[-78.83783783783784,-53.16216216216216],[-78.25,-53.0],[-77.6923076923077,-52.30769230769231],[-76.83333333333334,-52.0],[-76.43478260869566,-51.565217391304344],[-75.76923076923077,-51.230769230769226],[-75.0,-50.625],[-73.29268292682927,-49.707317073170735],[-72.625,-49.0],[-72.13513513513513,-48.86486486486487],[-71.375,-48.0],[-70.46616541353384,-47.53383458646616],[-70.0,-47.114285714285714],[-68.47999999999999,-46.52],[-68.0,-45.93617021276596],[-67.28915662650601,-45.71084337349397],[-67.0,-45.333333333333336],[-66.15094339622641,-44.84905660377359],[-66.0,-44.6],[-65.04597701149426,-43.95402298850575],[-64.58974358974359,-43.41025641025641],[-63.75,-43.0],[-63.400000000000006,-42.6],[-62.8,-42.2],[-61.5,-42.0],[-62.72727272727272,-41.72727272727272],[-63.0,-41.0],[-62.94594594594595,-40.0],[-62.604651162790695,-39.3953488372093],[-62.16589861751152,-37.83410138248848],[-61.54216867469879,-36.45783132530121],[-60.8974358974359,-34.0],[-60.853658536585364,-30.146341463414636],[-60.36363636363636,-28.0],[-60.21052631578947,-25.789473684210527],[-60.0,-25.0],[-59.529411764705884,-24.470588235294116],[-59.00000000000001,-24.142857142857146],[-58.0,-24.125],[-57.42857142857143,-24.428571428571427],[-57.05555555555556,-25.055555555555557],[-57.0,-26.0],[-56.75,-27.0],[-56.75,-28.0],[-57.0,-29.0],[-57.3,-34.0],[-57.57142857142857,-36.0],[-58.0,-37.0],[-58.15384615384615,-38.15384615384615],[-58.0,-38.400000000000006],[-57.0,-38.36363636363636],[-56.5,-38.5],[-55.800000000000004,-39.0],[-56.14285714285714,-40.857142857142854],[-56.5,-41.5],[-57.0,-41.857142857142854],[-57.14285714285714,-42.85714285714286],[-57.5,-43.0],[-57.63636363636364,-43.36363636363636],[-58.0,-43.66666666666667],[-58.05555555555555,-43.94444444444444],[-58.333333333333336,-44.0],[-58.0,-45.0],[-57.00000000000001,-45.333333333333336],[-55.77777777777778,-45.22222222222222],[-53.36363636363637,-44.63636363636364],[-52.33333333333333,-44.0],[-52.25,-43.0],[-52.0,-42.0],[-52.0,-40.0],[-51.0,-38.0],[-50.400000000000006,-37.6],[-50.0,-37.0],[-38.0,-37.0],[-33.0,-38.333333333333336],[-31.0,-38.333333333333336],[-30.0,-38.5],[-29.0,-39.0],[-27.285714285714285,-40.285714285714285],[-26.6,-40.6],[-26.142857142857146,-41.14285714285714],[-23.799999999999997,-42.8],[-23.0,-44.0],[-22.0,-43.66666666666667],[-21.666666666666668,-43.66666666666667],[-21.0,-44.0],[-20.400000000000002,-43.60000000000001],[-20.0,-43.5],[-19.0,-43.5],[-18.285714285714285,-42.71428571428571],[-17.714285714285715,-42.285714285714285],[-17.0,-41.0],[-17.0,-40.0],[-17.5,-39.0],[-18.75,-37.75],[-20.0,-37.5],[-21.0,-37.0],[-21.53846153846154,-36.53846153846154],[-23.0,-35.66666666666667],[-24.0,-34.66666666666667],[-26.0,-34.0],[-27.363636363636363,-33.36363636363636],[-29.0,-32.333333333333336],[-31.2,-32.2],[-31.8,-31.8],[-33.0,-31.666666666666668],[-35.0,-31.0],[-36.0,-30.5],[-37.18181818181819,-30.18181818181818],[-37.8,-29.8],[-38.66666666666667,-29.666666666666668],[-39.333333333333336,-29.333333333333336],[-41.0,-29.0],[-42.0,-29.0],[-42.5,-28.5],[-44.0,-28.0],[-47.0,-28.0],[-48.0,-27.666666666666668],[-50.0,-27.666666666666668],[-51.0,-27.333333333333336],[-52.0,-27.333333333333336],[-52.22222222222222,-27.22222222222222],[-53.22222222222222,-26.22222222222222],[-56.0,-22.0],[-56.0,-21.0],[-56.33333333333333,-20.0],[-56.33333333333333,-18.0],[-56.2,-16.8],[-54.0,-14.5],[-53.0,-14.5],[-52.71428571428571,-14.285714285714285],[-52.0,-13.0],[-51.0,-12.0],[-48.0,-12.0],[-45.0,-12.5],[-41.0,-12.5],[-38.71428571428571,-12.285714285714285],[-38.0,-12.0],[-37.0,-12.333333333333332],[-36.0,-12.0],[-35.0,-12.333333333333332],[-34.0,-13.0],[-33.0,-13.333333333333334],[-32.333333333333336,-14.0],[-32.0,-14.166666666666668],[-28.0,-14.799999999999999],[-26.0,-14.600000000000001],[-24.1,-14.100000000000001],[-23.833333333333332,-14.0],[-23.476190476190474,-13.523809523809522],[-22.81818181818182,-13.181818181818183],[-21.8,-13.0],[-21.470588235294116,-12.52941176470588],[-20.666666666666668,-12.0],[-20.400000000000002,-11.600000000000001],[-19.666666666666668,-11.0],[-19.666666666666668,-10.666666666666668],[-20.0,-10.0],[-21.0,-10.0],[-21.714285714285715,-9.714285714285714],[-22.6,-9.600000000000001],[-23.400000000000002,-9.4],[-24.0,-9.0],[-24.6,-9.4],[-25.0,-9.5],[-25.400000000000002,-9.4],[-26.0,-9.0],[-27.0,-7.0],[-28.0,-6.0],[-28.0,-5.0],[-29.0,-5.0],[-29.400000000000002,-5.6000000000000005],[-29.6,-6.4],[-29.799999999999997,-9.0],[-30.0,-9.2],[-31.0,-9.399999999999999],[-32.0,-9.0],[-33.0,-8.0],[-34.0,-7.666666666666667],[-35.0,-7.5],[-37.0,-7.5],[-38.22222222222222,-7.222222222222222],[-39.22222222222222,-6.222222222222222],[-39.66666666666667,-5.0],[-39.333333333333336,-2.0],[-38.81818181818181,-1.1818181818181817],[-38.0,1.0],[-37.75,2.0],[-37.66666666666667,3.0],[-37.33333333333333,4.0],[-37.4,5.0],[-37.0,5.666666666666666],[-36.0,5.666666666666666],[-35.0,5.5],[-33.5,4.0],[-33.333333333333336,3.0],[-33.0,2.0],[-31.6,1.4000000000000001],[-31.0,1.0],[-30.0,2.0],[-30.0,3.0],[-30.333333333333336,4.0],[-30.6,4.4],[-31.0,6.0],[-31.0,7.0],[-30.599999999999998,9.0],[-30.666666666666668,10.0],[-31.285714285714285,11.714285714285714],[-31.5,12.0],[-31.714285714285715,13.285714285714285],[-32.0,14.0],[-32.0,15.0],[-33.0,16.0],[-33.0,17.0],[-32.0,18.0],[-32.0,19.0],[-33.0,20.0],[-33.0,23.0],[-32.0,23.0],[-31.444444444444443,22.555555555555557],[-31.0,22.5],[-30.666666666666668,22.666666666666668],[-30.0,23.333333333333332],[-29.0,23.5],[-27.6,25.6],[-26.42857142857143,26.42857142857143],[-24.0,27.0],[-21.81818181818182,27.818181818181817],[-21.0,28.0],[-20.0,28.0],[-19.0,28.5],[-18.0,28.5],[-17.0,29.0],[-16.6,29.6],[-16.0,30.0],[-15.600000000000001,30.6],[-15.5,31.0],[-15.0,31.5],[-12.0,30.0],[-11.5,29.0],[-10.600000000000001,28.400000000000002],[-10.2,27.8],[-9.0,27.0],[-8.5,26.5],[-6.800000000000001,26.200000000000003],[-6.0,25.666666666666668],[-4.0,25.333333333333332],[-2.0,25.333333333333332],[-1.0,26.0],[0.0,26.0],[1.3333333333333333,26.666666666666668],[1.8181818181818181,27.18181818181818],[3.0,27.5],[3.3333333333333335,27.666666666666668],[3.8181818181818183,28.18181818181818],[4.6,28.400000000000002],[5.666666666666667,30.0],[6.0,31.0],[6.25,33.0],[6.6000000000000005,34.0],[6.666666666666666,36.0],[7.0,37.0],[9.0,37.66666666666667],[11.0,37.0],[10.600000000000001,36.400000000000006],[10.5,36.0]],[[11.0,-42.0],[10.5,-43.0],[10.600000000000001,-43.400000000000006],[11.0,-44.0],[11.5,-43.0],[11.400000000000002,-42.6],[11.0,-42.0]]],[[[93.3157894736842,-13.684210526315788],[93.71428571428571,-14.285714285714285],[94.3,-14.7],[95.0,-16.0],[96.0,-17.0],[96.5,-18.0],[96.3157894736842,-18.31578947368421],[95.0,-18.85714285714286],[94.0,-18.714285714285715],[93.0,-18.42857142857143],[92.0,-17.666666666666668],[91.8,-17.2],[91.42857142857142,-17.0],[91.11111111111111,-15.88888888888889],[90.57142857142858,-15.0],[90.77777777777777,-13.777777777777779],[92.0,-13.285714285714286],[93.0,-13.5],[93.3157894736842,-13.684210526315788]]],[[[95.05,1.05],[95.89473684210526,0.8947368421052632],[96.09302325581395,0.09302325581395349],[97.0,0.0],[97.18181818181819,-0.8181818181818181],[97.92307692307692,-1.0769230769230769],[98.2,-1.8],[99.0,-2.0],[99.18181818181819,-2.8181818181818183],[100.0,-3.0],[100.19047619047619,-3.8095238095238093],[100.66666666666667,-4.0],[101.22222222222223,-4.777777777777778],[102.0,-5.0],[102.5,-5.5],[104.4,-6.6000000000000005],[105.5,-7.0],[106.77777777777777,-8.222222222222221],[108.0,-9.0],[108.5,-9.5],[109.16666666666666,-9.833333333333332],[109.63636363636364,-10.363636363636363],[110.28571428571428,-10.714285714285715],[111.0,-12.0],[111.25,-13.0],[111.28571428571428,-14.714285714285712],[111.0,-16.0],[109.0,-16.4],[107.83333333333334,-16.166666666666668],[107.0,-15.5],[105.25,-15.25],[104.5,-15.0],[104.0,-14.5],[102.84615384615384,-14.153846153846153],[102.46153846153848,-13.538461538461538],[102.0,-13.25],[100.0,-12.75],[98.71428571428571,-12.285714285714285],[98.33333333333334,-12.0],[97.66666666666669,-10.333333333333334],[97.0,-10.0],[96.77777777777777,-9.222222222222221],[96.33333333333334,-8.666666666666668],[96.0,-8.5],[94.69230769230771,-8.307692307692308],[93.4,-7.6],[92.625,-7.375],[90.73333333333333,-6.266666666666667],[90.46153846153847,-5.538461538461539],[90.0,-5.0],[89.81818181818181,-4.181818181818182],[90.0,-3.0],[90.4,-2.4],[90.5,-2.0],[90.6,-1.0],[90.0,0.0],[90.0,1.0],[90.33333333333334,1.6666666666666665],[91.0,2.0],[91.77777777777777,2.2222222222222223],[92.75,2.25],[94.0,2.0],[95.0,1.25],[95.05,1.05]]],[[[36.16666666666667,1.8333333333333333],[35.0,1.5],[33.333333333333336,0.6666666666666667],[32.0,0.25],[31.0,0.25],[30.0,0.0],[29.0,0.0],[28.285714285714285,0.2857142857142857],[27.818181818181817,0.8181818181818181],[27.5,2.0],[27.5,2.5],[28.0,3.0],[28.5,3.5],[29.0,3.5],[29.25,3.75],[31.400000000000002,4.6],[33.5,5.0],[34.0,5.25],[35.0,5.0],[37.0,5.0],[37.25,4.0],[37.25,3.0],[36.16666666666667,1.8333333333333333]]],[[[50.0,7.84375],[49.484848484848484,7.515151515151516],[49.12903225806452,7.0],[47.0,5.724137931034483],[46.368421052631575,5.631578947368421],[46.0,5.363636363636363],[45.644444444444446,5.355555555555556],[44.94736842105263,4.947368421052632],[44.0,4.875],[43.75,5.0],[43.285714285714285,6.0],[43.583333333333336,6.416666666666667],[44.26086956521739,6.739130434782609],[44.7,7.300000000000001],[45.0,7.428571428571429],[45.266666666666666,7.733333333333333],[46.0,7.9411764705882355],[46.421052631578945,8.578947368421051],[47.12244897959184,8.877551020408163],[48.0,9.0],[49.0,9.57142857142857],[50.0,9.666666666666668],[52.0,9.0],[51.400000000000006,8.600000000000001],[51.25,8.0],[50.0,7.84375]]],[[[29.8,29.8],[30.789473684210527,28.789473684210527],[31.0,28.333333333333332],[31.25,28.25],[31.4,28.0],[31.428571428571427,27.0],[31.315789473684212,26.684210526315788],[30.789473684210527,26.210526315789473],[29.928571428571427,26.071428571428573],[28.242424242424242,26.242424242424242],[27.548387096774196,26.548387096774192],[27.0,27.22222222222222],[26.517241379310345,27.517241379310345],[26.22222222222222,28.0],[26.0,29.0],[26.22222222222222,29.77777777777778],[26.636363636363637,30.363636363636367],[27.529411764705884,30.529411764705884],[28.454545454545453,30.454545454545453],[29.200000000000003,30.0],[29.8,29.8]]],[[[31.153846153846153,61.153846153846146],[32.0,61.0],[33.0,60.0],[34.0,60.0],[35.0,59.6],[35.315789473684205,59.315789473684205],[36.1,59.1],[38.09090909090909,59.0],[38.375,58.375],[39.08888888888889,58.08888888888889],[40.66666666666667,58.0],[41.333333333333336,57.333333333333336],[42.0,57.0],[43.0,57.0],[43.8,56.8],[44.66666666666667,56.0],[45.0,55.9],[47.0,56.0],[48.0,55.375],[48.13636363636363,55.13636363636363],[49.0,55.0],[49.22222222222223,54.22222222222222],[50.0,54.0],[51.42857142857143,52.42857142857143],[53.0,51.0],[53.60000000000001,50.60000000000001],[54.0,50.0],[54.22222222222222,49.22222222222223],[54.5,49.0],[54.9,48.9],[55.13793103448276,48.13793103448276],[55.5,48.0],[56.0,47.33333333333333],[56.22222222222223,42.22222222222223],[56.375,42.0],[56.800000000000004,40.0],[57.00000000000001,39.66666666666667],[57.44444444444444,39.44444444444444],[58.0,39.375],[59.0,39.5],[60.0,39.38461538461539],[61.075471698113205,39.07547169811321],[63.0,39.0],[63.0,38.0],[61.275862068965516,37.724137931034484],[61.0,37.55555555555556],[60.58333333333333,37.0],[60.23529411764706,36.0],[60.68181818181819,34.68181818181818],[62.0,33.0],[62.19047619047619,28.19047619047619],[62.66666666666667,26.0],[62.5,25.0],[62.285714285714285,24.714285714285715],[62.285714285714285,24.285714285714285],[62.099999999999994,23.900000000000002],[62.12903225806451,22.12903225806452],[62.315789473684205,21.31578947368421],[63.0,21.0],[63.06896551724138,18.06896551724138],[63.5,17.5],[64.0,17.333333333333332],[64.07272727272728,17.072727272727274],[65.16666666666667,17.0],[66.24561403508773,16.24561403508772],[68.08333333333333,16.0],[69.22727272727272,15.227272727272727],[71.0,14.68],[74.0566037735849,14.056603773584905],[76.0,13.941176470588236],[78.17391304347827,13.17391304347826],[79.96363636363637,12.963636363636365],[81.12244897959184,12.122448979591837],[82.0,12.0],[83.0,11.6],[84.0,11.375],[86.1063829787234,11.106382978723403],[89.5,11.0],[90.00000000000001,10.857142857142858],[91.00000000000001,10.833333333333334],[92.73333333333333,11.266666666666666],[93.0,12.0],[95.5,12.0],[96.0,11.5],[96.2,11.0],[96.11111111111111,10.11111111111111],[96.0,9.857142857142858],[95.53846153846155,9.461538461538462],[95.33333333333333,9.0],[95.11320754716982,8.88679245283019],[95.0,8.25],[94.26086956521739,7.739130434782609],[94.0,7.25],[93.4,6.6000000000000005],[92.0,5.5],[91.0,5.0],[88.63636363636363,4.363636363636363],[88.0,4.0],[81.0,4.0],[77.71428571428571,3.2857142857142856],[77.0,3.0],[76.0,3.0],[75.0,2.5999999999999996],[74.0,2.5],[73.0,2.5999999999999996],[72.33333333333334,3.0],[71.5,4.0],[71.5,6.0],[71.0,7.0],[71.0,8.0],[70.66666666666666,9.0],[70.0,10.0],[69.0,10.4],[67.6,10.600000000000001],[67.0,11.0],[66.0,11.0],[66.0,10.0],[66.4,9.4],[67.0,9.0],[67.33333333333333,8.0],[66.0,6.75],[64.0,6.4],[62.82608695652174,6.826086956521738],[60.5,7.0],[58.76923076923077,7.769230769230769],[56.66666666666667,8.0],[56.0,8.5],[55.0,8.5],[53.71428571428571,8.714285714285714],[53.0,9.0],[53.0,11.0],[52.5,12.5],[52.0,13.0],[50.46153846153847,13.461538461538462],[49.5,14.0],[49.095238095238095,14.095238095238095],[48.529411764705884,14.529411764705882],[46.400000000000006,17.4],[46.0,17.666666666666668],[45.0,18.0],[44.0,17.666666666666668],[43.699999999999996,16.0],[43.45161290322581,15.548387096774194],[42.66666666666667,15.000000000000002],[42.6,14.600000000000001],[44.400000000000006,14.400000000000002],[45.0,14.0],[45.4,13.4],[45.81818181818181,11.999999999999998],[45.65217391304348,11.347826086956522],[45.38095238095238,10.619047619047619],[45.0,10.2],[44.6,9.4],[44.0,9.2],[43.0,9.133333333333335],[42.272727272727266,9.272727272727273],[41.66666666666667,10.0],[41.66666666666667,11.0],[42.0,12.0],[42.20689655172414,13.793103448275861],[42.5,14.0],[42.4,14.400000000000002],[41.0,14.333333333333334],[40.44444444444444,14.444444444444443],[39.77777777777777,14.777777777777779],[39.30769230769231,15.307692307692307],[39.10810810810811,16.10810810810811],[39.11764705882353,17.88235294117647],[39.35294117647059,18.64705882352941],[40.333333333333336,19.0],[41.2,19.8],[41.25,20.0],[41.0,20.5],[40.5,21.0],[40.0,22.0],[39.833333333333336,21.0],[39.53846153846155,20.461538461538463],[38.44444444444444,19.555555555555554],[38.0,19.428571428571427],[37.0,19.428571428571427],[36.61904761904761,19.619047619047617],[36.333333333333336,20.0],[35.400000000000006,20.400000000000002],[35.0,21.142857142857142],[34.55555555555555,21.555555555555554],[34.4,22.0],[34.375,23.0],[34.565217391304344,23.434782608695652],[35.16666666666667,24.0],[35.46153846153847,24.53846153846154],[36.0,25.0],[36.0,26.0],[35.6,26.6],[35.0,27.0],[34.71428571428571,27.714285714285715],[34.285714285714285,28.285714285714285],[34.0,28.5],[33.0,28.666666666666664],[32.81818181818182,28.818181818181817],[32.77777777777778,29.22222222222222],[33.0,30.0],[34.0,30.25],[35.0,30.0],[37.0,29.0],[41.0,29.0],[42.0,29.66666666666667],[43.0,29.0],[46.0,29.0],[47.0,30.0],[45.0,32.0],[43.0,32.0],[42.4,32.4],[41.0,33.0],[39.0,33.0],[38.0,34.0],[37.0,34.0],[36.0,35.0],[35.0,35.0],[34.400000000000006,35.400000000000006],[33.6,35.6],[29.77777777777778,35.77777777777778],[29.0,36.0],[28.363636363636363,36.36363636363636],[27.000000000000004,36.333333333333336],[24.714285714285715,36.714285714285715],[22.81818181818182,36.81818181818182],[21.714285714285715,37.71428571428571],[21.0,38.0],[20.5,38.5],[19.5,39.0],[18.714285714285715,39.71428571428571],[18.0,40.0],[17.0,41.0],[15.0,42.0],[14.600000000000001,42.6],[13.0,43.66666666666667],[12.461538461538462,44.46153846153847],[11.857142857142858,44.85714285714286],[11.555555555555555,45.55555555555556],[11.0,46.0],[10.692307692307693,46.69230769230769],[10.666666666666668,47.333333333333336],[11.400000000000002,48.60000000000001],[11.5,49.0],[12.0,49.25],[12.666666666666668,49.33333333333334],[13.4,49.6],[14.0,50.0],[15.0,51.0],[15.5,52.0],[14.666666666666668,53.66666666666667],[13.0,54.5],[12.363636363636363,55.36363636363637],[11.8,55.800000000000004],[11.666666666666668,56.0],[11.833333333333334,57.16666666666667],[13.600000000000001,58.400000000000006],[14.0,59.0],[15.0,59.4],[16.444444444444443,59.55555555555555],[18.0,60.0],[19.0,60.125],[20.333333333333336,60.66666666666667],[22.0,61.75],[23.0,62.0],[27.127659574468083,62.12765957446808],[30.0,62.0],[31.153846153846153,61.153846153846146]]],[[[71.16666666666666,38.833333333333336],[70.75,38.0],[70.0,37.666666666666664],[69.0,37.5],[68.0,38.0],[68.33333333333334,39.0],[69.0,39.333333333333336],[70.0,39.55555555555556],[71.13333333333333,39.13333333333333],[71.16666666666666,38.833333333333336]]],[[[65.33333333333334,38.66666666666667],[65.0,38.5],[63.5,38.5],[63.0,39.0],[67.03030303030303,39.03030303030303],[67.33333333333333,39.0],[67.22222222222223,38.77777777777778],[65.33333333333334,38.66666666666667]]],[[[92.0,45.5],[94.06896551724138,45.93103448275862],[96.93103448275862,46.06896551724138],[98.0,46.25],[98.86666666666667,46.13333333333334],[100.0,46.2],[100.25,46.0],[100.22222222222223,45.22222222222222],[100.14285714285714,44.85714285714286],[99.38095238095238,43.61904761904761],[98.84615384615384,43.15384615384615],[98.33333333333334,43.0],[97.6923076923077,42.30769230769231],[96.5,42.0],[96.28571428571428,41.71428571428571],[95.66666666666667,41.333333333333336],[93.0,41.333333333333336],[92.0,41.5],[89.77777777777777,41.22222222222222],[88.28571428571428,40.71428571428571],[85.33333333333334,40.0],[83.11764705882354,38.88235294117647],[82.0,38.55555555555556],[81.0,38.55555555555556],[77.08,39.08],[76.26666666666667,39.266666666666666],[75.68421052631578,39.68421052631579],[75.57142857142857,40.0],[75.66666666666667,40.333333333333336],[76.5,41.5],[77.33333333333334,42.0],[78.22222222222223,42.77777777777778],[79.2,43.0],[80.23076923076923,43.76923076923077],[80.9622641509434,44.03773584905661],[82.0,44.75],[83.0,45.0],[84.0,45.625],[85.11111111111111,45.888888888888886],[86.0,46.33333333333333],[90.0,46.42857142857143],[90.3157894736842,46.315789473684205],[90.80000000000001,45.8],[92.0,45.5]]]]}}]}