{"type":"FeatureCollection","features":[{"type":"Feature","properties":{"ageMa":540},"geometry":{"type":"MultiPolygon","coordinates":[[[[-29.846153846153847,-57.84615384615385],[-29.0,-58.666666666666664],[-28.0,-58.57142857142857],[-27.700000000000003,-58.7],[-27.285714285714285,-59.285714285714285],[-26.619047619047617,-59.61904761904761],[-26.0,-60.400000000000006],[-24.81818181818182,-60.81818181818182],[-24.5,-61.5],[-23.904761904761905,-61.904761904761905],[-23.53846153846154,-62.53846153846154],[-23.0,-63.0],[-21.105263157894736,-64.10526315789474],[-19.0,-64.8],[-18.0,-65.0],[-16.5,-64.5],[-16.0,-64.0],[-15.363636363636363,-64.36363636363637],[-15.0,-64.4],[-13.0,-63.714285714285715],[-12.0,-63.8],[-11.0,-63.5],[-10.0,-63.5],[-9.0,-63.285714285714285],[-1.0,-63.375],[1.0,-63.25],[3.4705882352941173,-63.529411764705884],[4.5,-64.0],[4.75,-64.25],[5.0,-65.0],[5.0,-66.0],[4.555555555555555,-66.55555555555556],[4.5,-67.0],[3.8823529411764706,-67.88235294117648],[3.384615384615384,-69.38461538461539],[2.76,-69.75999999999999],[2.434782608695652,-70.43478260869566],[1.2666666666666666,-71.26666666666667],[-1.0,-72.375],[-2.0,-72.5],[-5.0,-72.33333333333334],[-6.0,-72.5],[-8.0,-72.42857142857143],[-9.0,-72.57142857142857],[-9.470588235294118,-72.47058823529412],[-10.0,-72.25],[-10.25,-72.0],[-11.0,-71.75],[-17.0,-71.42857142857143],[-19.727272727272727,-70.72727272727272],[-21.0,-70.69999999999999],[-22.0,-70.875],[-22.866666666666667,-70.86666666666667],[-25.400000000000002,-70.60000000000001],[-27.0,-70.625],[-28.0,-70.33333333333333],[-29.0,-70.5],[-30.0,-70.33333333333333],[-31.0,-70.33333333333333],[-31.894736842105264,-69.89473684210526],[-33.66666666666667,-69.66666666666667],[-35.266666666666666,-69.26666666666667],[-35.88235294117647,-68.88235294117646],[-37.38095238095238,-68.38095238095238],[-37.78947368421053,-67.78947368421052],[-38.35294117647059,-67.35294117647058],[-39.14285714285714,-66.14285714285714],[-39.5,-64.0],[-39.28571428571428,-62.714285714285715],[-39.0,-62.0],[-39.25,-61.0],[-39.0,-60.0],[-38.46153846153847,-59.53846153846154],[-38.111111111111114,-58.88888888888889],[-36.266666666666666,-57.733333333333334],[-36.0,-57.66666666666667],[-35.0,-57.800000000000004],[-34.0,-57.57142857142857],[-33.0,-57.75],[-31.0,-57.599999999999994],[-29.846153846153847,-57.84615384615385]]],[[[-1.0,-54.66666666666667],[-1.8571428571428572,-55.14285714285714],[-3.8947368421052633,-55.10526315789473],[-5.0,-55.22222222222222],[-7.344827586206897,-55.65517241379311],[-8.0,-55.888888888888886],[-9.173913043478262,-55.826086956521735],[-10.0,-56.2],[-14.600000000000001,-55.60000000000001],[-16.153846153846153,-55.153846153846146],[-18.142857142857142,-54.14285714285714],[-18.684210526315788,-53.684210526315795],[-21.285714285714285,-52.285714285714285],[-22.666666666666668,-51.00000000000001],[-22.0,-50.66666666666667],[-18.894736842105264,-50.10526315789474],[-18.400000000000002,-49.6],[-16.900000000000002,-49.1],[-15.0,-48.166666666666664],[-12.88888888888889,-48.111111111111114],[-11.272727272727273,-48.272727272727266],[-9.619047619047619,-48.61904761904761],[-9.064516129032258,-49.064516129032256],[-6.0,-49.333333333333336],[-4.181818181818182,-50.18181818181818],[-1.8571428571428572,-50.85714285714286],[-1.2999999999999998,-51.3],[-0.5238095238095237,-51.52380952380952],[0.8333333333333333,-52.16666666666667],[2.0,-52.28571428571429],[3.31578947368421,-52.68421052631578],[3.75,-53.25],[6.0,-53.57142857142857],[8.0,-53.375],[12.0,-53.5],[12.347826086956522,-53.652173913043484],[12.714285714285714,-54.285714285714285],[13.25,-54.75],[14.142857142857144,-56.0],[14.0,-56.2],[12.81818181818182,-56.81818181818182],[12.454545454545453,-57.45454545454545],[11.8,-58.00000000000001],[11.352941176470587,-59.35294117647058],[11.0,-60.0],[10.0,-60.333333333333336],[8.0,-60.0],[7.0,-60.166666666666664],[4.647058823529411,-59.35294117647058],[4.25,-58.75],[3.0,-58.0],[2.714285714285714,-57.28571428571428],[2.2857142857142856,-57.28571428571428],[1.6666666666666665,-57.0],[1.5,-56.5],[1.0,-56.33333333333333],[0.8461538461538461,-56.15384615384615],[0.0,-56.0],[0.5,-55.5],[1.4000000000000001,-55.60000000000001],[2.0,-56.0],[2.3333333333333335,-55.33333333333334],[2.3333333333333335,-55.0],[2.0,-54.66666666666667],[0.7142857142857142,-54.71428571428571],[0.0,-55.0],[-1.0,-54.66666666666667]]],[[[-131.28571428571428,-41.71428571428571],[-131.0,-41.66666666666667],[-130.77777777777777,-43.22222222222222],[-131.0,-45.0],[-131.5,-43.0],[-131.28571428571428,-41.71428571428571]]],[[[-112.0,-17.5],[-110.0,-17.666666666666668],[-109.75,-17.75],[-109.0,-18.4],[-107.0,-18.57142857142857],[-106.71428571428571,-18.714285714285715],[-106.29629629629629,-19.296296296296298],[-105.0,-19.57142857142857],[-104.73913043478261,-19.73913043478261],[-103.80000000000001,-21.799999999999997],[-103.0,-22.0],[-103.60000000000001,-22.4],[-104.0,-23.0],[-103.0,-24.0],[-102.30769230769232,-26.30769230769231],[-101.84615384615384,-26.846153846153847],[-101.66666666666667,-27.666666666666668],[-101.0,-28.0],[-101.0,-29.0],[-100.63636363636364,-29.63636363636364],[-100.0,-30.0],[-99.71428571428572,-31.0],[-99.43478260869566,-31.434782608695652],[-99.0,-31.625],[-98.62962962962962,-31.370370370370367],[-98.44444444444446,-31.0],[-98.66666666666667,-29.666666666666668],[-99.18181818181819,-29.18181818181818],[-99.25,-27.75],[-99.0,-27.0],[-96.5,-24.5],[-96.33333333333334,-24.0],[-96.55555555555554,-22.555555555555557],[-97.0,-22.0],[-96.33333333333334,-21.666666666666668],[-96.0,-21.666666666666668],[-95.0,-21.0],[-93.0,-20.6],[-92.0,-20.166666666666668],[-91.0,-20.0],[-90.0,-19.666666666666664],[-89.0,-20.0],[-88.0,-19.5],[-87.15384615384615,-18.846153846153847],[-86.4,-18.6],[-84.68421052631578,-18.31578947368421],[-83.0,-17.666666666666668],[-82.0,-17.666666666666668],[-81.0,-17.5],[-80.0,-17.57142857142857],[-78.73333333333333,-17.266666666666666],[-78.0,-16.8],[-76.0,-16.57142857142857],[-73.0,-16.444444444444443],[-70.54545454545455,-16.545454545454547],[-68.875,-16.875],[-68.4,-17.4],[-67.77777777777777,-17.77777777777778],[-67.0,-18.8],[-66.0,-19.0],[-66.0,-20.0],[-67.3076923076923,-21.692307692307693],[-68.33333333333334,-23.666666666666668],[-69.0,-26.0],[-69.0,-27.0],[-68.6,-29.0],[-68.35294117647058,-29.352941176470587],[-68.0,-29.5],[-67.0,-29.4],[-66.0,-29.75],[-65.0,-29.4],[-64.55555555555554,-29.444444444444443],[-64.0,-29.0],[-64.0,-30.0],[-64.85714285714286,-31.142857142857142],[-65.71428571428571,-31.285714285714285],[-67.0,-32.0],[-67.77777777777777,-32.22222222222222],[-69.0,-32.25],[-69.5,-32.5],[-70.0,-33.0],[-70.5,-34.0],[-71.44444444444444,-34.55555555555555],[-73.0,-36.0],[-72.0,-36.5],[-71.5,-37.0],[-72.0,-37.5],[-73.0,-37.66666666666667],[-73.18181818181819,-37.81818181818181],[-73.25,-38.0],[-73.0,-38.5],[-72.0,-38.5],[-71.0,-39.333333333333336],[-70.0,-39.0],[-69.5,-38.5],[-69.0,-38.333333333333336],[-66.28571428571428,-39.28571428571428],[-64.0,-39.75],[-63.285714285714285,-39.71428571428571],[-63.0,-39.666666666666664],[-62.63636363636363,-39.36363636363636],[-62.33333333333333,-39.0],[-62.0,-38.0],[-60.75,-37.0],[-60.0,-36.57142857142857],[-59.0,-36.5],[-56.13333333333333,-37.13333333333333],[-53.0,-37.285714285714285],[-52.0,-37.5],[-51.68421052631579,-37.68421052631579],[-51.0,-38.75],[-50.5,-39.0],[-50.0,-39.5],[-49.0,-40.0],[-49.75,-40.25],[-50.25,-40.75],[-50.84615384615385,-43.15384615384615],[-51.625,-44.375],[-52.523809523809526,-45.476190476190474],[-53.625,-46.375],[-54.285714285714285,-46.71428571428571],[-54.33333333333334,-47.0],[-54.63636363636364,-47.36363636363636],[-55.33333333333334,-47.66666666666667],[-55.77777777777778,-48.22222222222222],[-57.111111111111114,-48.88888888888889],[-57.57894736842105,-49.421052631578945],[-58.18181818181818,-49.81818181818181],[-58.53846153846154,-50.46153846153847],[-59.173913043478265,-50.826086956521735],[-59.583333333333336,-51.41666666666667],[-60.27272727272727,-51.72727272727273],[-60.76470588235294,-52.23529411764706],[-61.470588235294116,-52.529411764705884],[-63.125,-52.875],[-64.57894736842104,-53.421052631578945],[-66.0,-53.55555555555556],[-67.71428571428571,-54.285714285714285],[-68.55555555555556,-54.44444444444444],[-73.0,-54.55555555555556],[-74.375,-54.375],[-75.15384615384616,-54.15384615384616],[-75.78947368421052,-53.78947368421052],[-76.63636363636364,-53.63636363636364],[-78.55555555555554,-53.55555555555555],[-80.0,-53.33333333333333],[-80.25,-53.25],[-81.0,-52.599999999999994],[-84.0,-52.25],[-85.33333333333334,-51.0],[-86.47619047619048,-50.476190476190474],[-86.9,-49.9],[-88.28571428571428,-49.285714285714285],[-88.7037037037037,-48.7037037037037],[-90.43478260869566,-48.43478260869565],[-91.0,-48.0],[-91.77777777777777,-47.77777777777778],[-93.0,-47.625],[-96.0,-47.599999999999994],[-97.26666666666667,-47.266666666666666],[-97.875,-46.875],[-99.3157894736842,-46.315789473684205],[-99.73913043478261,-45.73913043478261],[-101.31578947368422,-45.315789473684205],[-102.00000000000001,-44.66666666666667],[-104.0,-44.42857142857143],[-104.3157894736842,-44.315789473684205],[-105.00000000000001,-43.66666666666667],[-106.0,-43.33333333333333],[-107.0,-43.199999999999996],[-108.0,-42.0],[-109.0,-42.42857142857143],[-109.28571428571428,-42.285714285714285],[-109.66666666666669,-41.66666666666667],[-110.4,-41.400000000000006],[-110.8,-40.8],[-111.35294117647058,-40.35294117647059],[-113.0,-37.66666666666667],[-113.4,-37.6],[-114.0,-38.0],[-114.0,-35.0],[-113.25,-34.0],[-113.0,-33.0],[-113.6,-31.0],[-113.5,-30.5],[-113.0,-30.0],[-113.60000000000001,-29.6],[-114.00000000000001,-29.66666666666667],[-114.66666666666667,-28.0],[-115.0,-27.833333333333336],[-115.4,-27.4],[-115.69230769230771,-26.692307692307693],[-116.32,-26.32],[-116.6923076923077,-25.692307692307693],[-117.33333333333334,-25.333333333333336],[-117.66666666666667,-24.666666666666668],[-118.28571428571428,-24.285714285714285],[-118.66666666666669,-23.666666666666668],[-119.0,-23.42857142857143],[-120.15384615384616,-23.153846153846153],[-121.5,-21.0],[-121.42857142857144,-20.571428571428573],[-121.0,-20.0],[-121.33333333333333,-19.0],[-120.66666666666667,-18.333333333333336],[-118.53846153846155,-17.46153846153846],[-116.85714285714286,-17.142857142857142],[-116.0,-16.8],[-114.75,-16.75],[-114.0,-16.57142857142857],[-113.0,-16.666666666666664],[-112.75,-16.75],[-112.0,-17.5]],[[-96.0,-40.0],[-95.60000000000001,-39.400000000000006],[-95.5,-39.0],[-96.5,-38.0],[-97.0,-37.0],[-98.33333333333334,-36.333333333333336],[-100.0,-36.0],[-101.0,-36.0],[-101.44444444444443,-36.55555555555556],[-101.66666666666667,-37.0],[-101.60000000000001,-37.6],[-101.0,-39.0],[-100.44444444444444,-39.44444444444444],[-99.0,-40.0],[-96.0,-40.0]]],[[[-172.63636363636363,32.36363636363636],[-172.0,32.0],[-170.0,31.4],[-169.5,31.0],[-168.46153846153848,30.53846153846154],[-168.125,30.0],[-167.27586206896552,29.724137931034484],[-166.79999999999998,29.0],[-165.6190476190476,28.38095238095238],[-165.0,27.833333333333336],[-163.57894736842104,27.421052631578945],[-161.7,26.299999999999997],[-161.40000000000003,25.6],[-160.76470588235293,25.235294117647058],[-160.6,25.0],[-161.0,24.0],[-161.57142857142858,24.428571428571427],[-163.0,24.6],[-164.0,24.5],[-164.33333333333334,24.333333333333336],[-165.4,23.400000000000002],[-166.60000000000002,22.6],[-167.46153846153845,21.461538461538463],[-167.6,21.0],[-166.28571428571428,19.714285714285715],[-165.68421052631578,19.315789473684212],[-164.38095238095238,17.619047619047617],[-163.86666666666667,17.133333333333333],[-163.5,16.5],[-163.3,15.7],[-162.8,15.0],[-162.66666666666666,14.0],[-161.625,12.375],[-161.1818181818182,10.818181818181818],[-160.63636363636363,10.363636363636363],[-160.25,8.75],[-159.6521739130435,8.347826086956522],[-159.5,8.0],[-159.5,7.0],[-159.66666666666666,6.0],[-158.75,5.25],[-158.66666666666669,5.0],[-158.8,4.0],[-158.33333333333334,1.0],[-158.25,0.75],[-157.6,0.0],[-157.75,-1.0],[-157.28571428571428,-3.0],[-157.26666666666665,-4.266666666666667],[-156.75,-7.0],[-156.60000000000002,-9.0],[-156.8181818181818,-11.181818181818182],[-157.4,-13.0],[-157.5,-14.0],[-157.8,-15.0],[-157.66666666666666,-16.0],[-157.8,-18.0],[-158.28571428571428,-18.714285714285715],[-158.33333333333334,-19.0],[-157.66666666666669,-19.666666666666668],[-157.0,-21.0],[-156.0,-21.25],[-155.60000000000002,-21.6],[-155.21052631578948,-22.210526315789473],[-154.57894736842104,-22.57894736842105],[-153.16666666666666,-25.0],[-152.5,-25.5],[-151.52380952380952,-26.523809523809522],[-151.1904761904762,-27.19047619047619],[-150.57894736842104,-27.578947368421048],[-150.11764705882354,-28.11764705882353],[-148.86666666666667,-28.866666666666667],[-148.38095238095238,-29.38095238095238],[-147.77777777777777,-29.77777777777778],[-147.36363636363637,-30.363636363636367],[-146.77777777777777,-30.77777777777778],[-146.36363636363637,-31.363636363636363],[-145.7,-31.7],[-145.31578947368422,-32.315789473684205],[-144.33333333333334,-33.0],[-143.0,-34.333333333333336],[-142.5,-35.0],[-142.66666666666669,-35.333333333333336],[-143.0,-35.5],[-143.4,-36.0],[-143.71428571428572,-37.285714285714285],[-144.58333333333334,-39.41666666666667],[-145.1,-39.9],[-145.76470588235293,-41.23529411764706],[-146.28571428571428,-41.71428571428571],[-146.75,-43.0],[-147.23529411764707,-43.76470588235294],[-147.4,-45.0],[-147.0,-46.0],[-146.0909090909091,-47.09090909090909],[-144.66666666666669,-47.66666666666667],[-144.0909090909091,-48.09090909090909],[-142.4,-48.400000000000006],[-142.0,-48.6],[-139.0,-49.375],[-138.0,-49.44444444444444],[-136.0,-49.285714285714285],[-134.55555555555554,-49.55555555555556],[-132.88235294117646,-50.88235294117647],[-132.0,-52.0],[-132.0,-53.0],[-133.0,-53.0],[-135.0,-53.66666666666667],[-136.0,-54.4],[-136.7,-55.3],[-139.15384615384616,-55.84615384615384],[-143.0,-57.333333333333336],[-143.42105263157893,-57.57894736842105],[-143.8,-58.0],[-144.0,-59.0],[-143.0,-59.66666666666667],[-142.0,-60.0],[-141.0,-59.75],[-140.0,-59.8],[-139.25,-60.25],[-137.57894736842104,-60.578947368421055],[-136.85714285714286,-60.857142857142854],[-136.42857142857144,-61.42857142857143],[-136.0,-61.599999999999994],[-135.0,-61.57142857142857],[-133.0,-61.8],[-132.0,-61.57142857142857],[-130.83333333333334,-61.83333333333333],[-129.5,-62.5],[-129.0,-63.0],[-127.0,-63.0],[-125.42857142857144,-62.57142857142858],[-123.99999999999999,-62.42857142857142],[-121.83333333333334,-62.833333333333336],[-121.18181818181819,-63.18181818181819],[-119.54545454545453,-63.54545454545455],[-118.47619047619047,-64.47619047619047],[-117.77777777777777,-64.77777777777777],[-117.3076923076923,-65.3076923076923],[-116.71428571428571,-65.71428571428571],[-116.0,-66.0],[-115.60000000000001,-66.60000000000001],[-115.0,-67.0],[-113.0,-67.0],[-112.4,-67.4],[-112.0,-67.5],[-111.60000000000001,-67.4],[-111.0,-67.0],[-110.60000000000001,-67.6],[-110.0,-68.0],[-107.9090909090909,-67.9090909090909],[-107.66666666666667,-68.0],[-107.44444444444444,-68.44444444444444],[-106.81818181818181,-68.81818181818181],[-103.9047619047619,-68.90476190476191],[-103.5,-69.0],[-103.33333333333334,-69.33333333333334],[-103.0,-69.5],[-102.6,-69.4],[-102.0,-69.0],[-100.875,-68.875],[-100.0,-69.0],[-99.4,-69.4],[-99.0,-69.5],[-98.75,-69.75],[-96.0,-69.85714285714286],[-95.0,-69.66666666666667],[-93.875,-69.875],[-93.4,-70.4],[-92.0,-70.75],[-91.5,-71.0],[-91.5,-72.5],[-92.0,-73.0],[-91.0,-73.0],[-91.4,-73.60000000000001],[-91.18181818181819,-74.18181818181819],[-90.0,-74.33333333333334],[-89.0,-74.0],[-88.28571428571428,-74.28571428571428],[-86.0,-74.66666666666667],[-85.0,-75.0],[-83.11764705882354,-74.88235294117648],[-82.0,-75.0],[-81.0,-76.0],[-80.25,-75.75],[-79.0,-76.0],[-78.0,-77.0],[-77.4,-76.60000000000001],[-77.0,-76.5],[-76.0,-77.0],[-75.0,-78.0],[-74.0,-78.0],[-74.0,-79.0],[-73.0,-79.0],[-72.66666666666667,-79.66666666666667],[-71.0,-80.66666666666667],[-66.0,-82.0],[-65.0,-82.0],[-64.0,-82.33333333333334],[-63.400000000000006,-82.4],[-58.0,-82.66666666666666],[-57.0,-83.0],[-56.0,-83.16666666666667],[-55.0,-82.75],[-54.333333333333336,-82.66666666666667],[-53.5,-82.0],[-53.0,-81.0],[-53.5,-80.0],[-52.0,-79.625],[-51.0,-79.55555555555554],[-49.75,-79.75],[-49.25,-80.25],[-48.60000000000001,-80.60000000000001],[-48.0,-80.83333333333333],[-46.9,-80.89999999999999],[-46.0,-81.4],[-44.0,-81.5],[-43.60000000000001,-81.4],[-43.0,-81.0],[-42.4,-81.4],[-41.0,-81.80000000000001],[-38.0,-82.0],[-37.63636363636364,-82.63636363636363],[-37.0,-82.85714285714286],[-35.0,-83.0],[-33.0,-82.875],[-29.0,-83.0],[-28.400000000000002,-83.4],[-27.0,-83.66666666666667],[-26.0,-84.0],[-25.166666666666664,-83.83333333333334],[-22.0,-84.0],[-22.0,-85.0],[-21.0,-85.0],[-20.0,-85.5],[-19.18181818181818,-86.18181818181819],[-17.0,-86.75],[-16.2,-87.19999999999999],[-14.0,-87.4],[-13.0,-87.8],[-11.0,-88.2],[-10.0,-88.2],[-7.0,-88.6],[-3.6923076923076925,-88.69230769230771],[-3.0,-89.0],[-2.0,-88.6],[-1.0,-88.8],[0.0,-88.75],[2.75,-87.75],[3.2857142857142856,-87.28571428571428],[4.0,-87.0],[4.0,-86.0],[3.6000000000000005,-85.4],[3.5,-85.0],[4.0,-84.71428571428572],[6.0,-84.75],[7.0,-85.0],[7.0,-86.0],[7.6,-85.60000000000001],[9.0,-86.0],[11.0,-85.75],[12.0,-86.0],[12.6,-85.60000000000001],[13.0,-85.0],[13.600000000000001,-85.4],[14.0,-85.5],[15.000000000000002,-85.33333333333334],[16.0,-85.66666666666666],[18.0,-85.0],[19.0,-84.85714285714285],[20.0,-85.0],[21.142857142857142,-84.85714285714286],[25.0,-84.75],[26.0,-84.625],[27.0,-84.28571428571428],[30.400000000000002,-84.4],[35.0,-84.25],[35.75,-83.75],[37.0,-83.44444444444444],[51.0,-83.4],[53.0,-83.16666666666667],[56.0,-83.4],[59.0,-83.375],[60.578947368421055,-82.57894736842105],[62.0,-82.375],[69.0,-82.57142857142857],[71.0,-82.33333333333334],[74.0,-82.33333333333334],[76.0,-82.0],[76.73333333333333,-81.73333333333333],[80.0,-81.6],[81.0,-81.66666666666667],[83.0,-81.0],[83.89473684210526,-80.89473684210526],[86.14285714285714,-80.85714285714286],[87.0,-81.0],[88.66666666666667,-80.66666666666667],[89.0,-80.5],[90.0,-80.5],[90.28571428571428,-80.28571428571428],[91.77777777777777,-79.77777777777777],[92.0,-79.0],[93.0,-79.0],[94.0,-78.66666666666667],[96.0,-78.33333333333334],[98.0,-78.6],[100.0,-78.0],[101.0,-78.0],[101.4,-77.4],[101.5,-77.0],[102.0,-76.5],[102.4,-76.60000000000001],[102.6,-77.4],[103.0,-78.0],[104.0,-79.0],[104.44444444444444,-78.44444444444444],[104.55555555555556,-77.55555555555556],[105.0,-77.0],[105.60000000000001,-77.4],[106.0,-78.0],[106.0,-79.0],[105.55555555555554,-79.55555555555554],[105.5,-80.0],[106.0,-80.66666666666667],[106.44444444444443,-80.44444444444444],[106.66666666666666,-80.0],[106.60000000000001,-79.6],[107.0,-79.0],[107.0,-78.0],[108.0,-78.0],[108.33333333333334,-77.33333333333334],[109.0,-77.0],[109.28571428571428,-76.28571428571428],[110.33333333333334,-75.0],[111.0,-74.71428571428571],[111.4,-74.4],[111.625,-74.0],[111.47619047619048,-73.52380952380952],[111.0,-73.0],[110.75,-72.0],[110.25,-71.0],[109.39999999999999,-70.0],[109.18181818181819,-68.81818181818181],[108.5,-67.0],[108.4,-66.0],[107.71428571428571,-64.28571428571428],[107.57142857142857,-63.0],[107.25,-61.75],[106.7,-61.3],[106.16666666666666,-59.833333333333336],[105.25,-59.0],[107.26666666666668,-57.266666666666666],[107.625,-56.625],[108.16666666666667,-56.166666666666664],[109.0,-55.0],[109.33333333333334,-54.333333333333336],[109.0,-53.0],[108.60000000000001,-52.4],[108.5,-52.0],[110.80000000000001,-48.0],[111.0,-47.0],[110.60000000000001,-46.400000000000006],[110.0,-46.0],[110.28571428571428,-45.285714285714285],[110.5,-44.0],[111.0,-43.5],[112.0,-44.0],[112.33333333333334,-43.0],[112.33333333333334,-42.66666666666667],[111.75,-42.25],[111.66666666666666,-42.0],[112.0,-41.75],[112.66666666666669,-41.66666666666667],[113.0,-41.5],[114.0,-40.0],[115.5,-39.0],[115.66666666666669,-38.66666666666667],[116.28571428571428,-38.285714285714285],[116.71428571428571,-37.71428571428571],[118.0,-37.0],[118.71428571428571,-37.285714285714285],[119.0,-37.333333333333336],[119.22222222222223,-37.22222222222222],[119.5,-37.0],[119.60000000000001,-36.6],[120.0,-36.0],[124.0,-35.5],[126.0,-34.5],[127.26666666666667,-34.266666666666666],[128.76470588235293,-33.76470588235294],[129.23529411764707,-33.76470588235294],[130.71428571428572,-34.285714285714285],[132.0,-34.0],[132.75,-34.25],[133.25,-35.0],[134.14285714285714,-35.85714285714286],[135.0,-37.0],[136.36363636363637,-37.63636363636364],[138.8181818181818,-39.18181818181818],[141.0,-40.0],[143.0,-41.0],[146.0,-42.0],[147.0,-42.666666666666664],[149.0,-43.333333333333336],[150.0,-43.5],[151.0,-44.0],[152.0,-43.66666666666667],[152.4,-43.400000000000006],[152.66666666666669,-43.0],[152.36363636363637,-42.63636363636364],[152.13333333333333,-41.86666666666667],[151.625,-41.375],[151.0,-40.33333333333333],[147.0,-39.0],[145.0,-38.0],[142.0,-37.0],[141.0,-36.333333333333336],[140.0,-36.0],[138.30769230769232,-34.69230769230769],[137.0,-34.0],[136.1818181818182,-32.81818181818182],[135.60000000000002,-32.4],[135.33333333333334,-32.0],[135.33333333333334,-31.0],[134.5,-29.5],[134.0,-29.0],[133.6,-28.0],[133.4,-27.0],[133.5,-26.0],[133.31578947368422,-23.684210526315788],[132.7,-21.0],[133.28571428571428,-20.0],[133.22222222222223,-19.22222222222222],[133.4,-18.400000000000002],[134.0,-18.0],[134.7142857142857,-16.714285714285715],[136.25,-16.25],[137.0,-15.8],[141.0,-15.375],[142.0,-15.333333333333336],[143.0,-15.5],[145.0,-15.25],[145.9047619047619,-14.904761904761905],[147.66666666666669,-14.666666666666668],[148.4,-14.400000000000002],[149.0,-14.0],[151.0,-13.600000000000001],[152.0,-13.600000000000001],[153.0,-13.333333333333334],[153.5,-13.0],[156.0,-12.666666666666666],[156.47058823529412,-12.470588235294116],[157.0,-12.0],[157.84615384615387,-11.846153846153845],[159.0,-11.0],[160.0,-11.0],[163.28571428571428,-10.285714285714285],[163.5,-10.0],[164.53846153846155,-9.53846153846154],[166.0,-8.0],[166.33333333333334,-7.333333333333334],[166.66666666666669,-7.333333333333334],[167.8,-6.800000000000001],[170.25,-6.25],[172.0,-6.444444444444445],[174.0,-6.285714285714286],[174.68421052631578,-5.684210526315789],[176.10526315789474,-5.105263157894737],[176.57894736842104,-4.578947368421052],[177.23529411764707,-4.235294117647059],[177.61904761904762,-3.6190476190476186],[178.31578947368422,-3.31578947368421],[178.5,-3.0],[178.66666666666669,-2.0],[178.57142857142856,0.0],[178.375,1.0],[178.44444444444446,2.0],[178.3,3.3000000000000003],[177.85714285714283,3.857142857142857],[177.0,6.0],[175.36363636363637,7.363636363636364],[174.71428571428572,7.7142857142857135],[174.0,8.8],[172.0,10.0],[171.54545454545453,10.545454545454545],[171.27272727272725,11.272727272727273],[170.76470588235293,11.764705882352942],[170.7142857142857,12.285714285714285],[171.0,13.0],[169.79999999999998,14.0],[169.79999999999998,15.0],[170.26666666666665,15.733333333333333],[170.0,17.0],[170.0,18.0],[170.22222222222223,18.77777777777778],[170.21052631578948,19.210526315789473],[170.0,19.666666666666664],[169.0,19.75],[168.8,20.0],[169.0,20.5],[169.28571428571428,20.714285714285715],[169.66666666666669,22.0],[169.5,23.0],[169.61904761904762,23.38095238095238],[170.11111111111111,23.88888888888889],[170.38095238095238,24.619047619047617],[170.57142857142856,27.0],[170.7142857142857,27.285714285714285],[171.33333333333334,27.666666666666668],[171.60000000000002,28.400000000000002],[172.1904761904762,28.80952380952381],[172.6190476190476,29.38095238095238],[173.28571428571428,29.714285714285715],[173.68421052631578,30.315789473684212],[175.11111111111111,30.88888888888889],[175.66666666666669,31.333333333333336],[179.26086956521738,31.73913043478261],[179.60000000000002,32.0],[179.79999999999998,33.0],[180.0,33.2],[180.0,-90.0],[-180.0,-90.0],[-180.0,33.2],[-179.0,33.6],[-176.0,33.42857142857143],[-175.7,33.3],[-175.1904761904762,32.80952380952381],[-172.63636363636363,32.36363636363636]],[[-124.4,-75.60000000000001],[-123.66666666666667,-75.33333333333334],[-123.0,-74.0],[-121.0,-74.0],[-121.0,-71.0],[-122.0,-71.0],[-122.66666666666667,-71.33333333333334],[-124.0,-71.5],[-125.0,-71.0],[-125.0,-70.0],[-126.0,-70.0],[-126.0,-71.0],[-126.60000000000001,-71.4],[-128.0,-72.0],[-128.0,-74.0],[-126.0,-76.0],[-125.0,-76.0],[-124.4,-75.60000000000001]],[[-112.6,-77.4],[-113.0,-77.5],[-113.7142857142857,-78.28571428571428],[-115.0,-79.0],[-116.0,-79.33333333333334],[-117.0,-79.0],[-118.0,-79.0],[-118.0,-78.0],[-119.0,-78.0],[-120.0,-77.33333333333333],[-121.0,-77.5],[-121.33333333333334,-77.66666666666667],[-121.66666666666669,-78.33333333333334],[-122.0,-78.5],[-123.0,-78.5],[-124.28571428571428,-78.28571428571428],[-125.0,-78.0],[-126.0,-78.0],[-126.75,-78.25],[-127.0,-78.5],[-129.0,-79.5],[-129.25,-80.0],[-129.0,-81.0],[-128.0,-82.0],[-126.0,-82.0],[-125.71428571428571,-81.28571428571428],[-125.0,-80.5],[-124.60000000000001,-80.4],[-124.0,-80.0],[-122.0,-80.0],[-121.60000000000001,-80.60000000000001],[-121.5,-81.0],[-121.5,-83.0],[-120.5,-84.0],[-120.0,-84.25],[-117.81818181818181,-84.18181818181819],[-117.0,-83.66666666666667],[-116.0,-83.25],[-114.77777777777777,-83.22222222222223],[-113.22222222222223,-82.77777777777777],[-112.0,-82.66666666666666],[-110.0,-82.0],[-109.4,-81.60000000000001],[-108.5,-80.0],[-108.5,-78.5],[-108.0,-78.0],[-107.0,-77.5],[-106.75,-77.25],[-106.33333333333333,-76.0],[-106.66666666666667,-75.0],[-108.55555555555556,-73.55555555555554],[-109.5,-73.0],[-110.0,-72.0],[-109.71428571428571,-71.28571428571428],[-109.66666666666667,-71.0],[-109.77777777777777,-70.77777777777777],[-110.55555555555554,-70.55555555555556],[-113.0,-70.33333333333333],[-113.5,-70.5],[-114.0,-71.0],[-114.0,-72.0],[-113.66666666666667,-72.66666666666667],[-113.66666666666667,-73.0],[-113.5,-73.5],[-113.0,-74.0],[-113.60000000000001,-74.4],[-114.0,-75.0],[-113.28571428571428,-76.28571428571428],[-112.7142857142857,-76.71428571428572],[-112.0,-77.0],[-112.6,-77.4]],[[111.4,-56.400000000000006],[111.25,-56.0],[110.75,-55.75],[110.0,-56.0],[110.60000000000001,-56.400000000000006],[111.0,-57.0],[111.4,-56.400000000000006]],[[111.60000000000001,-57.4],[112.0,-57.5],[112.33333333333334,-57.333333333333336],[112.5,-57.0],[111.60000000000001,-56.6],[111.0,-57.0],[111.60000000000001,-57.4]],[[120.22222222222223,-89.22222222222223],[122.0,-88.75],[122.5,-88.5],[123.44444444444444,-87.44444444444444],[123.66666666666666,-87.0],[123.2,-85.80000000000001],[122.55555555555556,-85.44444444444444],[122.0,-85.25],[120.0,-85.0],[118.0,-85.0],[116.5,-85.5],[116.0,-86.0],[116.0,-87.0],[117.0,-88.0],[117.63636363636363,-88.36363636363636],[119.0,-88.75],[120.0,-89.25],[120.22222222222223,-89.22222222222223]]],[[[9.0,-7.0],[12.352941176470587,-7.647058823529411],[14.25,-7.75],[16.0,-8.0],[17.0,-7.625],[18.0,-7.5],[18.416666666666668,-7.583333333333333],[19.0,-8.0],[18.0,-9.57142857142857],[16.759999999999998,-10.760000000000002],[16.344827586206897,-11.344827586206897],[15.724137931034482,-11.724137931034484],[15.428571428571429,-12.428571428571429],[14.826086956521738,-12.826086956521738],[14.285714285714285,-14.285714285714285],[13.0,-14.600000000000001],[12.600000000000001,-15.0],[12.142857142857142,-16.142857142857142],[11.53846153846154,-16.53846153846154],[11.333333333333332,-18.0],[11.166666666666668,-18.166666666666668],[10.833333333333334,-18.166666666666668],[10.6,-18.0],[10.600000000000001,-16.400000000000002],[10.0,-16.0],[10.0,-15.0],[9.666666666666666,-14.0],[9.0,-13.0],[8.25,-12.75],[8.0,-12.5],[5.0,-12.5],[4.684210526315789,-12.684210526315788],[3.793103448275862,-12.793103448275861],[3.25,-13.0],[2.5384615384615388,-13.538461538461538],[1.7692307692307692,-13.76923076923077],[0.8,-14.8],[0.47058823529411764,-15.470588235294118],[0.0,-15.8],[-0.11764705882352944,-16.11764705882353],[-0.11764705882352944,-16.88235294117647],[-0.6,-18.0],[-1.0,-18.5],[-1.434782608695652,-19.565217391304348],[-1.8260869565217392,-20.17391304347826],[-3.0,-21.25],[-4.173913043478261,-21.82608695652174],[-6.0,-22.42857142857143],[-8.0,-22.42857142857143],[-9.333333333333334,-22.0],[-11.5,-20.5],[-13.0,-19.0],[-13.714285714285714,-18.714285714285715],[-15.600000000000001,-17.6],[-16.5,-16.0],[-16.8,-15.8],[-17.2,-15.2],[-17.25,-15.0],[-16.75,-14.0],[-16.0,-13.454545454545453],[-14.68,-13.32],[-13.916666666666668,-13.083333333333334],[-13.333333333333336,-12.666666666666668],[-12.0,-12.666666666666666],[-11.484848484848486,-12.515151515151516],[-10.129032258064516,-11.870967741935484],[-10.0,-11.692307692307692],[-9.0,-11.333333333333334],[-8.428571428571429,-11.0],[-8.26086956521739,-10.73913043478261],[-6.4,-10.0],[-6.0,-9.666666666666666],[-5.75,-9.25],[-4.875,-9.0],[-4.466666666666667,-8.533333333333333],[-4.0,-8.299999999999999],[-3.4000000000000004,-7.6],[0.48,-6.5200000000000005],[4.0,-6.0],[6.655172413793104,-6.344827586206897],[8.0,-6.636363636363636],[9.0,-7.0]]],[[[33.23728813559322,2.76271186440678],[33.0,2.125],[32.125,3.0],[33.0,3.1555555555555554],[34.0,3.0],[33.23728813559322,2.76271186440678]]],[[[42.5,7.0],[44.25,7.0],[44.0,6.4],[43.0,6.0],[42.5,7.0]]],[[[55.0,7.166666666666667],[54.36842105263158,7.36842105263158],[54.0,7.875],[54.0,8.083333333333334],[54.47826086956522,8.521739130434781],[55.0,8.714285714285715],[55.44444444444444,8.444444444444445],[55.74074074074074,8.0],[55.57575757575758,7.575757575757576],[55.61904761904762,7.38095238095238],[55.0,7.166666666666667]]],[[[64.83333333333334,-61.0],[65.06060606060606,-61.06060606060606],[65.20408163265306,-61.79591836734694],[65.83333333333333,-62.0],[65.23809523809524,-62.238095238095234],[64.44444444444444,-62.0],[64.83333333333334,-61.0]]],[[[72.0,-55.17647058823529],[72.60869565217392,-56.0],[72.40579710144928,-56.40579710144928],[72.0,-56.63636363636364],[71.46153846153845,-56.0],[71.53333333333333,-55.53333333333334],[72.0,-55.17647058823529]]],[[[75.45833333333333,-39.541666666666664],[75.73333333333333,-40.0],[75.0,-40.36666666666667],[74.47619047619048,-40.0],[75.0,-39.214285714285715],[75.45833333333333,-39.541666666666664]]],[[[78.0,-27.14814814814815],[78.62790697674419,-27.372093023255815],[79.0,-28.0],[78.39316239316238,-28.39316239316239],[78.0,-28.410714285714285],[77.48888888888888,-28.0],[77.57798165137615,-27.57798165137615],[78.0,-27.14814814814815]]],[[[133.33333333333334,-17.333333333333336],[133.0,-17.5],[132.83333333333331,-16.833333333333332],[133.0,-16.666666666666664],[133.22222222222223,-16.77777777777778],[133.33333333333334,-17.333333333333336]]],[[[75.36363636363637,-15.636363636363637],[75.05128205128204,-15.0],[75.25531914893617,-14.25531914893617],[76.0,-14.13953488372093],[76.77083333333334,-15.0],[76.0,-15.649122807017545],[75.5505617977528,-15.55056179775281],[75.36363636363637,-15.636363636363637]]],[[[65.46341463414635,7.0],[65.29457364341084,6.705426356589147],[65.0,6.648148148148149],[64.62,7.0],[64.70992366412214,7.290076335877863],[65.0,7.59375],[65.32758620689656,7.327586206896552],[65.46341463414635,7.0]]],[[[152.63636363636363,29.0],[152.48275862068965,28.517241379310345],[152.0,28.0],[151.87878787878788,27.12121212121212],[152.0,24.0],[151.66666666666669,21.666666666666668],[151.75,21.25],[151.60000000000002,20.0],[152.0,19.0],[151.75,18.25],[151.0,17.75],[150.72727272727272,17.272727272727273],[150.53846153846155,16.461538461538463],[149.625,15.0],[149.2,13.0],[149.5,12.0],[149.5,11.0],[149.0,10.0],[149.3,9.3],[149.09090909090907,7.0],[147.8,5.0],[148.0,4.0],[148.0,3.0],[147.0,3.0],[147.0,2.0],[146.0,2.0],[144.4,1.6],[144.10526315789474,0.8947368421052632],[143.22222222222223,0.7777777777777778],[142.0,0.25],[141.0,-0.6666666666666667],[140.66666666666669,-0.6666666666666667],[140.0,-1.0],[137.85714285714286,-1.1428571428571428],[137.36363636363637,-0.6363636363636364],[137.0,0.0],[136.36363636363637,-0.36363636363636365],[135.60000000000002,-0.4],[135.0,0.0],[135.36363636363637,0.6363636363636364],[135.5,3.0],[136.6,4.4],[137.29999999999998,7.0],[137.85858585858585,7.141414141414142],[138.04999999999998,8.0],[138.96363636363634,9.036363636363637],[139.0,10.030303030303031],[139.6551724137931,10.344827586206897],[139.95238095238096,11.047619047619047],[140.0,12.0],[140.33333333333334,12.666666666666668],[140.91304347826087,13.08695652173913],[141.08333333333331,13.916666666666668],[142.0,15.0],[142.0909090909091,15.90909090909091],[142.55555555555554,17.0],[143.07407407407408,18.925925925925927],[143.24,22.759999999999998],[143.87878787878788,25.121212121212118],[144.1,27.0],[144.34782608695653,27.652173913043477],[145.16666666666669,29.0],[145.57142857142858,32.0],[145.5,33.0],[145.8,34.0],[146.0,34.25],[147.0,34.2],[148.0,34.57142857142857],[149.30769230769232,34.69230769230769],[149.66666666666669,35.0],[150.0,36.0],[150.55555555555554,34.55555555555555],[151.4,33.4],[151.42857142857144,33.0],[152.0,32.0],[152.625,30.0],[152.63636363636363,29.0]]]]}}]}