{"type":"FeatureCollection","features":[{"type":"Feature","properties":{"ageMa":250},"geometry":{"type":"MultiPolygon","coordinates":[[[[44.71428571428571,-14.714285714285712],[45.054794520547944,-14.945205479452055],[45.66666666666667,-15.000000000000002],[46.0,-15.5],[46.06060606060606,-15.93939393939394],[47.0,-16.0],[46.0,-17.0],[45.0,-17.0],[44.333333333333336,-16.666666666666668],[44.16666666666667,-15.833333333333332],[43.5,-15.5],[43.0,-14.0],[44.07692307692308,-14.0],[44.333333333333336,-14.666666666666668],[44.71428571428571,-14.714285714285712]]],[[[85.0,-15.0],[84.0,-14.75],[83.5,-14.5],[83.25,-14.0],[83.0,-13.833333333333334],[82.28571428571428,-13.714285714285714],[82.0,-13.0],[81.25,-12.75],[81.25,-12.25],[81.0,-11.75],[80.5,-11.5],[80.0,-10.666666666666668],[79.6,-10.4],[79.5,-10.0],[79.0,-9.75],[78.0,-9.75],[77.63636363636364,-9.636363636363637],[77.28571428571428,-9.714285714285714],[77.0,-9.0],[76.33333333333334,-8.666666666666668],[76.33333333333334,-8.333333333333334],[76.0,-7.800000000000001],[75.0,-7.666666666666667],[74.5,-7.5],[74.0,-7.0],[73.0,-6.800000000000001],[71.0,-6.800000000000001],[70.28571428571428,-6.7142857142857135],[70.0,-6.5],[69.0,-6.5],[68.0,-6.666666666666667],[66.0,-6.666666666666667],[65.5,-6.5],[65.0,-6.0],[63.60000000000001,-5.4],[63.0,-5.0],[63.60000000000001,-4.6],[64.0,-4.5],[64.66666666666667,-3.666666666666667],[65.0,-3.5],[68.0,-3.0],[69.0,-3.0],[71.0,-3.333333333333333],[71.36363636363636,-3.6363636363636362],[72.66666666666667,-4.0],[72.84615384615385,-4.153846153846153],[74.18181818181819,-4.181818181818182],[75.0,-4.333333333333334],[75.375,-4.625],[76.1311475409836,-4.868852459016393],[77.14285714285714,-5.0],[79.08602150537634,-5.913978494623656],[80.0,-6.0],[81.0,-6.545454545454545],[81.11111111111111,-6.888888888888889],[81.71428571428571,-7.0],[82.0,-7.333333333333334],[82.18181818181819,-7.818181818181818],[83.0,-8.0],[83.08,-8.92],[84.0,-9.0],[85.1639344262295,-9.836065573770492],[86.0,-10.058823529411764],[87.20289855072463,-10.797101449275363],[88.07142857142858,-11.0],[88.5593220338983,-11.440677966101696],[89.88888888888889,-12.0],[91.18604651162791,-12.813953488372093],[92.66666666666667,-13.0],[93.14285714285714,-13.857142857142858],[94.0,-14.0],[95.0,-14.428571428571427],[95.27586206896552,-14.724137931034484],[96.0,-14.818181818181818],[96.71428571428571,-14.714285714285712],[97.3921568627451,-14.392156862745098],[98.0,-13.0],[97.8,-12.2],[97.625,-12.0],[97.6,-11.400000000000002],[97.0,-11.0],[97.6,-10.600000000000001],[98.0,-10.5],[98.66666666666667,-9.666666666666668],[99.0,-9.5],[99.66666666666667,-8.666666666666668],[100.0,-8.5],[100.33333333333334,-8.0],[100.33333333333334,-7.666666666666668],[100.0,-7.0],[100.0,-6.0],[99.60000000000001,-5.4],[99.5,-5.0],[98.66666666666667,-4.333333333333334],[98.5,-4.0],[98.0,-3.75],[97.33333333333334,-3.666666666666667],[96.60000000000001,-3.4000000000000004],[96.0,-3.0],[95.0,-2.0],[94.4,-1.6],[94.0,-1.0],[91.0,-1.0],[91.0,0.0],[90.83333333333334,0.8333333333333333],[90.64285714285714,1.0],[91.0,3.0],[91.0,5.0],[90.52631578947368,5.526315789473685],[90.0,6.800000000000001],[89.95604395604396,7.956043956043956],[90.0,8.4],[91.0,10.0],[91.33333333333334,11.0],[91.28571428571428,11.285714285714285],[91.0,11.333333333333334],[90.875,11.875],[91.0,12.125],[91.2,12.2],[92.0,12.0],[92.0,13.0],[92.77777777777777,13.222222222222221],[93.0,14.0],[94.0,14.0],[94.5,13.5],[95.0,13.333333333333332],[96.0,13.5],[96.19999999999999,13.8],[98.0,15.0],[100.375,15.625],[101.0,16.0],[101.5,16.5],[102.15384615384616,16.846153846153847],[103.0,17.0],[103.63636363636364,17.363636363636363],[104.25,17.75],[105.0,18.5],[105.4,18.400000000000002],[106.0,18.0],[106.28571428571428,18.714285714285715],[106.25,19.0],[106.0,19.5],[105.66666666666667,19.666666666666668],[105.5,20.0],[105.33333333333334,21.0],[105.5,22.0],[105.33333333333334,22.333333333333336],[104.75,22.75],[104.44444444444444,23.444444444444443],[104.0,24.0],[103.4,24.400000000000002],[103.0,25.0],[102.0,25.0],[100.0,25.666666666666664],[99.0,25.666666666666664],[98.33333333333334,26.333333333333336],[97.5,26.5],[97.0,27.0],[94.66666666666667,27.666666666666668],[94.0,29.0],[93.6,28.400000000000002],[93.0,28.25],[92.33333333333334,28.333333333333336],[91.66666666666667,28.66666666666667],[91.22222222222223,29.22222222222222],[91.0,29.200000000000003],[90.875,30.0],[90.9375,31.0],[90.46153846153847,32.46153846153846],[90.0,33.42857142857143],[89.68421052631578,33.315789473684205],[89.16666666666666,32.833333333333336],[89.0,32.0],[88.30303030303031,31.696969696969695],[88.0,31.583333333333336],[87.0,31.6],[86.0,31.454545454545453],[85.0,31.57142857142857],[84.61904761904762,31.38095238095238],[84.42857142857143,31.0],[85.0909090909091,30.09090909090909],[85.21052631578948,29.210526315789473],[85.52941176470588,28.529411764705884],[86.0,28.200000000000003],[86.08333333333333,28.0],[86.0,27.9],[84.5,28.0],[84.26666666666667,28.266666666666666],[84.0,28.285714285714285],[83.73684210526316,28.736842105263158],[83.0,29.166666666666668],[81.77777777777777,29.77777777777778],[81.0,30.0],[82.0,31.0],[82.6923076923077,30.692307692307693],[83.0,30.714285714285715],[83.4,31.0],[83.0,31.666666666666664],[82.71428571428571,31.714285714285715],[82.66666666666666,32.0],[82.0,32.22222222222222],[81.0,32.0],[80.0,32.375],[79.625,32.375],[78.0,32.16666666666667],[77.0,32.2],[75.125,31.875],[72.0,31.916666666666668],[71.2051282051282,31.794871794871796],[71.0,31.636363636363637],[70.0,31.6],[69.14634146341464,30.853658536585364],[69.0,30.0],[68.0909090909091,29.90909090909091],[68.0,29.714285714285715],[67.5,29.5],[67.0,29.0],[65.62962962962963,28.62962962962963],[65.3157894736842,28.684210526315788],[65.26666666666667,28.266666666666666],[65.0,27.866666666666664],[64.23529411764706,27.764705882352942],[64.0,27.0],[63.22222222222222,26.77777777777778],[63.25806451612903,26.258064516129032],[63.15384615384615,26.0],[62.733333333333334,25.733333333333334],[62.266666666666666,25.733333333333334],[62.266666666666666,25.266666666666666],[62.13333333333333,25.0],[61.868852459016395,24.86885245901639],[61.10526315789473,24.894736842105264],[61.0,24.4],[60.5,24.0],[60.04705882352941,23.95294117647059],[59.66666666666667,23.666666666666668],[59.375,23.625],[59.09090909090909,23.0],[58.08,22.92],[58.0,22.0],[57.11940298507463,21.88059701492537],[57.0,21.42857142857143],[56.6,21.6],[56.333333333333336,22.0],[56.333333333333336,22.333333333333336],[56.0,22.666666666666664],[55.0,23.333333333333336],[53.400000000000006,23.400000000000002],[52.6,23.6],[52.0,24.0],[50.0,24.0],[49.0,25.0],[49.0,27.0],[49.333333333333336,28.0],[49.0,29.0],[47.6,29.6],[47.0,30.0],[44.0,30.0],[43.0,29.0],[42.0,29.0],[41.6,28.400000000000002],[41.5,28.0],[41.66666666666667,27.666666666666668],[42.333333333333336,27.333333333333336],[42.66666666666667,26.666666666666668],[43.0,26.5],[44.0,26.5],[44.333333333333336,26.333333333333336],[44.5,26.0],[45.0,25.666666666666668],[45.4,25.6],[46.0,26.0],[46.0,25.0],[46.5,24.5],[46.66666666666667,24.0],[46.6,23.400000000000002],[46.333333333333336,22.666666666666668],[45.75,22.25],[45.75,21.75],[46.0,21.0],[46.0,20.0],[45.4,19.6],[43.84615384615385,19.153846153846153],[43.66666666666667,19.0],[43.5,18.5],[43.0,18.0],[42.0,18.0],[41.6,17.4],[41.0,17.0],[40.0,17.0],[39.6,16.400000000000002],[39.0,16.0],[38.22222222222222,15.777777777777779],[38.0,15.333333333333336],[37.0,15.333333333333336],[36.0,15.0],[35.11764705882353,14.88235294117647],[32.0,15.0],[31.0,15.25],[30.0,15.0],[28.071428571428573,14.928571428571427],[27.666666666666668,14.666666666666668],[27.333333333333336,14.666666666666668],[27.0,14.0],[25.0,14.0],[24.6,13.4],[23.0,12.333333333333332],[21.333333333333336,10.666666666666668],[21.125,9.875],[21.11111111111111,9.0],[21.166666666666668,8.166666666666666],[21.333333333333336,8.0],[21.333333333333336,7.666666666666668],[20.77777777777778,6.222222222222222],[20.333333333333336,5.666666666666667],[19.666666666666668,5.333333333333334],[19.333333333333336,4.666666666666667],[18.6,4.4],[18.333333333333336,3.666666666666667],[17.6,3.4000000000000004],[17.4,2.6],[17.0,2.0],[17.0,1.0],[16.400000000000002,1.4000000000000001],[15.666666666666668,1.3333333333333333],[15.4,0.6000000000000001],[14.600000000000001,0.4],[14.0,0.0],[14.666666666666668,-0.33333333333333337],[15.000000000000002,-0.3333333333333333],[16.0,0.0],[17.0,0.0],[17.5,0.5],[18.0,0.5],[18.400000000000002,0.4],[19.0,0.0],[20.0,-1.0],[19.400000000000002,-1.4000000000000001],[19.0,-1.5],[18.5,-2.0],[18.400000000000002,-2.4],[17.6,-3.6000000000000005],[17.5,-5.0],[18.0,-6.0],[18.666666666666668,-6.333333333333334],[18.666666666666668,-6.666666666666667],[19.0,-7.5],[19.400000000000002,-7.6],[20.0,-8.0],[21.0,-8.0],[22.0,-8.333333333333334],[22.444444444444443,-8.555555555555555],[23.0,-9.333333333333334],[23.5,-9.5],[24.0,-10.0],[24.400000000000002,-10.600000000000001],[24.714285714285715,-12.285714285714285],[25.0,-13.0],[26.0,-13.0],[26.6,-12.6],[27.4,-12.4],[28.0,-12.0],[28.6,-12.4],[29.400000000000002,-12.6],[30.666666666666668,-13.333333333333336],[31.0,-14.0],[32.333333333333336,-14.666666666666668],[32.75,-15.25],[33.0,-16.0],[33.6,-15.600000000000001],[35.0,-15.333333333333336],[36.0,-15.0],[36.6,-14.600000000000001],[38.0,-14.333333333333334],[38.5,-14.5],[39.0,-15.0],[40.333333333333336,-15.666666666666668],[41.0,-17.0],[40.75,-18.0],[41.0,-18.5],[41.333333333333336,-18.666666666666668],[41.5,-19.0],[41.5,-20.0],[41.66666666666667,-21.0],[41.5,-22.0],[41.66666666666667,-23.0],[41.6,-23.6],[41.400000000000006,-24.400000000000002],[41.0,-25.0],[41.400000000000006,-25.6],[41.66666666666667,-27.000000000000004],[42.0,-28.0],[42.6,-28.400000000000002],[43.0,-29.0],[43.60000000000001,-29.400000000000002],[44.0,-30.0],[44.75,-30.25],[45.333333333333336,-30.666666666666668],[45.5,-31.0],[45.84615384615385,-31.153846153846153],[47.66666666666667,-31.333333333333336],[48.400000000000006,-31.6],[49.0,-32.0],[49.5,-31.5],[50.0,-31.333333333333336],[50.333333333333336,-31.0],[50.5,-30.5],[51.0,-30.0],[51.66666666666667,-28.66666666666667],[52.25,-28.25],[52.16666666666667,-27.833333333333332],[51.55555555555556,-27.444444444444443],[51.33333333333334,-27.000000000000004],[51.6,-25.6],[52.0,-25.5],[52.33333333333334,-25.66666666666667],[52.77777777777778,-26.22222222222222],[53.0,-26.25],[53.375,-26.625],[53.733333333333334,-27.266666666666666],[54.30769230769231,-27.692307692307693],[55.0,-29.0],[55.22222222222222,-29.77777777777778],[55.18181818181819,-30.18181818181818],[54.285714285714285,-31.285714285714285],[54.0,-32.0],[53.35294117647058,-32.35294117647059],[52.800000000000004,-33.0],[52.16666666666667,-33.16666666666667],[52.0,-33.66666666666667],[51.22857142857143,-34.22857142857143],[51.00000000000001,-34.8],[50.5,-35.0],[50.0,-35.5],[49.0,-35.66666666666667],[48.8,-35.8],[48.44444444444444,-36.44444444444444],[47.5,-37.0],[47.4,-37.4],[46.333333333333336,-39.333333333333336],[45.77777777777778,-39.77777777777777],[45.0,-40.0],[45.0,-41.0],[44.0,-41.0],[43.60000000000001,-41.6],[42.0,-42.0],[41.400000000000006,-42.4],[41.0,-42.5],[40.75,-42.75],[40.0,-43.0],[39.5,-43.5],[39.0,-43.5],[38.75,-43.75],[38.0,-44.0],[37.5,-44.5],[36.6,-44.400000000000006],[36.0,-44.0],[34.0,-44.0],[33.4,-44.400000000000006],[33.0,-44.5],[32.66666666666667,-44.333333333333336],[32.0,-44.25],[30.666666666666668,-44.333333333333336],[30.0,-44.0],[29.666666666666668,-44.66666666666667],[29.66666666666667,-46.0],[29.0,-47.0],[29.333333333333336,-47.66666666666667],[30.0,-48.0],[31.0,-48.0],[31.666666666666664,-47.0],[32.0,-46.0],[33.0,-45.5],[33.4,-45.6],[34.0,-46.0],[34.888888888888886,-46.111111111111114],[37.0,-46.0],[38.5,-44.5],[39.0,-44.5],[39.25,-44.25],[40.0,-44.0],[40.5,-43.5],[41.400000000000006,-43.60000000000001],[42.0,-44.0],[42.6,-43.60000000000001],[44.0,-43.0],[44.55555555555555,-42.55555555555556],[46.0,-42.25],[46.5,-42.0],[46.66666666666667,-41.66666666666667],[47.0,-41.5],[47.55555555555556,-40.55555555555556],[49.0,-40.0],[49.285714285714285,-39.28571428571428],[50.0,-39.0],[50.333333333333336,-38.333333333333336],[52.0,-38.0],[55.0,-38.0],[56.0,-39.0],[57.0,-39.0],[57.6,-39.400000000000006],[58.0,-41.0],[58.0,-43.0],[57.71428571428571,-43.71428571428571],[58.0,-45.0],[58.0,-46.0],[58.60000000000001,-46.400000000000006],[59.0,-47.5],[59.333333333333336,-47.66666666666667],[59.77777777777778,-48.22222222222222],[60.444444444444436,-48.55555555555555],[60.81818181818182,-49.18181818181818],[61.44444444444444,-49.55555555555556],[61.81818181818181,-50.18181818181818],[62.444444444444436,-50.55555555555555],[62.833333333333336,-51.16666666666667],[64.4,-51.6],[65.0,-52.0],[65.60000000000001,-51.6],[66.0,-51.5],[66.33333333333334,-51.66666666666667],[66.71428571428571,-52.285714285714285],[67.0,-52.5],[67.4,-52.6],[68.0,-53.0],[69.5,-53.5],[70.0,-54.0],[71.0,-54.0],[72.0,-54.33333333333334],[73.0,-54.0],[74.0,-54.0],[74.0,-53.0],[75.0,-53.0],[75.60000000000001,-51.6],[76.4,-50.400000000000006],[76.60000000000001,-49.6],[77.0,-49.0],[77.6,-48.60000000000001],[78.0,-48.5],[79.0,-48.5],[79.33333333333334,-48.66666666666667],[79.5,-49.0],[80.5,-49.5],[81.0,-50.5],[81.28571428571428,-50.71428571428571],[81.33333333333334,-51.0],[81.66666666666667,-51.333333333333336],[82.0,-52.0],[82.71428571428571,-52.285714285714285],[83.0,-53.0],[83.5,-53.5],[84.0,-54.5],[84.33333333333334,-54.66666666666667],[84.5,-55.0],[85.0,-55.25],[86.0,-55.333333333333336],[86.14285714285715,-55.0],[86.0,-54.66666666666667],[85.55555555555556,-54.44444444444444],[85.18181818181819,-53.81818181818181],[85.0,-53.0],[84.4,-52.6],[84.0,-52.0],[83.33333333333334,-51.66666666666667],[83.0,-51.0],[83.0,-50.0],[83.6,-48.60000000000001],[84.0,-48.0],[84.5,-47.5],[85.5,-47.0],[85.66666666666667,-46.66666666666667],[86.25,-46.25],[88.0,-46.0],[88.6,-45.6],[89.0,-45.5],[90.0,-45.5],[91.0,-45.0],[92.66666666666667,-45.333333333333336],[93.33333333333334,-45.66666666666667],[93.5,-46.0],[94.14285714285714,-46.142857142857146],[95.0,-46.0],[96.0,-46.5],[96.4,-46.400000000000006],[97.0,-46.0],[98.0,-47.0],[99.0,-47.0],[100.0,-47.333333333333336],[103.22222222222223,-47.22222222222222],[103.5,-47.0],[102.5,-46.5],[102.0,-46.0],[101.36363636363637,-45.63636363636364],[101.0,-45.0],[100.28571428571428,-44.71428571428571],[100.0,-44.0],[100.0,-43.0],[100.60000000000001,-42.6],[101.0,-42.5],[101.33333333333334,-42.66666666666667],[101.5,-43.0],[102.125,-43.125],[102.5,-43.0],[102.66666666666667,-42.66666666666667],[103.28571428571428,-42.285714285714285],[104.0,-42.0],[105.0,-42.0],[105.4,-41.400000000000006],[106.19999999999999,-41.2],[107.8,-41.2],[108.60000000000001,-41.400000000000006],[109.0,-42.0],[110.0,-42.0],[110.66666666666667,-40.66666666666667],[111.0,-40.5],[112.4,-40.6],[114.0,-41.5],[117.33333333333334,-41.333333333333336],[118.0,-41.0],[119.0,-42.0],[119.60000000000001,-41.6],[120.0,-41.5],[120.55555555555554,-40.55555555555556],[121.5,-40.0],[121.66666666666669,-39.66666666666667],[122.28571428571428,-39.28571428571428],[122.66666666666667,-38.66666666666667],[123.33333333333334,-38.333333333333336],[123.71428571428571,-37.71428571428571],[124.0,-37.5],[124.4,-37.4],[125.0,-37.0],[127.0,-37.0],[127.6,-36.6],[128.0,-36.5],[129.4,-36.6],[130.0,-37.0],[131.6,-37.4],[132.0,-38.0],[132.6,-38.4],[132.75,-39.0],[132.66666666666669,-40.66666666666667],[132.0,-42.0],[132.33333333333334,-43.66666666666667],[132.5,-44.0],[132.5,-44.5],[132.0,-45.0],[133.0,-45.0],[134.44444444444443,-45.55555555555556],[135.0,-46.5],[135.33333333333334,-46.66666666666667],[135.66666666666669,-47.333333333333336],[135.75,-48.0],[136.0,-48.33333333333333],[136.5,-48.5],[137.0,-49.0],[137.66666666666669,-49.33333333333334],[138.0,-50.0],[139.0,-50.0],[139.0,-51.0],[140.0,-51.0],[140.60000000000002,-51.400000000000006],[141.4,-51.6],[142.0,-52.0],[142.0,-53.0],[142.85714285714286,-53.142857142857146],[143.5,-53.5],[144.0,-54.33333333333334],[144.44444444444443,-54.55555555555556],[145.0,-55.333333333333336],[145.44444444444443,-55.55555555555555],[146.0,-56.333333333333336],[146.5,-56.5],[147.5,-57.5],[148.0,-60.0],[148.4,-60.60000000000001],[148.5,-61.0],[148.33333333333334,-61.33333333333334],[148.0,-61.5],[147.4,-62.4],[147.0,-62.66666666666667],[146.77777777777777,-63.22222222222222],[146.77777777777777,-63.77777777777778],[146.0,-64.0],[145.88235294117646,-64.88235294117646],[145.66666666666669,-65.0],[145.5,-65.5],[145.0,-66.0],[145.0,-70.0],[146.4,-70.60000000000001],[147.6,-71.4],[148.4,-71.60000000000001],[149.0,-72.0],[149.0,-73.0],[146.0,-73.0],[146.0,-74.0],[146.6,-74.4],[147.4,-74.6],[147.66666666666669,-75.33333333333334],[148.33333333333334,-75.66666666666667],[148.66666666666669,-76.33333333333334],[149.4,-76.60000000000001],[150.0,-77.0],[151.0,-77.0],[151.5,-76.5],[152.25,-76.25],[154.2,-76.2],[154.5,-76.0],[154.66666666666669,-75.66666666666667],[155.28571428571428,-75.28571428571428],[155.66666666666669,-74.66666666666667],[156.4,-74.4],[157.28571428571428,-74.28571428571428],[157.66666666666666,-74.0],[157.71428571428572,-73.71428571428571],[158.5,-73.0],[158.66666666666669,-72.66666666666667],[160.0,-72.0],[160.5,-70.5],[161.0,-70.0],[161.5,-70.5],[162.6,-73.4],[162.66666666666669,-74.0],[162.0,-75.0],[161.0,-75.0],[160.4,-75.4],[160.0,-75.5],[159.33333333333334,-76.33333333333334],[158.66666666666669,-76.66666666666667],[157.8181818181818,-76.81818181818181],[157.66666666666669,-77.0],[157.6,-77.4],[158.0,-78.0],[158.0,-79.0],[160.0,-79.0],[160.22222222222223,-79.77777777777777],[160.0,-80.15384615384616],[159.47058823529412,-80.47058823529412],[159.26666666666665,-81.0],[159.0,-81.22222222222223],[158.4,-81.4],[158.125,-82.0],[157.88235294117646,-82.11764705882354],[157.11764705882354,-82.11764705882354],[157.0,-83.0],[156.18867924528303,-83.18867924528303],[155.53846153846155,-83.53846153846155],[155.04040404040404,-84.04040404040404],[150.21428571428572,-84.21428571428572],[150.0,-84.375],[149.4,-84.4],[149.0,-85.0],[145.125,-85.125],[144.25,-85.25],[144.0,-85.5],[143.66666666666669,-85.33333333333334],[143.28571428571428,-84.71428571428571],[143.0,-84.5],[141.6,-84.4],[140.5,-83.5],[140.0,-83.33333333333333],[139.5,-83.5],[139.0,-84.0],[140.0,-85.0],[140.75,-85.25],[141.66666666666669,-85.33333333333334],[142.33333333333334,-85.66666666666667],[142.5,-86.0],[142.1818181818182,-86.18181818181819],[141.5,-87.0],[142.36363636363637,-87.63636363636364],[144.05555555555557,-87.94444444444444],[166.91666666666669,-87.91666666666667],[167.8181818181818,-87.81818181818181],[168.5,-87.5],[168.75,-87.0],[173.88,-86.88],[174.4,-86.60000000000001],[174.63636363636363,-86.63636363636364],[174.63636363636363,-86.36363636363637],[174.95833333333334,-85.95833333333333],[176.72413793103448,-85.72413793103448],[177.0,-85.5],[177.26666666666665,-85.73333333333333],[178.0,-85.81818181818183],[178.58333333333334,-85.58333333333333],[178.78260869565216,-85.0],[179.0,-84.8913043478261],[179.45454545454544,-85.0],[179.625,-85.375],[180.0,-85.6],[180.0,-90.0],[146.0,-90.0],[146.0,-89.0],[143.0,-89.0],[143.0,-90.0],[136.33333333333334,-90.0],[136.33333333333334,-89.0],[136.0,-88.75],[135.0,-89.0],[134.22222222222223,-88.77777777777777],[133.8,-88.8],[133.5,-89.0],[133.5,-90.0],[-180.0,-90.0],[-180.0,-85.6],[-179.6,-85.60000000000001],[-179.20000000000002,-86.0],[-179.1818181818182,-86.18181818181819],[-179.0,-86.25],[-177.0,-86.33333333333334],[-176.5,-86.5],[-176.0,-87.0],[-174.0,-87.0],[-173.0,-87.5],[-172.0,-87.5],[-171.66666666666669,-87.33333333333334],[-171.33333333333334,-86.66666666666667],[-171.0,-86.5],[-170.0,-86.5],[-169.6,-86.60000000000001],[-169.0,-87.0],[-168.4,-86.60000000000001],[-168.0,-86.5],[-167.6,-86.60000000000001],[-167.0,-87.0],[-166.0,-87.0],[-165.0,-87.5],[-154.0,-87.25],[-151.0,-87.33333333333334],[-130.0,-87.20000000000002],[-126.00000000000001,-87.33333333333334],[-125.5,-87.5],[-125.0,-88.0],[-122.0,-88.0],[-121.4,-87.6],[-120.00000000000001,-87.33333333333334],[-118.0,-87.33333333333334],[-117.5,-87.5],[-117.0,-88.0],[-108.0,-88.0],[-107.4,-87.6],[-107.0,-87.5],[-106.60000000000001,-87.6],[-106.0,-88.0],[-104.0,-88.0],[-103.4,-87.6],[-103.0,-87.5],[-102.6,-87.6],[-102.0,-88.0],[-101.22222222222223,-88.22222222222223],[-99.00000000000001,-88.33333333333334],[-98.0,-88.0],[-96.0,-88.0],[-95.4,-87.6],[-94.60000000000001,-87.4],[-93.0,-87.25],[-90.0,-87.33333333333334],[-88.0,-87.25],[-86.0,-87.5],[-84.0,-87.5],[-82.0,-87.25],[-77.0,-87.25],[-76.0,-87.0],[-74.0,-87.0],[-73.0,-87.25],[-72.0,-87.0],[-71.0,-87.0],[-71.0,-86.0],[-75.875,-85.875],[-75.875,-84.125],[-74.66666666666667,-84.0],[-74.44444444444443,-83.55555555555554],[-74.0,-83.33333333333334],[-73.88235294117646,-83.11764705882354],[-71.94871794871794,-83.05128205128204],[-71.8,-82.8],[-71.8,-82.19999999999999],[-71.2,-82.19999999999999],[-70.92,-82.08],[-69.0,-82.0909090909091],[-68.8,-81.8],[-68.8,-81.2],[-68.0,-81.10000000000001],[-67.0,-81.2],[-66.0,-81.0],[-65.75,-80.25],[-65.0,-80.0],[-65.4,-79.4],[-65.60000000000001,-78.60000000000001],[-65.66666666666667,-77.0],[-65.5,-76.5],[-64.5,-75.5],[-64.0,-75.33333333333334],[-63.84615384615385,-75.15384615384616],[-63.75,-74.75],[-64.0,-74.0],[-63.60000000000001,-73.4],[-63.0,-73.0],[-62.6,-72.4],[-62.0,-72.0],[-62.0,-71.0],[-61.5,-70.0],[-61.133333333333326,-69.86666666666667],[-60.75,-69.0],[-59.766666666666666,-68.23333333333333],[-58.8,-67.19999999999999],[-58.40579710144928,-66.59420289855072],[-58.21052631578948,-65.78947368421052],[-57.70454545454545,-65.29545454545453],[-56.964285714285715,-64.03571428571429],[-56.66666666666667,-63.00000000000001],[-55.86666666666667,-62.0],[-55.63636363636364,-61.36363636363636],[-54.85714285714286,-61.00000000000001],[-54.75,-60.25],[-54.0,-60.0],[-53.86666666666666,-59.13333333333333],[-53.75,-59.0],[-53.66666666666667,-58.0],[-53.444444444444436,-57.55555555555555],[-52.66666666666667,-57.00000000000001],[-52.5,-56.0],[-51.333333333333336,-55.0],[-51.08333333333333,-54.91666666666667],[-50.900000000000006,-54.1],[-50.36363636363636,-53.63636363636364],[-49.88235294117647,-52.117647058823536],[-49.075949367088604,-50.924050632911396],[-49.0,-50.0],[-48.36363636363636,-49.63636363636363],[-48.07317073170732,-48.926829268292686],[-48.0,-48.0],[-47.29629629629629,-47.703703703703695],[-46.6,-46.400000000000006],[-46.0,-46.0],[-45.733333333333334,-45.266666666666666],[-45.5,-45.0],[-45.0,-43.5],[-44.85714285714286,-43.0],[-45.0,-42.5],[-45.0,-41.66666666666667],[-44.851851851851855,-41.148148148148145],[-44.3,-40.7],[-44.0,-40.0],[-43.84615384615385,-39.15384615384615],[-43.714285714285715,-39.0],[-43.75,-38.0],[-43.33333333333333,-37.0],[-43.33333333333333,-36.0],[-43.75,-35.75],[-44.0,-35.0],[-44.189473684210526,-33.189473684210526],[-44.41666666666667,-32.41666666666667],[-44.8,-31.8],[-45.16666666666667,-30.166666666666668],[-45.97142857142857,-29.0],[-46.887323943661976,-26.88732394366197],[-47.0,-25.666666666666668],[-47.30769230769231,-25.0],[-47.53846153846154,-24.0],[-48.0,-18.0],[-47.77777777777778,-17.22222222222222],[-47.333333333333336,-16.666666666666668],[-47.0,-16.5],[-46.66666666666667,-16.666666666666668],[-46.5,-17.0],[-45.66666666666667,-17.666666666666668],[-45.5,-18.0],[-45.0,-18.25],[-44.5,-18.0],[-44.333333333333336,-17.666666666666668],[-43.60000000000001,-17.4],[-43.0,-17.0],[-43.0,-15.0],[-43.400000000000006,-14.400000000000002],[-43.5,-13.0],[-44.0,-12.0],[-44.0,-11.0],[-44.75,-10.75],[-44.85714285714286,-10.000000000000002],[-44.77777777777777,-8.222222222222221],[-44.333333333333336,-7.666666666666668],[-43.75,-7.25],[-43.0,-7.166666666666667],[-41.71428571428571,-7.285714285714286],[-41.0,-7.0],[-40.75,-6.25],[-40.0,-6.0],[-39.0,-6.0],[-38.6,-5.4],[-37.4,-4.6],[-37.0,-4.5],[-36.77777777777778,-4.222222222222222],[-35.89473684210526,-4.105263157894737],[-35.66666666666667,-4.0],[-35.44444444444444,-3.5555555555555554],[-34.833333333333336,-3.166666666666667],[-34.0,-3.0],[-34.0,-2.0],[-35.0,-1.5],[-35.25,-1.75],[-38.0,-2.0],[-39.77777777777777,-1.7777777777777777],[-40.5,-1.5],[-41.0,-1.0],[-41.77777777777778,-0.7777777777777778],[-42.0,-0.5],[-42.4,-0.4],[-43.66666666666667,0.33333333333333337],[-44.0,1.0],[-44.45454545454545,1.5454545454545454],[-44.25,5.0],[-44.673469387755105,6.326530612244898],[-45.0,6.571428571428571],[-45.120000000000005,6.880000000000001],[-45.266666666666666,10.0],[-45.17977528089888,11.179775280898877],[-45.0,12.032258064516128],[-44.15384615384615,11.846153846153845],[-44.0,11.5],[-43.66666666666667,11.333333333333334],[-43.25,10.75],[-43.25,10.25],[-43.0,9.875],[-42.0,10.0],[-41.400000000000006,10.4],[-41.0,10.5],[-40.833333333333336,10.833333333333334],[-40.0,11.0],[-39.400000000000006,11.400000000000002],[-39.0,11.5],[-38.166666666666664,10.833333333333334],[-38.0,10.5],[-37.6,10.4],[-37.0,10.0],[-34.333333333333336,9.666666666666668],[-34.0,9.5],[-33.0,9.5],[-32.6,9.4],[-32.0,9.0],[-31.6,9.600000000000001],[-31.5,11.0],[-31.666666666666668,12.0],[-31.77777777777778,12.222222222222221],[-32.44444444444444,12.555555555555555],[-33.0,13.5],[-33.333333333333336,13.666666666666668],[-33.714285714285715,14.285714285714285],[-33.77777777777778,16.22222222222222],[-34.0,17.0],[-33.44444444444444,17.444444444444443],[-33.0,17.5],[-32.75,18.0],[-32.733333333333334,18.266666666666666],[-33.0,19.0],[-33.0,22.0],[-33.66666666666667,22.333333333333336],[-34.0,24.0],[-34.400000000000006,24.6],[-34.5,25.0],[-34.400000000000006,25.400000000000002],[-34.0,26.0],[-33.6,27.4],[-34.0,28.0],[-33.0,28.0],[-32.77777777777778,28.77777777777778],[-32.333333333333336,29.333333333333336],[-32.0,29.5],[-31.75,30.25],[-31.75,30.75],[-31.5,31.0],[-31.400000000000002,31.400000000000002],[-31.0,32.0],[-30.666666666666668,33.0],[-30.77777777777778,34.22222222222222],[-31.0,35.0],[-30.75,36.0],[-30.6,38.6],[-30.333333333333336,39.333333333333336],[-29.77777777777778,39.77777777777777],[-29.444444444444443,40.44444444444444],[-29.0,40.66666666666667],[-27.75,40.75],[-24.57894736842105,41.57894736842105],[-23.375,42.375],[-23.0,43.0],[-21.714285714285715,43.71428571428571],[-21.0,44.0],[-20.0,44.0],[-20.0,45.0],[-19.333333333333336,44.66666666666667],[-18.0,45.0],[-19.0,45.5],[-19.5,45.5],[-20.0,46.0],[-19.400000000000002,46.400000000000006],[-19.0,46.5],[-18.75,46.75],[-18.444444444444443,47.44444444444444],[-18.0,47.666666666666664],[-17.0,47.75],[-16.0,48.0],[-14.714285714285712,47.71428571428571],[-14.0,48.0],[-13.0,48.0],[-12.4,48.400000000000006],[-11.0,48.66666666666667],[-10.0,49.0],[-9.5,49.5],[-9.0,49.66666666666667],[-8.0,49.6],[-7.0,50.0],[-2.0,50.0],[-1.6666666666666665,49.33333333333334],[-1.7142857142857144,49.0],[-1.878787878787879,48.878787878787875],[-2.0,47.66666666666667],[-2.5,47.0],[-3.0,46.0],[-3.6000000000000005,45.6],[-4.0,45.5],[-4.666666666666667,44.66666666666667],[-5.285714285714286,44.285714285714285],[-6.142857142857142,44.142857142857146],[-6.555555555555555,43.55555555555555],[-8.0,43.0],[-8.4,42.4],[-9.166666666666668,42.16666666666667],[-9.333333333333334,42.0],[-9.5,41.0],[-9.666666666666668,40.66666666666667],[-10.4,40.4],[-11.0,40.0],[-11.333333333333334,39.333333333333336],[-11.333333333333334,39.0],[-11.0,38.0],[-10.0,37.0],[-9.4,37.4],[-8.0,38.0],[-7.0,39.0],[-5.0,39.0],[-4.5,39.5],[-3.8181818181818183,39.81818181818181],[-3.1818181818181817,39.81818181818181],[-2.5,40.0],[-2.3333333333333335,40.333333333333336],[-1.6666666666666665,40.66666666666667],[-0.16666666666666669,40.833333333333336],[1.6666666666666665,41.333333333333336],[2.307692307692308,41.69230769230769],[4.0,42.0],[4.5,42.5],[5.0,42.66666666666667],[5.5,42.5],[6.0,42.0],[6.5,42.5],[7.166666666666666,42.83333333333333],[7.833333333333334,42.83333333333333],[8.333333333333334,43.0],[8.5,43.5],[9.0,44.0],[10.0,44.0],[9.600000000000001,43.400000000000006],[9.666666666666668,43.0],[10.5,42.5],[11.0,42.0],[11.0,41.0],[11.8,39.0],[11.75,36.0],[12.399999999999999,34.0],[12.333333333333334,33.0],[12.666666666666668,31.66666666666667],[12.7,29.7],[13.0,27.0],[14.0,26.900000000000002],[14.333333333333334,28.333333333333336],[14.0,29.0],[14.0,30.0],[14.400000000000002,31.6],[15.0,32.0],[14.285714285714285,32.285714285714285],[14.166666666666668,33.0],[14.333333333333334,34.66666666666667],[14.666666666666668,35.333333333333336],[15.0,35.5],[15.2,36.2],[15.2,36.8],[16.0,37.0],[16.0,38.0],[17.799999999999997,39.2],[19.5,39.5],[20.0,40.0],[21.0,40.5],[24.0,40.5],[24.400000000000002,40.4],[25.5,39.5],[26.333333333333336,39.333333333333336],[27.0,39.0],[28.0,39.0],[27.5,39.5],[27.6,40.4],[28.0,41.0],[29.0,41.0],[29.0,40.0],[30.0,40.0],[30.0,41.0],[29.5,41.5],[29.5,42.5],[30.0,43.0],[29.0,43.0],[29.0,44.0],[28.0,44.5],[27.833333333333332,44.833333333333336],[27.8,45.2],[29.0,46.0],[28.0,46.28571428571429],[27.0,46.2],[26.0,46.4],[25.0,46.16666666666667],[24.333333333333336,46.333333333333336],[23.0,47.0],[22.0,48.0],[21.684210526315788,47.315789473684205],[21.73913043478261,46.73913043478261],[22.375,46.375],[22.61904761904762,45.61904761904762],[23.38095238095238,45.38095238095238],[23.64705882352941,44.64705882352941],[26.0,44.16666666666667],[26.2,44.0],[26.181818181818183,43.81818181818182],[26.0,43.66666666666667],[24.0,43.25],[23.71428571428571,43.28571428571428],[23.0,43.0],[22.4,43.400000000000006],[21.6,43.60000000000001],[20.400000000000002,44.400000000000006],[20.0,44.5],[19.75,44.75],[19.6,45.4],[20.0,46.0],[19.0,46.0],[18.666666666666668,47.0],[18.666666666666668,48.0],[19.153846153846153,48.84615384615384],[19.0,50.0],[19.333333333333336,50.66666666666667],[20.0,51.0],[19.400000000000002,51.400000000000006],[18.6,51.6],[17.0,52.5],[16.0,52.666666666666664],[15.0,52.5],[14.600000000000001,52.6],[14.0,53.0],[13.0,53.0],[12.6,52.4],[12.0,52.0],[11.0,52.0],[10.0,53.0],[10.4,53.60000000000001],[10.625,56.0],[10.555555555555554,56.55555555555556],[10.333333333333334,57.00000000000001],[10.5,58.0],[10.9375,58.0625],[11.0,58.5],[11.818181818181818,59.18181818181819],[12.0,59.5],[13.0,59.5],[14.600000000000001,60.400000000000006],[17.0,60.6],[17.666666666666668,61.0],[17.4,61.400000000000006],[16.714285714285715,61.71428571428571],[16.5,62.0],[16.5,63.0],[16.714285714285715,63.285714285714285],[17.0,63.333333333333336],[17.363636363636363,63.63636363636363],[17.5,64.0],[17.25,65.0],[17.333333333333336,65.66666666666667],[17.6,66.4],[18.0,67.0],[18.0,68.0],[18.6,67.6],[20.0,68.0],[21.285714285714285,68.71428571428571],[23.0,69.0],[25.0,69.0],[25.0,70.0],[26.0,70.0],[26.200000000000003,70.80000000000001],[26.5,71.0],[26.6,71.4],[27.4,72.6],[28.5,73.5],[29.0,73.66666666666667],[30.285714285714285,73.71428571428571],[31.0,74.0],[34.0,74.0],[34.5,74.5],[35.25,74.75],[36.15384615384615,74.84615384615384],[36.5,75.0],[36.66666666666667,75.33333333333334],[37.0,75.5],[38.0,75.5],[38.333333333333336,75.66666666666667],[40.0,76.0],[42.0,76.0],[42.6,76.4],[43.0,76.5],[43.400000000000006,76.4],[44.0,76.0],[44.6,76.4],[45.0,76.5],[48.0,76.66666666666667],[49.0,77.0],[51.0,77.0],[51.5,77.5],[53.0,78.0],[54.2,78.2],[55.0,78.25],[55.153846153846146,78.15384615384616],[55.71428571428571,78.28571428571428],[56.130434782608695,78.1304347826087],[57.05882352941176,78.05882352941177],[60.02325581395349,78.02325581395348],[60.199999999999996,78.0],[60.55555555555555,77.55555555555556],[61.0,77.42857142857143],[61.21428571428571,77.21428571428572],[65.5,77.0],[66.0,76.66666666666667],[66.5,77.0],[68.5,77.0],[68.60000000000001,76.60000000000001],[69.0,76.0],[68.60000000000001,75.4],[68.4,74.6],[68.0,74.0],[68.0,73.0],[68.5,72.5],[68.66666666666667,72.0],[68.5,71.5],[67.0,70.0],[68.4,69.4],[69.0,69.0],[69.81818181818181,68.81818181818181],[70.0,68.66666666666667],[71.0,68.5],[71.33333333333334,68.33333333333334],[71.5,68.0],[72.28571428571428,67.71428571428571],[72.71428571428571,67.71428571428571],[73.33333333333334,67.33333333333334],[73.5,67.0],[74.6,66.60000000000001],[75.4,65.4],[75.66666666666667,64.0],[75.5,63.0],[75.75,62.75],[76.0,62.0],[76.4,61.400000000000006],[77.0,60.0],[77.0,59.0],[77.4,58.400000000000006],[77.6,57.6],[77.75,56.0],[77.66666666666667,54.00000000000001],[77.5,53.5],[77.0,53.0],[77.0,52.0],[76.60000000000001,51.400000000000006],[76.0,51.0],[75.83333333333333,50.166666666666664],[75.66666666666667,50.0],[75.66666666666667,49.66666666666667],[76.0,49.0],[77.0,48.66666666666667],[77.4,48.400000000000006],[77.5,48.0],[77.33333333333333,47.0],[77.63636363636364,46.63636363636364],[78.0,46.5],[79.0,46.6],[79.4,46.400000000000006],[80.75,46.25],[82.0,46.33333333333333],[82.87096774193549,45.87096774193549],[84.0,45.66666666666667],[85.22222222222223,45.77777777777778],[86.0,46.0],[87.4,45.4],[88.0,45.0],[88.52380952380952,45.476190476190474],[90.0,45.37931034482759],[91.12612612612612,45.12612612612613],[91.58904109589041,44.58904109589041],[92.0,44.42307692307692],[93.0,44.333333333333336],[94.375,44.625],[94.95604395604396,45.043956043956044],[97.57692307692308,45.42307692307692],[98.42857142857142,46.0],[98.91489361702128,46.08510638297872],[100.0,46.13636363636363],[101.66666666666669,46.0],[102.05405405405405,45.054054054054056],[103.0,44.66666666666667],[104.19047619047619,44.80952380952381],[105.13333333333334,45.13333333333334],[105.92307692307692,45.07692307692307],[106.19999999999999,45.2],[107.85714285714285,44.85714285714286],[109.0,45.0],[108.5,45.5],[108.33333333333334,46.0],[111.01739130434783,46.017391304347825],[111.16666666666666,46.0],[111.28571428571428,45.71428571428571],[111.0,45.0],[111.71428571428571,45.285714285714285],[112.06451612903226,45.064516129032256],[114.14285714285714,45.0],[114.33333333333334,44.66666666666667],[114.33333333333334,44.333333333333336],[114.60000000000001,44.400000000000006],[115.09756097560975,44.09756097560975],[115.83673469387756,44.16326530612245],[116.078431372549,44.07843137254902],[116.45454545454545,43.45454545454545],[117.4,43.0],[118.2258064516129,42.225806451612904],[119.0377358490566,42.0377358490566],[119.42424242424242,41.42424242424242],[120.21621621621621,41.21621621621622],[123.86842105263159,41.131578947368425],[124.80392156862744,41.19607843137255],[126.0,41.57142857142857],[127.0,41.714285714285715],[128.0,41.6],[128.1875,41.1875],[129.07142857142858,41.0],[129.29629629629628,40.29629629629629],[129.57142857142856,40.0],[129.5,39.0],[128.13333333333333,38.86666666666667],[127.44444444444444,38.55555555555556],[127.0,38.0],[126.07407407407408,37.92592592592593],[126.0,37.5],[125.60000000000001,37.4],[125.5,37.0],[123.85185185185185,36.851851851851855],[122.95,36.95],[122.66666666666667,37.0],[122.0,37.5],[121.75,37.25],[121.0,37.0],[119.0,37.0],[115.375,37.625],[115.0,37.625],[113.76470588235294,37.23529411764706],[113.6,37.0],[113.60000000000001,36.6],[114.0,36.0],[115.0,36.0],[115.60000000000001,35.6],[117.0,35.333333333333336],[118.0,35.4],[121.0,35.15789473684211],[123.0,35.208333333333336],[124.03571428571429,35.035714285714285],[127.5,35.0],[127.14814814814815,34.85185185185185],[127.0,34.333333333333336],[126.75,34.25],[126.66666666666667,34.0],[126.08888888888889,33.91111111111111],[126.00000000000001,33.333333333333336],[125.75,33.25],[125.66666666666669,33.0],[125.23529411764704,32.76470588235294],[125.0,32.0],[125.0,31.0],[124.0,31.0],[124.0,29.933333333333334],[123.5,30.0],[123.25,30.25],[123.0,30.2],[122.8,29.8],[123.0,29.0],[122.0,29.0],[122.0,28.0],[121.0,28.0],[121.25,27.25],[121.0,26.5],[120.60000000000001,26.400000000000002],[120.0,26.0],[119.4,26.400000000000002],[118.0,26.5],[117.6,26.400000000000002],[117.0,26.0],[116.0,26.0],[115.0,25.0],[113.0,25.0],[113.0,24.0],[110.0,24.0],[109.85714285714286,21.0],[110.0,20.75],[110.5,20.5],[111.0,19.0],[111.0,16.0],[110.60000000000001,15.4],[110.0,15.0],[109.6,14.0],[109.5,13.0],[109.0,12.0],[109.0,10.0],[109.66666666666667,9.0],[110.0,8.0],[110.0,5.0],[109.0,4.0],[109.4,3.4000000000000004],[109.5,3.0],[109.5,2.0],[109.33333333333333,1.0],[109.4,0.4],[109.5,0.0],[110.0,-0.25],[110.29411764705881,-1.7058823529411764],[111.03738317757009,-1.9626168224299065],[111.23076923076923,-2.769230769230769],[112.0,-3.2222222222222223],[112.2121212121212,-3.787878787878788],[113.0,-4.461538461538462],[113.2,-4.8],[113.77777777777779,-5.0],[114.0,-5.222222222222222],[114.16666666666667,-5.833333333333334],[114.875,-6.0],[115.23809523809524,-7.238095238095238],[115.21052631578948,-7.7894736842105265],[116.0,-8.0],[115.75,-8.75],[115.5,-9.0],[115.4,-9.4],[115.0,-10.0],[113.7142857142857,-10.714285714285715],[113.33333333333334,-11.333333333333334],[112.0,-12.0],[111.71428571428571,-12.714285714285714],[111.28571428571428,-13.285714285714285],[110.36363636363636,-14.363636363636363],[109.5,-15.0],[109.33333333333334,-15.333333333333334],[108.75,-15.75],[107.88888888888889,-15.88888888888889],[107.71428571428571,-16.285714285714285],[107.71428571428571,-16.714285714285715],[106.0,-17.0],[106.77777777777777,-17.22222222222222],[109.0,-17.200000000000003],[110.0,-17.0],[110.5,-16.5],[111.18181818181819,-16.18181818181818],[112.15384615384616,-16.153846153846153],[112.5,-16.0],[112.66666666666669,-15.666666666666668],[113.0,-15.5],[113.55555555555556,-14.555555555555554],[114.5,-14.0],[114.66666666666667,-13.666666666666668],[115.0,-13.5],[115.5,-12.5],[116.19999999999999,-12.2],[116.33333333333334,-11.333333333333334],[117.0,-11.0],[117.44444444444444,-12.0],[117.0,-13.0],[116.85714285714286,-14.0],[116.55555555555554,-14.555555555555554],[115.77777777777777,-14.777777777777779],[115.63636363636363,-15.363636363636363],[115.71428571428571,-15.714285714285712],[115.25,-16.25],[114.60000000000001,-16.6],[113.7142857142857,-16.714285714285715],[113.33333333333334,-17.333333333333336],[112.73333333333333,-17.733333333333334],[112.0,-18.0],[111.66666666666667,-18.666666666666668],[111.33333333333334,-18.666666666666668],[110.5,-19.0],[110.33333333333334,-19.333333333333336],[110.0,-19.5],[109.0,-19.666666666666668],[108.81818181818181,-19.818181818181817],[108.26666666666667,-19.733333333333334],[106.91304347826087,-19.913043478260867],[104.5,-20.0],[104.33333333333334,-20.333333333333336],[103.77777777777777,-20.77777777777778],[102.0,-20.909090909090907],[100.25,-20.75],[100.33333333333334,-20.333333333333336],[100.0,-19.0],[99.60000000000001,-18.400000000000002],[99.5,-18.0],[99.125,-17.875],[97.0,-18.0],[94.0,-17.5],[93.6,-17.6],[93.0,-18.0],[92.0,-18.0],[91.4,-18.400000000000002],[91.0,-18.5],[88.0,-18.5],[87.66666666666667,-18.333333333333336],[87.5,-18.0],[87.5,-17.5],[88.0,-17.0],[87.0,-17.0],[87.0,-16.0],[86.0,-16.0],[85.25,-15.75],[85.0,-15.0]],[[109.66666666666669,-42.66666666666667],[109.86666666666666,-43.13333333333333],[110.25,-43.25],[110.33333333333334,-43.0],[110.0,-42.0],[109.66666666666669,-42.66666666666667]],[[-16.88235294117647,44.882352941176464],[-16.833333333333336,45.0],[-17.0,45.5],[-18.0,45.0],[-16.88235294117647,44.882352941176464]],[[28.0,38.0],[29.0,38.0],[29.0,39.0],[28.0,39.0],[28.0,38.0]],[[-69.0,-87.25],[-68.0,-87.0],[-69.0,-86.93333333333334],[-70.0,-87.0],[-69.0,-87.25]],[[31.0,41.0],[32.0,41.0],[32.0,42.0],[31.0,42.0],[31.0,41.0]],[[88.85,38.0],[89.0,37.25],[89.28571428571428,37.71428571428571],[89.25,38.0],[89.0,38.09090909090909],[88.85,38.0]],[[115.5,27.5],[116.0,27.333333333333336],[116.30769230769232,27.692307692307693],[116.28571428571428,28.0],[115.82608695652175,28.173913043478258],[115.0,28.0],[115.5,27.5]],[[36.75,-73.0],[37.0,-73.33333333333334],[37.333333333333336,-73.0],[37.0,-72.875],[36.75,-73.0]],[[129.0,-40.5],[128.77777777777777,-40.77777777777778],[128.8,-41.00000000000001],[129.0,-41.25],[129.5,-41.0],[129.33333333333334,-40.66666666666667],[129.0,-40.5]],[[137.0,-83.0],[137.66666666666669,-83.33333333333334],[138.33333333333334,-83.33333333333334],[138.5,-83.0],[138.0,-82.5],[137.6,-82.6],[137.0,-83.0]],[[-57.0,-78.0],[-58.0,-78.0],[-58.0,-79.0],[-57.0,-79.0],[-57.0,-78.0]],[[-56.15384615384615,-69.15384615384616],[-56.0,-69.25],[-55.857142857142854,-68.85714285714286],[-56.0,-68.5],[-56.15384615384615,-69.15384615384616]],[[-52.0,-81.0],[-51.0,-81.0],[-51.0,-79.0],[-52.0,-79.0],[-52.0,-81.0]],[[-33.0,-23.0],[-29.0,-23.0],[-29.0,-22.0],[-33.0,-22.0],[-33.0,-23.0]],[[-35.0,-23.0],[-35.0,-24.0],[-33.0,-24.0],[-33.0,-23.0],[-35.0,-23.0]],[[-24.0,-67.14285714285714],[-23.666666666666664,-67.0],[-24.125,-66.875],[-25.0,-67.0],[-24.0,-67.14285714285714]],[[-22.0,-41.0],[-22.0,-42.0],[-21.0,-42.0],[-21.0,-41.0],[-22.0,-41.0]],[[-21.0,-44.0],[-21.0,-45.0],[-20.0,-45.0],[-20.0,-44.0],[-21.0,-44.0]],[[-12.6,24.6],[-12.5,25.0],[-12.857142857142858,26.142857142857146],[-14.18181818181818,26.181818181818183],[-14.333333333333334,26.0],[-14.333333333333334,25.66666666666667],[-13.666666666666668,25.333333333333336],[-13.285714285714285,24.714285714285715],[-13.0,24.5],[-12.6,24.6]],[[-12.0,23.0],[-12.0,24.0],[-12.5,23.5],[-13.0,23.5],[-13.285714285714285,23.285714285714285],[-13.5,23.0],[-13.4,22.6],[-13.0,22.0],[-12.6,22.6],[-12.0,23.0]],[[-9.0,-77.0],[-9.0,-76.0],[-11.0,-76.0],[-11.0,-77.0],[-9.0,-77.0]],[[-2.1818181818181817,4.181818181818182],[-2.5,4.0],[-2.142857142857143,3.857142857142857],[-1.9130434782608696,3.9130434782608696],[-1.875,4.125],[-2.0,4.5],[-2.1818181818181817,4.181818181818182]],[[0.0,-67.0],[-0.4,-67.6],[-1.0,-68.0],[-0.4,-68.4],[0.0,-68.33333333333334],[0.5,-68.0],[0.4,-67.6],[0.0,-67.0]],[[-1.0,-69.0],[-2.0,-69.0],[-2.0,-70.0],[-1.5,-70.5],[-1.5,-71.0],[-1.125,-71.125],[0.0,-71.0],[-1.0,-70.0],[-1.0,-69.0]],[[11.0,2.0],[11.666666666666668,1.6666666666666665],[12.0,1.3333333333333335],[13.0,1.3333333333333335],[13.5,1.5],[14.0,2.0],[12.538461538461538,2.5384615384615388],[12.0,3.0],[11.666666666666668,3.666666666666667],[11.666666666666668,4.333333333333334],[12.0,5.0],[11.181818181818182,5.181818181818182],[10.862068965517242,5.137931034482758],[10.2,4.0],[10.0,3.0],[10.636363636363637,2.6363636363636367],[11.0,2.0]],[[14.333333333333332,22.0],[14.600000000000001,21.6],[15.0,21.333333333333336],[15.5,21.5],[15.666666666666668,22.0],[14.777777777777779,22.22222222222222],[14.333333333333332,22.0]],[[112.33333333333333,27.0],[112.5,26.5],[113.0,26.333333333333336],[113.5,26.5],[114.0,27.0],[113.30769230769232,27.307692307692307],[112.33333333333333,27.0]],[[-19.0,-75.0],[-19.0,-73.0],[-20.0,-73.0],[-20.0,-75.0],[-19.0,-75.0]],[[-0.5,-74.0],[0.0,-74.5],[0.2,-74.2],[0.18181818181818182,-73.81818181818181],[0.0,-73.66666666666667],[-0.5,-74.0]],[[4.5,-73.5],[4.5,-73.0],[4.333333333333334,-72.66666666666667],[4.0,-72.5],[2.6666666666666665,-73.0],[3.5,-73.5],[4.0,-74.0],[5.0,-74.0],[4.5,-73.5]],[[14.333333333333334,-47.333333333333336],[14.5,-47.0],[14.333333333333334,-46.66666666666667],[14.0,-46.5],[13.0,-46.66666666666667],[12.8,-46.8],[12.5,-47.5],[12.0,-48.0],[12.875,-48.125],[13.5,-48.0],[13.666666666666668,-47.66666666666667],[14.333333333333334,-47.333333333333336]],[[15.7,7.300000000000001],[15.7,7.0],[16.0,6.5],[16.400000000000002,6.6000000000000005],[16.75,7.0],[16.0,7.75],[15.7,7.300000000000001]],[[-21.0,-82.0],[-22.0,-82.0],[-22.0,-83.0],[-20.0,-83.0],[-20.0,-81.0],[-21.0,-81.0],[-21.0,-82.0]]],[[[49.75,-4.0],[49.5,-4.5],[49.0,-4.75],[48.0,-4.666666666666667],[47.55555555555556,-4.444444444444445],[47.333333333333336,-4.0],[47.4,-3.4000000000000004],[47.66666666666667,-2.666666666666667],[48.0,-2.5],[49.0,-2.5],[49.33333333333334,-2.666666666666667],[49.66666666666667,-3.3333333333333335],[49.75,-4.0]]],[[[38.6,2.6],[39.0,2.0],[40.44444444444444,1.4444444444444444],[40.66666666666667,1.0],[40.44444444444444,0.5555555555555556],[39.75,0.25],[38.0,0.2],[37.6,0.6000000000000001],[36.96923076923077,0.9692307692307692],[36.0,1.2000000000000002],[35.0,2.0],[35.0,3.0],[35.6,3.4000000000000004],[36.0,3.5],[36.333333333333336,3.3333333333333335],[36.5,3.0],[37.0,2.8000000000000003],[38.6,2.6]]],[[[50.5,21.0],[50.66666666666667,21.333333333333336],[51.0,21.5],[51.5,21.5],[52.0,21.0],[51.0,20.0],[50.5,20.5],[50.5,21.0]]],[[[13.0,48.0],[12.4,48.400000000000006],[12.0,48.5],[11.5,49.0],[11.666666666666668,49.33333333333334],[12.0,49.5],[12.333333333333334,49.33333333333334],[14.0,49.0],[13.333333333333336,48.66666666666667],[13.0,48.0]]]]}}]}