{"type":"FeatureCollection","features":[{"type":"Feature","properties":{"ageMa":290},"geometry":{"type":"MultiPolygon","coordinates":[[[[-2.2,42.8],[-1.75,42.75],[-1.0,43.0],[-1.0,44.0],[0.0,44.0],[0.4,43.400000000000006],[1.0,43.0],[1.4000000000000001,42.4],[1.6,41.6],[2.0,41.5],[2.5,41.0],[2.4,40.6],[2.0,40.0],[0.0,40.0],[0.0,39.0],[-1.0,39.0],[-1.4000000000000001,38.4],[-2.0,38.0],[-3.0,37.0],[-3.6000000000000005,36.6],[-4.4,36.400000000000006],[-5.0,36.0],[-4.6,35.400000000000006],[-4.5,35.0],[-4.5,34.5],[-5.0,34.0],[-4.0,34.0],[-3.5,33.5],[-2.75,33.25],[-2.3333333333333335,32.66666666666667],[-1.0,32.0],[0.0,31.333333333333332],[1.0,31.0],[2.0,31.0],[3.0,32.0],[4.0,32.0],[4.6,32.4],[5.0,32.5],[5.4,32.4],[6.0,32.0],[6.5,32.5],[7.0,32.66666666666667],[8.0,32.5],[8.4,32.6],[9.0,33.0],[11.0,32.4],[12.0,32.5],[13.0,32.0],[13.8,31.8],[14.363636363636363,31.363636363636363],[15.5,30.0],[15.666666666666668,29.0],[16.0,28.0],[17.0,27.0],[18.0,28.0],[18.400000000000002,28.6],[19.11111111111111,28.88888888888889],[19.6,29.400000000000002],[20.352941176470587,29.64705882352941],[21.0,30.25],[21.666666666666668,30.333333333333336],[23.0,30.2],[24.0,30.25],[25.0,30.0],[26.0,29.5],[27.0,29.5],[27.333333333333336,29.333333333333336],[27.818181818181817,28.818181818181817],[28.461538461538463,28.461538461538463],[29.0,28.0],[29.400000000000002,27.4],[30.0,27.0],[30.5,26.0],[30.5,25.5],[30.0,25.0],[31.0,25.0],[31.0,24.0],[32.0,24.0],[32.0,23.0],[32.4,22.4],[33.0,22.0],[33.0,21.0],[33.66666666666667,19.0],[33.83333333333333,18.833333333333332],[35.0,18.5],[36.0,18.8],[37.0,18.6],[38.0,18.8],[38.75,18.75],[39.44444444444444,18.444444444444443],[40.0,18.0],[40.22222222222222,17.22222222222222],[40.33333333333333,16.0],[40.22222222222222,15.777777777777779],[39.0,15.0],[39.0,14.0],[41.0,14.0],[41.75,14.25],[42.0,14.25],[43.0,13.8],[44.0,14.0],[46.0,13.0],[46.400000000000006,12.4],[47.0,12.0],[47.0,10.0],[46.07142857142857,9.928571428571429],[45.565217391304344,9.434782608695652],[45.5,9.0],[44.09090909090909,8.0],[42.45569620253165,7.544303797468355],[40.0,6.578947368421052],[38.0,6.1499999999999995],[37.0,5.5],[35.836734693877546,5.163265306122449],[31.0,4.828571428571429],[29.0,4.379310344827586],[27.20952380952381,3.7904761904761903],[25.213114754098363,2.7868852459016393],[23.473684210526315,1.526315789473684],[22.575,0.425],[22.25,-0.25],[22.0,-3.0],[21.461538461538463,-4.461538461538462],[21.0,-5.0],[20.555555555555554,-6.555555555555555],[19.5,-9.0],[19.0,-11.0],[18.142857142857142,-12.142857142857142],[17.571428571428573,-12.571428571428573],[17.166666666666664,-13.166666666666668],[16.0,-14.0],[16.0,-17.0],[14.0,-17.0],[14.0,-18.0],[16.0,-18.0],[16.0,-20.0],[15.0,-20.0],[15.0,-22.0],[16.0,-23.0],[16.0,-24.0],[17.0,-25.0],[17.0,-26.0],[18.0,-26.0],[18.0,-24.0],[19.0,-23.0],[20.0,-23.0],[20.0,-22.0],[20.666666666666668,-21.666666666666668],[21.285714285714285,-21.714285714285715],[22.0,-22.0],[23.0,-23.0],[24.0,-23.333333333333336],[25.0,-24.0],[26.0,-24.0],[27.0,-25.0],[27.4,-25.6],[27.5,-26.0],[27.75,-26.25],[28.333333333333336,-26.333333333333336],[29.0,-26.0],[29.6,-26.400000000000002],[31.0,-27.0],[32.0,-26.666666666666668],[33.0,-27.0],[35.0,-27.0],[35.6,-26.6],[36.0,-26.5],[37.333333333333336,-26.666666666666668],[38.0,-27.0],[40.0,-27.0],[41.0,-28.0],[42.0,-28.0],[41.5,-27.5],[41.5,-26.5],[42.0,-26.0],[42.4,-26.6],[43.0,-26.75],[43.333333333333336,-27.333333333333336],[43.333333333333336,-27.666666666666668],[43.66666666666667,-27.666666666666668],[44.0,-27.833333333333336],[44.125,-28.125],[44.0,-29.0],[43.400000000000006,-28.6],[43.0,-28.5],[42.6,-28.6],[42.5,-29.5],[42.0,-30.0],[42.0,-31.0],[43.0,-31.0],[43.0,-32.0],[44.0,-32.0],[44.0,-33.0],[45.0,-33.0],[45.0,-34.0],[46.0,-34.0],[46.0,-35.0],[47.0,-35.0],[47.0,-36.0],[48.0,-36.0],[48.0,-37.0],[49.0,-37.0],[49.0,-38.0],[50.0,-38.0],[50.0,-39.0],[51.0,-39.0],[51.63636363636363,-38.63636363636363],[52.0,-38.66666666666667],[52.66666666666667,-39.0],[53.22222222222222,-39.77777777777777],[54.0392156862745,-39.96078431372549],[54.21428571428571,-40.785714285714285],[54.42857142857143,-41.0],[55.46153846153847,-41.53846153846154],[56.0,-42.0],[56.09090909090909,-43.09090909090909],[56.0,-44.0],[55.578947368421055,-44.578947368421055],[55.0,-45.0],[54.25,-45.25],[53.875,-46.0],[53.21875,-46.21875],[53.0,-46.53846153846154],[52.400000000000006,-47.0],[51.29268292682927,-47.29268292682927],[51.0,-48.0],[51.04545454545455,-49.0],[51.275862068965516,-49.724137931034484],[52.11111111111111,-49.88888888888889],[55.5,-50.0],[56.22222222222223,-50.77777777777778],[57.0,-50.91666666666667],[58.111111111111114,-50.888888888888886],[58.33333333333333,-51.0],[58.55555555555556,-51.44444444444444],[59.15384615384616,-51.84615384615385],[60.0,-52.0],[60.0,-53.0],[61.0,-53.0],[61.0,-54.0],[62.0,-54.0],[62.0,-55.0],[63.0,-55.0],[63.0,-56.0],[65.0,-56.0],[65.0,-57.0],[67.0,-57.0],[67.0,-58.0],[70.0,-58.0],[70.0,-59.0],[74.0,-59.0],[74.0,-60.0],[77.0,-60.0],[77.0,-61.0],[85.0,-61.0],[85.0,-60.0],[86.0,-60.0],[86.0,-59.0],[87.0,-59.0],[87.6,-59.400000000000006],[88.5,-59.5],[89.0,-60.0],[91.0,-60.0],[92.0,-60.5],[92.28571428571428,-60.28571428571428],[92.33333333333334,-60.00000000000001],[92.0,-59.0],[92.5,-58.0],[93.5,-57.5],[94.0,-57.0],[95.0,-56.8],[96.25,-56.25],[98.0,-55.714285714285715],[99.0,-55.583333333333336],[99.94871794871796,-54.94871794871794],[101.0,-54.5],[105.0,-54.0],[105.65217391304347,-54.347826086956516],[107.42105263157895,-54.57894736842105],[108.86666666666666,-55.13333333333333],[110.0,-55.400000000000006],[110.42857142857143,-55.57142857142858],[111.0,-56.16666666666667],[113.0,-56.25],[113.5,-56.5],[114.0,-57.0],[114.77777777777777,-57.22222222222222],[116.60000000000001,-57.4],[117.4,-57.6],[118.0,-58.0],[118.77777777777777,-58.22222222222222],[121.0,-58.25],[122.0,-58.5],[122.36363636363637,-58.36363636363636],[122.66666666666667,-58.0],[122.4,-57.6],[122.0,-57.333333333333336],[121.0,-57.5],[120.66666666666667,-57.333333333333336],[120.5,-57.0],[120.5,-56.5],[119.60000000000001,-56.6],[119.0,-57.0],[118.0,-56.0],[118.0,-55.0],[117.0,-55.0],[116.33333333333334,-55.33333333333334],[115.0,-55.33333333333333],[114.77777777777777,-55.22222222222222],[114.66666666666666,-55.0],[114.71428571428572,-54.71428571428571],[115.0,-54.5],[116.4,-54.400000000000006],[116.5,-54.0],[116.25,-53.75],[116.0,-53.0],[115.52,-52.48],[115.4,-52.0],[115.44444444444444,-51.0],[115.70588235294117,-50.705882352941174],[116.33333333333334,-50.333333333333336],[117.15384615384616,-50.15384615384615],[119.0,-50.0],[121.10526315789474,-50.10526315789474],[122.0,-50.0],[122.66666666666667,-49.66666666666667],[123.0,-49.0],[123.0,-48.0],[123.77777777777777,-46.77777777777777],[124.28571428571428,-46.28571428571428],[125.60000000000001,-45.6],[128.33333333333334,-45.333333333333336],[129.0,-45.0],[129.60000000000002,-45.4],[130.0,-45.5],[130.28571428571428,-45.285714285714285],[130.66666666666669,-44.66666666666667],[131.4,-44.400000000000006],[132.0,-44.0],[135.0,-41.0],[136.0,-41.0],[137.0,-40.599999999999994],[139.0,-40.75],[139.6923076923077,-41.30769230769231],[141.0,-41.5],[141.7142857142857,-42.285714285714285],[142.33333333333334,-42.66666666666667],[143.4,-43.60000000000001],[144.0,-45.0],[144.4,-45.6],[145.0,-46.0],[145.4,-46.6],[145.5,-47.0],[146.0,-47.400000000000006],[146.46153846153845,-47.53846153846154],[147.0,-48.0],[147.75,-48.25],[148.375,-48.625],[148.6,-49.0],[150.0,-49.6],[150.4,-50.0],[151.42105263157893,-50.578947368421055],[152.55555555555554,-51.44444444444444],[155.75,-53.25],[156.3,-53.7],[157.65217391304347,-54.347826086956516],[158.2,-54.8],[159.57894736842104,-55.421052631578945],[160.25,-56.0],[160.8,-56.2],[161.0,-56.42857142857143],[163.0,-57.5],[166.0,-59.57142857142857],[166.75,-60.0],[168.0,-60.42857142857143],[169.00000000000003,-61.2],[172.44444444444443,-62.55555555555555],[173.60000000000002,-63.400000000000006],[174.4,-64.6],[174.5,-65.0],[174.28571428571428,-66.28571428571428],[174.0,-67.0],[173.0,-68.0],[173.0,-69.0],[172.28571428571428,-69.28571428571428],[172.0,-70.0],[171.0,-71.0],[170.0,-71.0],[169.0,-72.0],[168.0,-72.0],[167.0,-73.0],[166.0,-73.0],[166.0,-74.0],[168.25,-74.75],[168.5,-75.0],[169.0,-76.0],[169.0,-77.0],[170.0,-77.0],[171.0,-78.0],[171.6923076923077,-78.30769230769232],[173.0,-78.42857142857142],[173.2962962962963,-78.7037037037037],[175.0,-78.93103448275862],[175.1904761904762,-79.19047619047619],[175.3030303030303,-79.69696969696969],[177.01666666666665,-79.98333333333333],[177.25454545454545,-80.74545454545455],[178.10084033613447,-80.89915966386555],[178.42105263157893,-81.57894736842104],[179.0,-81.85714285714285],[179.13084112149534,-82.86915887850468],[179.09756097560978,-84.90243902439025],[179.22222222222223,-85.77777777777777],[179.55555555555554,-86.0],[179.625,-87.0],[180.0,-87.75],[180.0,-90.0],[-180.0,-90.0],[-180.0,-87.75],[-179.5,-87.5],[-179.25,-87.0],[-179.0,-86.80000000000001],[-175.0,-86.75],[-174.0,-86.6],[-170.0,-86.66666666666667],[-167.0,-86.5],[-166.63636363636363,-86.36363636363637],[-166.0,-85.8],[-157.0,-85.8],[-156.28571428571428,-85.71428571428571],[-155.66666666666669,-85.33333333333334],[-155.5,-85.0],[-155.0,-84.85714285714285],[-154.0,-85.0],[-152.0,-85.0],[-151.33333333333334,-85.33333333333334],[-151.0,-85.33333333333334],[-150.0,-84.33333333333334],[-149.0,-84.66666666666667],[-147.0,-84.66666666666667],[-146.0,-84.5],[-145.71428571428572,-84.71428571428571],[-145.0,-84.8],[-143.71428571428572,-84.71428571428571],[-143.0,-85.0],[-142.0,-85.0],[-141.0,-84.66666666666667],[-140.0,-85.0],[-138.0,-85.0],[-137.0,-84.66666666666667],[-135.0,-84.66666666666667],[-134.0,-84.5],[-130.33333333333334,-84.66666666666667],[-128.0,-84.33333333333334],[-127.0,-84.5],[-126.0,-84.0],[-125.0,-84.0],[-124.0,-83.83333333333333],[-121.0,-83.8],[-117.0,-83.25],[-115.77777777777777,-83.22222222222223],[-115.0,-83.0],[-114.0,-83.0],[-111.71428571428571,-82.71428571428571],[-110.0,-82.33333333333334],[-107.0,-82.25],[-106.0,-82.0],[-105.0,-82.0],[-105.0,-81.0],[-103.0,-81.0],[-102.0,-80.5],[-101.0,-80.5],[-100.0,-80.0],[-97.0,-80.0],[-97.0,-79.0],[-96.0,-79.0],[-95.0,-78.75],[-93.4,-78.60000000000001],[-92.0,-78.0],[-91.25,-78.25],[-90.77777777777777,-78.22222222222223],[-89.2,-77.8],[-88.0,-77.66666666666667],[-86.77777777777777,-77.22222222222223],[-86.5,-77.0],[-86.44444444444444,-76.55555555555556],[-86.0,-76.0],[-87.0,-75.5],[-88.0,-74.5],[-88.4,-74.4],[-88.5,-74.0],[-84.5,-71.5],[-82.30769230769232,-69.6923076923077],[-80.52941176470588,-68.47058823529412],[-79.53846153846155,-67.46153846153847],[-78.89473684210526,-67.10526315789474],[-78.44444444444444,-66.55555555555556],[-76.6,-65.0],[-76.0,-64.0],[-75.0,-63.0],[-74.66666666666667,-62.333333333333336],[-74.33333333333333,-62.0],[-73.42857142857143,-60.57142857142858],[-73.0,-60.25],[-72.57142857142857,-59.0],[-71.76923076923077,-58.230769230769226],[-71.0909090909091,-56.90909090909091],[-70.60000000000001,-56.400000000000006],[-69.0,-54.0],[-68.5,-53.5],[-67.76923076923077,-52.23076923076923],[-66.0,-50.0],[-64.43243243243244,-47.567567567567565],[-62.22222222222222,-45.0],[-61.46153846153847,-44.53846153846154],[-60.38461538461538,-43.61538461538461],[-60.083333333333336,-43.0],[-59.513513513513516,-42.48648648648649],[-59.0,-41.7],[-58.57575757575758,-41.42424242424242],[-58.17777777777778,-40.82222222222222],[-57.882352941176464,-40.0],[-56.542857142857144,-38.0],[-55.0,-36.205882352941174],[-54.79710144927536,-36.20289855072464],[-54.23529411764706,-35.76470588235294],[-54.0,-35.38461538461539],[-53.71428571428571,-35.285714285714285],[-53.31372549019608,-34.68627450980392],[-52.73770491803279,-33.26229508196721],[-52.53191489361702,-31.46808510638298],[-51.4,-28.0],[-52.20618556701031,-23.20618556701031],[-52.45,-20.0],[-52.275000000000006,-18.725],[-51.78947368421053,-17.210526315789473],[-51.406779661016955,-16.593220338983052],[-51.0,-16.25],[-50.0,-16.272727272727273],[-49.515151515151516,-16.515151515151516],[-49.17142857142858,-17.17142857142857],[-49.05,-17.999999999999996],[-49.13333333333333,-21.0],[-49.0,-23.0],[-49.24242424242424,-25.757575757575758],[-49.6,-28.0],[-49.44444444444444,-29.0],[-49.5,-31.0],[-49.25,-31.25],[-48.0,-31.0],[-46.20689655172414,-31.20689655172414],[-45.583333333333336,-31.583333333333332],[-45.315789473684205,-32.315789473684205],[-45.266666666666666,-33.733333333333334],[-45.55555555555556,-34.44444444444444],[-46.00000000000001,-34.8],[-46.333333333333336,-35.66666666666667],[-47.10000000000001,-36.0],[-47.375,-36.625],[-48.0,-36.900000000000006],[-48.375,-37.625],[-49.09090909090909,-38.0],[-49.13333333333333,-38.86666666666667],[-49.33333333333334,-39.333333333333336],[-49.0,-40.0],[-50.0,-40.0],[-50.0,-41.0],[-49.400000000000006,-41.400000000000006],[-49.0,-42.0],[-48.0,-41.0],[-47.0,-41.0],[-47.0,-40.0],[-45.0,-38.0],[-45.0,-37.0],[-44.0,-37.0],[-43.60000000000001,-36.400000000000006],[-43.0,-36.0],[-43.0,-30.0],[-42.66666666666667,-29.0],[-41.0,-27.5],[-40.0,-27.0],[-38.0,-26.666666666666668],[-37.0,-26.8],[-33.0,-26.8],[-32.0,-27.0],[-30.0,-27.0],[-29.0,-26.833333333333332],[-26.0,-27.0],[-24.0,-28.0],[-23.0,-29.0],[-22.285714285714285,-30.285714285714285],[-21.666666666666668,-30.666666666666668],[-21.5,-31.0],[-21.4,-32.4],[-21.0,-33.0],[-21.0,-34.0],[-20.0,-34.0],[-19.0,-33.0],[-18.5,-33.5],[-18.0,-33.666666666666664],[-17.666666666666668,-33.333333333333336],[-16.25,-32.75],[-15.0,-32.6],[-14.666666666666668,-32.66666666666667],[-13.25,-33.25],[-12.095238095238097,-34.095238095238095],[-11.375,-36.375],[-11.0,-37.0],[-11.25,-38.0],[-11.0,-38.333333333333336],[-9.4,-39.400000000000006],[-9.0,-39.5],[-8.666666666666668,-39.333333333333336],[-8.25,-38.75],[-7.0,-38.66666666666667],[-6.636363636363637,-38.36363636363636],[-6.4,-37.6],[-5.666666666666667,-36.333333333333336],[-5.4,-34.6],[-5.0,-34.0],[-6.0,-33.0],[-6.333333333333334,-32.333333333333336],[-6.5,-32.0],[-6.5,-31.0],[-7.0,-30.0],[-8.0,-30.0],[-8.555555555555555,-29.555555555555554],[-10.0,-29.0],[-10.5,-28.0],[-11.400000000000002,-27.4],[-12.0,-26.66666666666667],[-14.0,-26.0],[-16.0,-25.0],[-18.0,-24.4],[-18.692307692307693,-23.692307692307693],[-20.636363636363637,-22.636363636363637],[-22.2,-22.2],[-24.0,-22.0],[-24.6,-21.6],[-25.0,-21.5],[-27.0,-21.25],[-28.0,-21.25],[-29.0,-21.0],[-30.0,-21.0],[-30.6,-20.6],[-31.0,-20.666666666666668],[-32.0,-20.5],[-33.0,-20.666666666666668],[-34.0,-20.5],[-34.400000000000006,-20.400000000000002],[-35.0,-20.0],[-36.0,-20.0],[-36.6,-19.6],[-37.4,-19.400000000000002],[-38.0,-19.0],[-39.0,-19.0],[-40.0,-19.333333333333336],[-40.5,-19.0],[-40.66666666666667,-18.666666666666668],[-41.0,-18.5],[-45.0,-18.5],[-46.0,-18.0],[-47.36363636363636,-15.363636363636363],[-47.400000000000006,-13.0],[-47.25,-11.0],[-47.0,-10.0],[-47.0,-9.0],[-46.5,-8.0],[-44.0,-6.0],[-43.60000000000001,-5.4],[-43.0,-5.0],[-41.71428571428571,-4.285714285714286],[-40.800000000000004,-4.0],[-39.69230769230769,-3.3076923076923084],[-38.0,-2.7777777777777777],[-37.0,-2.666666666666667],[-36.0,-3.0],[-34.8,-3.2],[-33.2,-3.2],[-32.333333333333336,-3.0],[-31.692307692307693,-2.307692307692308],[-30.5,-2.0],[-30.25,-1.75],[-28.833333333333336,-1.1666666666666665],[-28.0,-1.125],[-27.5,-0.5],[-26.5,0.0],[-26.333333333333336,0.33333333333333337],[-26.0,0.5],[-25.0,0.5],[-24.666666666666668,0.6666666666666667],[-24.5,1.0],[-24.5,2.0],[-24.333333333333336,2.3333333333333335],[-23.71428571428571,2.714285714285714],[-23.5,5.0],[-24.0,6.0],[-24.0,8.0],[-25.0,9.0],[-26.0,9.0],[-26.400000000000002,8.4],[-27.0,8.0],[-27.333333333333336,7.0],[-27.5,6.0],[-27.5,5.0],[-28.363636363636363,3.3636363636363633],[-29.53846153846154,1.5384615384615383],[-30.0,1.25],[-30.53846153846154,0.5384615384615385],[-31.25,0.0],[-31.5,-0.5],[-32.0,-1.0],[-32.63636363636364,-1.3636363636363635],[-34.0,-1.6],[-35.0,-1.5],[-37.0,-0.6666666666666667],[-37.66666666666667,0.0],[-38.0,1.0],[-38.44444444444444,1.5555555555555554],[-39.15384615384615,1.8461538461538463],[-40.0,2.0],[-40.529411764705884,2.4705882352941178],[-42.0,3.0],[-42.333333333333336,4.0],[-42.333333333333336,4.333333333333334],[-42.2,5.2],[-41.5,6.0],[-41.0,7.0],[-39.44444444444444,8.444444444444445],[-39.0,8.666666666666668],[-37.71428571428571,8.714285714285714],[-37.0,9.0],[-36.0,9.5],[-35.75,9.75],[-35.0,10.0],[-33.0,11.0],[-32.0,11.666666666666666],[-30.81818181818182,11.818181818181818],[-30.5,12.0],[-29.8,12.8],[-29.666666666666668,13.666666666666668],[-29.400000000000002,14.400000000000002],[-29.0,15.0],[-29.0,16.0],[-28.66666666666667,16.666666666666668],[-28.0,17.0],[-28.5,17.5],[-28.66666666666667,18.333333333333336],[-29.333333333333336,20.0],[-29.333333333333336,20.333333333333336],[-28.71428571428571,21.714285714285715],[-28.400000000000002,23.400000000000002],[-28.0,24.0],[-28.0,25.0],[-27.555555555555554,25.555555555555554],[-27.285714285714285,26.285714285714285],[-26.77777777777778,26.77777777777778],[-26.333333333333336,28.333333333333336],[-25.66666666666667,28.66666666666667],[-25.5,29.0],[-26.0,30.0],[-25.0,32.0],[-25.0,33.0],[-24.22222222222222,35.22222222222222],[-22.2,37.2],[-21.333333333333336,37.333333333333336],[-21.0,37.5],[-19.0,37.5],[-17.0,38.333333333333336],[-16.400000000000002,38.4],[-15.0,38.833333333333336],[-13.846153846153847,38.84615384615385],[-13.0,39.5],[-12.6,39.6],[-12.0,40.0],[-11.0,40.0],[-10.0,40.5],[-8.777777777777779,40.77777777777778],[-8.2,41.2],[-7.0,41.75],[-5.285714285714286,42.285714285714285],[-4.25,43.25],[-3.0,43.5],[-2.666666666666667,43.333333333333336],[-2.5,43.0],[-2.2,42.8]],[[121.4,-56.400000000000006],[122.0,-56.0],[121.0,-55.5],[120.60000000000001,-55.60000000000001],[120.5,-56.5],[121.4,-56.400000000000006]],[[89.71428571428571,-85.71428571428571],[89.5,-86.0],[90.125,-86.125],[90.16666666666667,-85.83333333333333],[90.0,-85.66666666666667],[89.71428571428571,-85.71428571428571]],[[-55.2,-40.2],[-55.0,-41.0],[-54.75,-40.25],[-54.5,-40.0],[-54.875,-39.875],[-55.2,-40.2]],[[-55.71428571428571,-40.71428571428571],[-56.285714285714285,-41.0],[-56.400000000000006,-41.400000000000006],[-56.0,-42.0],[-55.0,-41.0],[-55.71428571428571,-40.71428571428571]],[[-56.66666666666667,-41.66666666666667],[-57.11764705882353,-41.88235294117647],[-57.18181818181819,-42.18181818181818],[-57.00000000000001,-42.333333333333336],[-56.0,-42.0],[-56.66666666666667,-41.66666666666667]],[[-37.0,-41.5],[-38.0,-43.0],[-38.75,-45.25],[-39.5,-46.0],[-39.5,-46.5],[-40.0,-47.0],[-40.0,-49.0],[-40.6,-49.400000000000006],[-42.0,-50.0],[-43.0,-50.0],[-43.28571428571428,-50.71428571428571],[-44.0,-51.0],[-44.375,-51.625],[-45.0,-52.0],[-45.72413793103448,-53.27586206896552],[-50.28571428571428,-59.71428571428571],[-51.57894736842105,-62.421052631578945],[-52.4,-63.60000000000001],[-53.0,-64.0],[-53.22222222222222,-64.77777777777777],[-55.0,-66.0],[-55.25,-66.75],[-55.77777777777778,-67.22222222222223],[-57.00000000000001,-67.66666666666667],[-57.333333333333336,-67.66666666666667],[-58.0,-68.0],[-60.0,-68.0],[-60.0,-67.0],[-61.0,-67.0],[-61.66666666666667,-68.33333333333334],[-62.0,-68.5],[-62.57142857142858,-69.42857142857143],[-63.307692307692314,-69.6923076923077],[-63.8,-70.2],[-65.60000000000001,-71.4],[-66.0,-72.0],[-67.0,-73.0],[-68.0,-73.0],[-68.66666666666667,-74.33333333333334],[-69.33333333333334,-74.66666666666667],[-69.66666666666667,-75.33333333333334],[-70.33333333333334,-75.66666666666667],[-70.60000000000001,-76.4],[-71.0,-77.0],[-72.0,-76.0],[-72.4,-76.60000000000001],[-72.5,-77.0],[-72.0,-77.5],[-71.5,-77.5],[-71.0,-78.0],[-71.60000000000001,-78.4],[-72.0,-79.0],[-72.6,-79.4],[-73.0,-80.0],[-73.60000000000001,-79.6],[-74.0,-79.5],[-74.25,-79.75],[-74.33333333333334,-80.33333333333334],[-74.0,-80.5],[-73.5,-80.5],[-73.0,-81.0],[-69.0,-81.0],[-68.0,-81.33333333333334],[-67.0,-81.33333333333334],[-65.71428571428571,-81.71428571428571],[-65.0,-82.0],[-64.46153846153847,-82.46153846153847],[-62.222222222222214,-83.22222222222223],[-61.0,-84.0],[-60.0,-84.0],[-59.0,-84.5],[-57.66666666666667,-84.66666666666667],[-57.0,-85.0],[-56.0,-85.0],[-55.0,-85.33333333333334],[-53.400000000000006,-85.4],[-52.0,-86.0],[-51.0,-86.0],[-50.333333333333336,-85.66666666666667],[-48.5,-85.5],[-48.0,-86.0],[-40.0,-86.0],[-38.6,-86.60000000000001],[-38.0,-87.0],[-22.0,-87.0],[-21.4,-87.4],[-21.0,-87.5],[-15.5,-87.5],[-15.0,-88.0],[-11.666666666666666,-88.0],[-11.600000000000001,-87.6],[-12.0,-87.0],[1.0,-87.0],[2.0,-87.25],[3.0,-87.0],[14.0,-87.0],[14.600000000000001,-86.60000000000001],[15.0,-86.5],[16.0,-86.5],[17.0,-86.33333333333334],[18.0,-86.6],[19.0,-86.33333333333334],[20.285714285714285,-86.28571428571428],[21.0,-86.0],[22.0,-86.33333333333334],[23.0,-86.25],[24.0,-86.5],[25.0,-86.5],[26.0,-86.33333333333334],[27.000000000000004,-86.33333333333334],[28.0,-86.5],[30.0,-86.4],[31.0,-86.6],[37.0,-86.5],[38.0,-86.66666666666667],[40.25,-86.75],[41.0,-87.0],[43.0,-87.0],[44.0,-87.25],[45.0,-87.33333333333334],[48.0,-87.25],[49.0,-87.0],[51.0,-87.5],[54.0,-87.25],[58.0,-87.33333333333334],[59.400000000000006,-87.6],[60.0,-88.0],[61.0,-88.0],[61.0,-87.0],[63.0,-87.0],[63.71428571428571,-87.28571428571428],[64.33333333333334,-87.33333333333334],[65.0,-87.0],[66.0,-87.0],[68.0,-86.66666666666667],[71.0,-86.54545454545455],[75.0,-86.55555555555556],[76.0,-86.66666666666667],[79.0,-86.44444444444444],[80.0,-86.125],[81.0,-86.0],[80.0,-85.75],[79.0,-85.19999999999999],[77.0,-85.14285714285714],[76.0,-85.33333333333334],[75.0,-85.28571428571428],[74.0,-85.4],[72.0,-85.22222222222223],[70.0,-85.3],[69.0,-85.125],[68.0,-85.27272727272728],[66.0,-85.0909090909091],[64.44444444444444,-84.55555555555554],[63.00000000000001,-83.80000000000001],[61.6,-83.4],[61.0,-83.0],[60.0,-82.83333333333334],[59.0,-83.0],[58.0,-82.75],[56.0,-82.66666666666667],[55.0,-82.33333333333334],[54.00000000000001,-82.66666666666667],[53.0,-82.5],[52.0,-82.66666666666667],[50.0,-82.33333333333334],[49.0,-82.66666666666667],[47.71428571428571,-82.28571428571428],[46.0,-82.25],[45.0,-82.0],[44.0,-82.0],[43.400000000000006,-81.60000000000001],[43.0,-81.5],[42.6,-81.60000000000001],[42.0,-82.0],[41.0,-82.0],[40.333333333333336,-81.66666666666667],[39.0,-81.66666666666667],[38.0,-82.0],[37.285714285714285,-81.71428571428571],[35.0,-81.5],[34.0,-82.0],[30.0,-82.0],[29.0,-82.25],[28.0,-82.0],[26.0,-82.0],[25.0,-82.33333333333334],[24.0,-81.75],[23.0,-82.0],[22.0,-81.66666666666667],[21.0,-82.0],[19.0,-82.0],[18.0,-81.5],[17.0,-82.0],[16.0,-81.66666666666667],[15.0,-81.75],[13.0,-81.33333333333334],[12.0,-81.33333333333334],[11.0,-81.66666666666667],[10.0,-81.5],[9.0,-81.5],[8.0,-81.25],[6.777777777777779,-81.22222222222223],[6.0,-81.0],[4.0,-81.0],[3.1818181818181817,-80.81818181818181],[0.6363636363636364,-80.63636363636364],[-0.2857142857142857,-80.71428571428572],[-2.0,-80.5],[-4.0,-80.66666666666667],[-6.363636363636363,-80.36363636363636],[-7.0,-80.0],[-8.0,-80.0],[-9.0,-79.75],[-9.818181818181818,-80.18181818181819],[-11.0,-80.25],[-13.0,-79.66666666666667],[-15.000000000000002,-79.66666666666667],[-16.0,-80.0],[-16.714285714285715,-79.71428571428571],[-18.0,-79.5],[-22.0,-79.5],[-22.333333333333336,-79.66666666666667],[-23.0,-79.75],[-24.0,-79.5],[-27.0,-79.5],[-29.0,-78.5],[-29.400000000000002,-78.60000000000001],[-30.0,-79.0],[-31.0,-79.0],[-31.400000000000002,-78.4],[-32.0,-78.0],[-32.0,-77.0],[-33.0,-77.0],[-33.0,-75.0],[-34.0,-74.0],[-35.0,-75.0],[-40.0,-75.0],[-40.6,-75.4],[-41.0,-75.5],[-42.0,-75.0],[-42.0,-74.0],[-41.0,-73.0],[-41.0,-72.0],[-40.0,-72.0],[-40.0,-71.0],[-41.0,-71.0],[-41.0,-70.0],[-41.333333333333336,-69.0],[-41.333333333333336,-68.66666666666667],[-41.0,-68.0],[-41.0,-66.0],[-41.46153846153846,-64.46153846153847],[-41.4,-63.0],[-41.0,-62.0],[-41.0,-61.0],[-40.0,-59.5],[-39.0,-57.5],[-38.6,-56.0],[-37.33333333333333,-54.0],[-36.647058823529406,-53.35294117647058],[-36.285714285714285,-52.71428571428571],[-35.0,-52.5],[-34.166666666666664,-51.83333333333333],[-32.83783783783784,-51.16216216216216],[-32.25,-51.0],[-31.578947368421048,-50.421052631578945],[-30.875,-50.125],[-29.8,-50.0],[-29.444444444444443,-49.55555555555556],[-28.333333333333332,-49.0],[-28.0,-48.0],[-27.0,-47.0],[-27.555555555555554,-46.55555555555555],[-28.444444444444443,-45.44444444444444],[-28.77777777777778,-44.77777777777777],[-28.77777777777778,-44.22222222222222],[-29.0,-43.66666666666667],[-29.400000000000002,-43.400000000000006],[-30.0,-42.0],[-31.0,-41.0],[-31.0,-40.0],[-31.6,-39.6],[-32.0,-39.0],[-32.0,-38.0],[-33.0,-37.33333333333333],[-34.0,-37.5],[-34.333333333333336,-38.0],[-34.81818181818182,-39.18181818181818],[-35.42857142857143,-39.57142857142858],[-35.69230769230769,-40.30769230769231],[-37.0,-41.5]],[[84.0,-86.3],[85.0,-86.5],[87.0,-86.5],[88.27272727272727,-86.27272727272727],[88.75,-86.0],[88.71428571428571,-85.28571428571428],[88.66666666666666,-85.0],[88.0,-84.6],[86.0,-84.66666666666667],[85.0,-85.0],[84.25,-84.75],[82.0,-84.57142857142857],[81.4,-85.0],[81.4,-85.4],[81.0,-86.0],[84.0,-86.3]]],[[[24.0,-9.5],[22.75,-9.0],[22.6,-8.0],[23.363636363636363,-7.363636363636364],[24.0,-7.166666666666667],[24.555555555555554,-7.444444444444444],[25.11111111111111,-8.0],[24.833333333333336,-9.0],[24.0,-9.5]]],[[[58.31818181818181,13.68181818181818],[57.63636363636363,13.0],[56.388888888888886,12.611111111111112],[55.5,12.0],[54.82089552238806,11.82089552238806],[53.7,11.7],[52.80952380952381,11.80952380952381],[52.599999999999994,12.0],[52.69230769230769,12.307692307692308],[53.51724137931034,13.482758620689657],[54.6,14.0],[54.76470588235294,14.235294117647058],[55.38095238095238,14.619047619047619],[57.33333333333334,15.000000000000002],[58.0,15.666666666666668],[59.0,16.0],[60.0,16.0],[60.0,15.0],[59.53846153846154,14.461538461538462],[59.4,14.0],[58.31818181818181,13.68181818181818]]],[[[76.2,25.8],[76.28571428571428,25.285714285714285],[76.0,24.75],[75.52000000000001,24.48],[75.25,24.0],[74.81818181818181,23.81818181818182],[74.11111111111111,23.88888888888889],[74.0,23.666666666666668],[73.5,24.0],[73.33333333333334,25.0],[74.0,26.0],[75.0,26.66666666666667],[75.60000000000001,26.6],[76.33333333333334,26.333333333333336],[76.5,26.0],[76.2,25.8]]],[[[88.5,37.0],[88.0,36.833333333333336],[87.5,37.0],[87.4,37.4],[87.0,38.0],[88.0,38.5],[90.33333333333334,38.333333333333336],[91.0,38.0],[88.71428571428571,37.285714285714285],[88.5,37.0]]],[[[54.6,66.60000000000001],[56.0,66.0],[56.400000000000006,65.4],[56.5,65.0],[56.8,64.8],[57.6,64.6],[58.0,64.0],[59.0,63.0],[59.0,62.0],[60.0,62.0],[61.0,61.0],[63.0,60.333333333333336],[64.0,60.25],[66.0,59.0],[67.0,58.0],[68.16666666666666,57.16666666666667],[68.83333333333333,56.0],[69.38461538461539,55.38461538461538],[70.0,54.0],[71.62962962962962,51.629629629629626],[72.2,50.0],[72.5625,48.0],[72.23529411764706,45.0],[71.04878048780488,41.951219512195124],[70.6470588235294,40.35294117647059],[70.25,40.0],[72.0,39.25],[73.06451612903226,39.064516129032256],[73.15384615384616,38.84615384615385],[73.0,38.0],[73.4,37.4],[74.0,37.0],[73.60000000000001,36.400000000000006],[73.0,36.0],[72.0,35.0],[72.0,34.0],[71.4,33.6],[71.0,33.5],[70.66666666666667,33.0],[71.0,32.0],[71.60000000000001,32.4],[72.0,32.5],[72.33333333333334,32.333333333333336],[73.0,31.0],[72.44444444444444,30.555555555555554],[71.66666666666667,30.333333333333336],[71.33333333333333,30.0],[71.0,29.0],[70.0,27.5],[69.0,27.0],[68.0,26.857142857142858],[67.25,26.0],[66.46666666666667,25.533333333333335],[66.0,25.0],[64.64285714285714,24.0],[64.57142857142857,23.0],[65.0,22.727272727272727],[65.66666666666667,22.0],[65.34782608695652,21.652173913043477],[64.71428571428571,21.285714285714285],[63.5,21.0],[62.61538461538461,20.384615384615383],[62.0,20.153846153846153],[60.5,20.0],[60.0,19.75],[59.625,19.375],[58.92307692307692,19.076923076923077],[58.0,19.0],[57.44444444444444,18.555555555555554],[56.55555555555556,17.444444444444443],[55.42857142857143,16.571428571428573],[55.0,16.5],[54.0,15.666666666666668],[52.733333333333334,14.266666666666666],[51.955555555555556,14.044444444444444],[51.53846153846154,13.461538461538462],[51.0,13.272727272727273],[50.42857142857143,13.42857142857143],[50.0,14.0],[49.75,14.75],[50.0,16.0],[50.0,19.0],[49.66666666666667,19.666666666666668],[49.25,22.0],[47.333333333333336,24.0],[46.46153846153847,24.461538461538463],[44.8,24.8],[42.75,25.75],[40.285714285714285,28.285714285714285],[39.666666666666664,30.0],[38.63636363636363,30.636363636363637],[38.125,31.125],[38.0,31.5],[36.83333333333333,31.833333333333336],[36.5,33.0],[36.0,33.333333333333336],[35.285714285714285,34.285714285714285],[34.25,35.25],[32.0,36.0],[31.0,36.0],[30.0,35.0],[29.0,35.0],[29.0,36.0],[28.5,36.5],[28.5,37.0],[28.25,38.0],[29.0,38.75],[30.0,39.0],[30.571428571428573,39.42857142857143],[32.0,40.0],[33.0,40.0],[34.0,40.25],[35.0,40.75],[36.25,40.75],[37.0,41.0],[38.0,40.5],[38.5,40.5],[39.0,40.0],[40.0,40.0],[40.0,41.0],[39.0,41.0],[38.0,42.0],[36.0,42.0],[36.0,43.0],[35.400000000000006,43.400000000000006],[35.0,43.333333333333336],[34.5,44.0],[34.44444444444444,44.444444444444436],[33.5,45.5],[31.833333333333336,45.83333333333333],[31.714285714285715,46.28571428571428],[32.0,47.0],[31.400000000000002,47.4],[31.0,47.5],[30.5,48.5],[29.0,50.0],[29.0,51.0],[28.400000000000002,51.400000000000006],[27.285714285714285,53.28571428571428],[26.666666666666668,53.66666666666667],[26.400000000000002,54.400000000000006],[25.5,56.0],[25.66666666666667,56.333333333333336],[26.333333333333336,56.66666666666667],[27.0,58.0],[29.0,58.0],[29.6,58.400000000000006],[30.0,58.5],[30.400000000000002,58.400000000000006],[31.0,58.0],[31.400000000000002,58.60000000000001],[33.285714285714285,59.71428571428571],[34.0,61.0],[34.0,62.0],[33.666666666666664,63.0],[33.5,64.0],[34.0,64.5],[35.0,65.0],[36.0,64.66666666666667],[37.0,65.0],[38.0,65.0],[39.0,65.33333333333333],[39.333333333333336,65.33333333333334],[40.285714285714285,65.28571428571428],[41.0,65.0],[42.0,65.0],[43.75,66.25],[46.00000000000001,66.8],[46.76470588235294,67.23529411764706],[49.0,67.33333333333333],[52.0,66.71428571428572],[52.77777777777778,66.77777777777777],[54.6,66.60000000000001]]],[[[24.846153846153847,49.84615384615385],[26.0,49.5],[26.333333333333336,49.33333333333334],[26.5,49.0],[27.454545454545453,48.45454545454545],[28.0,47.666666666666664],[28.421052631578945,47.421052631578945],[28.851851851851855,46.851851851851855],[29.0,46.33333333333333],[29.666666666666668,45.66666666666667],[30.0,44.75],[30.400000000000002,44.400000000000006],[30.789473684210527,43.78947368421052],[31.333333333333336,42.333333333333336],[31.4,42.0],[31.266666666666666,41.733333333333334],[30.0,41.0],[29.0,41.0],[24.5,42.5],[24.0,43.0],[22.0,43.0],[20.77777777777778,42.77777777777778],[20.0,43.0],[19.400000000000002,43.400000000000006],[18.6,43.60000000000001],[18.0,44.0],[17.6,44.6],[17.0,45.0],[17.4,45.6],[17.6,46.400000000000006],[18.714285714285715,48.28571428571428],[19.75,49.25],[20.444444444444443,49.55555555555556],[21.0,50.0],[23.0,50.5],[24.2,50.2],[24.846153846153847,49.84615384615385]]],[[[96.0,-41.5],[95.60000000000001,-41.400000000000006],[95.0,-41.0],[95.75,-40.75],[98.0,-40.66666666666667],[99.0,-41.0],[96.33333333333334,-41.333333333333336],[96.0,-41.5]]],[[[108.5,-18.0],[108.4,-18.400000000000002],[108.0,-19.0],[107.5,-18.0],[108.0,-17.666666666666668],[108.5,-18.0]]],[[[94.0,-13.666666666666668],[93.33333333333334,-13.0],[93.33333333333334,-12.0],[92.83333333333334,-11.166666666666668],[92.81818181818181,-10.818181818181818],[93.0,-10.0],[94.0,-9.666666666666666],[94.5,-10.0],[94.71428571428572,-11.285714285714285],[95.0,-12.0],[95.0,-13.0],[94.0,-13.666666666666668]]],[[[106.66666666666667,-8.0],[106.66666666666669,-9.666666666666668],[106.30769230769232,-11.307692307692308],[106.0,-11.666666666666666],[105.0,-12.0],[104.0,-12.0],[103.25,-11.0],[103.14285714285715,-10.000000000000002],[102.66666666666667,-9.333333333333334],[101.4,-6.6000000000000005],[100.77777777777777,-4.222222222222222],[100.66666666666666,-3.0],[101.55555555555554,0.4444444444444444],[102.00000000000001,0.6666666666666667],[102.52941176470588,1.4705882352941175],[103.5,2.0],[104.0,2.5],[105.0,2.0],[105.38095238095238,1.380952380952381],[105.80000000000001,0.0],[106.0,-1.5],[106.36363636363637,-6.0],[106.66666666666667,-8.0]]],[[[91.0,26.0],[91.4,25.400000000000002],[92.53333333333333,24.533333333333335],[93.16216216216216,24.162162162162165],[94.0,24.0],[96.02150537634408,23.021505376344088],[97.26315789473685,22.263157894736842],[97.71111111111111,21.71111111111111],[98.78461538461539,20.784615384615385],[103.6470588235294,17.64705882352941],[105.4,17.0],[106.26865671641791,16.268656716417908],[107.07692307692308,16.0],[107.28571428571428,15.285714285714285],[107.75,15.0],[108.00000000000001,14.666666666666668],[108.44444444444444,14.444444444444443],[110.0,14.25],[111.0,14.428571428571429],[112.0,14.333333333333332],[112.25,14.25],[112.33333333333333,14.0],[111.64705882352942,13.352941176470589],[111.5,13.0],[111.0,12.571428571428571],[110.57894736842105,12.421052631578947],[110.0,11.8],[108.33333333333334,11.666666666666668],[108.0,11.5],[107.85714285714285,11.142857142857142],[107.0,11.0],[104.15384615384616,11.153846153846153],[104.0,11.333333333333334],[103.5,11.5],[102.5,12.5],[102.5,13.0],[102.10526315789474,13.105263157894736],[102.0,13.5],[101.5,13.5],[101.0,14.0],[99.0,14.0],[99.0,13.0],[99.4,12.4],[99.5,11.0],[99.33333333333334,10.666666666666668],[99.0,10.5],[98.0,10.5],[97.5,11.5],[96.60000000000001,12.6],[96.0,13.0],[95.66666666666667,13.666666666666668],[94.4,14.400000000000002],[93.0,14.5],[92.0,14.333333333333334],[90.0,15.0],[89.0,15.666666666666668],[87.0,15.3],[86.51724137931035,15.517241379310345],[86.125,16.0],[85.33333333333334,16.333333333333336],[85.0,17.5],[84.25,18.25],[84.0,19.0],[84.13333333333333,20.133333333333333],[84.0,20.5],[83.0,21.0],[83.0,22.0],[82.5,23.0],[82.5,24.0],[81.66666666666667,25.66666666666667],[81.66666666666667,26.0],[81.2,27.2],[81.0,28.0],[81.16666666666667,29.0],[81.60000000000001,29.400000000000002],[83.0,29.58333333333333],[84.0,29.444444444444443],[86.0,28.857142857142858],[89.64285714285714,26.999999999999996],[91.0,26.0]],[[88.11764705882352,19.88235294117647],[88.0,20.09090909090909],[87.66666666666667,20.0],[88.0,19.0],[88.11764705882352,19.88235294117647]]],[[[118.0,40.400000000000006],[121.0,40.0],[122.25641025641025,39.256410256410255],[123.16666666666666,39.0],[123.33333333333334,38.0],[122.71428571428571,37.285714285714285],[122.0,37.0],[121.75,36.25],[121.0,36.0],[120.0,35.0],[119.0,34.333333333333336],[118.0,34.0],[117.18181818181819,34.18181818181818],[116.0,34.0],[115.0,33.5],[114.0,33.5],[113.0,33.75],[112.0,33.5],[111.0,33.75],[110.71428571428571,33.714285714285715],[110.0,34.0],[109.60000000000001,33.4],[108.5,33.0],[108.0,32.5],[107.0,32.0],[105.71428571428571,32.71428571428571],[105.0,32.875],[101.0,32.93333333333334],[97.8,33.8],[96.5,34.0],[96.16666666666667,34.166666666666664],[95.0,35.5],[93.4,36.400000000000006],[93.0,37.0],[93.5,38.5],[94.16666666666667,38.833333333333336],[97.0,39.285714285714285],[99.9591836734694,40.04081632653062],[103.8235294117647,40.17647058823529],[105.0,40.41666666666667],[106.0,40.400000000000006],[107.0,40.55555555555556],[108.10526315789474,40.89473684210527],[111.0,41.03703703703704],[114.0,41.0],[115.07692307692308,40.07692307692308],[116.0,39.714285714285715],[118.0,40.400000000000006]]]]}}]}