{"type":"FeatureCollection","features":[{"type":"Feature","properties":{"ageMa":270},"geometry":{"type":"MultiPolygon","coordinates":[[[[45.0,-22.5],[44.333333333333336,-21.666666666666668],[43.7,-21.3],[43.0,-20.0],[43.77777777777778,-19.77777777777778],[44.75,-20.0],[46.0,-21.0],[45.30769230769231,-22.307692307692307],[45.0,-22.5]]],[[[4.0,49.25],[5.0,49.0],[4.7142857142857135,48.28571428571428],[4.75,47.0],[3.8823529411764706,46.11764705882353],[3.75,45.25],[3.5,45.0],[3.3333333333333335,44.0],[3.0,43.66666666666667],[2.2222222222222223,44.22222222222222],[1.8461538461538463,44.15384615384615],[0.0,43.0],[-0.5,42.5],[-2.0,42.0],[-2.666666666666667,40.66666666666667],[-3.3333333333333335,40.333333333333336],[-3.666666666666667,39.66666666666667],[-4.285714285714286,39.28571428571428],[-4.5,39.0],[-4.333333333333334,38.66666666666667],[-3.7142857142857144,38.285714285714285],[-3.4000000000000004,37.6],[-3.0,37.33333333333333],[-2.0,37.33333333333333],[-0.6666666666666667,37.66666666666667],[0.6000000000000001,38.4],[1.0,38.5],[2.0,38.0],[3.0,38.75],[4.0,38.800000000000004],[4.8,39.2],[5.6000000000000005,39.400000000000006],[8.0,39.77777777777778],[10.0,40.0],[11.000000000000002,39.833333333333336],[13.0,39.0],[14.0,39.5],[15.0,39.2],[16.0,39.66666666666667],[16.363636363636363,39.36363636363636],[16.692307692307693,38.69230769230769],[17.30769230769231,38.30769230769231],[17.5,38.0],[17.333333333333332,37.0],[17.8,36.0],[17.666666666666668,34.0],[17.75,33.0],[18.5,31.5],[19.0,31.0],[20.0,32.0],[20.266666666666666,32.733333333333334],[21.0,33.5],[21.5,34.5],[22.555555555555557,35.44444444444444],[24.0,36.0],[25.692307692307693,36.30769230769231],[26.285714285714285,36.285714285714285],[27.0,36.0],[28.0,36.0],[29.0,36.25],[29.2,36.2],[30.461538461538463,35.46153846153847],[31.0,35.0],[32.0,33.66666666666667],[33.16666666666667,33.16666666666667],[34.66666666666667,31.0],[35.55555555555556,30.555555555555554],[36.0,30.0],[36.66666666666667,28.66666666666667],[36.81818181818182,27.818181818181817],[37.5,27.0],[37.33333333333333,26.0],[38.0,25.0],[39.0,24.5],[40.0,24.5],[41.0,25.0],[40.5,26.0],[40.75,26.25],[42.4,26.6],[43.0,27.0],[44.0,27.0],[44.0,26.0],[43.60000000000001,25.400000000000002],[43.5,25.0],[43.66666666666667,24.666666666666668],[43.800000000000004,23.000000000000004],[43.75,21.25],[43.60000000000001,20.6],[44.0,20.0],[45.0,20.0],[46.0,20.333333333333332],[47.22222222222222,20.22222222222222],[47.5,20.0],[47.5,19.0],[48.5,18.5],[48.8,17.799999999999997],[49.285714285714285,17.285714285714285],[49.33333333333333,16.0],[49.0,15.0],[48.63636363636364,14.363636363636363],[48.0,14.0],[47.25,13.0],[45.212765957446805,12.787234042553191],[41.361111111111114,11.63888888888889],[41.08333333333333,11.0],[41.0,10.0],[40.142857142857146,10.142857142857142],[38.92,10.08],[35.0,10.642857142857142],[33.40816326530612,10.591836734693878],[32.614035087719294,10.385964912280702],[32.0,10.0],[30.3,9.7],[28.625,9.0],[27.354430379746837,8.645569620253164],[25.42857142857143,7.571428571428571],[24.52941176470588,6.470588235294117],[24.304347826086957,6.0],[23.64705882352941,3.352941176470588],[23.0,2.0],[22.0,1.5],[21.5,1.0],[21.285714285714285,-0.2857142857142857],[21.0,-1.0],[20.0,-1.0],[20.0,-2.0],[21.0,-2.0],[21.0,-3.0],[21.25,-4.0],[19.857142857142858,-5.857142857142857],[19.333333333333336,-7.0],[18.64705882352941,-7.647058823529411],[18.5,-8.0],[18.5,-9.0],[18.666666666666668,-10.0],[19.0,-11.0],[20.0,-12.0],[22.142857142857142,-12.857142857142858],[23.400000000000002,-14.600000000000001],[23.71428571428571,-15.285714285714285],[24.285714285714285,-15.714285714285712],[24.57142857142857,-16.42857142857143],[25.0,-17.0],[25.6,-17.4],[27.0,-17.5],[28.0,-17.333333333333336],[29.400000000000002,-17.6],[30.0,-18.0],[30.846153846153847,-19.153846153846153],[32.55555555555555,-20.444444444444443],[34.0,-21.0],[35.0,-21.0],[35.53846153846154,-20.53846153846154],[36.0,-20.4],[38.0,-20.333333333333336],[39.55555555555555,-21.444444444444443],[40.0,-22.0],[40.599999999999994,-25.0],[40.5,-26.0],[40.599999999999994,-27.0],[40.6,-31.400000000000002],[40.71428571428571,-32.285714285714285],[41.0,-33.0],[41.0,-34.0],[41.333333333333336,-35.0],[41.6,-35.400000000000006],[42.2,-35.8],[42.6,-36.400000000000006],[43.0,-36.666666666666664],[44.0,-37.0],[44.85714285714286,-38.14285714285714],[46.0,-38.5],[46.733333333333334,-37.733333333333334],[48.00000000000001,-37.2],[48.5,-36.5],[49.21621621621622,-36.21621621621622],[50.333333333333336,-36.0],[50.61904761904762,-35.61904761904762],[51.5,-35.0],[51.733333333333334,-33.733333333333334],[52.0,-33.333333333333336],[52.71428571428571,-32.71428571428571],[53.23529411764706,-32.76470588235294],[53.529411764705884,-33.470588235294116],[54.0,-33.800000000000004],[54.89473684210526,-34.10526315789473],[55.266666666666666,-34.733333333333334],[55.33333333333333,-36.0],[54.2,-38.0],[53.300000000000004,-38.3],[52.90909090909091,-38.90909090909091],[52.114285714285714,-39.114285714285714],[51.73913043478261,-39.73913043478261],[51.08163265306123,-40.08163265306122],[51.0,-40.285714285714285],[50.16666666666667,-41.0],[49.400000000000006,-41.400000000000006],[49.0,-42.0],[48.0,-42.0],[46.333333333333336,-42.333333333333336],[46.0,-42.5],[45.75,-43.0],[44.77777777777777,-43.77777777777778],[44.421052631578945,-44.421052631578945],[43.375,-45.375],[42.76470588235294,-45.76470588235294],[42.375,-46.375],[41.66666666666667,-46.66666666666667],[41.30769230769231,-47.30769230769231],[41.0,-47.5],[39.0,-47.400000000000006],[37.8,-47.8],[37.44444444444444,-48.44444444444444],[37.0,-48.66666666666667],[36.0,-49.0],[35.0,-49.0],[35.0,-50.0],[36.0,-50.0],[36.5,-49.5],[38.0,-49.5],[38.4,-49.6],[39.0,-50.0],[40.0,-49.0],[42.0,-49.0],[42.75,-48.75],[43.2,-48.8],[44.0,-49.2],[45.0,-48.75],[46.0,-48.0],[46.333333333333336,-47.333333333333336],[47.30769230769231,-46.30769230769231],[47.66666666666667,-45.66666666666667],[48.0,-45.5],[50.0,-45.28571428571429],[51.0,-45.42857142857142],[52.0,-45.333333333333336],[52.53846153846155,-45.46153846153846],[53.28571428571428,-45.71428571428571],[53.75,-46.25],[55.16666666666667,-46.833333333333336],[55.60000000000001,-47.4],[55.800000000000004,-48.00000000000001],[55.44444444444444,-49.44444444444444],[55.0,-50.0],[55.25,-50.75],[55.199999999999996,-51.0],[55.66666666666667,-52.0],[55.75,-53.0],[56.0,-54.0],[56.77777777777778,-54.22222222222222],[57.84615384615385,-56.15384615384615],[58.42857142857143,-56.57142857142857],[58.84615384615385,-57.15384615384615],[60.0,-58.0],[60.66666666666667,-59.0],[62.222222222222214,-59.77777777777778],[62.8,-60.2],[65.0,-61.0],[66.0,-61.5],[67.28571428571428,-61.71428571428571],[68.0,-62.0],[73.0,-62.75],[73.66666666666667,-62.66666666666667],[74.0,-62.5],[74.6923076923077,-61.69230769230769],[76.60000000000001,-60.60000000000001],[77.5,-59.5],[78.15384615384616,-59.15384615384616],[81.0,-57.0],[82.00000000000001,-57.2],[83.3157894736842,-57.68421052631578],[84.18181818181819,-58.81818181818182],[84.66666666666667,-60.00000000000001],[85.0,-60.5],[85.5,-61.0],[86.42105263157895,-61.57894736842105],[87.0,-62.333333333333336],[88.0,-62.66666666666667],[88.4,-62.4],[88.66666666666666,-62.0],[87.8,-61.2],[87.0,-60.0],[86.0,-59.0],[85.75,-58.0],[86.0,-57.0],[86.5,-56.0],[87.0,-55.5],[88.22222222222223,-55.22222222222222],[88.71428571428571,-54.71428571428571],[90.0,-54.5],[90.86666666666667,-53.86666666666666],[93.0,-53.4],[94.0,-53.0],[95.60000000000001,-52.6],[96.0,-52.25],[97.0,-52.0],[98.0,-52.0],[98.60000000000001,-52.4],[100.0,-53.0],[100.5,-53.5],[100.66666666666667,-54.00000000000001],[101.28571428571428,-54.285714285714285],[101.71428571428572,-54.285714285714285],[102.5,-55.0],[105.0,-55.800000000000004],[106.0,-56.0],[106.57894736842104,-56.421052631578945],[108.15384615384616,-56.84615384615385],[108.76470588235293,-57.23529411764706],[110.36363636363636,-57.63636363636364],[110.89473684210526,-58.10526315789474],[112.0,-58.25],[115.125,-58.125],[115.5,-58.0],[115.60000000000001,-57.6],[116.0,-57.0],[115.60000000000001,-56.400000000000006],[115.5,-56.0],[114.75,-55.75],[114.25,-55.75],[114.0,-55.5],[113.60000000000001,-55.400000000000006],[113.0,-55.0],[112.0,-55.0],[111.4,-54.6],[111.0,-54.0],[109.0,-54.0],[108.0,-53.0],[107.4,-52.0],[107.0,-51.0],[107.22222222222223,-50.22222222222222],[107.77777777777777,-49.77777777777778],[109.28571428571428,-49.285714285714285],[110.0,-48.666666666666664],[110.5,-48.5],[111.0,-48.0],[111.66666666666667,-48.333333333333336],[113.0,-48.5],[115.0,-49.5],[118.0,-49.5],[118.2,-49.2],[118.16666666666666,-48.83333333333333],[118.0,-48.5],[117.71428571428571,-48.28571428571428],[117.66666666666666,-48.0],[117.66666666666667,-47.66666666666667],[118.0,-47.0],[118.57142857142858,-46.57142857142858],[119.0,-46.4],[119.4,-46.400000000000006],[120.0,-46.0],[120.4,-46.6],[121.18181818181819,-46.81818181818182],[123.0,-47.75],[124.0,-47.75],[126.00000000000001,-48.2],[128.0,-48.0],[128.55555555555554,-46.55555555555555],[129.0,-46.0],[129.0,-45.0],[129.73333333333332,-43.733333333333334],[130.0,-43.5],[131.0,-43.333333333333336],[132.0,-43.0],[132.53846153846155,-42.53846153846154],[133.0,-42.4],[134.0,-42.666666666666664],[136.0,-42.6],[136.28571428571428,-42.71428571428571],[136.77777777777777,-43.22222222222222],[138.15384615384616,-43.84615384615385],[138.73333333333335,-44.266666666666666],[139.0,-44.66666666666667],[139.8,-45.2],[140.0,-46.0],[140.8,-47.2],[141.4,-47.6],[141.44444444444443,-48.44444444444444],[141.0,-49.0],[142.0,-49.5],[142.75,-50.25],[143.0,-51.0],[145.0,-52.333333333333336],[146.0,-53.333333333333336],[148.0,-54.0],[148.63636363636363,-54.36363636363637],[149.4,-54.6],[150.0,-55.0],[151.44444444444443,-55.55555555555555],[152.1818181818182,-55.81818181818181],[152.8181818181818,-55.81818181818181],[153.33333333333334,-56.0],[153.66666666666669,-56.333333333333336],[154.0,-56.400000000000006],[154.3157894736842,-56.68421052631579],[156.75,-58.0],[158.07692307692307,-58.92307692307692],[158.76470588235293,-59.23529411764706],[161.0,-61.25],[161.66666666666669,-61.33333333333334],[162.0,-61.5],[162.25,-62.0],[163.0,-64.0],[162.875,-66.0],[163.25,-67.0],[163.5,-69.0],[163.33333333333331,-70.0],[163.66666666666669,-70.33333333333334],[163.85714285714286,-71.0],[163.71428571428572,-72.0],[164.0,-72.66666666666667],[164.4,-72.6],[164.5,-73.0],[164.0,-73.08333333333333],[163.05263157894737,-74.05263157894737],[160.85,-74.85000000000001],[160.36363636363637,-75.36363636363637],[160.125,-76.0],[160.4848484848485,-77.51515151515152],[160.8095238095238,-78.19047619047619],[162.2,-79.0],[162.6190476190476,-79.38095238095238],[165.0,-80.0],[165.26086956521738,-80.73913043478261],[166.0,-81.0],[157.3125,-81.3125],[156.47619047619045,-81.47619047619048],[155.78947368421052,-81.78947368421052],[155.6,-82.0],[157.0,-82.52941176470588],[159.0,-82.7],[159.6,-83.0],[159.77142857142857,-83.22857142857143],[161.0,-83.5909090909091],[172.0,-83.8409090909091],[174.07500000000002,-83.925],[175.0,-84.1111111111111],[176.90588235294118,-83.90588235294118],[179.0,-83.88636363636364],[179.33333333333334,-85.66666666666667],[180.0,-85.97297297297295],[179.88888888888889,-87.0],[180.0,-87.2],[180.0,-90.0],[-180.0,-90.0],[-180.0,-87.20000000000002],[-179.8181818181818,-86.81818181818181],[-180.0,-86.5],[-180.0,-85.97297297297297],[-179.04878048780486,-85.95121951219512],[-179.0,-85.75],[-177.83333333333331,-85.83333333333333],[-177.15384615384616,-86.15384615384616],[-176.0,-86.42857142857142],[-174.0,-86.625],[-173.0,-86.5],[-169.0,-86.66666666666667],[-167.0,-87.25],[-163.0,-87.42857142857142],[-159.0,-87.20000000000002],[-158.0,-87.4],[-156.0,-87.33333333333334],[-155.0,-87.42857142857142],[-154.0,-87.28571428571429],[-152.0,-87.42857142857142],[-150.0,-87.375],[-146.875,-87.125],[-146.0,-86.80000000000001],[-140.0,-86.80000000000001],[-139.14285714285714,-87.14285714285714],[-138.26666666666665,-87.26666666666667],[-135.0,-87.44444444444444],[-133.0,-87.0],[-132.4,-86.60000000000001],[-132.0,-86.5],[-130.0,-86.83333333333333],[-129.0,-86.66666666666667],[-127.0,-86.71428571428572],[-126.0,-86.57142857142857],[-125.0,-86.80000000000001],[-124.0,-86.66666666666667],[-122.30769230769232,-86.6923076923077],[-121.0,-86.4],[-120.0,-86.5],[-119.60000000000001,-86.4],[-119.0,-86.0],[-118.0,-85.8],[-115.0,-86.0],[-114.00000000000001,-86.33333333333334],[-112.0,-86.75],[-111.0,-86.80000000000001],[-105.66666666666667,-86.33333333333334],[-104.16666666666666,-85.83333333333333],[-103.30769230769232,-85.69230769230771],[-102.0,-85.8],[-98.0,-85.5],[-97.0,-84.8],[-96.16666666666667,-85.16666666666667],[-94.0,-85.0],[-93.0,-84.8],[-92.0,-85.0],[-91.0,-85.0],[-90.2,-84.80000000000001],[-88.0,-84.66666666666667],[-87.0,-84.75],[-85.0,-84.42857142857142],[-82.66666666666667,-84.33333333333334],[-82.0,-84.0],[-80.28571428571428,-83.71428571428571],[-77.0,-83.66666666666667],[-75.76470588235294,-83.23529411764707],[-75.0,-82.8],[-73.75,-82.75],[-73.0,-83.0],[-70.0,-82.0],[-69.0,-82.0],[-68.0,-81.5],[-67.66666666666667,-81.0],[-67.26666666666667,-80.73333333333332],[-64.55555555555554,-80.44444444444444],[-64.0,-80.0],[-63.0,-79.75],[-62.5,-80.0],[-62.333333333333336,-80.33333333333334],[-62.0,-80.5],[-61.71428571428571,-80.28571428571428],[-61.00000000000001,-80.2],[-59.470588235294116,-79.52941176470588],[-56.0,-78.8],[-55.0,-78.42857142857142],[-54.0,-78.5],[-53.0,-78.16666666666667],[-52.0,-78.0],[-51.0,-77.4],[-50.0,-77.2],[-48.0,-77.33333333333334],[-47.0,-77.0],[-44.444444444444436,-77.44444444444444],[-44.0,-78.0],[-43.095238095238095,-78.0952380952381],[-42.75,-78.25],[-42.0,-78.33333333333334],[-41.0,-78.0],[-39.25,-79.25],[-36.0,-79.4],[-34.0,-80.14285714285715],[-29.0,-80.66666666666667],[-28.5,-81.0],[-27.88235294117647,-81.11764705882354],[-27.0,-81.0],[-25.833333333333336,-81.16666666666667],[-25.0,-81.0],[-24.5,-81.5],[-23.875,-81.875],[-22.0,-82.0],[-20.400000000000002,-82.4],[-18.0,-82.28571428571428],[-14.0,-82.33333333333334],[-13.0,-82.66666666666666],[-12.222222222222221,-83.22222222222223],[-12.0,-83.25],[-11.0,-83.0],[-9.0,-83.0],[-7.75,-83.25],[-7.0,-83.0],[-3.8823529411764706,-82.88235294117648],[-3.0,-83.0],[-2.0,-83.5],[-1.0,-83.5],[0.0,-84.0],[3.0,-84.0],[3.7142857142857144,-83.71428571428571],[5.0,-83.5],[5.333333333333334,-83.33333333333334],[5.5,-83.0],[6.800000000000001,-82.8],[9.090909090909092,-82.9090909090909],[9.333333333333334,-83.0],[9.600000000000001,-83.4],[10.0,-83.66666666666667],[11.0,-83.4],[14.0,-83.5],[15.0,-83.16666666666667],[17.0,-83.33333333333334],[18.0,-83.16666666666667],[20.0,-83.33333333333334],[23.0,-83.33333333333334],[24.0,-83.5],[25.0,-83.25],[26.0,-83.5],[27.0,-83.5],[28.0,-83.25],[29.0,-83.5],[30.0,-83.5],[31.0,-83.33333333333334],[31.363636363636363,-83.63636363636363],[32.0,-83.75],[33.44444444444444,-83.44444444444443],[36.0,-83.42857142857142],[38.0,-83.83333333333333],[39.0,-83.625],[44.0,-83.75],[45.0,-84.0],[46.0,-83.85714285714286],[47.00000000000001,-84.14285714285714],[52.0,-83.8],[54.0,-84.0],[56.0,-84.0],[57.0,-84.25],[58.60000000000001,-83.6],[59.166666666666664,-83.16666666666666],[59.333333333333336,-83.0],[59.5,-82.0],[59.0,-81.33333333333334],[57.28571428571428,-80.71428571428572],[56.71428571428571,-80.28571428571428],[56.0,-80.0],[55.0,-80.0],[54.6,-79.4],[54.0,-79.0],[53.0,-79.0],[52.33333333333334,-78.66666666666667],[49.66666666666667,-78.66666666666667],[49.0,-79.0],[48.5,-78.5],[48.0,-78.33333333333334],[47.0,-78.5],[46.0,-78.5],[45.0,-78.33333333333334],[44.0,-78.33333333333334],[43.0,-78.0],[41.0,-78.0],[40.0,-78.25],[38.4,-78.4],[35.25,-78.25],[34.0,-78.25],[33.0,-78.4],[32.0,-78.0],[31.0,-78.0],[28.0,-78.4],[27.0,-78.2],[24.0,-78.25],[23.0,-77.75],[22.0,-78.0],[21.4,-77.6],[21.0,-77.5],[20.0,-77.66666666666667],[19.0,-77.5],[18.0,-77.66666666666667],[16.0,-77.66666666666667],[15.0,-77.5],[12.0,-77.5],[11.0,-77.33333333333333],[10.0,-77.33333333333333],[9.0,-77.0],[7.0,-77.0],[6.0,-76.66666666666667],[4.285714285714286,-77.28571428571428],[2.0,-77.5],[1.6,-77.4],[1.0,-77.0],[0.0,-76.0],[-2.0,-76.0],[-3.0,-75.5],[-5.0,-75.57142857142856],[-6.363636363636363,-75.36363636363637],[-7.2,-75.2],[-9.0,-74.25],[-10.181818181818182,-74.18181818181819],[-11.0,-73.75],[-12.307692307692308,-73.30769230769232],[-13.0,-72.66666666666667],[-15.0,-72.0],[-15.333333333333334,-71.33333333333334],[-17.444444444444443,-70.44444444444444],[-17.75,-69.75],[-18.5,-69.0],[-18.6,-68.60000000000001],[-18.666666666666668,-68.0],[-18.5,-67.5],[-18.0,-67.0],[-18.666666666666668,-66.66666666666667],[-20.0,-66.5],[-20.400000000000002,-66.60000000000001],[-21.0,-67.0],[-22.0,-67.0],[-22.6,-65.60000000000001],[-23.0,-65.5],[-23.22222222222222,-65.22222222222223],[-23.400000000000002,-64.4],[-24.0,-64.0],[-24.0,-63.0],[-24.866666666666667,-61.86666666666666],[-25.25,-61.0],[-25.888888888888886,-59.888888888888886],[-26.352941176470587,-59.35294117647058],[-26.666666666666668,-58.66666666666667],[-26.875,-58.0],[-26.75,-56.75],[-27.2,-56.0],[-26.8,-54.0],[-27.666666666666668,-53.0],[-27.5,-52.0],[-27.6,-51.6],[-28.0,-51.5],[-28.5,-51.0],[-28.5,-50.5],[-28.0,-50.0],[-29.0,-50.0],[-30.0,-51.0],[-32.0,-52.33333333333333],[-33.0,-53.5],[-33.25,-54.0],[-33.42857142857143,-55.0],[-33.61904761904762,-55.38095238095238],[-34.16,-55.84],[-34.52380952380952,-56.47619047619047],[-35.1,-57.00000000000001],[-35.5,-59.0],[-35.333333333333336,-59.333333333333336],[-35.0,-61.0],[-35.3,-62.7],[-35.5,-63.0],[-35.84615384615385,-64.15384615384616],[-38.0,-65.66666666666667],[-39.0,-66.0],[-40.0,-65.33333333333333],[-41.0,-65.57142857142857],[-42.0,-66.0],[-42.0,-67.0],[-42.6,-67.4],[-43.0,-68.0],[-43.55555555555555,-68.44444444444444],[-44.0,-68.66666666666667],[-45.0,-68.66666666666667],[-45.75,-69.25],[-47.25,-69.75],[-48.36363636363636,-70.63636363636364],[-49.63636363636363,-71.36363636363636],[-50.71428571428571,-72.28571428571428],[-51.42857142857143,-72.57142857142857],[-52.0,-73.0],[-53.60000000000001,-73.4],[-54.00000000000001,-73.66666666666667],[-54.6,-74.4],[-54.86666666666667,-75.13333333333333],[-56.0,-75.33333333333334],[-57.0,-76.0],[-60.0,-76.0],[-61.0,-77.0],[-62.0,-76.0],[-62.66666666666667,-75.66666666666667],[-63.0,-75.0],[-63.5,-75.5],[-64.0,-75.66666666666667],[-65.0,-75.66666666666667],[-65.6923076923077,-76.30769230769232],[-66.0,-76.4],[-69.0,-76.6],[-69.46153846153847,-76.46153846153845],[-70.0,-76.0],[-71.33333333333334,-75.33333333333334],[-71.5,-75.0],[-71.66666666666667,-74.0],[-71.33333333333334,-73.66666666666667],[-70.66666666666667,-73.33333333333334],[-68.66666666666667,-71.33333333333334],[-68.42857142857143,-70.57142857142857],[-67.25,-68.75],[-66.5,-68.0],[-66.60000000000001,-67.6],[-67.0,-67.0],[-66.28571428571428,-66.71428571428571],[-66.0,-66.0],[-65.44444444444444,-65.55555555555556],[-65.0,-64.66666666666666],[-64.18181818181819,-63.81818181818181],[-63.0,-63.0],[-63.0,-62.0],[-62.0,-61.0],[-61.66666666666667,-60.00000000000001],[-60.69230769230769,-59.307692307692314],[-60.0,-59.0],[-60.333333333333336,-58.0],[-60.25,-57.0],[-60.0,-56.66666666666667],[-59.647058823529406,-55.35294117647058],[-59.25,-55.0],[-59.0,-54.5],[-58.5,-53.0],[-57.83783783783784,-52.16216216216216],[-57.66666666666667,-51.333333333333336],[-57.00000000000001,-50.333333333333336],[-56.53333333333333,-49.0],[-55.88235294117647,-48.11764705882353],[-55.33333333333333,-47.0],[-55.125,-46.875],[-54.8235294117647,-46.0],[-54.0,-45.0],[-53.67567567567568,-44.32432432432432],[-53.15686274509804,-43.84313725490196],[-53.0,-43.333333333333336],[-52.0,-41.8],[-51.42857142857143,-41.0],[-51.13333333333333,-40.86666666666667],[-51.0,-40.400000000000006],[-50.28571428571428,-39.71428571428571],[-50.36363636363636,-39.36363636363636],[-50.27272727272727,-39.0],[-50.0,-38.53846153846154],[-49.68888888888889,-38.31111111111111],[-49.68181818181819,-38.0],[-49.4054054054054,-37.5945945945946],[-49.27083333333333,-37.0],[-49.0,-36.58064516129032],[-48.650485436893206,-36.349514563106794],[-48.04166666666667,-34.95833333333333],[-47.83783783783784,-34.83783783783784],[-47.19512195121951,-34.80487804878049],[-47.0,-33.7],[-46.51724137931035,-33.48275862068966],[-46.22857142857143,-32.77142857142857],[-46.38333333333333,-31.0],[-46.04651162790698,-29.0],[-46.25352112676056,-26.25352112676056],[-46.99999999999999,-24.916666666666664],[-47.72500000000001,-22.725],[-48.06015037593985,-21.06015037593985],[-48.42424242424242,-20.0],[-49.0,-16.0],[-48.5,-14.0],[-48.0,-13.25],[-47.0,-13.25],[-46.55555555555555,-13.555555555555555],[-46.25,-14.0],[-45.513513513513516,-14.513513513513514],[-45.25,-15.0],[-45.21428571428571,-18.0],[-45.0,-21.0],[-44.66666666666667,-21.666666666666668],[-44.5,-23.0],[-44.19047619047619,-24.19047619047619],[-44.15384615384616,-25.0],[-43.515151515151516,-25.515151515151516],[-43.18181818181818,-26.181818181818183],[-43.1,-27.0],[-43.25,-29.25],[-43.0,-29.6],[-42.75,-29.25],[-41.0,-28.8],[-40.083333333333336,-29.083333333333332],[-39.5,-29.5],[-39.2,-30.0],[-39.375,-31.0],[-39.8,-32.0],[-39.71428571428571,-32.71428571428571],[-39.5,-33.0],[-39.6,-33.4],[-40.0,-34.0],[-40.0,-35.0],[-40.25,-35.75],[-41.0,-36.0],[-41.25,-37.25],[-41.0,-38.0],[-40.0,-37.0],[-39.6,-36.400000000000006],[-39.0,-36.0],[-38.6,-35.400000000000006],[-38.0,-35.0],[-37.66666666666667,-33.0],[-37.66666666666667,-30.000000000000004],[-38.285714285714285,-28.285714285714285],[-38.6,-26.0],[-38.46153846153847,-25.53846153846154],[-38.0,-25.0],[-37.71428571428571,-23.285714285714285],[-37.0,-23.0],[-36.5,-22.5],[-35.66666666666667,-22.333333333333336],[-35.0,-22.0],[-32.0,-22.0],[-31.0,-21.8],[-28.142857142857142,-22.142857142857142],[-27.0,-22.0],[-26.0,-22.285714285714285],[-24.8,-22.2],[-23.523809523809522,-22.523809523809522],[-23.0,-22.8],[-20.0,-22.57142857142857],[-17.0,-23.0],[-16.0,-23.666666666666668],[-15.0,-23.666666666666668],[-14.444444444444443,-24.444444444444443],[-13.833333333333332,-24.833333333333332],[-13.5,-26.0],[-13.4,-27.4],[-12.0,-28.0],[-10.0,-28.0],[-7.833333333333334,-28.833333333333336],[-6.733333333333333,-29.733333333333334],[-6.428571428571429,-30.999999999999996],[-6.0,-31.75],[-5.222222222222221,-32.22222222222222],[-4.0,-33.5],[-3.6000000000000005,-33.4],[-3.0,-33.0],[-2.6666666666666665,-32.0],[-2.4,-31.6],[-1.7142857142857142,-31.285714285714285],[-1.5,-31.0],[-1.6666666666666667,-30.000000000000004],[-1.5,-29.0],[-1.5,-28.0],[-1.6666666666666667,-27.000000000000004],[-3.0,-26.0],[-3.75,-25.75],[-4.6923076923076925,-24.692307692307693],[-5.428571428571429,-24.428571428571427],[-7.266666666666667,-23.266666666666666],[-8.0,-22.0],[-9.0,-21.666666666666668],[-10.0,-21.0],[-11.0,-21.0],[-12.0,-20.5],[-13.285714285714285,-20.285714285714285],[-15.000000000000002,-19.666666666666668],[-17.0,-19.666666666666668],[-18.0,-19.5],[-19.0,-19.5],[-20.0,-19.0],[-20.75,-19.25],[-22.0,-19.25],[-23.0,-19.0],[-24.0,-19.0],[-24.714285714285715,-18.714285714285715],[-27.0,-18.5],[-28.0,-18.0],[-28.77777777777778,-17.77777777777778],[-31.0,-17.75],[-32.0,-17.5],[-33.0,-17.666666666666668],[-33.5,-18.0],[-34.13333333333333,-18.133333333333333],[-36.0,-17.0],[-37.0,-17.25],[-38.833333333333336,-17.166666666666664],[-39.5,-17.0],[-39.66666666666667,-16.666666666666668],[-40.25,-16.25],[-41.0,-16.0],[-41.0,-15.0],[-40.5,-14.0],[-40.71428571428571,-13.714285714285714],[-41.333333333333336,-13.333333333333336],[-41.71428571428571,-12.714285714285714],[-42.0,-12.5],[-43.0,-12.5],[-43.33333333333333,-12.0],[-43.0,-11.0],[-43.0,-10.0],[-44.0,-10.0],[-44.0,-9.0],[-43.66666666666667,-8.333333333333334],[-43.66666666666667,-8.0],[-44.0,-7.0],[-44.0,-6.0],[-43.66666666666667,-5.0],[-42.647058823529406,-4.352941176470588],[-42.23529411764706,-3.764705882352941],[-40.6,-2.4],[-39.35294117647059,-1.6470588235294117],[-36.42857142857143,-0.5714285714285714],[-32.5,0.0],[-31.636363636363637,0.6363636363636364],[-30.5,1.0],[-30.0,1.3333333333333335],[-29.75,1.75],[-29.0,2.0],[-28.47058823529412,2.4705882352941178],[-27.333333333333336,3.0],[-26.8,3.8],[-26.25,5.25],[-26.200000000000003,6.199999999999999],[-25.8,8.0],[-25.555555555555554,8.555555555555555],[-25.0,9.0],[-24.75,10.0],[-24.461538461538463,10.461538461538463],[-23.833333333333336,10.833333333333334],[-22.666666666666668,12.666666666666668],[-22.0,13.0],[-23.0,13.5],[-24.0,13.5],[-24.333333333333336,13.333333333333336],[-26.0,13.200000000000001],[-26.1,13.1],[-26.53846153846154,11.53846153846154],[-27.0,11.0],[-27.333333333333336,9.0],[-27.333333333333336,8.0],[-28.0,7.0],[-28.148148148148145,6.148148148148148],[-28.5,5.5],[-30.19047619047619,4.190476190476191],[-31.0,4.0],[-33.11764705882353,3.1176470588235294],[-33.63636363636363,2.6363636363636367],[-34.0,2.5],[-35.0,2.571428571428571],[-36.0,2.4000000000000004],[-37.0,2.4000000000000004],[-38.21052631578947,2.7894736842105265],[-38.9,4.1],[-39.434782608695656,4.565217391304348],[-39.72727272727272,5.2727272727272725],[-40.0,7.333333333333334],[-40.57142857142857,8.428571428571429],[-40.68,9.32],[-40.66666666666667,13.0],[-40.36363636363637,13.363636363636363],[-39.0,13.846153846153847],[-37.769230769230774,13.76923076923077],[-37.0,14.25],[-36.0,14.0],[-35.400000000000006,13.600000000000001],[-35.0,13.0],[-33.0,12.714285714285715],[-32.0,12.833333333333334],[-31.666666666666668,13.0],[-31.400000000000002,13.4],[-30.5,14.0],[-29.714285714285715,14.714285714285712],[-29.0,16.0],[-29.400000000000002,16.6],[-29.5,17.0],[-29.25,19.0],[-29.4,20.0],[-28.75,21.0],[-28.666666666666668,22.0],[-28.0,23.0],[-28.285714285714285,23.71428571428571],[-28.25,25.0],[-28.5,26.0],[-28.5,28.0],[-28.25,29.0],[-28.285714285714285,29.285714285714285],[-28.0,30.0],[-26.714285714285715,31.714285714285715],[-26.42857142857143,32.42857142857143],[-25.5,34.0],[-25.333333333333336,35.333333333333336],[-24.77777777777778,36.77777777777778],[-24.77777777777778,37.22222222222222],[-25.22222222222222,37.77777777777777],[-25.25,38.0],[-25.22222222222222,38.22222222222222],[-24.5,39.0],[-24.666666666666668,40.0],[-24.363636363636367,40.36363636363637],[-23.636363636363633,40.63636363636364],[-22.666666666666668,42.0],[-22.0,42.4],[-20.0,42.75],[-19.0,42.66666666666667],[-18.5,43.0],[-17.11111111111111,43.11111111111111],[-15.53846153846154,43.53846153846154],[-15.0,44.0],[-14.0,44.0],[-13.0,44.25],[-12.0,44.75],[-11.333333333333334,44.66666666666667],[-11.0,44.5],[-10.2,45.2],[-9.470588235294118,45.470588235294116],[-9.0,45.57142857142857],[-8.0,45.5],[-7.266666666666667,46.266666666666666],[-5.363636363636363,47.36363636363636],[-4.363636363636363,48.36363636363636],[-2.2857142857142856,49.285714285714285],[0.0,50.0],[1.0,50.0],[3.0,49.33333333333333],[4.0,49.25]],[[32.0,-50.0],[30.0,-50.0],[29.0,-51.0],[30.285714285714285,-51.285714285714285],[31.0,-51.0],[32.0,-51.0],[32.0,-50.0]],[[5.2,34.8],[5.2,35.2],[5.0,35.333333333333336],[4.7142857142857135,35.285714285714285],[4.0,35.0],[4.7142857142857135,34.71428571428571],[5.2,34.8]],[[65.0,-83.75],[64.0,-83.83333333333333],[63.5,-84.0],[65.0,-84.5],[65.4,-84.4],[66.0,-84.0],[65.0,-83.75]],[[66.33333333333334,-75.0],[67.0,-75.5],[68.0,-75.0],[67.4,-74.6],[67.0,-74.5],[66.60000000000001,-74.6],[66.33333333333334,-75.0]],[[70.0,-85.0],[69.0,-84.66666666666667],[68.5,-85.0],[69.0,-85.14285714285714],[70.0,-85.0]],[[94.5,-83.0],[94.00000000000001,-82.85714285714286],[93.33333333333334,-83.0],[94.0,-83.25],[94.5,-83.0]],[[-45.00000000000001,-32.142857142857146],[-44.882352941176464,-31.88235294117647],[-45.0,-31.75],[-45.09090909090909,-32.09090909090909],[-45.00000000000001,-32.142857142857146]],[[-27.0,-34.0],[-27.0,-33.0],[-28.0,-33.0],[-28.0,-34.0],[-27.0,-34.0]],[[-30.0,-40.0],[-30.0,-41.0],[-29.692307692307693,-41.69230769230769],[-29.75,-43.0],[-29.6,-44.0],[-29.63636363636364,-44.36363636363637],[-30.0,-45.0],[-30.0,-46.0],[-29.0,-46.333333333333336],[-28.66666666666667,-46.333333333333336],[-28.0,-46.0],[-27.0,-46.5],[-26.5,-47.0],[-26.400000000000002,-47.4],[-26.0,-48.0],[-25.285714285714285,-47.71428571428571],[-24.0,-47.75],[-23.73913043478261,-47.26086956521739],[-23.210526315789473,-47.21052631578948],[-22.714285714285715,-47.0],[-22.434782608695652,-46.565217391304344],[-21.6,-46.0],[-21.375,-45.625],[-20.25,-45.0],[-20.0,-44.0],[-20.0,-43.0],[-21.0,-42.75],[-22.0,-42.0],[-22.81818181818182,-41.81818181818182],[-23.0,-41.66666666666667],[-23.5,-41.0],[-23.6,-40.6],[-24.5,-39.0],[-25.363636363636363,-38.36363636363636],[-25.77777777777778,-37.77777777777777],[-27.0,-37.0],[-26.5,-36.0],[-27.0,-35.0],[-27.6,-35.400000000000006],[-28.0,-35.5],[-28.333333333333336,-36.0],[-28.5,-37.0],[-29.0,-37.25],[-29.6,-38.0],[-30.0,-40.0]],[[-15.5,-66.0],[-16.125,-65.875],[-17.0,-66.0],[-16.2,-66.2],[-15.5,-66.0]]],[[[48.400000000000006,-15.4],[48.0,-16.0],[47.6,-15.4],[47.0,-15.25],[46.96153846153846,-15.038461538461538],[46.66666666666667,-15.0],[46.0,-14.0],[47.0,-13.5],[48.0,-13.8],[48.25,-14.0],[48.333333333333336,-14.666666666666668],[48.5,-15.0],[48.400000000000006,-15.4]]],[[[39.0,-6.25],[40.0,-6.5],[40.68421052631579,-7.315789473684211],[41.38095238095238,-7.619047619047619],[41.66666666666667,-8.0],[41.66666666666667,-8.666666666666668],[41.5,-9.0],[41.0,-9.2],[40.333333333333336,-8.666666666666668],[40.0,-8.571428571428571],[39.333333333333336,-8.0],[39.266666666666666,-7.733333333333333],[38.0,-7.0],[37.833333333333336,-6.166666666666667],[37.166666666666664,-6.166666666666667],[36.8,-6.0],[37.0,-5.666666666666667],[37.75,-5.75],[38.5,-6.0],[38.71428571428571,-6.285714285714285],[39.0,-6.25]]],[[[69.0,22.666666666666668],[69.44444444444444,22.444444444444443],[69.33333333333334,22.0],[68.6923076923077,21.692307692307693],[68.0,22.0],[68.5,22.5],[69.0,22.666666666666668]]],[[[74.89999999999999,72.1],[75.33333333333334,72.0],[75.0,71.5],[74.66666666666667,71.66666666666667],[74.5,72.0],[74.89999999999999,72.1]]],[[[164.75,-71.75],[165.0,-71.66666666666667],[165.33333333333334,-72.0],[165.0,-72.5],[164.6,-72.4],[164.75,-71.75]]],[[[97.0,-19.0],[97.33333333333334,-19.666666666666668],[97.28571428571428,-20.285714285714285],[97.0,-20.333333333333332],[96.5,-20.0],[96.5,-19.5],[97.0,-19.0]]],[[[107.0,2.0],[106.33333333333333,0.0],[106.33333333333333,-1.0],[106.0,-2.0],[106.60000000000001,-2.4],[108.60000000000001,-2.4],[109.0,-2.5],[109.5,-3.0],[110.16666666666667,-6.0],[109.44444444444444,-9.444444444444445],[109.0,-10.0],[108.80000000000001,-13.0],[109.66666666666669,-13.333333333333336],[111.0,-14.5],[112.6,-15.4],[113.0,-15.5],[113.03571428571428,-15.964285714285715],[113.375,-16.625],[114.0,-16.833333333333336],[114.21621621621621,-17.783783783783782],[115.0,-18.0],[115.34782608695652,-19.652173913043477],[116.0,-19.857142857142858],[116.18181818181819,-20.18181818181818],[116.21621621621622,-20.783783783783782],[116.81818181818181,-20.81818181818182],[117.11538461538461,-21.0],[117.21428571428571,-21.785714285714285],[118.25,-22.0],[117.66666666666667,-23.0],[117.5,-24.0],[117.0,-24.5],[116.0,-27.0],[115.53846153846155,-27.53846153846154],[115.14285714285714,-29.142857142857146],[114.60000000000001,-29.6],[114.57142857142856,-30.0],[114.36363636363637,-30.363636363636367],[114.0,-30.57142857142857],[113.57142857142858,-30.571428571428573],[112.5,-31.5],[111.75,-31.75],[111.4,-32.0],[109.0,-34.0],[108.0,-34.4],[107.71428571428571,-34.285714285714285],[107.5,-34.0],[107.4,-33.6],[107.0,-33.0],[106.36363636363636,-32.63636363636364],[104.0,-32.66666666666667],[102.0,-33.2],[101.00000000000001,-32.800000000000004],[100.0,-32.6],[99.00000000000001,-32.66666666666667],[98.55555555555556,-32.44444444444444],[98.25,-31.75],[98.0,-31.666666666666668],[97.0,-32.0],[96.0,-32.0],[95.5,-32.5],[94.71428571428572,-32.71428571428571],[94.0,-32.75],[92.0,-32.25],[91.0,-32.66666666666667],[90.25,-33.25],[89.0,-33.5],[88.0,-33.5],[87.6923076923077,-33.30769230769231],[87.5,-33.0],[87.0,-32.714285714285715],[85.6470588235294,-32.35294117647059],[84.0,-31.0],[81.80000000000001,-30.0],[81.16666666666667,-28.833333333333336],[79.52380952380952,-27.476190476190474],[79.16666666666667,-26.833333333333336],[78.0,-26.5],[77.71428571428571,-26.285714285714285],[77.5,-26.0],[77.25,-25.0],[77.5,-24.5],[78.0,-24.0],[79.0,-24.0],[79.25,-24.75],[81.07407407407408,-25.0],[81.32432432432432,-25.675675675675677],[82.66666666666667,-26.0],[82.92307692307692,-27.076923076923077],[84.57142857142857,-27.42857142857143],[86.0,-28.0],[87.08695652173914,-28.08695652173913],[89.0,-28.0],[94.05405405405406,-28.945945945945944],[95.0,-29.0],[94.0,-30.0],[95.25,-30.25],[98.0,-30.5],[99.0,-30.75],[100.0,-30.57142857142857],[101.0,-30.625],[101.37037037037035,-30.37037037037037],[101.625,-30.0],[102.58333333333334,-29.583333333333336],[103.0,-28.333333333333336],[103.28571428571428,-28.0],[102.48275862068967,-26.517241379310345],[101.71428571428572,-26.0],[101.73333333333333,-25.733333333333334],[102.33333333333334,-25.0],[102.8,-23.799999999999997],[103.0,-23.5],[103.33333333333334,-23.333333333333336],[104.0,-22.0],[104.0,-21.0],[103.4,-20.6],[103.0,-20.0],[103.4,-19.400000000000002],[104.0,-19.0],[103.4,-18.6],[102.55555555555554,-17.444444444444443],[102.5,-17.0],[102.6,-16.6],[103.0,-16.0],[105.0,-16.0],[104.5,-15.5],[104.5,-15.0],[104.0,-13.75],[103.71428571428571,-13.714285714285714],[103.0,-14.0],[101.0,-14.0],[101.0,-16.0],[101.28571428571428,-16.714285714285715],[101.5,-18.0],[101.4,-18.400000000000002],[101.0,-18.5],[100.25,-17.75],[99.0,-17.5],[98.69230769230771,-17.30769230769231],[98.36363636363637,-16.636363636363637],[98.0,-16.333333333333332],[96.5,-15.5],[96.0,-15.0],[95.33333333333334,-14.666666666666668],[95.0,-14.333333333333332],[94.0,-14.5],[93.6,-14.400000000000002],[93.0,-14.0],[92.0,-13.600000000000001],[91.6470588235294,-13.352941176470589],[91.5,-13.0],[91.6,-12.0],[91.71428571428571,-11.714285714285714],[92.0,-11.5],[92.4,-11.600000000000001],[93.0,-12.0],[95.22222222222223,-11.222222222222221],[97.18181818181819,-11.181818181818182],[98.0,-11.0],[99.00000000000001,-11.333333333333334],[101.0,-11.25],[101.60000000000001,-10.600000000000001],[102.0,-10.5],[102.44444444444443,-10.555555555555554],[103.0,-11.0],[103.14285714285714,-10.142857142857142],[103.0,-9.5],[102.75,-9.25],[102.44444444444443,-8.555555555555555],[102.0,-7.0],[101.0,-7.0],[101.0,-8.0],[100.0,-8.0],[100.4,-8.600000000000001],[100.28571428571428,-9.285714285714285],[99.66666666666667,-9.666666666666668],[99.4,-9.600000000000001],[97.0,-10.0],[93.23529411764706,-9.764705882352942],[92.19047619047619,-8.80952380952381],[92.05263157894737,-7.947368421052632],[91.5,-7.5],[90.72727272727273,-6.0],[90.75,-5.25],[91.0,-4.5],[92.30000000000001,-3.3000000000000003],[92.57894736842105,-2.5789473684210527],[93.4,-1.4000000000000001],[94.0,-1.0],[95.0,-0.6666666666666666],[96.60000000000001,-0.6000000000000001],[98.0,-0.3333333333333333],[98.4,-0.4],[99.0,0.0],[99.0,1.0],[99.60000000000001,0.6000000000000001],[101.0,1.0],[102.0,1.0],[102.67999999999999,2.3200000000000003],[104.0,2.8000000000000003],[104.71428571428571,2.714285714285714],[105.0,2.5],[106.44444444444443,2.4444444444444446],[107.0,2.0]]],[[[89.60000000000001,27.4],[90.0,28.0],[90.14285714285714,27.0],[90.0,26.5],[89.66666666666667,27.0],[89.60000000000001,27.4]]],[[[72.0,72.0],[72.0,71.0],[72.5,70.5],[72.6,68.60000000000001],[73.0,68.0],[72.5,67.5],[72.0,66.5],[71.0,66.33333333333334],[70.80000000000001,66.2],[70.46153846153847,65.53846153846155],[70.0,65.25],[69.85714285714286,65.0],[70.0,64.0],[71.0,63.833333333333336],[71.57142857142858,63.57142857142857],[72.33333333333334,63.0],[73.53846153846155,62.53846153846154],[74.33333333333333,62.0],[75.5,61.5],[76.0,61.0],[77.19999999999999,60.2],[77.8,58.8],[78.2,58.2],[78.0,57.0],[78.75,56.0],[78.9,54.0],[79.4,53.400000000000006],[79.68421052631578,52.68421052631578],[79.8,52.0],[79.84615384615385,49.0],[79.76923076923077,48.0],[79.58333333333333,47.41666666666667],[79.0,46.5],[78.63636363636364,45.36363636363637],[78.2,45.0],[77.71428571428571,43.28571428571428],[77.33333333333333,43.0],[77.33333333333333,42.0],[77.63636363636364,41.63636363636364],[78.30769230769232,41.30769230769231],[79.0,41.14285714285714],[80.0,41.2],[81.33333333333334,41.0],[81.28571428571428,40.71428571428571],[80.71428571428572,40.285714285714285],[80.33333333333334,39.66666666666667],[80.0,39.5],[79.8,39.2],[79.0,39.0],[80.86666666666667,38.86666666666667],[82.0,38.6],[83.0,38.66666666666667],[84.0,38.5],[84.66666666666667,39.0],[84.4,39.400000000000006],[83.0,39.5],[82.63636363636363,39.63636363636363],[82.33333333333334,40.0],[82.6923076923077,40.30769230769231],[83.625,40.375],[84.3,40.3],[85.67999999999999,39.68],[86.0,39.75],[87.35714285714286,39.35714285714286],[88.0,38.866666666666674],[89.75,38.75],[90.47999999999999,38.480000000000004],[91.0,38.0],[92.3157894736842,38.68421052631579],[92.99999999999999,38.81818181818181],[97.00000000000001,38.800000000000004],[97.66666666666666,39.0],[98.0,39.25],[99.0,39.5],[100.0,39.333333333333336],[101.0,39.333333333333336],[102.0,39.5],[102.23529411764706,39.23529411764706],[102.80000000000001,39.0],[104.0,38.14285714285714],[105.04651162790697,36.04651162790698],[105.51515151515153,35.515151515151516],[106.1951219512195,35.19512195121951],[107.87755102040816,35.12244897959184],[109.22222222222223,35.22222222222222],[111.9090909090909,35.090909090909086],[116.0,34.5],[120.875,34.125],[122.00000000000001,33.800000000000004],[123.0,33.75],[124.125,33.125],[126.25,33.0],[127.33333333333334,32.333333333333336],[129.125,32.0],[129.51724137931035,31.517241379310345],[130.5,31.0],[130.625,30.625],[131.0952380952381,30.095238095238095],[131.33333333333334,30.0],[131.0,29.0],[131.5,28.0],[132.42857142857144,27.42857142857143],[132.6,27.0],[132.0,26.0],[131.0,25.25],[130.0,25.0],[129.0,25.2],[128.0,25.0],[127.0,25.0],[126.33333333333334,25.333333333333336],[123.22222222222223,25.77777777777778],[122.0,25.6],[121.0,26.0],[119.0,26.0],[119.0,25.0],[118.44444444444444,25.444444444444443],[118.0,25.4],[117.76923076923077,25.76923076923077],[116.75,26.0],[115.99999999999999,26.428571428571427],[115.74193548387098,26.741935483870968],[115.0,27.0],[114.0,27.6],[112.0,28.0],[110.71428571428571,28.71428571428571],[110.0,28.833333333333336],[109.28571428571428,29.285714285714285],[107.21052631578948,30.210526315789473],[105.0,30.599999999999998],[104.0,31.0],[103.0,31.5],[101.0,33.0],[100.0,33.0],[99.0,33.583333333333336],[98.3157894736842,34.315789473684205],[98.0,34.46153846153846],[97.78787878787878,34.78787878787879],[96.03278688524591,34.967213114754095],[95.37209302325581,34.627906976744185],[95.0,34.11111111111111],[94.375,33.625],[93.0,33.0],[93.25,32.0],[94.60975609756099,31.609756097560975],[98.125,29.125],[98.9047619047619,28.904761904761905],[99.33333333333334,28.333333333333336],[100.42857142857143,28.0],[101.0,27.6],[101.24489795918367,27.244897959183675],[102.125,27.0],[103.14545454545454,26.145454545454548],[103.66666666666667,26.0],[105.08823529411765,25.088235294117645],[105.6,25.0],[106.28571428571428,24.285714285714285],[107.16666666666667,24.0],[108.0344827586207,23.034482758620687],[108.71428571428571,22.71428571428571],[109.0,22.444444444444443],[109.11111111111111,22.11111111111111],[110.0,21.526315789473685],[111.26966292134831,20.269662921348313],[112.01666666666667,20.016666666666666],[112.5,19.5],[113.16326530612244,19.16326530612245],[113.80000000000001,19.0],[114.33333333333334,18.333333333333336],[115.1,18.0],[115.85714285714286,17.0],[116.54545454545455,15.545454545454545],[118.0,14.4],[118.26666666666667,14.266666666666666],[120.25,14.25],[122.0,14.0],[121.55555555555556,13.444444444444445],[121.5,13.0],[121.13793103448276,12.862068965517242],[121.0,12.0],[120.12121212121212,11.878787878787879],[120.0,11.5],[119.5,11.0],[118.69230769230771,10.692307692307693],[116.0,10.5],[114.66666666666667,10.666666666666668],[114.0,11.0],[113.0,10.666666666666668],[111.71428571428571,10.714285714285715],[111.0,11.0],[110.0,10.5],[109.71428571428571,10.714285714285715],[109.5,12.0],[109.0,13.0],[108.0,13.0],[108.0,10.0],[107.0,10.0],[106.0,10.5],[105.46153846153847,11.461538461538463],[104.83333333333334,11.833333333333334],[104.0,14.0],[103.0,14.333333333333334],[102.0,14.5],[101.0,15.0],[100.0,15.25],[99.0,16.0],[98.0,17.200000000000003],[96.0,17.153846153846153],[95.375,17.375],[95.0,18.666666666666668],[94.75,19.0],[94.75,20.0],[94.33333333333334,20.333333333333336],[94.0,21.666666666666668],[93.75,22.0],[93.75,23.0],[93.42857142857144,23.42857142857143],[93.21052631578948,24.210526315789473],[93.0,24.5],[92.90243902439025,25.09756097560976],[92.94444444444444,27.0],[92.62962962962962,28.0],[92.0,29.6],[91.81395348837209,29.813953488372093],[91.82608695652173,30.0],[91.41304347826086,30.413043478260867],[91.0,30.558823529411764],[89.53846153846153,30.461538461538463],[89.07692307692308,30.0],[89.15384615384616,29.153846153846153],[89.84615384615384,29.153846153846153],[90.14285714285714,29.0],[90.0,28.0],[89.0,28.0],[88.66666666666667,29.666666666666668],[88.4,29.6],[87.0,30.0],[85.55555555555556,29.444444444444443],[85.11111111111111,29.0],[84.0,28.416666666666664],[83.0,28.272727272727273],[81.55555555555556,28.555555555555554],[81.33333333333334,29.0],[81.1,29.1],[80.10526315789474,29.105263157894736],[79.75,29.25],[79.6,28.6],[80.0,28.0],[79.4,28.400000000000002],[78.81818181818181,28.18181818181818],[78.5,27.5],[78.0,27.0],[77.0,26.5],[74.0,26.7],[72.0,26.25],[71.66666666666667,26.0],[71.44444444444444,25.555555555555554],[71.0,25.5],[70.78947368421052,25.210526315789473],[70.0,25.0],[71.0,24.666666666666668],[72.0,25.0],[73.0,25.0],[74.0,24.333333333333336],[74.2,24.0],[72.23809523809524,23.761904761904763],[72.0,23.545454545454547],[71.57142857142858,23.42857142857143],[71.14285714285714,23.0],[70.13333333333333,22.866666666666667],[70.0,22.666666666666664],[69.55555555555554,22.555555555555557],[69.18181818181819,23.18181818181818],[68.0,23.333333333333336],[67.66666666666667,23.0],[67.66666666666667,22.666666666666668],[68.0,22.0],[67.4,21.6],[67.0,21.666666666666668],[66.0,21.333333333333336],[65.77777777777779,21.22222222222222],[65.75,21.0],[65.42857142857143,20.571428571428573],[64.0,20.0],[63.0,19.0],[62.5,18.0],[62.11764705882353,17.88235294117647],[62.0,17.0],[61.24,16.759999999999998],[61.0,16.5],[60.66666666666667,16.666666666666668],[60.400000000000006,17.0],[60.36363636363636,17.363636363636363],[60.0,18.0],[60.0,20.0],[59.0,20.0],[58.400000000000006,19.6],[58.0,19.5],[57.77777777777777,19.22222222222222],[57.0,19.0],[56.0,18.4],[55.826086956521735,18.17391304347826],[55.0,18.0],[54.6,17.4],[53.0,17.153846153846153],[52.285714285714285,17.285714285714285],[52.08333333333333,18.0],[52.18181818181819,18.818181818181817],[52.46153846153847,19.53846153846154],[53.0,20.0],[52.599999999999994,21.0],[53.07407407407407,21.925925925925924],[53.21052631578947,23.210526315789473],[52.71428571428571,24.714285714285715],[52.5,26.0],[51.84615384615385,26.846153846153847],[51.5,28.0],[51.117647058823536,28.11764705882353],[50.0,29.111111111111107],[47.66666666666667,29.666666666666668],[47.0,30.333333333333336],[46.0,31.0],[45.0,32.5],[44.5,33.0],[43.5,35.0],[43.117647058823536,35.11764705882353],[43.0,35.5],[42.71428571428571,35.71428571428571],[42.0,36.0],[42.0,37.0],[41.0,37.0],[40.6,37.6],[40.0,38.0],[40.0,39.0],[39.5,39.5],[38.81818181818181,39.81818181818181],[38.42857142857143,40.42857142857143],[37.15384615384615,41.15384615384615],[37.0,41.5],[36.5,41.5],[36.0,42.0],[36.0,41.0],[33.0,41.0],[32.4,41.400000000000006],[31.66666666666667,41.66666666666667],[31.25,42.25],[31.0,43.0],[31.0,44.0],[31.400000000000002,44.6],[32.0,45.0],[32.25,46.0],[31.0,47.0],[30.0,46.75],[29.0,47.75],[28.333333333333336,47.66666666666667],[27.75,47.75],[27.5,48.0],[27.4,48.400000000000006],[27.0,49.0],[25.77777777777778,49.22222222222223],[25.0,49.0],[24.0,49.0],[23.400000000000002,49.400000000000006],[23.0,49.5],[21.714285714285715,49.285714285714285],[21.0,49.0],[20.400000000000002,49.400000000000006],[20.0,50.0],[19.0,50.0],[18.8,52.0],[19.0,53.0],[19.6,53.400000000000006],[20.0,54.0],[21.285714285714285,54.71428571428571],[22.0,55.5],[23.0,55.33333333333333],[24.0,56.0],[25.0,56.0],[27.0,56.42857142857143],[28.400000000000002,56.400000000000006],[29.0,56.25],[30.0,55.400000000000006],[30.363636363636367,55.36363636363637],[31.0,55.0],[32.0,52.85714285714286],[32.53846153846154,52.53846153846155],[32.85714285714286,52.00000000000001],[33.5,51.5],[33.833333333333336,51.0],[34.0,50.0],[34.53846153846154,49.53846153846154],[35.46153846153847,47.46153846153846],[35.71428571428571,45.71428571428571],[37.0,45.0],[38.0,45.0],[38.46153846153847,45.53846153846154],[39.5,46.0],[39.6,46.400000000000006],[40.0,47.0],[39.0,48.0],[38.66666666666667,49.0],[38.333333333333336,49.33333333333334],[37.22222222222222,51.22222222222223],[36.5,52.0],[35.63636363636364,52.63636363636363],[34.6,54.6],[34.0,55.0],[33.6,55.60000000000001],[33.0,56.0],[33.0,57.0],[32.25,57.25],[31.66666666666667,57.66666666666667],[31.25,58.25],[31.0,59.0],[31.0,60.0],[30.0,61.0],[30.5,62.5],[31.0,63.0],[31.0,64.0],[33.0,64.0],[33.875,63.875],[35.0,64.0],[35.71428571428571,64.28571428571428],[36.285714285714285,64.71428571428571],[36.714285714285715,64.71428571428571],[39.0,65.25],[39.42857142857143,65.57142857142857],[40.400000000000006,66.0],[40.68421052631579,66.3157894736842],[43.14285714285714,66.85714285714286],[44.0,67.66666666666667],[45.4,68.60000000000001],[46.13333333333334,68.86666666666666],[47.0,69.5],[49.0,70.0],[50.0,70.0],[51.0,70.33333333333333],[52.0,70.0],[53.0,70.0],[54.0,70.33333333333333],[55.25,70.25],[56.0,70.0],[58.30769230769231,70.6923076923077],[60.0,71.0],[61.0,71.0],[61.69230769230769,71.3076923076923],[64.0,71.83333333333333],[65.16666666666666,71.83333333333334],[67.0,72.25],[68.0,72.0],[68.60000000000001,71.60000000000001],[70.0,71.5],[70.4,71.60000000000001],[71.0,72.0],[72.0,72.0]],[[79.0,29.6],[79.33333333333334,29.666666666666668],[79.33333333333334,30.000000000000004],[78.8,30.200000000000003],[78.66666666666667,30.000000000000004],[78.75,29.75],[79.0,29.6]],[[83.0,34.0],[83.0,35.0],[82.0,35.0],[82.0,34.0],[83.0,34.0]],[[87.0,34.0],[87.4,33.4],[87.5,33.0],[89.22222222222223,32.77777777777778],[89.5,34.0],[87.88888888888889,34.111111111111114],[87.0,34.0]],[[91.0,32.0],[90.0,32.333333333333336],[89.77777777777777,32.22222222222222],[89.91304347826086,31.913043478260867],[91.0,32.0]],[[61.71428571428571,21.285714285714285],[61.0,21.0],[61.71428571428571,20.714285714285715],[62.222222222222214,20.77777777777778],[62.5,21.0],[62.5,21.5],[63.0,22.0],[62.0,22.0],[61.71428571428571,21.285714285714285]],[[63.77777777777778,21.77777777777778],[64.5,22.0],[64.0,22.25],[63.86666666666667,22.133333333333333],[63.0,22.0],[63.77777777777778,21.77777777777778]],[[77.5,37.0],[76.4,37.4],[76.22222222222223,38.22222222222222],[76.0,38.333333333333336],[74.75,38.0],[75.0,37.0],[75.0,36.0],[76.0,35.0],[77.0,35.0],[78.0,36.0],[77.5,37.0]]],[[[94.47058823529412,40.529411764705884],[94.0,40.333333333333336],[91.0,40.599999999999994],[90.33333333333334,41.0],[89.63636363636364,41.63636363636364],[89.5,42.0],[91.0,42.27777777777778],[93.0,42.27272727272727],[95.0,42.0],[95.0,41.0],[94.47058823529412,40.529411764705884]]]]}}]}