{"type":"FeatureCollection","features":[{"type":"Feature","properties":{"ageMa":530},"geometry":{"type":"MultiPolygon","coordinates":[[[[-56.0,-83.0],[-56.0,-82.0],[-59.0,-82.0],[-59.0,-81.0],[-58.0,-80.0],[-57.0,-80.0],[-57.0,-79.0],[-56.0,-78.0],[-55.0,-78.0],[-55.0,-79.0],[-54.0,-79.0],[-54.0,-80.0],[-53.0,-80.0],[-53.0,-82.0],[-54.0,-82.0],[-54.0,-83.0],[-56.0,-83.0]]],[[[-33.0,-54.5],[-31.42857142857143,-55.42857142857143],[-30.0,-56.0],[-27.5,-58.5],[-26.352941176470587,-59.35294117647058],[-24.0,-60.5],[-22.71428571428571,-60.71428571428571],[-21.0,-60.75],[-19.0,-61.16666666666667],[-16.0,-60.6],[-13.461538461538462,-60.53846153846154],[-11.0,-60.25],[-9.0,-60.33333333333334],[-7.0,-60.66666666666667],[-6.0,-60.5],[-5.0,-60.66666666666667],[-3.666666666666667,-60.66666666666667],[-3.0,-61.0],[-2.0,-61.0],[-2.0,-62.0],[-1.6666666666666665,-63.0],[-1.5,-64.0],[-1.5,-65.0],[-1.8571428571428572,-65.14285714285714],[-2.0,-65.5],[-2.3333333333333335,-65.66666666666667],[-2.5,-66.0],[-3.2222222222222223,-66.22222222222223],[-3.7777777777777777,-66.22222222222223],[-4.0,-67.0],[-5.882352941176471,-67.11764705882354],[-8.0,-68.0],[-8.88888888888889,-68.11111111111111],[-10.0,-68.75],[-12.0,-69.0],[-12.857142857142858,-68.85714285714286],[-15.0,-68.85714285714286],[-17.0,-68.625],[-18.0,-68.66666666666667],[-19.434782608695652,-68.43478260869566],[-21.0,-68.0],[-23.0,-67.83333333333334],[-24.0,-67.44444444444444],[-26.0,-67.33333333333333],[-27.0,-67.44444444444444],[-29.0,-67.25],[-30.0,-66.57142857142857],[-34.0,-66.44444444444444],[-35.0,-66.16666666666666],[-36.5,-66.0],[-37.0,-65.66666666666667],[-38.0,-65.66666666666667],[-39.0,-65.0],[-40.0,-65.0],[-42.0,-64.0],[-42.333333333333336,-63.333333333333336],[-43.0,-63.0],[-43.25,-62.25],[-43.5,-62.0],[-43.333333333333336,-61.66666666666667],[-42.6,-61.400000000000006],[-42.4,-60.60000000000001],[-41.66666666666667,-59.333333333333336],[-41.71428571428571,-58.28571428571428],[-41.333333333333336,-56.0],[-41.2,-55.800000000000004],[-40.0,-54.75],[-39.0,-54.33333333333334],[-37.0,-54.0],[-36.0,-54.4],[-35.0,-54.25],[-34.0,-54.6],[-33.0,-54.5]]],[[[52.851851851851855,-57.14814814814815],[52.63636363636364,-57.0],[53.5,-57.0],[53.652173913043484,-57.34782608695652],[54.0,-57.36363636363636],[54.175,-57.825],[54.388888888888886,-58.0],[54.0,-58.13725490196078],[53.0,-58.0],[52.851851851851855,-57.14814814814815]]],[[[-4.476190476190476,-49.476190476190474],[-3.0,-50.0],[-2.380952380952381,-50.38095238095238],[-0.7647058823529411,-50.76470588235294],[-0.2222222222222222,-51.22222222222223],[1.0,-51.42857142857143],[2.0,-51.833333333333336],[3.0,-51.875],[3.3333333333333335,-52.0],[5.0,-52.75],[5.68,-53.32],[6.0,-53.44444444444444],[6.217391304347826,-53.78260869565217],[6.625,-54.0],[7.0,-54.42857142857142],[7.170212765957447,-54.829787234042556],[7.571428571428571,-55.0],[6.5,-56.5],[5.809523809523809,-56.80952380952381],[5.4,-57.4],[4.7894736842105265,-57.78947368421053],[4.4,-58.400000000000006],[4.0,-58.66666666666667],[3.0,-58.6],[2.0,-59.0],[-0.36363636363636365,-58.36363636363636],[-0.8181818181818181,-57.81818181818181],[-1.4615384615384615,-57.46153846153847],[-1.75,-57.0],[-2.0,-56.0],[-2.6,-55.60000000000001],[-3.0,-55.5],[-3.6000000000000005,-54.6],[-5.2,-54.2],[-6.0,-53.5],[-7.0,-53.4],[-7.285714285714286,-53.28571428571428],[-7.7894736842105265,-52.78947368421053],[-9.235294117647058,-52.76470588235294],[-11.0,-53.5],[-12.0,-53.75],[-13.0,-53.33333333333333],[-14.714285714285712,-53.28571428571428],[-15.2,-53.2],[-15.875,-52.875],[-17.75,-52.75],[-18.444444444444443,-52.44444444444444],[-19.0,-52.0],[-20.0,-52.0],[-20.714285714285715,-51.71428571428571],[-21.0,-51.0],[-23.0,-51.0],[-23.0,-50.0],[-23.6,-49.6],[-24.0,-49.0],[-25.0,-49.0],[-25.0,-48.0],[-25.333333333333336,-47.333333333333336],[-25.333333333333332,-47.0],[-25.0,-46.8],[-23.0,-46.833333333333336],[-19.0,-46.375],[-18.0,-46.375],[-17.0,-46.16666666666667],[-15.846153846153847,-46.15384615384615],[-15.0,-45.75],[-13.846153846153847,-45.84615384615385],[-13.2,-46.2],[-12.0,-46.5],[-11.0,-47.0],[-5.777777777777778,-48.77777777777778],[-4.476190476190476,-49.476190476190474]]],[[[62.0,-51.91304347826087],[63.05882352941177,-51.94117647058824],[63.0,-52.42857142857143],[62.84615384615385,-52.15384615384615],[62.114285714285714,-52.114285714285714],[61.96078431372549,-52.0],[62.0,-51.91304347826087]]],[[[-103.60000000000001,-34.400000000000006],[-104.0,-35.0],[-104.33333333333334,-34.333333333333336],[-105.60000000000001,-33.6],[-106.0,-33.5],[-106.5,-33.0],[-106.60000000000001,-32.6],[-107.33333333333334,-31.333333333333336],[-108.0,-31.0],[-107.5,-30.5],[-107.0,-30.5],[-106.60000000000001,-30.6],[-106.0,-31.0],[-105.0,-31.0],[-104.0,-32.0],[-104.0,-33.0],[-103.0,-33.0],[-103.0,-34.0],[-103.60000000000001,-34.400000000000006]]],[[[-106.25,-13.25],[-106.0,-13.5],[-104.28571428571428,-14.285714285714285],[-103.71428571428571,-14.714285714285712],[-103.66666666666666,-15.0],[-102.73333333333333,-15.733333333333333],[-102.4,-16.400000000000002],[-101.86666666666667,-16.866666666666667],[-101.46153846153847,-17.46153846153846],[-100.83333333333334,-17.833333333333336],[-98.75,-19.75],[-98.0,-20.0],[-97.6,-20.6],[-97.5,-21.0],[-97.0,-21.5],[-96.66666666666667,-21.0],[-96.5,-20.0],[-96.22222222222223,-19.77777777777778],[-93.77777777777777,-19.22222222222222],[-93.5,-19.0],[-93.4,-18.6],[-93.0,-18.0],[-92.4,-17.6],[-92.0,-17.0],[-91.4,-16.6],[-90.60000000000001,-16.400000000000002],[-89.4,-15.600000000000001],[-86.71428571428571,-15.285714285714285],[-85.28571428571428,-14.714285714285712],[-84.0,-14.5],[-83.0,-14.666666666666668],[-82.0,-14.25],[-81.0,-14.25],[-79.66666666666667,-13.333333333333336],[-78.83333333333333,-13.166666666666668],[-78.44444444444444,-12.555555555555555],[-77.5,-12.0],[-77.33333333333334,-11.666666666666668],[-77.0,-11.5],[-74.0,-11.0],[-72.66666666666667,-11.333333333333334],[-72.0,-11.0],[-72.0,-12.0],[-71.33333333333334,-12.333333333333334],[-71.0,-13.0],[-69.66666666666667,-13.333333333333336],[-69.0,-13.0],[-69.0,-14.0],[-68.0,-14.0],[-68.0,-15.0],[-68.66666666666667,-16.0],[-68.33333333333334,-18.333333333333336],[-67.85714285714286,-18.857142857142858],[-67.75,-20.75],[-67.5,-22.0],[-67.5,-23.0],[-67.0,-24.0],[-67.66666666666667,-24.333333333333336],[-68.5,-25.0],[-69.0,-26.0],[-69.0,-27.0],[-69.4,-27.6],[-70.0,-28.0],[-70.0,-29.0],[-69.6,-29.6],[-69.5,-30.0],[-69.6,-30.400000000000002],[-70.0,-31.0],[-69.0,-31.5],[-68.0,-31.0],[-67.0,-30.833333333333336],[-66.0,-31.333333333333336],[-65.0,-31.333333333333336],[-64.0,-31.666666666666664],[-63.66666666666667,-31.66666666666667],[-63.0,-31.666666666666664],[-62.0,-31.333333333333336],[-61.0,-31.333333333333336],[-60.0,-31.0],[-59.0,-30.333333333333336],[-58.0,-30.333333333333336],[-55.0,-30.666666666666664],[-54.0,-31.0],[-53.0,-31.0],[-53.0,-32.0],[-53.400000000000006,-32.6],[-53.5,-33.0],[-53.400000000000006,-33.4],[-53.0,-34.0],[-53.0,-36.0],[-53.5,-37.0],[-54.0,-37.5],[-54.5,-38.5],[-55.22222222222222,-38.77777777777778],[-55.400000000000006,-39.0],[-55.5,-40.0],[-56.400000000000006,-40.6],[-57.4,-41.6],[-57.77777777777777,-42.22222222222223],[-58.38095238095238,-42.61904761904762],[-58.77777777777778,-43.22222222222222],[-60.125,-43.875],[-60.60000000000001,-44.400000000000006],[-61.33333333333334,-44.66666666666667],[-61.857142857142854,-45.142857142857146],[-62.57894736842105,-45.421052631578945],[-64.33333333333334,-45.66666666666667],[-64.86666666666667,-46.13333333333334],[-65.60000000000001,-46.400000000000006],[-69.0,-46.6],[-70.0,-47.16666666666667],[-73.0,-46.800000000000004],[-74.77777777777777,-46.77777777777777],[-75.66666666666667,-46.66666666666667],[-76.33333333333334,-46.333333333333336],[-76.5,-46.0],[-77.0,-45.75],[-78.0,-45.75],[-79.0,-45.5],[-80.0,-45.5],[-81.28571428571428,-45.285714285714285],[-82.6,-44.6],[-83.4,-44.400000000000006],[-84.0,-44.0],[-85.0,-44.0],[-85.0,-43.0],[-85.5,-42.5],[-85.5,-42.0],[-86.44444444444444,-41.44444444444444],[-86.85714285714286,-40.857142857142854],[-88.0,-40.800000000000004],[-89.0,-40.33333333333333],[-90.28571428571428,-40.285714285714285],[-91.0,-40.0],[-91.75,-40.25],[-92.22222222222223,-40.22222222222222],[-93.0,-39.5],[-94.0,-39.333333333333336],[-94.2,-39.2],[-94.60000000000001,-38.6],[-95.0,-38.333333333333336],[-96.0,-38.400000000000006],[-96.66666666666667,-38.0],[-97.19999999999999,-37.2],[-98.0,-36.66666666666667],[-99.00000000000001,-35.66666666666667],[-99.5,-35.5],[-100.0,-35.0],[-99.66666666666667,-34.0],[-99.66666666666667,-33.66666666666667],[-100.0,-33.0],[-101.4,-32.4],[-102.0,-31.0],[-103.60000000000001,-30.6],[-104.0,-30.0],[-105.00000000000001,-29.66666666666667],[-106.0,-29.5],[-106.33333333333334,-29.333333333333336],[-106.5,-29.0],[-107.4,-28.400000000000002],[-107.66666666666667,-27.666666666666668],[-108.25,-27.25],[-108.44444444444444,-26.444444444444443],[-109.0,-26.0],[-109.63636363636364,-24.636363636363637],[-110.0,-24.333333333333336],[-111.0,-24.0],[-111.0,-23.0],[-111.4,-22.4],[-112.56521739130434,-19.565217391304348],[-113.0,-19.0],[-113.22222222222223,-18.22222222222222],[-113.5,-18.0],[-114.0,-17.0],[-114.55555555555554,-16.555555555555554],[-116.0,-16.0],[-116.4,-15.4],[-117.0,-15.0],[-116.60000000000001,-14.400000000000002],[-115.5,-12.0],[-115.0,-11.666666666666668],[-114.0,-11.5],[-113.66666666666667,-11.666666666666668],[-113.4,-12.4],[-113.0,-13.0],[-112.0,-12.0],[-110.0,-12.0],[-106.25,-13.25]],[[-94.0,-32.0],[-94.0,-33.0],[-93.0,-33.0],[-93.0,-32.0],[-94.0,-32.0]]],[[[-57.75,-84.25],[-57.0,-84.0],[-56.400000000000006,-84.4],[-56.0,-85.0],[-54.0,-85.0],[-53.0,-85.5],[-51.0,-85.5],[-50.0,-85.33333333333334],[-49.0,-85.0],[-50.0,-84.0],[-50.0,-83.0],[-45.0,-83.0],[-44.0,-82.66666666666666],[-42.77777777777778,-82.77777777777777],[-42.0,-83.0],[-41.0,-82.75],[-40.0,-83.0],[-38.0,-82.875],[-36.142857142857146,-83.14285714285714],[-31.285714285714285,-83.28571428571428],[-29.0,-83.8],[-27.818181818181817,-83.81818181818181],[-24.0,-84.6],[-23.0,-85.0],[-22.0,-85.0],[-22.0,-86.0],[-21.0,-86.33333333333334],[-18.0,-86.66666666666667],[-17.0,-86.5],[-16.0,-86.5],[-14.0,-87.0],[-13.0,-87.5],[-12.285714285714285,-88.28571428571428],[-12.0,-89.0],[-9.0,-90.0],[-180.0,-90.0],[-180.0,33.0],[-179.4255319148936,33.42553191489362],[-179.0,33.55555555555556],[-177.84615384615384,33.15384615384615],[-177.22222222222223,32.77777777777778],[-174.77777777777777,32.22222222222222],[-174.0,31.75],[-173.0,31.6],[-172.0,31.166666666666668],[-171.0,31.0],[-168.34482758620692,29.655172413793103],[-168.0,29.166666666666668],[-167.25806451612902,28.741935483870968],[-167.0,28.200000000000003],[-166.09090909090907,27.909090909090907],[-166.0,27.666666666666668],[-165.0,27.0],[-164.0,27.0],[-164.0,26.0],[-163.0,26.0],[-162.66666666666669,25.333333333333336],[-162.83333333333331,23.833333333333336],[-167.66666666666669,23.666666666666668],[-168.28571428571428,23.285714285714285],[-168.33333333333334,23.0],[-168.0,22.0],[-167.63636363636363,21.363636363636363],[-167.6,21.0],[-166.40000000000003,19.6],[-165.8,19.200000000000003],[-165.41666666666669,18.583333333333336],[-164.8181818181818,18.181818181818183],[-164.47619047619045,17.523809523809522],[-163.5238095238095,16.476190476190474],[-162.69230769230768,15.307692307692307],[-161.22222222222223,12.777777777777779],[-160.2,10.0],[-160.0,9.0],[-160.33333333333334,8.0],[-160.16666666666666,5.833333333333334],[-159.5,5.0],[-159.33333333333334,3.666666666666667],[-158.71428571428572,2.2857142857142856],[-158.33333333333334,1.0],[-158.5,0.5],[-159.0,0.0],[-158.5,-0.5],[-158.0,-2.0],[-157.6,-2.6],[-157.5,-3.0],[-157.66666666666666,-4.0],[-157.66666666666666,-5.0],[-157.5,-6.0],[-157.6,-7.0],[-157.46153846153845,-7.461538461538462],[-157.0,-8.0],[-157.0,-9.0],[-156.5,-10.5],[-156.0,-11.0],[-155.66666666666669,-12.0],[-155.7142857142857,-13.285714285714285],[-156.0,-14.0],[-156.0,-17.0],[-157.0,-17.0],[-157.0,-18.0],[-156.4,-19.400000000000002],[-156.0,-20.0],[-155.8,-20.8],[-152.5,-22.5],[-152.25,-23.0],[-151.5,-23.5],[-149.0,-26.0],[-148.4,-26.400000000000002],[-147.66666666666669,-26.666666666666668],[-147.25,-27.25],[-146.6470588235294,-27.647058823529413],[-146.23529411764707,-28.235294117647058],[-144.8181818181818,-28.818181818181817],[-144.0,-29.333333333333336],[-143.4,-30.400000000000002],[-142.8181818181818,-30.81818181818182],[-141.66666666666666,-32.0],[-141.5,-32.5],[-141.0,-33.0],[-140.66666666666669,-33.66666666666667],[-140.77777777777777,-34.22222222222222],[-141.33333333333334,-35.0],[-141.33333333333334,-35.333333333333336],[-140.77777777777777,-36.77777777777778],[-140.84615384615384,-37.15384615384615],[-141.44444444444443,-37.55555555555555],[-142.0,-39.0],[-143.0,-39.0],[-143.0,-40.0],[-143.60000000000002,-39.6],[-144.1818181818182,-39.81818181818181],[-144.5,-40.5],[-145.0,-41.0],[-145.25,-42.0],[-145.16666666666666,-42.16666666666667],[-143.625,-43.625],[-143.1904761904762,-44.19047619047619],[-142.5238095238095,-44.523809523809526],[-142.0909090909091,-45.09090909090909],[-140.0,-46.0],[-139.4,-46.400000000000006],[-137.0,-47.0],[-136.0,-47.625],[-134.0,-47.83333333333333],[-132.0,-47.800000000000004],[-131.0,-48.0],[-129.5,-49.0],[-129.60000000000002,-49.400000000000006],[-130.5,-51.0],[-131.77777777777777,-52.22222222222222],[-132.0,-53.0],[-133.22222222222223,-53.22222222222222],[-134.0,-53.0],[-135.33333333333334,-53.66666666666667],[-136.0,-53.75],[-136.33333333333334,-54.00000000000001],[-137.0,-55.0],[-137.66666666666669,-55.33333333333334],[-138.5,-56.0],[-140.0,-56.66666666666667],[-141.0,-56.800000000000004],[-143.0,-57.599999999999994],[-144.0,-58.0],[-145.2,-58.8],[-146.0,-59.0],[-145.4,-59.400000000000006],[-145.0,-59.5],[-144.75,-59.75],[-144.0,-60.0],[-142.0,-59.333333333333336],[-141.66666666666669,-59.333333333333336],[-141.5,-59.0],[-141.2,-58.8],[-141.0,-58.75],[-140.0,-59.0],[-139.0,-58.666666666666664],[-138.0,-58.5],[-137.0,-59.0],[-135.75,-58.75],[-135.0,-59.0],[-134.0,-59.0],[-133.4,-59.400000000000006],[-133.0,-59.5],[-132.0,-59.5],[-131.0,-60.0],[-131.6,-60.400000000000006],[-132.4,-60.60000000000001],[-133.0,-61.0],[-133.0,-62.0],[-132.0,-62.0],[-132.0,-63.0],[-131.5,-62.5],[-130.0,-62.5],[-129.66666666666669,-62.333333333333336],[-129.5,-62.0],[-129.5,-61.5],[-129.0,-61.0],[-128.0,-61.0],[-128.0,-60.0],[-125.71428571428571,-59.71428571428571],[-124.0,-60.0],[-123.0,-60.5],[-121.71428571428572,-60.28571428571428],[-121.5,-60.0],[-121.0,-59.8],[-119.0,-59.8],[-118.33333333333334,-60.333333333333336],[-115.71428571428571,-60.71428571428571],[-114.375,-61.375],[-113.60000000000001,-61.6],[-113.0,-62.0],[-112.7142857142857,-62.714285714285715],[-112.28571428571428,-62.714285714285715],[-111.5,-63.0],[-111.0,-63.5],[-110.60000000000001,-63.60000000000001],[-110.0,-64.0],[-109.33333333333334,-63.66666666666667],[-107.2,-63.8],[-106.0,-64.0],[-105.4,-64.4],[-105.0,-64.5],[-103.63636363636364,-64.63636363636364],[-102.0,-65.5],[-99.0,-65.6],[-97.0,-65.5],[-94.85714285714286,-65.85714285714286],[-94.36363636363637,-66.36363636363637],[-94.0,-66.5],[-92.8,-66.8],[-91.0,-67.0],[-88.66666666666667,-67.66666666666667],[-88.25,-68.25],[-87.66666666666667,-68.66666666666667],[-87.33333333333334,-69.33333333333334],[-86.60000000000001,-69.6],[-86.0,-70.0],[-85.4,-71.4],[-85.0,-71.5],[-84.66666666666667,-72.0],[-84.66666666666667,-73.0],[-84.5,-73.5],[-83.81818181818181,-73.81818181818181],[-83.5,-74.5],[-82.6,-75.60000000000001],[-82.33333333333334,-76.33333333333334],[-81.71428571428571,-76.71428571428572],[-81.66666666666667,-77.33333333333334],[-82.33333333333334,-77.66666666666667],[-82.5,-78.0],[-82.0,-78.5],[-81.5,-78.5],[-81.0,-79.0],[-78.0,-80.5],[-77.71428571428571,-80.28571428571428],[-77.4,-79.6],[-77.0,-79.33333333333334],[-76.5,-79.5],[-76.0,-80.0],[-76.0,-81.0],[-75.5,-80.5],[-75.0,-80.5],[-74.0,-81.0],[-72.0,-80.33333333333334],[-71.66666666666667,-80.33333333333334],[-71.0,-80.0],[-70.0,-80.0],[-69.6,-80.60000000000001],[-69.5,-81.0],[-69.18181818181819,-81.18181818181819],[-68.0,-81.4],[-67.63636363636364,-81.36363636363636],[-67.0,-81.0],[-66.0,-81.0],[-66.0,-82.0],[-65.0,-82.25],[-64.0,-82.0],[-63.0,-82.0],[-63.0,-81.0],[-62.4,-80.60000000000001],[-62.0,-80.5],[-61.0,-81.0],[-61.0,-83.0],[-62.0,-84.0],[-61.0,-84.25],[-59.8,-84.2],[-59.0,-84.0],[-57.75,-84.25]],[[-138.0,-60.0],[-137.4,-60.400000000000006],[-135.71428571428572,-60.28571428571428],[-135.5,-60.0],[-135.60000000000002,-59.6],[-136.4,-59.400000000000006],[-137.0,-59.0],[-138.0,-60.0]]],[[[-70.5,-11.5],[-69.5,-10.5],[-69.0,-10.5],[-68.60000000000001,-10.600000000000001],[-68.4,-11.400000000000002],[-68.0,-12.0],[-68.0,-13.0],[-69.0,-13.0],[-69.6,-12.6],[-70.4,-12.4],[-70.5,-11.5]]],[[[-73.0,-10.0],[-74.0,-11.0],[-74.5,-10.5],[-75.0,-10.0],[-74.0,-9.666666666666666],[-73.66666666666667,-9.666666666666668],[-73.0,-10.0]]],[[[7.0,-4.5],[10.177777777777777,-4.822222222222222],[11.117647058823529,-5.117647058823529],[12.652173913043478,-5.3478260869565215],[15.0,-5.428571428571428],[16.0,-5.2],[17.0,-5.2],[17.555555555555557,-5.444444444444444],[18.0,-6.0],[17.0,-7.5],[15.5,-8.5],[14.444444444444443,-9.444444444444445],[14.0,-10.333333333333332],[13.0,-11.0],[12.0,-11.4],[11.0,-12.333333333333334],[10.0,-12.666666666666668],[9.529411764705882,-12.470588235294116],[8.4,-10.600000000000001],[8.200000000000001,-10.0],[7.0,-9.0],[6.0,-8.75],[4.235294117647059,-9.235294117647058],[2.0,-9.333333333333334],[0.8947368421052632,-9.894736842105264],[0.33333333333333337,-10.333333333333334],[0.07692307692307693,-11.076923076923078],[-0.45454545454545453,-11.545454545454547],[-0.8181818181818181,-12.181818181818183],[-1.6666666666666665,-13.0],[-1.7647058823529411,-13.235294117647058],[-2.75,-14.0],[-3.0,-15.0],[-3.5384615384615383,-15.461538461538462],[-4.0,-15.75],[-5.2,-15.8],[-6.0,-16.0],[-7.0,-16.0],[-7.75,-16.25],[-8.0,-16.5],[-8.5,-16.5],[-9.0,-16.0],[-9.5,-16.5],[-10.0,-16.5],[-10.5,-16.0],[-11.53846153846154,-15.53846153846154],[-12.0,-15.0],[-12.647058823529411,-14.647058823529411],[-14.0,-14.25],[-16.153846153846153,-13.153846153846153],[-16.733333333333334,-12.733333333333334],[-17.166666666666664,-12.166666666666668],[-17.333333333333336,-10.666666666666668],[-17.0,-10.0],[-16.400000000000002,-9.600000000000001],[-15.0,-9.25],[-14.136363636363637,-8.863636363636363],[-12.0,-8.85],[-11.0,-8.588235294117647],[-8.783783783783784,-7.216216216216216],[-8.0,-7.0],[-6.8125,-6.1875],[-6.0,-6.0],[-5.529411764705882,-5.470588235294118],[-4.5,-5.0],[-4.0,-4.571428571428571],[-2.5999999999999996,-4.0],[-0.6428571428571428,-3.642857142857143],[1.0,-3.5294117647058822],[1.3076923076923077,-3.6923076923076925],[2.1951219512195124,-3.8048780487804876],[5.25,-4.0],[7.0,-4.5]]],[[[27.0,0.7142857142857143],[27.15625,0.0],[26.72222222222222,0.0],[27.0,0.7142857142857143]]],[[[34.17391304347826,4.0],[34.0,3.8048780487804876],[32.93103448275862,4.0],[33.82222222222222,4.177777777777778],[34.17391304347826,4.0]]],[[[64.82222222222222,7.0],[65.0,7.444444444444445],[65.61538461538461,7.000000000000001],[65.0,6.771428571428571],[64.82222222222222,7.0]]],[[[44.30769230769231,8.0],[44.07692307692308,7.0],[42.8235294117647,7.0],[42.76470588235294,8.0],[44.30769230769231,8.0]]],[[[54.5,9.0],[55.0,9.5],[56.0,9.25],[56.166666666666664,8.833333333333334],[56.00000000000001,8.200000000000001],[55.41176470588235,8.411764705882353],[55.0,8.411764705882353],[54.5,9.0]]],[[[110.0,-63.0],[111.0,-62.0],[112.0,-62.0],[112.0,-65.0],[111.0,-65.0],[110.4,-64.6],[110.0,-64.5],[109.5,-64.0],[110.0,-63.0]]],[[[-6.142857142857142,-87.85714285714286],[-5.25,-87.75],[-3.0,-87.85714285714286],[2.0,-87.20000000000002],[4.0,-87.33333333333334],[5.0,-87.20000000000002],[7.0,-87.28571428571429],[8.0,-87.16666666666667],[9.0,-87.28571428571429],[11.0,-87.0],[12.0,-87.16666666666667],[13.0,-87.0],[14.0,-87.0],[15.0,-87.16666666666667],[18.0,-87.16666666666667],[19.0,-87.0],[20.0,-87.4],[21.0,-87.0],[22.0,-87.25],[24.0,-87.4],[26.0,-87.0],[26.833333333333336,-87.16666666666667],[28.0,-87.0],[37.0,-87.0],[39.6,-87.4],[42.0,-87.5],[47.0,-87.375],[56.0,-87.5],[60.0,-87.375],[62.0,-87.0],[63.00000000000001,-87.14285714285715],[64.0,-87.0],[66.0,-87.0],[66.60000000000001,-86.60000000000001],[67.4,-86.4],[68.0,-86.0],[68.66666666666667,-86.33333333333334],[69.28571428571428,-86.28571428571428],[70.0,-86.0],[69.33333333333334,-85.66666666666667],[69.0,-85.0],[70.0,-84.4],[71.44444444444444,-84.44444444444443],[72.19999999999999,-84.2],[73.0,-83.75],[74.0,-83.8],[76.0,-83.33333333333334],[78.18181818181819,-83.18181818181819],[79.0,-82.83333333333334],[83.19999999999999,-82.8],[85.0,-82.66666666666666],[88.0,-82.0],[89.0,-81.875],[90.0,-82.0],[91.0,-81.66666666666667],[94.33333333333334,-82.33333333333334],[95.0,-82.25],[96.25,-81.75],[97.6,-81.60000000000001],[100.0,-81.66666666666667],[101.33333333333334,-81.33333333333334],[102.0,-81.0],[103.66666666666669,-80.66666666666667],[104.4,-80.4],[105.0,-80.0],[106.0,-80.33333333333334],[107.0,-80.0],[107.5,-79.5],[108.0,-78.5],[108.33333333333334,-78.33333333333334],[108.5,-78.0],[108.5,-77.0],[108.4,-76.60000000000001],[108.0,-76.0],[107.75,-75.0],[107.81818181818181,-74.81818181818181],[109.0,-74.0],[110.0,-74.0],[110.60000000000001,-73.60000000000001],[111.0,-73.0],[112.0,-73.0],[112.22222222222223,-72.22222222222223],[112.22222222222223,-71.77777777777777],[111.77777777777777,-71.22222222222221],[111.33333333333334,-70.0],[111.33333333333334,-69.0],[110.0,-67.0],[110.53846153846153,-66.53846153846155],[111.18181818181819,-66.18181818181819],[112.0,-66.0],[113.0,-66.0],[114.0,-66.16666666666667],[115.0,-66.0],[118.0,-66.33333333333334],[119.25,-66.25],[121.0,-65.5],[122.33333333333334,-65.33333333333334],[123.0,-64.75],[124.0,-65.0],[125.0,-65.0],[125.60000000000001,-65.4],[126.0,-65.5],[126.33333333333334,-65.33333333333334],[126.5,-65.0],[125.33333333333334,-63.00000000000001],[125.18181818181819,-62.81818181818182],[123.85714285714286,-62.14285714285714],[123.5,-61.5],[122.55555555555556,-60.444444444444436],[122.0,-59.5],[121.60000000000001,-59.400000000000006],[121.0,-59.0],[120.0,-59.0],[120.0,-60.0],[118.0,-60.0],[117.4,-59.6],[116.60000000000001,-59.400000000000006],[116.0,-59.0],[115.0,-59.0],[112.0,-57.5],[111.81818181818181,-57.18181818181819],[111.77777777777777,-54.77777777777778],[112.0,-54.0],[112.4,-53.400000000000006],[115.0,-52.0],[115.71428571428571,-52.285714285714285],[116.33333333333334,-52.33333333333334],[117.00000000000001,-52.333333333333336],[117.25,-52.0],[117.33333333333334,-50.66666666666667],[117.22222222222223,-49.77777777777778],[116.6923076923077,-48.30769230769231],[116.33333333333334,-46.66666666666667],[116.0,-46.0],[116.0,-44.0],[117.0,-43.0],[118.0,-43.0],[118.0,-42.0],[119.0,-42.0],[120.66666666666667,-41.66666666666667],[122.0,-41.0],[123.0,-40.66666666666667],[124.0,-40.5],[125.66666666666667,-39.66666666666667],[127.0,-39.5],[128.0,-38.66666666666667],[129.0,-38.5],[131.0,-37.5],[132.25,-37.75],[132.5,-38.0],[133.0,-38.2],[133.5,-38.0],[133.75,-37.75],[135.0,-37.333333333333336],[135.60000000000002,-37.4],[137.0,-38.0],[137.5,-39.0],[138.0,-39.333333333333336],[138.33333333333334,-39.333333333333336],[139.0,-39.0],[140.0,-40.0],[142.0,-40.0],[142.0,-39.0],[140.60000000000002,-38.4],[140.0,-38.0],[140.0,-37.0],[139.28571428571428,-36.714285714285715],[138.75,-36.25],[138.33333333333334,-35.0],[138.5,-34.0],[138.0,-33.5],[137.0,-33.0],[137.0,-32.0],[136.6,-31.400000000000002],[136.5,-31.0],[136.66666666666666,-30.0],[136.66666666666666,-29.0],[137.0,-28.0],[136.4,-26.6],[136.0,-26.0],[136.4,-25.400000000000002],[136.5,-25.0],[136.4,-24.6],[136.0,-24.0],[136.0,-23.0],[136.71428571428572,-21.714285714285715],[137.33333333333334,-21.333333333333336],[138.0,-20.0],[139.66666666666669,-19.666666666666668],[140.0,-19.5],[141.0,-19.5],[141.4,-19.400000000000002],[142.0,-19.0],[143.0,-19.0],[144.0,-18.666666666666668],[145.0,-19.0],[147.0,-19.0],[149.44444444444443,-19.555555555555554],[152.0,-19.5],[152.30769230769232,-19.307692307692307],[152.73333333333335,-18.733333333333334],[153.46153846153848,-18.46153846153846],[154.0,-18.0],[155.5,-17.5],[156.0,-17.0],[157.55555555555554,-16.555555555555554],[160.36363636363637,-15.363636363636363],[161.0,-14.5],[162.33333333333334,-14.333333333333334],[164.0,-13.666666666666666],[167.0,-13.5],[167.30769230769232,-13.307692307692308],[167.5,-13.0],[167.75,-11.75],[168.0,-11.5],[169.0,-11.0],[169.25,-10.0],[169.53846153846155,-9.53846153846154],[170.25,-9.25],[170.55555555555554,-8.555555555555555],[171.35294117647058,-8.352941176470587],[172.0,-7.8],[173.0,-7.8],[174.0,-7.4],[175.0,-7.5],[175.4,-7.4],[177.36363636363637,-6.363636363636363],[178.0,-5.75],[179.23529411764707,-5.235294117647059],[179.36363636363637,-5.0],[179.68,-2.68],[179.5,1.0],[179.25,2.0],[179.28571428571428,3.0],[179.44444444444443,3.5555555555555554],[180.0,4.0],[180.0,-90.0],[-9.0,-90.0],[-7.777777777777778,-89.22222222222223],[-6.5,-88.0],[-6.142857142857142,-87.85714285714286]],[[111.0,-79.0],[112.0,-79.0],[112.0,-77.0],[111.0,-77.0],[111.0,-79.0]],[[131.33333333333334,-68.0],[131.2,-67.8],[131.0,-67.66666666666667],[130.66666666666669,-67.66666666666667],[130.0,-68.0],[130.60000000000002,-68.4],[131.0,-68.5],[131.33333333333334,-68.33333333333334],[131.33333333333334,-68.0]],[[137.0,-76.0],[137.0,-77.0],[138.0,-77.0],[138.0,-76.0],[137.0,-76.0]],[[112.69230769230771,-87.3076923076923],[114.25,-87.25],[115.0,-87.0],[113.0,-86.6],[111.0,-87.0],[112.69230769230771,-87.3076923076923]]],[[[71.0,-37.64285714285714],[71.45454545454547,-38.0],[71.32786885245902,-38.32786885245902],[71.0,-38.66666666666667],[69.96428571428571,-38.0],[71.0,-37.64285714285714]]],[[[74.38709677419355,-27.0],[75.0,-26.387096774193548],[75.82608695652173,-27.0],[75.0,-27.76],[74.38709677419355,-27.0]]],[[[75.0,-13.642857142857142],[75.3409090909091,-14.0],[75.0,-14.535714285714285],[74.0,-14.333333333333332],[74.0,-13.88],[75.0,-13.642857142857142]]],[[[71.0,-2.2093023255813953],[70.3076923076923,-2.0],[70.5609756097561,-1.5609756097560976],[71.0,-1.4705882352941178],[71.15254237288136,-2.0],[71.0,-2.2093023255813953]]],[[[152.33333333333334,28.0],[152.6,27.6],[152.83333333333334,26.0],[152.8,24.000000000000004],[152.4,22.0],[152.5,18.0],[151.25,15.0],[150.5,14.0],[150.16666666666669,11.833333333333334],[150.0,11.5],[149.71428571428572,11.285714285714285],[149.5,10.0],[149.66666666666669,9.0],[149.5,8.0],[149.66666666666669,7.666666666666668],[149.71428571428572,6.7142857142857135],[150.0,6.0],[149.60000000000002,5.4],[148.7142857142857,3.2857142857142856],[148.0,2.0],[146.0,0.0],[145.6923076923077,-0.6923076923076923],[144.88235294117646,-0.8823529411764706],[144.42105263157893,-1.4210526315789473],[144.0,-1.6666666666666667],[143.33333333333334,-1.6666666666666665],[143.0,-1.5],[142.0,-1.6666666666666667],[141.0,-2.0],[140.4,-2.4],[140.0,-2.5],[139.60000000000002,-2.4],[139.0,-2.0],[138.55555555555554,-1.4444444444444444],[138.5,-1.0],[137.69230769230768,-0.3076923076923077],[137.5,0.0],[137.69230769230768,0.3076923076923077],[137.72727272727272,1.0],[138.0952380952381,1.9047619047619047],[138.22222222222223,3.0],[138.93939393939394,4.0606060606060606],[139.0909090909091,5.0],[139.58333333333334,5.416666666666667],[139.94520547945206,6.054794520547945],[140.05555555555557,6.944444444444444],[140.75,7.25],[141.35294117647058,9.647058823529411],[143.1,12.9],[143.43478260869566,14.565217391304348],[143.5,17.5],[143.6470588235294,18.352941176470587],[144.0,19.0],[144.44444444444446,23.0],[144.71428571428572,24.0],[144.55555555555554,25.0],[144.91666666666669,26.083333333333336],[145.0,27.0],[145.4,28.6],[145.625,31.0],[146.0,31.5],[149.0,32.25],[150.4,31.400000000000002],[151.30769230769232,30.307692307692307],[151.4,30.0],[152.16666666666666,29.166666666666664],[152.33333333333334,28.0]]],[[[179.22222222222223,7.0],[179.0,7.25],[178.4,7.4],[178.0,8.0],[177.0,8.0],[177.0,7.0],[176.0,7.0],[175.75,7.75],[175.33333333333334,8.333333333333334],[174.6,8.600000000000001],[174.0,9.0],[173.0,9.0],[172.71428571428572,10.285714285714285],[173.0,11.0],[172.6,11.600000000000001],[172.0,13.0],[171.40000000000003,13.4],[171.1818181818182,15.181818181818182],[170.8181818181818,15.818181818181818],[170.75,17.0],[170.4,18.0],[170.2,19.200000000000003],[170.16666666666669,21.0],[170.0,22.0],[170.33333333333334,22.666666666666668],[171.0,25.0],[172.0,26.5],[172.73333333333335,27.266666666666666],[173.375,27.625],[174.0,28.25],[176.0,29.333333333333336],[176.83333333333334,30.166666666666668],[178.0,31.0],[179.40816326530611,31.591836734693878],[179.76923076923077,32.0],[180.0,33.0],[180.0,28.0],[180.0,4.0],[179.44444444444443,4.444444444444445],[179.28571428571428,5.0],[179.22222222222223,7.0]]],[[[147.55555555555554,44.444444444444436],[147.33333333333334,44.0],[147.13333333333333,43.86666666666667],[146.0,43.75],[145.66666666666666,44.0],[146.44444444444446,44.55555555555555],[146.66666666666669,45.0],[149.0,45.5],[149.22222222222223,45.22222222222222],[149.13333333333333,44.86666666666667],[148.0,44.66666666666667],[147.55555555555554,44.444444444444436]]],[[[110.0,90.0],[110.640625,90.0],[110.0,89.6796875],[109.36923076923077,90.0],[110.0,90.0]]],[[[112.0,90.0],[112.640625,90.0],[112.0,89.6796875],[111.359375,90.0],[112.0,90.0]]],[[[115.0,90.0],[115.640625,90.0],[115.0,89.6796875],[114.38805970149254,90.0],[115.0,90.0]]],[[[117.0,90.0],[117.640625,90.0],[117.0,89.6796875],[116.359375,90.0],[117.0,90.0]]],[[[120.0,90.0],[120.640625,90.0],[120.0,89.6796875],[119.40579710144928,90.0],[120.0,90.0]]],[[[122.0,89.6796875],[121.359375,90.0],[122.640625,90.0],[122.0,89.6796875]]],[[[125.0,89.6796875],[124.41428571428571,90.0],[125.640625,90.0],[125.0,89.6796875]]]]}}]}