{"type":"FeatureCollection","features":[{"type":"Feature","properties":{"ageMa":430},"geometry":{"type":"MultiPolygon","coordinates":[[[[154.55555555555554,16.555555555555554],[155.0,16.2],[156.0,16.375],[156.27272727272725,16.272727272727273],[156.57894736842104,15.578947368421051],[157.34782608695653,15.347826086956522],[157.75,14.75],[158.75,14.0],[159.30769230769232,13.307692307692308],[160.0,13.0],[160.5,12.0],[161.32,11.32],[161.8,10.0],[162.44444444444443,9.444444444444445],[162.76,8.76],[164.3846153846154,7.384615384615383],[164.76,6.76],[165.35714285714286,6.357142857142858],[165.62962962962962,5.629629629629629],[166.24,5.24],[166.8095238095238,3.8095238095238093],[167.35714285714283,3.357142857142857],[167.6153846153846,2.615384615384615],[168.23076923076923,2.230769230769231],[168.5,0.5],[169.0,0.0],[169.28571428571428,-0.7142857142857142],[169.6470588235294,-3.352941176470588],[170.65217391304347,-6.3478260869565215],[171.21052631578948,-6.789473684210526],[172.0,-7.75],[173.0,-7.833333333333334],[173.54545454545453,-8.454545454545453],[174.33333333333334,-8.666666666666668],[174.6551724137931,-9.344827586206897],[175.37037037037038,-9.62962962962963],[175.625,-10.0],[175.66666666666669,-10.333333333333334],[176.40000000000003,-10.600000000000001],[176.66666666666669,-11.333333333333334],[177.3,-11.7],[177.55555555555554,-12.444444444444445],[178.0,-13.0],[178.75,-15.25],[179.25806451612902,-15.741935483870968],[179.72727272727272,-17.0],[179.8,-18.0],[180.0,-18.4],[180.0,-90.0],[-180.0,-90.0],[-180.0,-18.4],[-179.30188679245282,-20.30188679245283],[-178.72727272727272,-20.727272727272727],[-178.21052631578948,-22.210526315789473],[-177.0,-23.0],[-175.63636363636363,-24.636363636363637],[-175.0,-27.0],[-174.88888888888889,-27.88888888888889],[-174.39999999999998,-29.0],[-173.75,-29.75],[-173.45454545454544,-30.454545454545453],[-173.0,-31.0],[-171.89473684210526,-31.894736842105264],[-171.40000000000003,-33.4],[-170.88888888888889,-33.88888888888889],[-170.5,-34.5],[-169.4,-35.400000000000006],[-167.875,-35.875],[-167.4,-36.400000000000006],[-166.76470588235293,-36.76470588235294],[-166.33333333333334,-37.333333333333336],[-165.66666666666669,-37.66666666666667],[-165.0,-38.25],[-163.7142857142857,-38.71428571428571],[-163.33333333333334,-39.333333333333336],[-163.0,-39.6],[-162.0,-39.8],[-161.45454545454544,-40.45454545454545],[-161.0,-40.71428571428571],[-159.88235294117646,-40.88235294117647],[-159.25,-41.25],[-157.66666666666669,-41.66666666666667],[-155.0,-42.0],[-154.375,-42.375],[-153.0,-42.57142857142857],[-151.0,-42.42857142857143],[-150.0,-42.75],[-148.0,-43.0],[-146.22222222222223,-42.77777777777778],[-144.77777777777777,-42.77777777777778],[-143.875,-42.875],[-142.0,-43.42857142857143],[-139.0,-43.54545454545455],[-137.0,-44.0],[-136.28571428571428,-43.71428571428571],[-135.0,-43.54545454545455],[-134.0,-43.66666666666667],[-131.0,-43.66666666666667],[-130.125,-44.125],[-128.0,-44.77777777777778],[-127.0,-44.75],[-126.0,-45.0],[-125.0,-44.83333333333333],[-124.0,-45.0],[-122.76470588235296,-45.76470588235294],[-122.66666666666667,-46.0],[-123.0,-46.5],[-124.15384615384615,-46.84615384615385],[-125.34782608695653,-47.65217391304348],[-126.72727272727272,-48.272727272727266],[-130.74193548387098,-48.74193548387097],[-132.72727272727272,-49.272727272727266],[-134.0,-49.33333333333333],[-135.0,-49.66666666666667],[-136.0,-49.75],[-136.75,-50.25],[-138.23529411764707,-50.76470588235294],[-138.5,-51.0],[-138.60000000000002,-51.400000000000006],[-139.0,-52.0],[-137.55555555555554,-52.55555555555555],[-136.44444444444443,-53.444444444444436],[-135.77777777777777,-53.77777777777777],[-135.33333333333334,-54.333333333333336],[-134.33333333333334,-55.0],[-133.6923076923077,-55.69230769230769],[-133.0,-56.0],[-131.75,-58.0],[-131.2,-59.2],[-131.2,-60.2],[-131.0,-61.0],[-132.0,-61.66666666666667],[-132.5,-62.5],[-133.0,-63.0],[-132.5,-63.5],[-131.85714285714286,-63.85714285714286],[-131.5,-64.5],[-131.0,-65.0],[-130.8181818181818,-65.81818181818181],[-130.66666666666666,-66.0],[-130.75,-67.0],[-131.73333333333332,-68.26666666666667],[-132.3,-68.7],[-132.61904761904762,-69.38095238095238],[-134.35294117647058,-70.6470588235294],[-134.84615384615384,-71.15384615384616],[-136.0,-71.5],[-137.0,-71.4],[-138.0,-71.57142857142857],[-139.0,-71.83333333333333],[-139.2,-72.0],[-140.0,-73.0],[-139.2,-75.0],[-139.0,-75.14285714285715],[-136.85714285714286,-75.14285714285714],[-134.0,-75.4],[-133.0,-75.33333333333334],[-130.0,-75.6],[-127.0,-75.5],[-126.0,-75.6],[-122.0,-75.44444444444446],[-121.00000000000001,-75.2],[-119.0,-75.2],[-117.08333333333333,-74.91666666666666],[-113.0,-74.75],[-112.4,-74.6],[-111.10526315789474,-73.89473684210526],[-110.0,-73.66666666666666],[-107.0,-73.42857142857143],[-105.28571428571428,-72.71428571428571],[-103.60000000000001,-72.4],[-103.0,-72.0],[-102.0,-72.0],[-100.5,-71.5],[-99.16666666666667,-70.83333333333333],[-96.625,-70.375],[-96.13333333333333,-69.86666666666667],[-93.85714285714285,-69.14285714285714],[-93.33333333333334,-68.66666666666667],[-91.61904761904762,-68.38095238095238],[-91.0,-68.0],[-90.0,-68.0],[-89.36363636363636,-67.63636363636364],[-88.6,-67.4],[-88.33333333333334,-67.0],[-88.5,-66.5],[-89.0,-66.33333333333334],[-89.44444444444444,-65.44444444444444],[-91.13333333333334,-64.13333333333333],[-91.33333333333334,-63.0],[-91.63636363636364,-62.63636363636363],[-92.28571428571428,-62.285714285714285],[-93.0,-61.0],[-93.28571428571428,-60.0],[-93.0,-59.5],[-92.33333333333333,-59.0],[-92.0,-58.5],[-91.5,-58.5],[-91.0,-59.0],[-90.0,-59.0],[-89.5,-60.0],[-89.66666666666667,-61.0],[-89.5,-61.5],[-89.0,-62.0],[-88.4,-61.6],[-87.5,-60.0],[-87.6,-59.6],[-88.0,-59.0],[-87.0,-58.0],[-86.44444444444444,-56.55555555555556],[-86.0,-56.5],[-85.0,-56.0],[-85.0,-55.0],[-84.4,-54.6],[-83.6,-54.400000000000006],[-82.5,-53.5],[-82.0,-53.5],[-81.0,-53.25],[-79.0,-51.8],[-76.0,-51.42857142857143],[-75.0,-51.69230769230769],[-74.85185185185185,-51.851851851851855],[-73.91666666666666,-52.0],[-73.47826086956522,-52.47826086956522],[-72.4,-53.0],[-72.26666666666667,-53.266666666666666],[-70.44444444444444,-54.0],[-68.68421052631578,-55.684210526315795],[-67.93333333333334,-56.0],[-67.6,-56.6],[-67.125,-57.0],[-66.26086956521739,-58.26086956521739],[-65.57142857142857,-59.0],[-65.33333333333334,-60.333333333333336],[-64.28571428571428,-62.285714285714285],[-63.315789473684205,-63.315789473684205],[-62.7,-63.7],[-61.2,-65.2],[-60.60000000000001,-65.60000000000001],[-60.34782608695652,-66.34782608695653],[-60.0,-66.8],[-59.333333333333336,-67.33333333333334],[-58.647058823529406,-67.6470588235294],[-58.11764705882353,-68.11764705882354],[-56.647058823529406,-68.6470588235294],[-56.25,-69.0],[-54.347826086956516,-69.34782608695653],[-53.60000000000001,-69.6],[-53.0,-70.0],[-52.00000000000001,-70.14285714285715],[-50.833333333333336,-70.83333333333333],[-50.0,-71.0],[-49.3,-71.3],[-48.0,-71.5],[-44.0,-71.61538461538461],[-42.25,-72.0],[-41.38461538461538,-72.38461538461539],[-39.78260869565217,-72.78260869565217],[-36.0,-73.0],[-35.0,-73.33333333333334],[-31.0,-73.5],[-30.0,-73.64285714285714],[-29.0,-74.0],[-29.363636363636367,-74.63636363636363],[-30.71428571428571,-75.28571428571428],[-31.25,-75.75],[-31.333333333333336,-76.0],[-31.733333333333334,-76.26666666666667],[-32.6,-76.4],[-35.0,-76.55555555555556],[-40.0,-76.33333333333333],[-42.0,-76.0],[-43.0,-76.0],[-44.0,-76.4],[-47.0,-76.5],[-48.0,-76.66666666666667],[-53.0,-76.85714285714286],[-54.0,-76.625],[-56.0,-77.44444444444444],[-58.0,-77.28571428571428],[-66.0,-77.625],[-67.0,-78.0],[-68.0,-78.0],[-70.0,-78.4],[-73.0,-78.25],[-77.0,-78.45454545454545],[-79.0,-78.375],[-81.0,-78.54545454545453],[-83.0,-78.83333333333334],[-84.69999999999999,-79.3],[-87.0,-79.5],[-92.0,-80.28571428571429],[-93.28571428571428,-80.71428571428572],[-94.0,-81.33333333333334],[-95.60000000000001,-81.4],[-96.4,-81.60000000000001],[-97.0,-82.0],[-99.0,-82.0],[-99.0,-83.0],[-96.0,-83.0],[-95.33333333333334,-82.66666666666667],[-92.0,-82.71428571428571],[-90.0,-83.0],[-89.28571428571428,-83.28571428571428],[-86.72727272727272,-83.72727272727272],[-85.42105263157895,-84.42105263157893],[-83.0,-84.45454545454544],[-82.0,-84.66666666666667],[-79.0,-84.45454545454544],[-72.0,-84.5],[-67.0,-84.375],[-65.0,-84.5],[-64.0,-84.16666666666667],[-62.166666666666664,-83.83333333333334],[-61.0,-83.71428571428571],[-60.0,-84.0],[-58.0,-83.57142857142858],[-56.0,-83.375],[-53.0,-83.5],[-50.85714285714286,-83.85714285714286],[-50.0,-84.14285714285714],[-46.0,-84.0],[-42.0,-83.57142857142858],[-41.0,-83.71428571428571],[-40.0,-83.625],[-39.0,-83.75],[-38.0,-83.625],[-35.733333333333334,-83.73333333333333],[-34.0,-84.0],[-33.142857142857146,-83.85714285714286],[-32.0,-84.0],[-31.0,-83.83333333333333],[-30.0,-84.0],[-29.0,-84.0],[-28.0,-84.5],[-27.0,-84.4],[-26.0,-84.57142857142857],[-24.0,-84.25],[-23.0,-84.66666666666667],[-21.0,-84.42857142857142],[-19.0,-84.625],[-12.0,-84.45454545454544],[-4.0,-84.5],[-3.0,-84.71428571428572],[0.0,-84.5],[1.0,-84.55555555555554],[2.0,-84.83333333333334],[5.0,-84.5],[6.285714285714285,-84.71428571428571],[6.882352941176471,-85.11764705882354],[8.0,-85.16666666666667],[9.0,-85.44444444444444],[12.25,-85.25],[14.0,-84.66666666666667],[15.153846153846153,-84.84615384615384],[16.684210526315788,-85.3157894736842],[18.0,-85.44444444444444],[19.0,-85.71428571428572],[20.0,-85.66666666666666],[21.0,-85.83333333333334],[22.57894736842105,-85.57894736842105],[27.0,-85.5],[28.0,-85.375],[29.0,-85.5],[33.0,-85.28571428571428],[36.0,-85.375],[38.0,-85.8],[38.77777777777778,-86.22222222222223],[40.0,-86.5],[42.14285714285714,-86.14285714285714],[43.647058823529406,-85.6470588235294],[45.333333333333336,-85.66666666666667],[47.0,-85.44444444444444],[52.0,-85.44444444444444],[54.0,-85.66666666666666],[57.0,-85.5],[58.0,-85.33333333333334],[59.0,-85.5],[60.0,-85.25],[61.0,-85.25],[62.0,-85.0],[62.714285714285715,-85.28571428571428],[64.0,-85.4],[65.0,-85.0],[65.83333333333334,-84.83333333333334],[67.0,-85.0],[67.5,-84.5],[68.33333333333334,-84.0],[69.33333333333334,-82.33333333333334],[69.81818181818181,-80.81818181818181],[70.33333333333334,-80.0],[70.28571428571428,-79.71428571428571],[69.0,-79.25],[68.0,-79.2],[67.83333333333334,-79.0],[67.88235294117648,-78.88235294117646],[69.0,-78.8],[70.0,-78.33333333333334],[70.4,-78.4],[71.5,-77.5],[71.66666666666667,-77.0],[72.0,-76.66666666666666],[72.5,-76.5],[73.0,-76.0],[75.0,-76.0],[76.0,-75.66666666666667],[78.0,-75.5],[79.14285714285714,-75.85714285714286],[79.6470588235294,-76.35294117647058],[83.14285714285714,-76.85714285714286],[83.5,-77.0],[84.33333333333334,-77.66666666666667],[89.0,-77.5],[90.0,-77.625],[91.0,-77.57142857142857],[92.91304347826086,-78.08695652173914],[93.83333333333334,-78.16666666666667],[95.0,-78.0],[97.00000000000001,-78.05263157894738],[99.60000000000001,-78.4],[102.0,-79.0],[102.92592592592594,-79.07407407407406],[106.0,-80.0],[106.85714285714286,-79.85714285714286],[108.0,-79.85714285714286],[109.0,-79.625],[112.0,-79.66666666666666],[113.06666666666666,-80.06666666666668],[116.0,-80.0],[119.3157894736842,-80.68421052631578],[121.0,-81.25],[125.0,-80.85714285714286],[128.61904761904762,-81.38095238095238],[131.0,-81.3076923076923],[133.0,-81.4],[136.0,-81.0],[137.0,-81.28571428571429],[137.89473684210526,-80.89473684210526],[139.125,-80.875],[141.0,-81.0],[142.0,-81.25],[143.0,-81.0],[144.0,-81.0],[145.0,-81.5],[145.4,-81.4],[146.0,-81.0],[146.66666666666669,-81.33333333333334],[147.28571428571428,-81.28571428571428],[148.0,-81.0],[149.0,-81.0],[149.0,-82.0],[150.0,-82.0],[150.0,-81.0],[152.0,-81.0],[152.0,-80.0],[150.0,-80.0],[150.0,-79.0],[149.5,-79.5],[149.0,-79.5],[148.60000000000002,-79.4],[148.5,-79.0],[148.0,-78.66666666666667],[146.6,-78.4],[146.5,-78.0],[146.14285714285714,-77.85714285714286],[144.0,-77.5],[142.86666666666667,-77.13333333333333],[142.0,-77.0],[141.0,-76.57142857142857],[139.5,-76.5],[137.0,-76.0],[136.22222222222223,-76.22222222222223],[135.78947368421052,-76.21052631578948],[135.33333333333334,-76.0],[134.63636363636363,-75.36363636363637],[134.0,-75.0],[133.0,-75.42857142857143],[131.0,-75.375],[129.4,-74.6],[126.72727272727272,-74.27272727272727],[126.00000000000001,-73.80000000000001],[124.64285714285714,-73.35714285714286],[124.0,-72.6],[123.57142857142857,-72.42857142857143],[123.0,-72.28571428571429],[122.0,-72.375],[121.0,-71.66666666666667],[119.60000000000001,-71.4],[118.23529411764706,-70.76470588235294],[116.66666666666667,-70.33333333333334],[116.0,-70.0],[113.0,-69.16666666666666],[112.0,-69.0],[111.4,-68.60000000000001],[110.58333333333334,-68.41666666666667],[108.0,-67.375],[106.88235294117646,-67.11764705882354],[106.36363636363636,-66.63636363636364],[105.63636363636364,-66.36363636363637],[104.46153846153847,-65.53846153846155],[103.0,-63.75],[102.0,-63.2],[101.44444444444443,-62.55555555555555],[100.72727272727272,-62.272727272727266],[100.57142857142857,-62.0],[100.5,-61.0],[100.75,-59.75],[101.0,-59.66666666666667],[101.22222222222223,-59.77777777777778],[101.60000000000001,-60.400000000000006],[102.0,-60.66666666666667],[103.0,-60.0],[103.0,-58.0],[103.60000000000001,-58.400000000000006],[105.0,-58.25],[106.0,-58.0],[108.0,-58.0],[108.60000000000001,-58.400000000000006],[109.0,-58.5],[109.33333333333334,-58.33333333333334],[109.75,-57.75],[110.0,-57.66666666666667],[112.0,-57.66666666666667],[113.0,-57.33333333333334],[114.0,-57.66666666666667],[115.0,-57.0],[115.66666666666669,-57.333333333333336],[117.0,-57.5],[118.4,-57.4],[119.0,-57.0],[118.4,-56.6],[118.0,-56.5],[117.42857142857143,-55.57142857142858],[116.75,-55.0],[116.60000000000001,-54.400000000000006],[116.0,-54.0],[116.0,-53.0],[115.0,-53.0],[114.5,-52.0],[114.66666666666667,-50.66666666666667],[115.4,-49.400000000000006],[115.33333333333334,-49.0],[115.75,-48.75],[116.63636363636364,-48.63636363636364],[117.36363636363636,-48.36363636363636],[117.86666666666667,-47.86666666666667],[120.23529411764706,-47.23529411764706],[120.7,-46.7],[121.0,-46.57142857142857],[122.0,-46.57142857142857],[123.0,-47.0],[124.0,-47.0],[125.0,-47.333333333333336],[125.26666666666668,-47.266666666666666],[125.75,-46.75],[127.0,-46.25],[127.66666666666669,-46.333333333333336],[128.0,-46.5],[128.5,-46.5],[128.5,-46.0],[129.25,-45.25],[129.2,-44.8],[128.8181818181818,-44.18181818181819],[129.4,-42.4],[129.25,-40.25],[129.25,-39.0],[129.39999999999998,-38.0],[130.0,-36.666666666666664],[131.0,-36.0],[131.5,-35.5],[131.66666666666669,-35.0],[132.0,-34.666666666666664],[134.0,-33.5],[134.5,-33.0],[135.22222222222223,-32.77777777777778],[135.77777777777777,-32.77777777777778],[137.5,-32.0],[138.66666666666669,-31.66666666666667],[141.4,-31.400000000000002],[142.0,-30.833333333333336],[143.0,-31.0],[142.6,-31.6],[142.5,-32.0],[143.0,-32.25],[144.0,-32.4],[147.0,-32.333333333333336],[147.5,-32.0],[147.66666666666669,-31.66666666666667],[149.0,-31.0],[148.0,-30.0],[148.75,-29.75],[149.0,-29.0],[150.0,-28.666666666666664],[150.9047619047619,-27.904761904761905],[152.46153846153845,-27.461538461538463],[152.9047619047619,-26.904761904761905],[154.28571428571428,-26.285714285714285],[154.8,-25.8],[155.28571428571428,-24.285714285714285],[156.0,-24.0],[156.0,-23.0],[156.4,-22.4],[156.5,-22.0],[156.4,-21.6],[156.0,-21.5],[155.5,-21.0],[155.5,-20.0],[156.33333333333334,-18.0],[156.0,-17.5],[155.66666666666669,-17.333333333333336],[155.0,-16.0],[154.0,-14.666666666666668],[153.4,-13.600000000000001],[152.44444444444443,-12.555555555555555],[151.76923076923077,-12.23076923076923],[151.37037037037035,-11.629629629629628],[150.68,-11.32],[150.1904761904762,-10.80952380952381],[148.0,-9.8],[147.0,-9.0],[146.875,-8.0],[146.5,-7.0],[146.36363636363637,-5.636363636363637],[146.0,-5.0],[147.4,-4.4],[148.0,-4.0],[149.0,-3.6],[150.28571428571428,-3.2857142857142856],[150.86666666666667,-2.8666666666666663],[152.22222222222223,-2.2222222222222223],[152.75,-1.0],[152.66666666666669,0.0],[152.0,1.3333333333333335],[149.55555555555554,2.555555555555556],[148.8,2.8],[148.0,3.25],[147.6470588235294,3.6470588235294112],[147.5,4.0],[147.4,5.0],[146.85714285714286,6.0],[146.71428571428572,8.0],[146.44444444444446,9.0],[146.44444444444446,10.0],[146.0,12.0],[146.66666666666669,14.0],[146.60000000000002,15.0],[146.71428571428572,15.285714285714285],[147.30769230769232,15.692307692307693],[148.0,17.0],[149.0,17.5],[149.42857142857142,17.42857142857143],[150.0,17.0],[151.1818181818182,16.81818181818182],[152.0,17.0],[152.66666666666669,17.333333333333336],[154.0,17.333333333333332],[154.21052631578948,17.210526315789473],[154.55555555555554,16.555555555555554]],[[128.5,-47.0],[129.0,-47.2],[129.5,-47.0],[129.33333333333334,-46.66666666666667],[129.0,-46.5],[128.5,-46.5],[128.5,-47.0]],[[174.875,-10.875],[174.86666666666667,-11.133333333333333],[175.15384615384613,-11.153846153846153],[175.2,-10.8],[174.875,-10.875]],[[-173.75,-86.0],[-174.25,-86.0],[-174.16666666666669,-86.16666666666666],[-174.0,-86.25],[-173.83333333333334,-86.16666666666666],[-173.75,-86.0]],[[-169.0,-63.25],[-166.0,-64.33333333333334],[-165.0,-64.0],[-164.5,-63.5],[-163.66666666666669,-63.333333333333336],[-163.4,-62.6],[-163.0,-62.0],[-163.0,-61.0],[-163.5,-61.5],[-164.0,-61.5],[-165.0,-61.0],[-167.0,-61.0],[-167.71428571428572,-61.28571428571428],[-171.0,-61.5],[-172.0,-62.0],[-171.0,-63.0],[-170.0,-63.0],[-169.0,-63.25]],[[122.0,-58.5],[122.25,-58.0],[122.00000000000001,-57.85714285714286],[120.77777777777777,-57.77777777777777],[120.0,-58.0],[121.66666666666669,-58.33333333333334],[122.0,-58.5]],[[-163.0,-88.5],[-163.75,-87.75],[-164.36363636363637,-87.36363636363637],[-167.0,-87.0],[-168.0,-87.0],[-168.4,-87.6],[-168.5,-88.0],[-168.28571428571428,-88.28571428571428],[-167.8,-88.8],[-166.15384615384616,-89.15384615384616],[-165.0,-89.2],[-164.0,-89.4],[-162.0,-89.0],[-162.6,-88.6],[-163.0,-88.5]]],[[[-133.0,-35.0],[-132.6923076923077,-36.69230769230769],[-132.76470588235293,-37.23529411764706],[-133.28571428571428,-37.71428571428571],[-133.65217391304347,-38.347826086956516],[-135.75,-39.25],[-136.23529411764707,-39.23529411764706],[-136.94736842105263,-38.94736842105263],[-139.71428571428572,-38.71428571428571],[-140.0,-38.0],[-140.57894736842104,-37.578947368421055],[-141.0,-36.333333333333336],[-141.33333333333334,-36.0],[-141.0,-35.5],[-140.57894736842104,-34.421052631578945],[-139.75,-34.0],[-139.4,-33.6],[-138.77777777777777,-33.22222222222222],[-138.31578947368422,-32.68421052631579],[-137.0,-32.42857142857143],[-135.66666666666669,-32.66666666666667],[-135.0,-33.333333333333336],[-134.0,-33.400000000000006],[-133.66666666666669,-33.66666666666667],[-133.0,-35.0]]],[[[-20.5,-29.0],[-20.666666666666668,-30.0],[-21.461538461538463,-30.53846153846154],[-21.857142857142858,-31.0],[-23.0,-31.363636363636363],[-24.0,-31.5],[-25.040816326530614,-31.959183673469386],[-25.876543209876544,-32.123456790123456],[-27.428571428571427,-33.0],[-28.794117647058822,-33.205882352941174],[-29.0,-33.4375],[-30.0,-33.714285714285715],[-32.0,-33.84615384615385],[-34.0,-33.714285714285715],[-36.25,-34.25],[-37.0,-34.33333333333333],[-37.22222222222222,-34.22222222222222],[-37.33333333333333,-34.0],[-37.10810810810811,-33.891891891891895],[-37.0,-33.333333333333336],[-36.66666666666667,-33.0],[-36.06666666666667,-32.93333333333334],[-35.529411764705884,-32.470588235294116],[-35.333333333333336,-32.0],[-34.166666666666664,-31.833333333333336],[-33.08888888888889,-30.91111111111111],[-32.3,-30.700000000000003],[-31.106382978723403,-29.893617021276597],[-29.296296296296298,-29.703703703703702],[-28.22222222222222,-29.0],[-26.625,-28.625],[-26.0,-28.333333333333336],[-25.0,-28.10526315789474],[-23.085106382978722,-28.085106382978722],[-22.166666666666668,-28.166666666666664],[-20.5,-29.0]]],[[[-143.0,-28.333333333333332],[-143.66666666666669,-29.333333333333336],[-145.0,-29.66666666666667],[-146.0,-29.6],[-146.60000000000002,-29.0],[-147.45454545454547,-28.454545454545453],[-147.71428571428572,-28.0],[-148.0,-27.0],[-148.0,-26.0],[-146.75,-25.25],[-145.13333333333333,-24.866666666666667],[-144.0,-25.0],[-141.77777777777777,-25.77777777777778],[-141.60000000000002,-26.0],[-141.5,-27.0],[-141.66666666666669,-27.333333333333336],[-143.0,-28.333333333333332]]],[[[-13.833333333333332,-27.166666666666668],[-15.0,-27.333333333333336],[-15.210526315789473,-27.789473684210524],[-16.0,-27.928571428571427],[-18.0,-28.0],[-19.0,-28.200000000000003],[-19.2,-28.0],[-19.8,-27.8],[-19.935483870967744,-27.0],[-19.650793650793652,-26.349206349206348],[-19.214285714285715,-26.0],[-17.0,-24.814814814814817],[-15.666666666666668,-24.666666666666668],[-15.125,-24.875],[-14.0,-25.0],[-13.4,-25.400000000000002],[-13.2,-26.8],[-13.833333333333332,-27.166666666666668]]],[[[-152.52,-24.48],[-153.0,-24.666666666666668],[-153.07142857142858,-24.928571428571427],[-154.93939393939394,-24.939393939393938],[-155.20689655172413,-24.79310344827586],[-155.75757575757575,-24.757575757575758],[-156.0,-24.42857142857143],[-156.28571428571428,-24.285714285714285],[-156.42857142857144,-24.0],[-156.5,-23.0],[-156.3,-22.700000000000003],[-154.82608695652175,-22.17391304347826],[-153.11111111111111,-22.11111111111111],[-152.42857142857144,-22.42857142857143],[-152.0,-23.0],[-152.0,-24.0],[-152.52,-24.48]]],[[[-167.14285714285717,-16.0],[-167.42105263157896,-16.57894736842105],[-168.5,-17.0],[-168.66666666666666,-18.0],[-169.0,-18.333333333333336],[-169.22222222222223,-18.22222222222222],[-169.61904761904762,-17.619047619047617],[-170.0,-17.5],[-171.0,-17.666666666666668],[-171.5,-17.5],[-172.13333333333333,-17.133333333333333],[-172.57894736842104,-16.57894736842105],[-172.75,-15.0],[-172.44444444444446,-14.0],[-172.0,-13.428571428571427],[-171.0,-13.5],[-170.7741935483871,-13.774193548387096],[-170.24242424242425,-13.757575757575758],[-168.96774193548387,-14.0],[-168.5,-14.5],[-167.71428571428572,-15.0],[-167.14285714285717,-16.0]]],[[[-55.0,-14.5],[-57.6,-14.600000000000001],[-59.0,-14.5],[-59.36363636363636,-14.363636363636363],[-59.66666666666667,-14.0],[-59.44444444444444,-13.555555555555555],[-59.0,-13.200000000000001],[-57.84615384615385,-13.153846153846153],[-55.0,-13.5],[-54.61904761904761,-13.619047619047617],[-54.2,-14.000000000000002],[-54.61904761904761,-14.38095238095238],[-55.0,-14.5]]],[[[7.513513513513514,1.5135135135135136],[8.6,1.0],[8.714285714285714,0.7142857142857142],[9.285714285714285,0.2857142857142857],[9.714285714285714,0.2857142857142857],[10.5,0.0],[10.692307692307693,-0.3076923076923077],[11.0,-0.4],[11.2,-0.8],[12.0,-1.0],[12.470588235294116,-1.5294117647058822],[14.0,-2.3333333333333335],[14.200000000000001,-2.8],[14.655172413793103,-3.344827586206897],[15.0,-3.5555555555555554],[15.542857142857143,-4.457142857142856],[16.53846153846154,-5.461538461538463],[17.333333333333332,-6.0],[17.8,-9.0],[17.8,-10.0],[17.0,-11.75],[16.75,-12.0],[16.333333333333336,-13.333333333333336],[15.88888888888889,-13.88888888888889],[15.285714285714285,-16.285714285714285],[14.38095238095238,-18.38095238095238],[13.88888888888889,-18.88888888888889],[13.142857142857142,-20.142857142857142],[11.38095238095238,-22.38095238095238],[10.0,-23.0],[9.0,-22.800000000000004],[7.777777777777778,-22.77777777777778],[7.0,-23.0],[6.222222222222222,-22.77777777777778],[1.8,-22.799999999999997],[-1.3333333333333333,-23.666666666666668],[-3.0,-24.4],[-4.0,-25.0],[-6.6000000000000005,-27.0],[-7.885714285714286,-27.114285714285714],[-9.0,-27.444444444444443],[-10.0,-27.333333333333336],[-11.428571428571429,-27.42857142857143],[-12.285714285714285,-27.285714285714285],[-12.666666666666668,-27.000000000000004],[-11.571428571428571,-25.42857142857143],[-11.4,-25.0],[-11.4,-24.0],[-11.25,-23.75],[-10.53846153846154,-23.461538461538463],[-10.0,-23.0],[-8.75,-22.25],[-8.333333333333334,-21.666666666666668],[-7.666666666666668,-21.333333333333336],[-7.235294117647059,-20.764705882352942],[-5.866666666666666,-20.133333333333333],[-5.352941176470588,-19.647058823529413],[-4.0,-19.166666666666668],[-2.2222222222222223,-18.77777777777778],[-1.0,-18.25],[0.0,-18.25],[2.2666666666666666,-17.266666666666666],[3.1538461538461537,-16.153846153846153],[3.8666666666666667,-14.866666666666667],[5.5,-14.0],[7.0,-12.0],[7.222222222222222,-11.222222222222221],[7.5,-11.0],[7.285714285714286,-10.714285714285715],[7.0,-10.666666666666668],[6.0,-11.0],[5.0,-11.0],[4.0,-10.833333333333334],[2.5,-11.5],[0.8947368421052632,-11.894736842105262],[0.0,-12.57142857142857],[-3.0,-13.2],[-5.0,-13.2],[-6.0,-13.0],[-7.25,-12.25],[-7.6,-11.600000000000001],[-9.181818181818182,-10.181818181818182],[-9.833333333333334,-8.0],[-9.6,-6.0],[-9.0,-3.75],[-7.444444444444444,-1.5555555555555554],[-7.000000000000001,-1.2000000000000002],[-5.0,-0.3333333333333333],[-3.7777777777777777,-0.2222222222222222],[-2.5714285714285716,0.5714285714285714],[-2.2666666666666666,1.2666666666666666],[-2.0,1.5],[-1.0,2.0],[0.6363636363636364,2.3636363636363638],[1.25,3.0],[1.7692307692307692,3.230769230769231],[2.0,3.5],[2.4615384615384617,3.5384615384615383],[3.0,4.0],[3.6363636363636362,3.6363636363636362],[4.0,3.666666666666667],[5.0,3.25],[5.588235294117647,2.5882352941176467],[6.244897959183674,2.2448979591836737],[7.1,2.0],[7.513513513513514,1.5135135135135136]]],[[[-175.0,-11.928571428571429],[-175.75,-11.75],[-176.3,-11.3],[-176.68,-10.68],[-176.91666666666666,-9.083333333333332],[-176.72727272727272,-8.272727272727272],[-176.25,-7.75],[-176.0,-7.666666666666666],[-175.54166666666666,-8.541666666666666],[-175.0,-9.076923076923078],[-174.36842105263156,-10.0],[-174.0,-11.0],[-174.22222222222223,-11.777777777777779],[-175.0,-11.928571428571429]]],[[[-23.083333333333332,9.916666666666668],[-21.0,8.6],[-20.25,7.75],[-20.11111111111111,6.999999999999999],[-19.52,6.48],[-19.240000000000002,5.76],[-19.102564102564102,4.897435897435898],[-18.565217391304348,4.434782608695652],[-17.5,2.5],[-17.375,2.0],[-17.09090909090909,-3.0],[-17.333333333333336,-5.0],[-17.25,-7.0],[-17.047619047619047,-8.0],[-17.052631578947366,-9.0],[-17.285714285714285,-10.285714285714285],[-17.23076923076923,-12.0],[-17.454545454545453,-13.0],[-17.80327868852459,-13.19672131147541],[-18.363636363636363,-14.363636363636363],[-18.333333333333336,-14.666666666666668],[-19.047619047619047,-14.999999999999998],[-19.285714285714285,-16.714285714285715],[-19.619047619047617,-17.38095238095238],[-20.0,-17.57142857142857],[-20.266666666666666,-18.733333333333334],[-20.833333333333332,-20.0],[-20.962962962962962,-20.037037037037038],[-21.57142857142857,-21.0],[-21.863636363636363,-21.136363636363637],[-22.0,-22.11111111111111],[-22.5,-23.0],[-23.17857142857143,-23.821428571428573],[-24.56,-24.439999999999998],[-24.999999999999996,-24.916666666666664],[-26.755102040816325,-25.244897959183675],[-27.0,-25.5],[-27.363636363636363,-25.636363636363637],[-27.666666666666664,-26.0],[-28.133333333333333,-26.133333333333333],[-28.902439024390244,-26.097560975609756],[-29.48,-26.519999999999996],[-29.857142857142854,-27.0],[-30.76744186046512,-27.232558139534884],[-31.0,-28.0],[-31.897435897435898,-28.102564102564102],[-32.52380952380952,-28.476190476190474],[-32.94444444444444,-29.055555555555554],[-36.0,-29.333333333333336],[-36.5,-29.5],[-37.0,-30.0],[-38.72093023255814,-30.27906976744186],[-39.0,-30.545454545454543],[-40.00000000000001,-30.857142857142858],[-41.0,-31.363636363636363],[-42.0,-31.57142857142857],[-44.0,-31.714285714285715],[-45.52941176470588,-31.529411764705884],[-47.5,-31.0],[-46.6,-29.400000000000002],[-46.0,-29.0],[-45.2,-28.799999999999997],[-44.75,-28.25],[-44.333333333333336,-28.0],[-43.0,-27.6],[-41.891891891891895,-27.10810810810811],[-39.0,-26.53846153846154],[-35.588235294117645,-25.411764705882355],[-33.0,-24.799999999999997],[-32.0,-24.714285714285715],[-30.857142857142854,-24.142857142857142],[-27.454545454545453,-21.545454545454543],[-25.666666666666668,-21.0],[-24.666666666666668,-20.0],[-25.0,-19.0],[-28.0,-18.333333333333336],[-30.0,-18.25],[-31.0,-18.0],[-32.10526315789474,-18.105263157894736],[-33.0,-18.0],[-33.333333333333336,-17.0],[-33.2,-16.0],[-33.285714285714285,-15.285714285714285],[-33.5,-15.0],[-33.5,-14.0],[-33.4,-13.600000000000001],[-33.0,-13.0],[-33.4,-12.4],[-33.5,-12.0],[-33.0,-11.333333333333334],[-32.5,-11.0],[-33.0,-10.0],[-32.5,-9.0],[-32.5,-8.0],[-30.6,-4.4],[-30.0,-4.0],[-29.0,-3.6666666666666665],[-27.363636363636363,-2.6363636363636367],[-27.0,-2.0],[-26.400000000000002,-1.6],[-26.0,-1.0],[-25.25,1.0],[-25.166666666666664,2.166666666666667],[-24.666666666666668,3.0],[-24.5,4.0],[-23.916666666666664,4.916666666666667],[-24.000000000000004,5.2],[-24.444444444444443,5.555555555555555],[-24.666666666666668,6.0],[-25.6,6.4],[-26.000000000000004,7.1],[-27.444444444444443,7.555555555555555],[-27.857142857142858,8.0],[-28.783783783783782,8.216216216216216],[-29.451612903225804,8.548387096774192],[-29.777777777777775,9.0],[-30.75,9.25],[-31.421052631578945,10.578947368421051],[-31.578947368421048,11.421052631578947],[-32.0,12.0],[-31.0,12.75],[-30.0,13.2],[-29.0,12.5],[-28.0,12.399999999999999],[-27.0,11.5],[-26.0,11.333333333333332],[-25.0,10.625],[-23.083333333333332,9.916666666666668]]],[[[22.06225680933852,-2.062256809338521],[21.804878048780488,-2.0],[22.0,-0.9791666666666666],[22.15841584158416,-1.8415841584158417],[22.06225680933852,-2.062256809338521]]],[[[-41.0,3.2],[-40.30769230769231,2.6923076923076925],[-38.77777777777778,2.2222222222222223],[-38.0,1.0],[-37.77777777777777,0.2222222222222222],[-37.5,0.0],[-38.333333333333336,-0.6666666666666667],[-39.0,-1.5],[-40.5,-2.5],[-41.0,-3.0],[-42.333333333333336,-3.666666666666667],[-42.888888888888886,-4.111111111111111],[-43.166666666666664,-4.166666666666667],[-44.0,-4.0],[-45.5,-4.5],[-46.0,-5.0],[-47.0,-5.0],[-47.16666666666667,-4.166666666666667],[-47.0,-3.0],[-47.2,-2.0],[-47.0,-1.0],[-47.400000000000006,0.0],[-47.0,2.0],[-47.33333333333333,3.0],[-47.0,4.0],[-46.333333333333336,4.333333333333334],[-46.0,5.0],[-45.25,5.25],[-44.0,5.0],[-43.66666666666667,4.333333333333334],[-42.5,4.0],[-42.5,3.5],[-42.0,3.5],[-41.71428571428571,3.2857142857142856],[-41.0,3.2]],[[-43.0,3.5],[-43.28571428571428,3.2857142857142856],[-43.333333333333336,3.0],[-43.18181818181818,2.8181818181818183],[-42.75,2.75],[-42.5,3.0],[-42.5,3.5],[-43.0,3.5]]],[[[16.0,3.9000000000000004],[16.694117647058825,3.6941176470588237],[16.964285714285715,3.0],[16.0,2.325],[15.610108303249097,2.6101083032490973],[15.36470588235294,3.0],[15.555555555555554,3.444444444444444],[16.0,3.9000000000000004]]],[[[-179.0,1.125],[-179.175,1.825],[-180.0,2.8333333333333335],[-180.0,6.523809523809524],[-179.83941605839416,6.160583941605839],[-179.0,5.611111111111112],[-178.08,4.0],[-177.94736842105263,2.9473684210526314],[-178.0,2.0],[-178.4,1.4000000000000001],[-179.0,1.125]]],[[[6.969230769230769,8.0],[8.0,8.77027027027027],[8.519480519480519,8.519480519480519],[9.096774193548388,8.0],[8.454545454545455,7.0],[7.864864864864865,6.864864864864865],[7.321678321678322,7.321678321678322],[6.969230769230769,8.0]]],[[[11.0,41.0],[13.0,41.0],[14.0,40.75],[16.0,41.0],[16.75,40.75],[19.0,40.71428571428571],[21.666666666666668,40.0],[21.075471698113205,39.924528301886795],[20.5,39.5],[20.22222222222222,39.0],[19.24390243902439,38.75609756097561],[19.0,38.16666666666667],[18.75,38.0],[18.11111111111111,37.888888888888886],[18.0,37.5],[17.14814814814815,36.851851851851855],[17.0,36.6],[16.0,36.0],[15.0,35.599999999999994],[14.25,35.0],[14.0,34.0],[14.0,33.0],[14.333333333333334,32.333333333333336],[14.5,31.0],[14.333333333333332,28.0],[14.0,27.333333333333336],[13.0,26.333333333333336],[12.0,26.4],[11.0,27.0],[10.600000000000001,27.6],[10.5,28.0],[10.75,29.0],[10.0,30.0],[9.3,31.299999999999997],[8.0,32.4],[7.0,33.0],[6.0,34.0],[2.0,34.333333333333336],[-1.0,34.16666666666667],[-1.6666666666666665,34.0],[-3.0,33.285714285714285],[-4.0,33.25],[-6.0,32.66666666666667],[-7.333333333333334,32.66666666666667],[-7.8,32.8],[-9.0,32.66666666666667],[-9.666666666666666,32.0],[-10.0,31.0],[-10.600000000000001,30.6],[-11.5,29.5],[-13.0,28.8],[-14.222222222222221,28.77777777777778],[-15.0,29.0],[-16.0,29.0],[-16.6,30.400000000000002],[-17.0,31.0],[-17.6,31.400000000000002],[-18.0,31.5],[-18.5,32.0],[-18.0,33.0],[-17.25,33.25],[-16.666666666666668,34.0],[-15.7,34.7],[-14.5,36.5],[-13.368421052631579,37.36842105263158],[-12.707317073170731,37.707317073170735],[-11.105263157894736,38.10526315789474],[-8.6,39.0],[-8.3,39.3],[-7.578947368421053,39.578947368421055],[-5.117647058823529,41.11764705882353],[-3.666666666666667,41.66666666666667],[-2.846153846153846,41.84615384615385],[-0.8461538461538461,41.84615384615385],[1.5384615384615383,42.46153846153847],[4.0,42.6],[5.428571428571429,42.42857142857143],[6.866666666666666,41.86666666666667],[9.0,41.6],[11.0,41.0]]],[[[101.0,-57.5],[100.5,-57.0],[100.86666666666667,-56.86666666666667],[103.0,-57.0],[103.0,-58.0],[102.0,-58.0],[101.4,-57.6],[101.0,-57.5]]],[[[118.66666666666667,-37.0],[118.41379310344828,-37.41379310344828],[118.0,-37.6],[116.0,-38.0],[115.4,-38.4],[114.5,-39.5],[113.8095238095238,-39.80952380952381],[113.31578947368419,-40.315789473684205],[113.0,-40.42857142857143],[112.0,-40.42857142857143],[110.71428571428571,-40.285714285714285],[110.0,-40.0],[109.10526315789474,-38.89473684210526],[108.42857142857143,-38.57142857142857],[108.0,-38.0],[108.0,-37.0],[109.66666666666669,-35.66666666666667],[111.4,-35.400000000000006],[117.0,-35.4],[117.41379310344827,-35.58620689655173],[117.77777777777777,-36.22222222222222],[118.42857142857144,-36.57142857142858],[118.66666666666667,-37.0]]],[[[123.0,6.0],[122.6,5.4],[122.5,5.0],[123.0,4.0],[123.0,1.0],[123.28571428571428,0.2857142857142857],[123.69696969696969,-2.3030303030303028],[123.80645161290323,-6.193548387096774],[124.125,-6.875],[124.31578947368419,-7.684210526315789],[124.5,-13.0],[124.39999999999999,-16.0],[124.60000000000001,-17.4],[125.14285714285714,-18.0],[125.4,-20.0],[125.11111111111111,-21.11111111111111],[124.7,-21.700000000000003],[124.39999999999999,-23.0],[124.25,-25.0],[124.33333333333333,-26.0],[124.125,-27.125],[123.5,-28.0],[123.0,-28.400000000000002],[120.28571428571428,-29.285714285714285],[118.55555555555554,-29.555555555555554],[118.0,-29.75],[117.38095238095238,-30.38095238095238],[117.0,-30.5],[116.0,-30.666666666666668],[115.0,-30.42857142857143],[114.0,-30.42857142857143],[113.0,-30.599999999999998],[111.0,-30.555555555555554],[110.62962962962962,-30.37037037037037],[110.44444444444444,-30.0],[110.14285714285714,-29.85714285714286],[110.0,-29.5],[109.66666666666669,-29.333333333333336],[109.29629629629629,-28.703703703703702],[109.27586206896552,-27.275862068965516],[109.66666666666666,-26.0],[110.55555555555554,-25.555555555555554],[111.0,-24.25],[111.61290322580643,-23.61290322580645],[112.0,-21.75],[112.79591836734694,-20.79591836734694],[113.0,-19.4],[113.25,-19.0],[113.7142857142857,-18.714285714285715],[114.0,-17.857142857142858],[115.97333333333333,-15.973333333333333],[116.71794871794872,-14.717948717948717],[117.0888888888889,-13.088888888888889],[117.52941176470588,-12.0],[117.86206896551724,-10.137931034482758],[118.24,-7.24],[118.27272727272728,-6.0],[118.53846153846155,-5.0],[118.5,-4.0],[118.80645161290323,-2.806451612903226],[119.5,2.0],[119.37037037037037,3.3703703703703702],[119.125,4.125],[119.18181818181819,5.0],[118.86666666666667,6.133333333333333],[118.69230769230771,8.307692307692308],[119.0,9.0],[119.60000000000001,8.600000000000001],[121.18181818181819,8.181818181818182],[121.60000000000001,7.6],[122.2,7.2],[122.5,6.5],[123.0,6.0]]],[[[26.46857142857143,-7.531428571428571],[26.80392156862745,-8.0],[26.0,-8.48235294117647],[25.10869565217391,-8.0],[25.47191011235955,-7.47191011235955],[26.0,-7.196078431372549],[26.46857142857143,-7.531428571428571]]],[[[133.5,1.0],[133.33333333333334,0.6666666666666667],[132.66666666666669,0.33333333333333337],[132.22222222222223,-0.2222222222222222],[131.0,-0.5555555555555556],[130.60000000000002,-0.4],[130.21052631578948,0.21052631578947367],[129.66666666666669,0.6666666666666667],[129.57142857142856,1.0],[129.63636363636363,2.3636363636363638],[129.8,3.2],[130.28571428571428,3.7142857142857144],[131.0,3.8000000000000003],[132.0,3.0],[132.73333333333335,2.7333333333333334],[133.33333333333334,2.3333333333333335],[133.5,2.0],[133.5,1.0]]],[[[35.72727272727273,2.0],[35.53846153846154,1.4615384615384615],[34.416666666666664,0.5833333333333334],[34.0,0.4444444444444444],[33.583333333333336,0.5833333333333334],[33.0,1.0],[32.875,2.0],[33.146341463414636,3.8536585365853657],[34.111111111111114,4.888888888888889],[34.5,5.5],[35.529411764705884,6.470588235294117],[36.0,6.666666666666667],[37.0,6.800000000000001],[37.44444444444444,6.0],[37.285714285714285,5.7142857142857135],[37.0,4.0],[35.8,3.2],[35.72727272727273,2.0]]],[[[179.3265306122449,3.3265306122448983],[179.0,4.0],[178.19753086419752,4.197530864197531],[178.0,4.888888888888889],[177.9294117647059,6.070588235294117],[178.0,6.428571428571429],[178.24242424242425,6.757575757575758],[179.0,7.333333333333333],[179.11267605633805,7.112676056338028],[180.0,6.523809523809524],[180.0,6.0],[180.0,2.833333333333333],[179.9537037037037,2.9537037037037037],[179.6153846153846,3.0],[179.3265306122449,3.3265306122448983]]],[[[42.25,7.75],[41.0,7.571428571428571],[40.68421052631579,7.684210526315789],[40.0,8.25],[39.625,9.0],[40.333333333333336,9.666666666666668],[40.45454545454545,10.0],[40.885714285714286,10.114285714285714],[41.0,10.352941176470587],[41.440000000000005,10.56],[41.733333333333334,11.0],[42.55882352941177,11.441176470588236],[43.0,11.882352941176471],[44.0,12.047619047619047],[44.89473684210526,11.894736842105262],[45.4,11.400000000000002],[45.55555555555556,11.0],[45.4,10.600000000000001],[45.0,10.166666666666668],[44.77777777777777,9.222222222222221],[42.25,7.75]]],[[[177.0,9.0],[176.1818181818182,9.181818181818182],[175.6153846153846,9.615384615384615],[175.44444444444446,10.0],[175.54545454545453,10.454545454545453],[176.0,11.2],[176.15686274509804,11.84313725490196],[177.00000000000003,11.913043478260871],[177.6304347826087,11.630434782608695],[178.05714285714285,11.057142857142857],[178.42857142857144,11.0],[178.33333333333331,10.0],[177.75757575757575,9.242424242424242],[177.0,9.0]]],[[[132.28571428571428,10.285714285714285],[132.8,9.0],[132.44444444444443,8.555555555555555],[132.0,8.333333333333334],[131.0,8.166666666666668],[130.0,8.166666666666668],[128.63636363636363,8.363636363636363],[126.75,8.25],[126.00000000000001,8.333333333333334],[124.76470588235293,8.764705882352942],[124.2,10.0],[124.6,11.0],[124.66666666666666,13.0],[125.52941176470587,14.470588235294118],[126.00000000000001,14.8],[127.0,15.0],[128.0,15.5],[130.3,14.3],[130.42857142857142,14.0],[130.33333333333331,13.0],[131.16666666666666,12.166666666666668],[132.28571428571428,10.285714285714285]]],[[[174.0,13.285714285714286],[173.45161290322582,12.548387096774192],[173.0,12.363636363636363],[172.0,12.363636363636363],[171.41666666666666,13.0],[171.22222222222223,14.0],[171.53333333333333,14.466666666666667],[172.125,14.875],[173.83673469387756,14.836734693877553],[174.1470588235294,14.147058823529411],[174.625,14.0],[174.41666666666669,13.583333333333332],[174.0,13.285714285714286]]],[[[118.0,16.333333333333336],[117.46153846153847,16.461538461538463],[116.86666666666667,16.866666666666667],[116.42857142857142,18.0],[116.68,18.32],[116.99999999999999,18.57142857142857],[117.4,18.6],[118.0,18.625],[118.41666666666666,18.416666666666668],[119.26666666666667,17.266666666666666],[119.39999999999999,17.0],[119.25,16.75],[118.57142857142858,16.42857142857143],[118.0,16.333333333333336]]],[[[50.22950819672131,19.229508196721312],[51.054545454545455,19.054545454545455],[51.0,18.941176470588236],[50.0,18.63157894736842],[49.80281690140845,19.0],[50.0,19.21875],[50.22950819672131,19.229508196721312]]],[[[57.35185185185185,28.351851851851855],[57.70370370370371,28.0],[57.0,27.743243243243242],[55.98717948717949,28.0],[57.0,28.48717948717949],[57.35185185185185,28.351851851851855]]],[[[55.63636363636363,36.0],[56.44444444444444,36.0],[56.27586206896552,35.72413793103448],[56.25,35.0],[56.05797101449275,34.94202898550724],[54.86363636363636,35.0],[55.0,35.46153846153847],[55.37837837837838,35.62162162162163],[55.63636363636363,36.0]]],[[[34.22222222222222,40.0],[35.0,40.77777777777778],[35.66666666666667,41.0],[36.333333333333336,41.0],[36.625,40.625],[36.72,40.0],[36.0,39.21739130434783],[35.0,38.94520547945205],[34.09090909090909,39.09090909090909],[34.285714285714285,39.71428571428571],[34.22222222222222,40.0]]]]}}]}