{"type":"FeatureCollection","features":[{"type":"Feature","properties":{"ageMa":260},"geometry":{"type":"MultiPolygon","coordinates":[[[[-1.0,51.0],[1.3333333333333333,50.333333333333336],[2.0,50.0],[2.357142857142857,49.35714285714286],[2.416666666666667,49.0],[2.25,47.75],[1.48,46.52],[0.7931034482758621,46.20689655172414],[0.4285714285714286,45.57142857142857],[-1.0,45.0],[-1.4705882352941175,44.470588235294116],[-2.666666666666667,44.0],[-4.0,43.0],[-4.7142857142857135,42.71428571428571],[-5.5,42.0],[-5.666666666666667,41.0],[-5.666666666666667,40.0],[-5.5,39.5],[-5.0,39.0],[-4.0,38.6],[-3.0000000000000004,38.800000000000004],[-2.2666666666666666,39.266666666666666],[1.0,40.0],[1.5294117647058822,40.470588235294116],[2.235294117647059,40.76470588235294],[4.0,41.0],[4.666666666666667,41.333333333333336],[5.0,41.333333333333336],[7.068965517241379,41.93103448275862],[8.818181818181818,42.18181818181818],[9.0,42.375],[9.75,42.25],[11.0,42.333333333333336],[12.857142857142858,41.857142857142854],[15.0,42.0],[16.0,41.800000000000004],[16.421052631578945,41.421052631578945],[17.25,40.25],[17.8,39.0],[17.6,36.0],[17.75,35.0],[17.77777777777778,32.22222222222222],[17.454545454545453,31.545454545454547],[17.0,31.285714285714285],[16.92156862745098,31.07843137254902],[16.875,28.0],[17.0,27.0],[16.90909090909091,26.09090909090909],[16.666666666666668,26.0],[16.666666666666668,25.66666666666667],[17.0,25.0],[17.095238095238095,25.904761904761905],[17.5,26.5],[18.0,26.6],[18.1,26.9],[18.333333333333336,27.000000000000004],[18.57894736842105,27.421052631578945],[19.0,27.666666666666668],[19.133333333333336,28.0],[19.153846153846153,30.153846153846153],[19.470588235294116,31.529411764705884],[19.799999999999997,32.0],[20.18181818181818,34.81818181818182],[20.523809523809522,35.476190476190474],[21.1,36.0],[21.18181818181818,36.81818181818182],[22.0,37.0],[22.5,37.5],[23.833333333333336,38.166666666666664],[25.0,38.25],[28.0,39.0],[28.75,38.75],[30.000000000000004,38.66666666666667],[31.476190476190474,37.476190476190474],[31.833333333333336,37.0],[32.0,36.0],[32.71428571428571,35.71428571428571],[33.25,35.25],[34.0,35.0],[35.0,34.0],[35.6,33.6],[36.0,33.0],[37.47058823529412,31.47058823529412],[39.0,29.0],[39.77777777777777,28.77777777777778],[42.0,28.833333333333336],[43.23529411764706,29.764705882352942],[43.66666666666667,30.333333333333336],[44.0,30.5],[44.46153846153847,30.461538461538463],[45.0,30.0],[45.2,29.2],[44.833333333333336,28.0],[44.69230769230769,26.692307692307693],[44.77777777777777,26.22222222222222],[44.6,25.0],[44.75,23.75],[45.0,23.0],[46.0,23.0],[49.0,22.666666666666668],[49.400000000000006,22.4],[50.25,21.0],[50.2,19.8],[50.0,19.5],[49.66666666666667,19.333333333333336],[49.0,18.0],[48.84615384615384,17.153846153846153],[48.28571428571428,16.714285714285715],[46.5,16.0],[45.71428571428571,15.285714285714285],[45.0,15.2],[44.0,14.571428571428571],[43.0,14.25],[42.0,13.25],[41.0,13.25],[40.23529411764706,12.764705882352942],[40.0,12.75],[38.93333333333334,12.933333333333334],[37.0,13.0],[35.0,13.5],[33.333333333333336,13.666666666666668],[32.36363636363636,13.636363636363637],[28.529411764705884,12.470588235294116],[27.4,11.600000000000001],[27.0,11.0],[26.105263157894736,10.894736842105264],[25.0,9.333333333333334],[24.5,9.0],[24.666666666666668,8.666666666666668],[24.75,8.0],[24.0,7.0],[23.733333333333334,6.266666666666667],[23.800000000000004,6.000000000000001],[23.6,5.4],[23.0,5.0],[22.25,4.75],[22.0,4.5],[21.5,4.5],[21.0,5.0],[21.0,4.0],[20.0,4.0],[20.0,3.0],[19.400000000000002,3.4000000000000004],[18.0,3.1],[17.555555555555557,2.4444444444444446],[16.833333333333332,2.166666666666667],[16.0,2.0714285714285716],[14.692307692307693,2.307692307692308],[14.222222222222221,2.2222222222222223],[14.222222222222221,2.7777777777777777],[14.1,3.0],[14.363636363636363,3.6363636363636362],[15.0,3.75],[15.25,4.0],[15.133333333333333,4.133333333333333],[15.0,4.2727272727272725],[14.0,4.222222222222222],[13.0,4.571428571428571],[12.600000000000001,4.0],[12.8,2.0],[13.5,1.5],[13.785714285714286,0.7857142857142857],[14.333333333333334,0.6666666666666667],[15.0,1.0],[15.714285714285712,0.7142857142857142],[16.333333333333336,0.6666666666666667],[16.714285714285715,1.2857142857142856],[18.400000000000002,1.4000000000000001],[18.5,1.0],[18.25,0.75],[17.5,0.5],[17.0,0.0],[16.363636363636363,-0.36363636363636365],[16.0,-0.4],[15.714285714285712,-0.7142857142857142],[15.76,-1.24],[16.0,-1.5],[19.0,-0.6666666666666666],[20.0,-1.0],[20.571428571428573,-1.4285714285714286],[21.0,-2.0],[19.846153846153847,-2.846153846153846],[19.555555555555554,-3.5555555555555554],[18.555555555555554,-4.555555555555555],[18.57142857142857,-7.0],[19.400000000000002,-7.6],[20.0,-8.75],[20.571428571428573,-9.42857142857143],[21.5,-10.0],[23.285714285714285,-10.714285714285715],[23.636363636363633,-11.363636363636363],[24.235294117647058,-11.764705882352942],[24.4,-12.0],[24.714285714285715,-13.285714285714285],[25.25,-14.0],[25.333333333333332,-15.0],[25.5,-15.5],[26.0,-16.0],[26.6,-16.400000000000002],[27.0,-16.5],[27.333333333333336,-16.333333333333336],[27.4,-15.600000000000001],[27.0,-15.0],[28.0,-15.0],[29.0,-14.75],[30.0,-15.0],[30.53846153846154,-15.461538461538462],[31.875,-17.125],[32.4,-17.6],[33.0,-19.0],[34.0,-19.0],[34.57894736842105,-18.57894736842105],[36.13333333333333,-18.133333333333333],[36.714285714285715,-17.714285714285715],[38.0,-17.166666666666668],[39.0,-17.5],[40.421052631578945,-18.57894736842105],[40.66666666666667,-19.0],[40.66666666666667,-20.0],[41.0,-21.0],[41.0,-22.0],[41.2,-23.0],[41.2,-24.0],[41.0,-25.0],[41.0,-26.0],[40.66666666666667,-28.66666666666667],[40.75,-30.0],[41.0,-31.0],[42.0,-32.0],[42.25,-32.75],[42.5,-33.0],[43.0,-33.25],[43.875,-34.125],[45.266666666666666,-34.733333333333334],[45.80952380952381,-35.19047619047619],[49.0,-36.0],[49.6,-35.6],[50.0,-35.5],[50.5,-35.0],[50.63636363636363,-34.63636363636363],[51.5,-34.0],[52.0,-33.333333333333336],[52.375,-32.0],[52.375,-31.0],[52.5,-30.5],[53.0,-30.0],[54.25,-30.75],[54.85714285714286,-32.0],[54.84615384615384,-33.15384615384615],[55.400000000000006,-34.0],[55.25,-34.25],[54.6,-34.6],[54.0,-35.333333333333336],[53.00000000000001,-35.8],[52.476190476190474,-36.476190476190474],[52.0,-36.714285714285715],[51.77777777777777,-37.0],[51.184210526315795,-37.184210526315795],[51.0,-37.63636363636363],[50.63636363636364,-38.0],[50.166666666666664,-38.166666666666664],[50.0,-38.58333333333333],[48.75,-39.0],[48.333333333333336,-39.333333333333336],[46.82608695652174,-39.82608695652174],[46.43478260869565,-40.434782608695656],[45.826086956521735,-40.82608695652174],[45.45454545454545,-41.45454545454545],[44.0,-42.6],[43.48,-43.48],[42.785714285714285,-43.78571428571429],[42.41666666666667,-44.41666666666667],[42.0,-44.625],[38.904761904761905,-44.904761904761905],[38.55555555555556,-45.55555555555556],[38.0,-45.833333333333336],[36.89473684210526,-45.89473684210526],[36.44444444444444,-46.44444444444444],[35.0,-47.0],[34.5,-47.5],[34.0,-47.666666666666664],[33.0,-46.75],[30.000000000000004,-46.66666666666667],[29.0,-47.0],[27.0,-47.0],[26.77777777777778,-47.77777777777778],[26.0,-48.333333333333336],[25.363636363636363,-49.36363636363636],[24.8,-50.0],[25.0,-50.5],[26.0,-50.66666666666667],[27.0,-50.400000000000006],[27.6,-49.6],[28.200000000000003,-49.2],[28.333333333333336,-49.0],[28.400000000000002,-48.400000000000006],[29.0,-48.0],[30.0,-48.25],[30.400000000000002,-48.60000000000001],[30.599999999999998,-49.0],[30.897435897435898,-49.1025641025641],[33.214285714285715,-49.214285714285715],[34.5,-49.0],[34.66666666666667,-48.66666666666667],[35.22222222222222,-48.22222222222222],[37.0,-48.0],[37.333333333333336,-47.333333333333336],[38.0,-47.2],[40.0,-47.5],[41.0,-47.400000000000006],[42.0,-47.0],[42.529411764705884,-46.529411764705884],[45.0,-46.28571428571429],[46.0,-46.0],[46.44444444444444,-45.44444444444444],[47.07692307692307,-45.07692307692307],[47.35294117647058,-44.35294117647059],[48.0,-43.75],[48.7,-42.7],[49.421052631578945,-42.421052631578945],[51.0,-42.090909090909086],[52.84615384615385,-42.15384615384615],[53.75,-43.0],[54.18181818181818,-43.18181818181818],[54.81818181818182,-43.18181818181818],[55.33333333333333,-44.0],[56.5,-44.5],[56.72727272727273,-45.0],[56.71428571428571,-45.71428571428571],[56.375,-46.375],[55.90909090909091,-46.909090909090914],[55.81818181818181,-47.81818181818182],[55.66666666666667,-48.0],[55.81818181818181,-48.18181818181819],[55.81818181818181,-48.81818181818181],[56.0,-49.5],[57.0,-52.0],[57.57894736842105,-52.421052631578945],[58.800000000000004,-54.0],[59.476190476190474,-54.523809523809526],[59.888888888888886,-55.111111111111114],[62.0,-56.75],[63.0,-57.166666666666664],[63.77777777777778,-57.22222222222222],[65.0,-58.0],[66.0,-58.333333333333336],[67.0,-58.4],[67.90476190476191,-59.09523809523809],[68.73333333333333,-59.266666666666666],[70.0,-60.0],[71.0,-60.0],[72.66666666666667,-59.66666666666667],[73.0,-59.5],[73.33333333333334,-59.0],[74.42105263157895,-58.421052631578945],[74.85714285714286,-57.85714285714286],[76.0,-57.166666666666664],[76.42857142857143,-56.42857142857143],[77.08,-56.08],[77.46153846153847,-55.46153846153847],[78.52380952380952,-54.523809523809526],[79.0,-54.375],[80.23529411764706,-54.76470588235294],[80.68421052631578,-55.31578947368421],[81.0,-56.0],[81.52941176470588,-56.470588235294116],[81.92307692307692,-57.07692307692308],[82.48,-57.519999999999996],[83.0,-58.666666666666664],[83.68421052631578,-59.315789473684205],[84.6,-61.0],[86.45454545454545,-61.54545454545455],[87.0,-62.0],[88.1081081081081,-62.10810810810811],[88.25,-62.0],[88.21052631578948,-61.21052631578947],[88.0,-60.6],[87.625,-60.375],[87.0,-59.66666666666667],[86.0,-59.0],[85.2,-57.8],[84.57894736842104,-57.421052631578945],[84.2,-57.0],[84.28571428571428,-56.71428571428571],[84.0,-56.0],[85.0,-56.0],[85.28571428571428,-54.285714285714285],[85.5,-54.0],[86.0,-53.75],[86.85714285714286,-52.85714285714286],[87.55555555555554,-52.55555555555555],[90.0,-52.0],[90.52380952380952,-51.52380952380952],[91.23529411764706,-51.23529411764706],[93.19999999999999,-51.2],[95.0,-51.0],[95.88235294117646,-51.117647058823536],[96.5,-51.5],[97.00000000000001,-52.142857142857146],[97.6923076923077,-52.30769230769231],[99.0,-53.0],[101.375,-53.625],[101.9,-54.1],[104.0,-54.4],[104.82608695652175,-55.173913043478265],[106.9090909090909,-56.09090909090909],[108.0,-56.400000000000006],[109.0,-56.375],[111.0,-56.66666666666667],[111.93103448275862,-57.06896551724138],[113.2,-57.199999999999996],[114.0,-57.142857142857146],[114.25,-57.0],[114.28571428571428,-56.0],[113.53846153846155,-55.46153846153847],[113.14814814814815,-54.85185185185185],[112.5,-54.5],[112.0,-54.0],[110.64705882352939,-53.35294117647058],[110.0952380952381,-52.904761904761905],[108.52380952380952,-52.476190476190474],[106.52380952380952,-51.476190476190474],[105.42105263157895,-50.578947368421055],[105.1111111111111,-50.0],[105.0,-49.0],[105.33333333333334,-48.333333333333336],[105.66666666666666,-48.0],[106.0,-47.800000000000004],[107.0,-48.0],[108.71428571428571,-47.71428571428571],[109.25,-47.25],[110.0,-47.16666666666667],[111.14285714285714,-47.857142857142854],[112.0,-48.6],[113.0,-49.16666666666667],[114.00000000000001,-49.333333333333336],[115.0,-49.333333333333336],[116.0,-49.0],[116.0,-48.0],[115.46153846153848,-47.53846153846154],[114.8,-46.0],[114.84615384615384,-45.84615384615385],[115.42857142857144,-45.42857142857143],[116.0,-45.25],[117.00000000000001,-45.333333333333336],[118.0,-46.0],[119.35294117647058,-46.647058823529406],[119.88235294117646,-47.11764705882353],[121.42105263157895,-47.578947368421055],[122.0,-48.0],[124.0,-48.4],[124.36363636363636,-48.36363636363636],[125.0,-48.0],[125.81818181818183,-45.81818181818182],[126.18181818181819,-45.18181818181819],[126.7142857142857,-44.71428571428571],[127.375,-44.375],[127.85714285714286,-43.85714285714286],[130.0,-43.16666666666667],[131.8181818181818,-42.81818181818182],[133.0,-43.0],[134.53846153846155,-43.46153846153846],[135.15384615384613,-43.84615384615385],[136.0,-44.75],[136.83333333333334,-45.16666666666667],[137.71428571428572,-46.28571428571428],[137.8,-47.0],[137.71428571428572,-47.71428571428571],[137.4,-48.400000000000006],[137.0,-49.0],[136.0,-49.0],[135.71428571428572,-50.0],[136.0,-50.5],[136.33333333333334,-50.333333333333336],[138.0,-50.0],[139.0,-50.0],[141.0,-52.666666666666664],[141.8,-53.2],[142.28571428571428,-53.71428571428571],[143.0,-54.0],[144.0,-54.66666666666667],[145.0,-55.0],[146.33333333333334,-55.66666666666667],[146.875,-56.125],[148.0,-56.333333333333336],[149.0,-57.0],[150.0,-57.22222222222222],[150.52941176470588,-57.470588235294116],[151.0,-58.0],[152.45454545454544,-58.54545454545455],[153.0,-59.090909090909086],[153.75,-59.25],[154.0,-59.66666666666667],[154.5,-60.0],[156.28571428571428,-60.71428571428571],[156.5,-61.0],[157.0,-61.25],[157.33333333333334,-61.66666666666667],[157.71428571428572,-63.0],[157.7,-65.0],[157.42105263157893,-66.42105263157895],[157.0,-67.5],[156.5,-72.0],[156.75,-72.25],[157.5,-72.5],[158.0,-73.0],[158.0,-75.0],[157.75,-75.75],[157.5,-76.0],[158.0,-76.25],[159.0,-76.25],[160.0,-77.0],[159.66666666666669,-77.66666666666667],[159.0,-78.0],[159.0,-79.0],[159.5,-78.5],[160.0,-78.5],[160.4,-78.60000000000001],[160.5,-79.0],[161.0,-79.33333333333334],[162.0,-79.25],[164.28571428571428,-79.71428571428571],[164.66666666666669,-80.0],[165.0,-80.5],[166.0,-80.66666666666667],[167.0,-80.66666666666667],[168.0,-81.0],[169.0,-81.0],[169.75,-81.25],[173.0,-81.5],[174.75,-82.25],[175.0,-83.0],[176.0,-83.0],[177.0,-82.66666666666666],[177.5,-83.0],[179.0,-83.28571428571428],[179.4,-83.6],[179.72413793103448,-84.27586206896552],[180.0,-84.5],[180.0,-90.0],[142.0,-90.0],[142.0,-89.0],[143.4,-88.4],[144.0,-88.0],[145.0,-87.0],[145.0,-86.0],[146.0,-86.0],[145.5,-85.5],[145.5,-85.0],[145.28571428571428,-84.71428571428571],[145.0,-84.66666666666667],[144.0,-84.66666666666667],[143.0,-84.83333333333334],[142.66666666666669,-85.0],[140.8181818181818,-86.81818181818181],[139.0,-87.33333333333334],[138.66666666666669,-87.66666666666667],[138.5,-88.0],[138.60000000000002,-88.4],[139.0,-88.66666666666666],[140.0,-89.0],[140.0,-90.0],[-180.0,-90.0],[-180.0,-84.5],[-178.84615384615384,-84.84615384615384],[-178.21052631578948,-85.21052631578948],[-174.0,-86.0],[-173.0,-86.0],[-172.0,-85.66666666666666],[-169.8181818181818,-85.81818181818181],[-169.0,-86.0],[-168.0,-86.0],[-167.33333333333334,-86.33333333333334],[-167.0,-86.33333333333334],[-166.0,-86.66666666666667],[-165.0,-87.33333333333334],[-164.0,-87.0],[-160.0,-87.0],[-158.30769230769232,-86.6923076923077],[-156.0,-86.57142857142857],[-155.0,-87.0],[-154.0,-87.0],[-152.0,-87.4],[-150.0,-87.16666666666667],[-148.0,-87.4],[-143.66666666666669,-87.33333333333334],[-141.0,-87.0],[-140.0,-87.42857142857142],[-139.0,-87.28571428571429],[-138.0,-87.42857142857142],[-135.0,-87.42857142857142],[-134.0,-87.8],[-130.0,-87.57142857142858],[-129.0,-87.375],[-125.0,-87.66666666666667],[-124.0,-87.57142857142858],[-123.0,-87.8],[-122.0,-87.66666666666667],[-116.57142857142857,-87.57142857142857],[-114.0,-87.8],[-112.0,-87.66666666666667],[-110.0,-87.66666666666667],[-109.0,-87.8],[-107.0,-87.5],[-106.0,-87.57142857142858],[-104.0,-87.4],[-101.0,-87.57142857142858],[-100.0,-87.25],[-98.0,-87.5],[-96.0,-87.4],[-94.0,-87.66666666666667],[-93.0,-87.6],[-90.0,-86.6],[-87.0,-86.5],[-86.0,-86.66666666666667],[-84.0,-86.6],[-82.0,-86.75],[-81.33333333333334,-86.66666666666667],[-81.0,-86.5],[-80.0,-86.66666666666667],[-77.625,-86.375],[-76.84615384615384,-86.15384615384616],[-76.26666666666667,-85.73333333333333],[-75.0,-85.5],[-73.0,-85.66666666666666],[-72.0,-86.0],[-71.0,-86.11111111111111],[-70.45454545454545,-85.54545454545453],[-69.76470588235294,-85.23529411764706],[-67.83333333333333,-85.16666666666667],[-65.0,-84.66666666666667],[-64.0,-85.0],[-63.0,-85.11111111111111],[-59.166666666666664,-83.83333333333334],[-54.83333333333333,-83.16666666666666],[-53.45454545454545,-82.54545454545455],[-51.0,-82.0],[-50.0,-81.5],[-48.0,-81.125],[-46.857142857142854,-81.14285714285714],[-45.42857142857143,-80.57142857142857],[-43.0,-80.125],[-42.35294117647059,-79.6470588235294],[-41.0,-79.125],[-38.0,-79.125],[-37.0,-78.5],[-34.81818181818182,-78.18181818181819],[-30.0,-78.25],[-29.0,-78.75],[-28.0,-78.5],[-26.53846153846154,-78.53846153846155],[-24.77777777777778,-78.77777777777777],[-24.0,-79.16666666666667],[-21.0,-79.0],[-18.0,-79.4],[-17.0,-79.33333333333334],[-16.0,-79.6],[-14.0,-79.33333333333334],[-13.0,-79.5],[-11.0,-79.5],[-10.0,-80.0],[-9.25,-79.75],[-8.777777777777779,-79.77777777777777],[-8.5,-80.0],[-7.0,-80.1],[-5.0,-80.42857142857142],[-3.0,-81.0],[-2.0,-80.66666666666667],[-1.0,-80.6],[0.2857142857142857,-80.28571428571428],[2.0,-80.16666666666667],[5.375,-80.625],[6.9,-81.1],[9.0,-81.125],[11.0,-81.5],[11.444444444444443,-81.44444444444444],[12.0,-81.0],[13.0,-81.0],[13.777777777777779,-80.77777777777777],[17.0,-80.42857142857142],[19.0,-80.5],[20.0,-81.0],[20.888888888888886,-81.11111111111111],[29.0,-81.18181818181817],[30.0,-81.08333333333333],[31.0,-81.28571428571429],[38.733333333333334,-81.26666666666667],[40.0,-81.33333333333334],[41.36363636363637,-81.63636363636364],[43.0,-81.66666666666667],[44.0,-82.0],[45.0,-82.0],[46.0,-81.75],[47.8,-82.19999999999999],[48.71428571428571,-82.28571428571428],[51.0,-82.0],[52.0,-82.125],[54.0,-82.0],[56.0,-82.3],[57.0,-82.125],[58.0,-82.28571428571428],[58.666666666666664,-82.0],[59.0,-81.5],[59.117647058823536,-80.88235294117646],[58.46153846153846,-80.53846153846153],[58.0,-80.0],[56.81818181818182,-79.18181818181819],[55.75,-78.0],[55.0,-77.5],[53.71428571428571,-77.28571428571428],[52.0,-76.6],[49.0,-76.71428571428571],[47.0,-76.25],[46.266666666666666,-75.73333333333333],[44.42857142857143,-75.57142857142858],[42.0,-75.875],[40.0,-75.625],[36.0,-75.80000000000001],[35.333333333333336,-76.0],[35.0,-76.33333333333333],[34.0,-76.5],[32.57142857142857,-76.42857142857143],[30.235294117647058,-75.76470588235294],[28.999999999999996,-75.57142857142856],[26.0,-75.83333333333334],[25.0,-75.71428571428571],[24.0,-75.83333333333334],[20.0,-75.83333333333334],[17.0,-75.66666666666667],[15.0,-75.83333333333334],[14.0,-76.25],[13.0,-76.25],[12.0,-75.6],[10.818181818181818,-75.18181818181819],[10.235294117647058,-74.76470588235293],[9.636363636363637,-74.63636363636363],[9.285714285714285,-74.71428571428571],[8.714285714285714,-74.28571428571428],[8.0,-74.0],[7.0,-74.0],[6.0,-74.2],[5.0,-73.83333333333334],[3.4000000000000004,-73.60000000000001],[2.0,-73.2],[1.0,-73.2],[0.0,-72.69999999999999],[-0.6923076923076923,-72.69230769230771],[-2.0,-72.4],[-3.0,-71.85714285714286],[-5.0,-71.4],[-6.000000000000001,-70.80000000000001],[-9.0,-69.6],[-9.333333333333334,-69.33333333333334],[-10.0,-68.4],[-10.80952380952381,-67.80952380952381],[-11.2,-67.0],[-10.88888888888889,-66.11111111111111],[-10.666666666666668,-66.0],[-10.4,-65.60000000000001],[-10.0,-65.5],[-9.777777777777779,-65.22222222222223],[-8.833333333333334,-65.0],[-8.454545454545453,-64.54545454545455],[-7.0,-64.0909090909091],[-6.0,-64.0],[-6.6000000000000005,-63.60000000000001],[-7.0,-63.5],[-7.333333333333334,-63.66666666666667],[-7.571428571428571,-63.57142857142857],[-8.0,-63.625],[-8.23076923076923,-63.769230769230774],[-8.76923076923077,-63.769230769230774],[-9.6,-64.0],[-9.666666666666668,-64.33333333333334],[-10.307692307692308,-64.6923076923077],[-12.0,-65.0],[-12.714285714285714,-65.28571428571428],[-13.25,-65.25],[-13.5,-65.0],[-14.5,-64.5],[-15.4,-63.400000000000006],[-15.5,-63.0],[-16.555555555555554,-62.55555555555555],[-17.0,-62.0],[-18.0,-61.66666666666667],[-19.555555555555554,-60.55555555555555],[-19.93103448275862,-59.93103448275862],[-20.482758620689655,-59.48275862068966],[-20.806451612903224,-58.80645161290323],[-21.416666666666668,-58.416666666666664],[-21.625,-58.0],[-21.875,-57.0],[-21.81818181818182,-55.81818181818181],[-22.25,-54.0],[-21.846153846153847,-53.15384615384616],[-21.8,-52.0],[-21.636363636363637,-51.36363636363636],[-21.5,-51.0],[-21.0,-50.599999999999994],[-20.625,-50.0],[-20.285714285714285,-48.71428571428571],[-19.5,-47.5],[-19.0,-47.0],[-18.400000000000002,-45.6],[-17.846153846153847,-45.15384615384615],[-17.52941176470588,-44.470588235294116],[-16.77777777777778,-44.0],[-16.692307692307693,-43.30769230769231],[-16.5,-43.0],[-18.0,-42.0],[-19.5,-41.5],[-21.352941176470587,-40.35294117647059],[-22.266666666666666,-39.266666666666666],[-22.900000000000002,-37.9],[-25.0,-37.0],[-26.0,-37.25],[-27.0,-37.75],[-27.095238095238095,-37.904761904761905],[-27.200000000000003,-39.0],[-27.1,-40.0],[-26.733333333333334,-40.733333333333334],[-26.57142857142857,-42.0],[-26.8,-45.0],[-26.400000000000002,-45.4],[-26.0,-46.08333333333333],[-24.857142857142858,-46.142857142857146],[-24.0,-46.0],[-22.0,-46.6],[-21.6,-47.0],[-22.0,-48.0],[-23.0,-49.0],[-23.833333333333336,-50.166666666666664],[-26.421052631578945,-51.57894736842105],[-27.0,-52.0],[-27.4,-52.6],[-28.0,-53.0],[-28.333333333333336,-54.00000000000001],[-28.5,-55.0],[-28.684210526315788,-55.31578947368421],[-29.0,-55.5],[-29.5,-56.5],[-30.0,-57.0],[-30.066666666666666,-59.0],[-29.5,-59.5],[-29.125,-60.125],[-29.0,-62.0],[-29.2,-62.8],[-29.4,-63.0],[-29.53846153846154,-63.46153846153847],[-30.0,-64.0],[-30.285714285714285,-64.71428571428571],[-31.714285714285715,-65.28571428571428],[-32.0,-65.25],[-32.25,-65.0],[-32.5,-64.0],[-35.0,-62.63636363636364],[-35.5,-62.5],[-36.0,-61.833333333333336],[-36.5,-62.0],[-36.714285714285715,-62.285714285714285],[-37.333333333333336,-62.66666666666667],[-37.5,-63.0],[-37.166666666666664,-63.16666666666667],[-37.0,-64.0],[-34.2,-65.0],[-35.83333333333333,-66.0],[-35.77777777777778,-66.22222222222223],[-36.0,-67.0],[-36.0,-68.0],[-36.6,-68.4],[-36.84615384615385,-69.15384615384616],[-37.66666666666667,-69.33333333333334],[-38.333333333333336,-69.66666666666667],[-39.0,-70.5],[-39.400000000000006,-70.60000000000001],[-42.0,-72.0],[-44.0,-74.0],[-44.6,-74.4],[-47.5,-75.5],[-48.0,-76.0],[-49.0,-76.0],[-49.55555555555556,-76.44444444444444],[-50.36363636363636,-76.63636363636364],[-52.0,-77.66666666666667],[-52.5,-77.5],[-53.0,-77.0],[-53.60000000000001,-77.4],[-54.0,-77.5],[-54.2,-77.8],[-56.1,-77.9],[-57.0,-78.2],[-58.0,-78.0],[-59.0,-78.2],[-61.18181818181819,-78.18181818181819],[-62.0,-78.0],[-63.333333333333336,-77.33333333333334],[-64.18181818181819,-77.18181818181819],[-65.0,-76.66666666666667],[-66.5,-76.0],[-66.33333333333334,-75.0],[-66.0,-74.0],[-65.0,-74.0],[-63.5,-72.5],[-63.333333333333336,-71.66666666666667],[-63.0,-71.0],[-62.6,-70.4],[-62.0,-70.0],[-63.0,-69.75],[-63.42857142857143,-69.42857142857143],[-63.6,-69.0],[-63.333333333333336,-68.66666666666667],[-62.7,-68.30000000000001],[-62.45454545454545,-67.54545454545455],[-62.0,-67.0],[-61.315789473684205,-65.68421052631578],[-60.75,-65.25],[-60.400000000000006,-64.6],[-59.8,-64.0],[-59.23529411764706,-62.76470588235294],[-57.85714285714286,-62.0],[-58.0,-61.0],[-57.0,-60.2],[-56.5,-60.0],[-56.66666666666667,-59.66666666666667],[-56.625,-58.0],[-56.43478260869565,-57.565217391304344],[-55.935483870967744,-57.06451612903226],[-55.69230769230769,-56.307692307692314],[-55.42857142857143,-56.0],[-55.0,-55.0],[-54.48275862068965,-53.51724137931034],[-54.0,-53.125],[-53.88235294117647,-52.117647058823536],[-53.61904761904761,-51.38095238095238],[-53.03846153846154,-50.96153846153846],[-52.92,-50.0],[-52.10810810810811,-48.89189189189189],[-52.0,-48.0],[-51.46315789473684,-47.536842105263155],[-51.08571428571429,-47.0],[-50.88679245283019,-46.11320754716981],[-50.098765432098766,-44.90123456790124],[-49.89189189189189,-44.108108108108105],[-49.0,-43.0],[-48.71428571428571,-42.285714285714285],[-48.0,-42.0],[-47.77777777777778,-41.22222222222222],[-47.13333333333333,-40.86666666666667],[-46.92,-40.080000000000005],[-46.266666666666666,-38.733333333333334],[-46.37037037037037,-38.37037037037037],[-46.3125,-38.0],[-46.12048192771084,-37.87951807228916],[-45.94871794871795,-37.05128205128205],[-45.02127659574468,-35.97872340425532],[-44.91489361702128,-35.08510638297872],[-44.03076923076923,-33.96923076923077],[-43.89473684210526,-33.10526315789474],[-43.69230769230769,-32.69230769230769],[-43.77777777777778,-32.22222222222222],[-43.0,-32.0],[-43.882352941176464,-31.88235294117647],[-43.760000000000005,-31.240000000000002],[-43.904761904761905,-30.904761904761905],[-44.15929203539823,-27.15929203539823],[-45.0,-25.652173913043477],[-45.464000000000006,-24.464],[-45.878787878787875,-24.0],[-46.23008849557522,-22.23008849557522],[-46.96969696969697,-20.0],[-47.10526315789474,-17.894736842105264],[-46.888888888888886,-16.0],[-47.16666666666667,-13.833333333333332],[-47.0,-13.0],[-46.470588235294116,-12.52941176470588],[-46.0,-12.428571428571427],[-45.65217391304348,-12.652173913043478],[-45.0,-14.0],[-44.519999999999996,-14.52],[-44.333333333333336,-15.000000000000002],[-44.0,-18.0],[-44.0,-20.0],[-43.36363636363636,-21.363636363636363],[-43.0,-23.333333333333336],[-42.733333333333334,-23.733333333333334],[-42.285714285714285,-25.0],[-42.1,-25.099999999999998],[-42.032258064516135,-26.000000000000004],[-41.23529411764706,-26.235294117647058],[-41.0,-30.0],[-40.63636363636364,-29.363636363636367],[-39.80952380952381,-29.19047619047619],[-39.0,-28.8],[-38.0,-29.0],[-37.2,-30.0],[-37.5,-32.0],[-37.5,-34.0],[-37.63636363636364,-34.36363636363636],[-38.0,-34.66666666666667],[-38.29629629629629,-35.7037037037037],[-38.66666666666667,-36.0],[-39.0,-36.66666666666667],[-39.36363636363636,-38.0],[-39.421052631578945,-38.421052631578945],[-39.28571428571428,-38.71428571428571],[-39.5,-39.0],[-39.16666666666667,-39.16666666666667],[-38.88235294117647,-39.11764705882353],[-38.421052631578945,-38.57894736842105],[-37.8,-38.2],[-37.476190476190474,-37.523809523809526],[-37.0,-37.0],[-35.89473684210526,-36.10526315789474],[-35.625,-35.375],[-34.888888888888886,-34.111111111111114],[-34.75,-33.0],[-34.875,-32.0],[-34.75,-30.75],[-35.0,-29.0],[-35.63636363636364,-28.636363636363633],[-35.89473684210526,-27.89473684210526],[-36.400000000000006,-27.4],[-36.800000000000004,-26.0],[-36.0,-23.0],[-35.5,-22.5],[-34.86666666666667,-22.133333333333333],[-34.470588235294116,-21.52941176470588],[-34.0,-21.333333333333336],[-32.77777777777778,-21.22222222222222],[-32.0,-21.0],[-31.25,-21.25],[-30.333333333333336,-21.333333333333336],[-29.000000000000004,-21.200000000000003],[-27.0,-21.375],[-24.000000000000004,-21.200000000000003],[-23.0,-21.333333333333336],[-22.52,-21.52],[-22.0,-22.0],[-20.714285714285715,-22.285714285714285],[-19.0,-21.5],[-15.0,-21.5],[-14.619047619047619,-21.619047619047617],[-14.000000000000002,-22.200000000000003],[-13.285714285714285,-22.285714285714285],[-13.0,-22.5],[-12.363636363636363,-23.363636363636363],[-11.833333333333334,-23.833333333333336],[-11.25,-25.0],[-11.333333333333334,-26.0],[-10.0,-27.0],[-9.0,-27.0],[-8.0,-27.285714285714285],[-7.000000000000001,-27.200000000000003],[-5.75,-27.75],[-5.285714285714286,-28.285714285714285],[-5.0,-29.0],[-4.470588235294118,-29.47058823529412],[-4.166666666666667,-30.166666666666668],[-3.578947368421052,-30.57894736842105],[-3.0,-32.0],[-2.555555555555556,-32.55555555555555],[-2.0,-32.8],[-0.7272727272727273,-32.27272727272727],[-0.5,-32.0],[-0.4,-31.6],[0.3333333333333333,-31.0],[0.5555555555555556,-30.555555555555554],[1.0,-30.333333333333336],[1.125,-30.125],[1.0,-28.0],[0.75,-27.0],[0.6666666666666666,-26.0],[0.10526315789473684,-24.894736842105264],[-0.5714285714285714,-24.57142857142857],[-1.0,-24.0],[-3.3076923076923084,-23.307692307692307],[-3.666666666666667,-23.0],[-5.25,-22.25],[-6.0,-21.666666666666668],[-7.153846153846153,-21.153846153846153],[-7.333333333333333,-21.0],[-7.5,-20.5],[-8.0,-20.0],[-9.0,-20.0],[-9.4,-19.400000000000002],[-10.0,-19.0],[-11.0,-18.0],[-12.0,-19.0],[-12.333333333333334,-18.333333333333336],[-13.0,-18.0],[-20.77777777777778,-17.77777777777778],[-22.0,-17.333333333333332],[-22.333333333333336,-17.333333333333336],[-23.0,-17.0],[-24.0,-16.875],[-24.5,-17.0],[-24.400000000000002,-17.4],[-24.0,-18.0],[-26.0,-18.42857142857143],[-27.266666666666666,-18.266666666666666],[-27.8,-17.799999999999997],[-29.0,-17.5],[-31.0,-17.333333333333332],[-32.4,-17.6],[-33.647058823529406,-18.352941176470587],[-35.36363636363637,-18.636363636363637],[-36.0,-19.0],[-37.0,-18.5],[-38.0,-19.0],[-39.0,-19.0],[-39.0,-18.0],[-40.0,-18.0],[-40.4,-17.4],[-40.5,-16.0],[-40.333333333333336,-15.666666666666668],[-40.0,-15.5],[-39.8,-15.2],[-39.5,-14.0],[-40.0,-13.0],[-40.0,-12.0],[-40.5,-11.0],[-40.599999999999994,-10.0],[-40.8,-9.8],[-41.0,-9.0],[-41.6,-8.600000000000001],[-42.0,-8.0],[-42.30769230769231,-7.307692307692308],[-42.6,-6.0],[-41.57142857142858,-4.428571428571429],[-40.5,-3.5],[-39.83333333333333,-3.166666666666667],[-39.5,-2.5],[-39.0,-2.142857142857143],[-38.0,-2.0],[-37.45454545454545,-1.5454545454545454],[-35.35294117647059,-0.6470588235294117],[-33.82608695652174,-0.17391304347826086],[-32.89473684210527,-0.10526315789473684],[-32.44444444444444,0.4444444444444444],[-30.8,1.0],[-30.444444444444443,1.4444444444444444],[-27.916666666666668,2.9166666666666665],[-27.571428571428573,3.571428571428571],[-27.0,4.0],[-26.6,4.6],[-26.333333333333336,6.0],[-26.333333333333336,7.0],[-25.48,9.479999999999999],[-24.57142857142857,10.571428571428571],[-23.900000000000002,10.9],[-23.75,12.0],[-23.461538461538463,12.461538461538462],[-22.80952380952381,12.80952380952381],[-22.421052631578945,13.421052631578947],[-21.6,14.0],[-21.5,16.0],[-21.6,16.400000000000002],[-22.0,17.0],[-22.555555555555557,16.555555555555554],[-24.0,16.333333333333336],[-26.285714285714285,16.714285714285715],[-27.0,17.0],[-28.0,17.0],[-28.789473684210527,17.210526315789473],[-29.5,17.5],[-29.833333333333332,18.0],[-29.857142857142858,19.000000000000004],[-29.66666666666667,20.0],[-30.0,21.0],[-29.333333333333336,23.0],[-29.0,23.333333333333332],[-28.666666666666668,24.0],[-28.857142857142858,25.142857142857142],[-29.333333333333336,26.0],[-29.6,27.0],[-28.7,29.7],[-28.6,30.6],[-28.363636363636363,31.363636363636363],[-27.285714285714285,33.285714285714285],[-26.846153846153847,33.84615384615385],[-25.5,35.0],[-25.444444444444443,35.44444444444444],[-25.0,36.0],[-25.5,36.5],[-25.714285714285715,37.285714285714285],[-25.714285714285715,38.71428571428571],[-25.4,40.0],[-25.4,41.0],[-25.142857142857142,42.14285714285714],[-24.0,43.25],[-23.0,43.57142857142857],[-22.444444444444443,43.55555555555555],[-21.555555555555554,43.44444444444444],[-21.0,43.0],[-19.5,42.5],[-19.0,42.0],[-17.833333333333336,41.833333333333336],[-17.0,42.5],[-16.5,43.5],[-15.5,44.0],[-15.4,44.400000000000006],[-14.5,45.5],[-13.714285714285714,45.71428571428571],[-13.5,46.0],[-13.166666666666668,46.166666666666664],[-10.75,46.75],[-10.266666666666666,47.266666666666666],[-8.894736842105264,47.89473684210526],[-8.352941176470587,48.35294117647059],[-6.888888888888889,48.88888888888889],[-6.421052631578947,49.421052631578945],[-5.777777777777778,49.77777777777778],[-5.25,50.25],[-3.6470588235294112,50.647058823529406],[-3.0,51.0],[-2.0,50.83333333333333],[-1.0,51.0]],[[3.0000000000000004,37.2],[2.0,37.2],[1.6666666666666667,37.0],[2.0,36.66666666666667],[3.0,36.66666666666667],[3.5,37.0],[3.0000000000000004,37.2]],[[7.000000000000001,6.800000000000001],[8.0,6.833333333333334],[8.5,7.0],[9.181818181818182,7.818181818181818],[9.5,8.0],[9.181818181818182,8.181818181818182],[9.0,8.5],[8.0,8.666666666666668],[7.6,8.600000000000001],[7.0,9.0],[6.5,8.5],[4.4,8.4],[3.0,8.0],[5.0,7.0],[7.000000000000001,6.800000000000001]],[[9.75,12.25],[10.0,11.0],[10.4,12.4],[10.0,13.0],[9.75,12.25]],[[19.0,19.0],[19.0,18.0],[20.0,18.0],[20.0,19.0],[19.0,19.0]],[[30.666666666666668,33.333333333333336],[30.5,33.0],[31.0,32.66666666666667],[31.5,33.0],[31.333333333333336,33.333333333333336],[31.0,33.5],[30.666666666666668,33.333333333333336]],[[55.83333333333333,-61.83333333333333],[55.0,-61.833333333333336],[54.5,-62.0],[55.16666666666667,-62.166666666666664],[56.2,-62.199999999999996],[57.0,-62.0],[55.83333333333333,-61.83333333333333]],[[58.0,-62.5],[59.0,-62.5],[60.0,-62.66666666666667],[60.5,-63.0],[61.0,-63.125],[63.0,-63.0],[64.0,-62.4],[65.28571428571428,-62.285714285714285],[66.0,-62.0],[65.18181818181819,-61.81818181818181],[63.00000000000001,-61.66666666666667],[60.00000000000001,-61.66666666666667],[59.0,-61.888888888888886],[58.0,-61.75],[57.0,-62.0],[58.0,-62.5]],[[66.81818181818181,-62.18181818181818],[68.11764705882354,-62.11764705882353],[68.5,-62.0],[68.0,-61.875],[66.0,-62.0],[66.81818181818181,-62.18181818181818]],[[75.33333333333334,-63.0],[76.0,-63.166666666666664],[76.66666666666666,-63.0],[76.33333333333334,-62.66666666666667],[76.0,-62.66666666666667],[75.33333333333334,-63.0]],[[80.0,-72.2],[80.16666666666667,-72.0],[79.9047619047619,-71.9047619047619],[79.0,-72.0],[80.0,-72.2]],[[96.0,-84.33333333333334],[97.0,-84.66666666666667],[99.0,-84.0],[97.10810810810811,-83.8918918918919],[93.0,-84.0],[93.5,-84.5],[93.66666666666667,-85.0],[94.00000000000001,-85.16666666666667],[94.5,-85.0],[94.66666666666667,-84.66666666666667],[95.4,-84.4],[96.0,-84.33333333333334]],[[110.25,-83.25],[110.6,-83.0],[109.28571428571428,-82.71428571428571],[109.0,-82.53333333333333],[108.0,-82.73333333333335],[106.0,-82.67857142857143],[101.5,-83.0],[102.0,-83.5],[105.4,-83.6],[108.0,-83.53333333333333],[110.25,-83.25]],[[110.75999999999999,-68.24],[111.25,-68.25],[111.5,-68.0],[111.3157894736842,-67.68421052631578],[111.0,-67.57142857142857],[110.64705882352939,-67.6470588235294],[110.0,-68.0],[110.75999999999999,-68.24]],[[116.0,-69.16666666666667],[116.20000000000002,-69.0],[115.85714285714286,-68.85714285714286],[115.80000000000001,-69.0],[116.0,-69.16666666666667]],[[-37.5,-66.0],[-40.333333333333336,-66.0],[-40.0,-66.5],[-39.6,-66.60000000000001],[-39.0,-67.0],[-38.4,-66.60000000000001],[-37.66666666666667,-66.33333333333334],[-37.5,-66.0]],[[-39.5,-67.5],[-40.0,-67.5],[-41.0,-68.0],[-40.4,-68.4],[-40.0,-68.5],[-39.6,-68.4],[-39.0,-68.0],[-39.0,-67.0],[-39.5,-67.5]],[[0.5,-63.0],[3.0,-63.09090909090909],[3.5,-63.0],[0.5,-63.0]],[[67.5,-73.0],[67.0,-72.0],[66.33333333333334,-71.66666666666667],[66.0,-71.66666666666667],[65.42857142857143,-72.42857142857143],[65.16666666666667,-73.0],[67.0,-74.0],[67.4,-73.4],[67.5,-73.0]],[[-8.6,28.0],[-8.733333333333334,28.266666666666666],[-9.0,28.400000000000002],[-9.285714285714285,28.285714285714285],[-9.5,28.0],[-9.555555555555555,27.555555555555554],[-10.0,27.0],[-9.4,26.6],[-9.0,26.0],[-8.600000000000001,26.6],[-8.75,27.0],[-8.6,28.0]],[[-11.0,27.333333333333336],[-12.0,27.0],[-11.400000000000002,26.6],[-10.0,27.0],[-11.0,27.333333333333336]],[[-9.4,25.400000000000002],[-10.0,25.0],[-9.0,24.0],[-8.5,25.5],[-8.0,25.666666666666668],[-7.666666666666667,26.0],[-7.818181818181818,26.181818181818183],[-8.4,26.400000000000002],[-9.0,26.0],[-9.4,25.400000000000002]],[[-13.0,25.0],[-12.0,25.0],[-12.0,26.0],[-13.0,26.0],[-13.0,25.0]]],[[[46.0,-19.4],[45.00000000000001,-18.85714285714286],[44.53846153846154,-18.46153846153846],[44.333333333333336,-18.0],[44.35294117647059,-17.64705882352941],[43.8,-17.0],[44.0,-16.75],[44.06896551724138,-16.931034482758623],[45.0,-16.96],[46.0,-17.333333333333336],[46.66666666666667,-18.0],[46.4,-19.0],[46.0,-19.4]]],[[[48.0,-9.0],[48.565217391304344,-8.565217391304348],[49.0,-8.444444444444445],[49.416666666666664,-8.583333333333334],[49.833333333333336,-9.0],[49.5,-10.0],[49.0,-10.333333333333332],[48.77777777777778,-10.222222222222221],[48.0,-9.0]]],[[[41.55555555555556,-3.0],[41.22222222222222,-4.222222222222222],[41.0,-4.333333333333334],[40.21052631578947,-3.7894736842105265],[39.0,-3.6],[38.400000000000006,-3.0],[38.275862068965516,-2.724137931034483],[37.0,-2.0],[37.0,-1.0],[38.0,-0.6666666666666666],[38.68,-1.3199999999999998],[39.46153846153847,-1.5384615384615383],[40.0,-2.0],[41.37037037037037,-2.6296296296296293],[41.55555555555556,-3.0]]],[[[19.285714285714285,2.2857142857142856],[19.333333333333336,2.0],[19.0,1.5],[18.6,1.6],[18.75,2.25],[19.285714285714285,2.2857142857142856]]],[[[-35.08,13.92],[-33.55555555555555,13.444444444444445],[-32.16,12.84],[-31.153846153846153,12.846153846153847],[-30.444444444444443,12.555555555555555],[-30.0,12.333333333333334],[-29.333333333333336,11.666666666666668],[-29.090909090909093,10.909090909090908],[-28.565217391304344,10.434782608695652],[-28.375,10.0],[-28.11764705882353,8.117647058823529],[-28.111111111111107,6.999999999999999],[-28.400000000000002,6.0],[-28.66666666666667,5.666666666666667],[-30.333333333333336,5.0],[-31.285714285714285,4.285714285714286],[-32.0,4.0],[-32.4,3.4000000000000004],[-33.0,3.0],[-33.470588235294116,2.4705882352941178],[-34.0,2.2727272727272725],[-37.0,2.083333333333333],[-37.65217391304348,2.3478260869565215],[-38.61904761904762,3.3809523809523805],[-40.0,6.800000000000001],[-41.0,7.0],[-40.25,7.25],[-40.0,7.5],[-39.958333333333336,7.958333333333333],[-40.0,8.200000000000001],[-40.75,9.25],[-40.949999999999996,13.0],[-40.71428571428571,13.714285714285714],[-39.333333333333336,14.0],[-38.61904761904762,14.619047619047619],[-37.0,14.875],[-36.173913043478265,14.826086956521738],[-35.523809523809526,14.476190476190474],[-35.08,13.92]]],[[[-19.0,43.25],[-19.714285714285715,43.28571428571428],[-20.5,43.5],[-20.666666666666668,44.0],[-18.714285714285715,44.285714285714285],[-18.0,44.0],[-18.5,43.5],[-19.0,43.25]]],[[[89.0,-29.0],[89.60000000000001,-28.6],[90.4,-28.400000000000002],[91.0,-28.0],[92.0,-29.0],[91.0,-29.333333333333336],[89.0,-29.0]]],[[[110.4,3.4000000000000004],[110.5,3.0],[110.42105263157895,2.5789473684210527],[110.0,2.0],[109.0,2.0],[109.0,1.0],[109.5,0.0],[110.0,-0.14285714285714285],[110.5,-0.5],[110.85185185185185,-1.1481481481481481],[111.36363636363636,-1.6363636363636362],[111.68,-2.3200000000000003],[112.0,-3.6666666666666665],[112.18181818181819,-3.8181818181818183],[112.47058823529412,-4.529411764705882],[112.57142857142857,-5.0],[112.44444444444444,-5.444444444444444],[111.63636363636364,-6.636363636363637],[111.0,-7.0],[111.63636363636364,-7.363636363636364],[112.4,-7.6],[113.0,-8.5],[113.28571428571428,-10.285714285714285],[113.0,-10.666666666666668],[112.66666666666669,-10.666666666666668],[112.5,-11.0],[113.69230769230771,-11.307692307692308],[114.0,-11.5],[114.12903225806451,-11.870967741935484],[115.00000000000001,-12.142857142857144],[115.1875,-12.8125],[116.0,-13.142857142857144],[116.29850746268656,-14.701492537313431],[117.0,-15.4375],[117.27083333333334,-16.729166666666668],[117.56521739130434,-17.0],[117.6875,-17.3125],[118.0,-17.526315789473685],[118.33333333333334,-18.333333333333336],[118.28571428571428,-18.714285714285715],[118.66666666666667,-19.0],[118.47999999999999,-19.48],[118.0,-20.0],[117.25,-21.25],[116.625,-21.625],[115.69230769230771,-22.692307692307693],[115.0,-23.0],[113.5,-25.0],[112.30000000000001,-26.299999999999997],[111.68,-26.68],[110.65217391304347,-27.652173913043477],[109.83783783783784,-27.83783783783784],[109.38461538461539,-28.38461538461538],[108.7948717948718,-28.794871794871796],[107.9622641509434,-28.962264150943394],[107.44827586206897,-29.448275862068964],[106.66153846153847,-29.661538461538463],[106.0,-30.0],[105.0,-30.714285714285715],[103.66666666666666,-30.0],[103.5,-29.0],[103.17391304347827,-28.826086956521742],[101.99999999999999,-28.699999999999996],[101.0,-28.900000000000002],[99.36363636363636,-28.636363636363633],[98.6190476190476,-28.38095238095238],[97.875,-27.875],[93.66666666666667,-27.666666666666668],[93.0,-28.0],[92.0,-27.0],[91.0,-27.0],[90.5,-27.5],[90.0,-27.5],[89.66666666666667,-27.666666666666668],[89.0,-27.75],[88.53846153846155,-27.461538461538463],[88.25,-27.0],[87.0,-26.916666666666668],[86.36363636363637,-26.636363636363637],[86.0,-26.0],[84.36363636363636,-25.636363636363637],[83.65217391304347,-25.347826086956523],[83.42857142857142,-25.0],[82.51515151515152,-24.484848484848484],[82.0,-23.666666666666664],[81.61904761904762,-23.38095238095238],[81.0,-22.5],[80.1875,-21.8125],[80.0,-21.25],[79.08695652173913,-20.91304347826087],[77.86666666666667,-20.133333333333333],[77.5,-19.0],[77.8,-17.0],[77.86666666666667,-16.866666666666667],[78.04651162790698,-16.953488372093023],[78.88235294117646,-16.88235294117647],[79.25,-17.0],[79.6086956521739,-17.39130434782609],[80.23880597014926,-17.76119402985075],[81.44444444444444,-18.0],[82.0,-18.294117647058822],[82.29268292682927,-18.70731707317073],[83.1,-19.0],[83.3125,-19.6875],[83.83333333333333,-20.0],[84.0,-21.0],[85.92307692307693,-21.076923076923077],[87.0,-21.545454545454547],[87.22727272727272,-21.772727272727273],[89.55555555555554,-22.0],[90.54761904761905,-22.452380952380953],[93.25,-23.0],[94.0952380952381,-23.904761904761905],[94.5,-24.0],[95.44444444444444,-24.555555555555554],[96.0,-24.666666666666664],[96.11764705882354,-24.88235294117647],[99.0,-24.92753623188406],[99.81512605042016,-24.81512605042017],[100.46153846153847,-24.461538461538463],[100.72972972972973,-24.0],[100.80000000000001,-23.0],[100.5813953488372,-22.418604651162788],[100.1,-22.0],[100.25,-21.0],[100.55555555555554,-20.555555555555554],[101.6,-20.0],[101.71428571428572,-19.714285714285715],[102.4,-19.0],[102.44444444444443,-18.555555555555554],[102.0,-18.0],[103.0,-18.0],[103.0,-17.0],[102.33333333333334,-16.666666666666668],[102.00000000000001,-16.666666666666668],[101.11764705882354,-14.88235294117647],[100.5,-14.5],[100.0,-14.0],[99.25,-13.75],[98.0,-13.0],[97.33333333333334,-12.0],[96.53846153846155,-11.461538461538463],[96.25,-11.0],[94.15384615384616,-10.846153846153847],[93.53846153846153,-10.461538461538463],[93.25,-10.0],[92.8,-9.8],[92.19999999999999,-9.8],[92.1,-9.0],[92.21052631578948,-8.210526315789473],[92.54545454545455,-7.545454545454546],[93.0,-7.166666666666667],[93.75,-7.25],[94.0,-7.5],[94.4,-7.6],[95.0,-8.0],[95.4,-7.4],[95.5,-7.0],[94.5,-6.5],[93.44444444444443,-5.555555555555555],[93.2,-5.0],[93.04878048780488,-4.951219512195122],[93.04878048780488,-4.048780487804878],[92.52,-3.48],[92.28,-3.0],[91.91304347826087,-2.0],[91.76923076923077,-0.7692307692307692],[92.4,0.0],[92.57142857142858,0.4285714285714286],[93.16666666666667,0.8333333333333333],[93.47058823529412,1.5294117647058822],[94.0,2.0],[94.0,3.0],[95.0,4.25],[95.25,4.25],[95.81818181818181,3.8181818181818183],[98.14285714285714,3.857142857142857],[99.63636363636363,4.363636363636363],[100.33333333333334,5.0],[101.84615384615384,5.153846153846154],[103.0,5.454545454545455],[104.66666666666667,6.0],[105.44444444444444,6.555555555555555],[106.76470588235294,6.764705882352941],[107.30769230769232,6.6923076923076925],[108.0,7.25],[108.33333333333334,7.0],[108.4,6.6000000000000005],[108.0,6.0],[109.0,6.0],[109.71428571428571,5.7142857142857135],[109.88235294117646,3.8823529411764706],[110.4,3.4000000000000004]],[[103.85714285714286,-7.142857142857142],[104.0625,-7.0],[104.0,-6.666666666666667],[103.66666666666669,-6.666666666666667],[103.5,-7.0],[103.85714285714286,-7.142857142857142]]],[[[93.28571428571428,2.714285714285714],[92.85714285714286,2.8571428571428568],[92.875,3.0],[94.0,3.0],[93.28571428571428,2.714285714285714]]],[[[80.60000000000001,19.6],[81.45454545454545,19.0],[81.60655737704917,18.606557377049178],[82.29411764705881,18.0],[82.47058823529412,17.0],[82.25,16.75],[81.7948717948718,17.0],[81.60000000000001,17.4],[81.64285714285714,17.642857142857142],[81.41666666666667,17.583333333333336],[80.86111111111111,17.86111111111111],[79.97069597069597,17.97069597069597],[79.85321100917432,18.853211009174313],[79.2,19.0],[79.0,19.4],[78.94871794871794,20.94871794871795],[78.83333333333334,21.0],[79.0,21.333333333333336],[79.33333333333334,20.333333333333336],[79.55555555555554,20.444444444444443],[80.24489795918367,20.244897959183675],[80.60000000000001,19.6]]],[[[88.25806451612902,22.258064516129032],[88.89473684210527,22.105263157894736],[89.04347826086956,22.0],[89.0,21.90909090909091],[88.23529411764706,21.764705882352942],[87.0,21.80952380952381],[86.45901639344262,22.45901639344262],[85.73770491803279,22.737704918032787],[85.28571428571428,23.285714285714285],[84.0,24.0],[84.53333333333335,24.46666666666667],[85.0,24.4375],[86.0,24.9],[87.0,24.64285714285714],[87.32142857142857,24.32142857142857],[87.52941176470588,23.52941176470588],[88.25806451612902,22.258064516129032]]],[[[97.0,42.0],[96.0,41.57142857142857],[94.71428571428572,41.71428571428571],[92.0,42.666666666666664],[91.6,43.0],[91.63636363636364,43.36363636363636],[92.0,43.66666666666667],[93.0,43.800000000000004],[95.0,43.599999999999994],[96.06896551724138,43.068965517241374],[96.66666666666667,43.0],[97.0,42.0]]],[[[77.0,75.0],[77.88888888888889,75.11111111111111],[78.5,75.0],[79.0,74.0],[78.75,73.0],[78.46153846153847,72.53846153846153],[77.81818181818181,72.18181818181819],[77.33333333333334,69.66666666666667],[77.0,69.0],[77.0,68.0],[76.0,67.0],[75.0,66.5],[74.75,66.0],[76.0,65.0],[76.78947368421052,64.78947368421052],[77.66666666666667,64.0],[78.625,63.625],[79.0,63.25],[79.875,62.875],[80.75,62.0],[81.0,61.0],[80.75,60.0],[80.88888888888889,58.111111111111114],[81.0,57.75],[81.81818181818181,56.81818181818182],[82.0,53.5],[82.42857142857143,52.0],[82.0,51.0],[81.73333333333333,49.266666666666666],[81.41666666666667,48.583333333333336],[81.0,48.166666666666664],[80.75,47.25],[80.3157894736842,46.68421052631579],[80.0,46.5],[79.75,45.75],[79.875,45.125],[79.66666666666667,44.66666666666667],[80.0,44.0],[80.5,44.5],[81.0,44.6],[81.33333333333334,44.333333333333336],[81.42857142857143,44.0],[81.5,43.0],[81.4,42.6],[80.6,42.0],[80.63636363636364,41.63636363636364],[81.0,41.5],[82.0,41.5],[83.0,41.66666666666667],[84.0,41.625],[85.13793103448276,41.862068965517246],[87.0,41.705882352941174],[88.0,41.0],[89.53846153846153,40.53846153846154],[89.97590361445783,39.97590361445783],[91.91489361702128,39.91489361702128],[92.8,39.8],[93.0,39.66666666666667],[94.05882352941177,39.94117647058824],[102.0,39.9375],[102.83333333333333,40.166666666666664],[103.75,40.0],[104.0,39.833333333333336],[104.1639344262295,39.16393442622951],[104.38461538461539,39.0],[104.875,38.0],[105.26415094339623,36.26415094339623],[105.77777777777777,36.0],[106.11764705882352,35.11764705882353],[107.0,35.0],[108.00000000000001,34.66666666666667],[109.0,34.66666666666667],[110.0,34.0],[111.00000000000001,33.800000000000004],[115.16666666666666,33.83333333333333],[115.7,33.7],[117.0,33.699999999999996],[117.57142857142858,33.57142857142857],[118.0,33.25],[119.0,33.25],[121.0,33.833333333333336],[123.4,33.4],[124.77777777777777,32.77777777777778],[126.0,32.57142857142857],[127.0,32.0],[128.43478260869566,31.434782608695652],[128.83333333333334,31.0],[129.0,30.0],[130.0,29.5],[130.71428571428572,28.71428571428571],[131.4,28.400000000000002],[131.89473684210526,27.89473684210526],[133.5,27.0],[133.42857142857144,26.0],[133.0,25.25],[131.88888888888889,25.111111111111114],[131.33333333333334,24.666666666666668],[131.0,24.57142857142857],[130.0,24.666666666666664],[129.0,24.57142857142857],[128.68421052631578,24.684210526315788],[128.21052631578948,25.210526315789473],[127.57894736842104,25.57894736842105],[127.10526315789474,26.105263157894736],[126.3,26.299999999999997],[125.0,26.375],[123.73333333333332,26.266666666666666],[122.0,25.5],[121.0,25.333333333333336],[120.52941176470588,25.529411764705884],[120.0,26.0],[117.64705882352942,26.64705882352941],[117.25,27.0],[117.11764705882354,28.11764705882353],[116.0,29.0],[113.4,29.400000000000002],[113.0,29.666666666666668],[111.60000000000001,29.6],[111.0,30.0],[111.0,29.0],[110.4,28.6],[110.0,28.5],[108.0,28.6],[107.71428571428571,28.71428571428571],[107.5,29.0],[107.44444444444444,29.444444444444443],[106.60000000000001,30.6],[106.0,31.0],[105.5,32.0],[105.15384615384616,32.15384615384615],[104.25,32.25],[103.0,32.66666666666667],[102.1875,33.1875],[100.60000000000001,33.6],[100.0,34.125],[98.21052631578948,34.21052631578947],[97.07692307692308,34.07692307692308],[96.66666666666667,34.0],[96.60000000000001,33.6],[97.44444444444443,32.44444444444444],[97.5,32.0],[99.35294117647058,31.352941176470587],[100.0,30.75],[101.33333333333334,30.0],[102.625,29.625],[103.0,29.4],[104.15384615384616,29.153846153846153],[107.0,27.666666666666668],[108.0,27.4],[109.0,27.333333333333336],[110.0,27.0],[111.0,27.0],[111.0,26.0],[112.0,25.666666666666668],[113.0,25.0],[114.43478260869566,24.434782608695652],[114.83333333333334,24.0],[114.71428571428572,23.71428571428571],[115.75,22.75],[116.36363636363637,22.363636363636363],[116.75,21.75],[117.77777777777777,20.77777777777778],[119.81818181818181,19.818181818181817],[121.55555555555556,18.555555555555554],[123.0,18.0],[124.0,17.0],[124.75,17.25],[126.0,17.333333333333332],[126.33333333333334,17.0],[126.02272727272728,16.977272727272727],[125.71428571428571,16.714285714285715],[125.28571428571428,16.714285714285715],[125.28571428571428,16.285714285714285],[125.14285714285714,16.0],[124.26666666666668,15.733333333333333],[124.08333333333333,15.0],[123.11111111111111,14.888888888888888],[123.0,14.600000000000001],[122.6,14.400000000000002],[122.25,14.0],[121.77777777777779,13.777777777777779],[121.22222222222223,13.777777777777779],[121.0,13.5],[119.81818181818181,13.818181818181817],[119.0,14.5],[118.60000000000001,14.400000000000002],[118.0,14.0],[116.33333333333334,13.666666666666668],[116.0,13.5],[115.5,14.0],[115.4,14.400000000000002],[115.0,15.0],[114.4,14.600000000000001],[113.5,14.5],[112.0,16.0],[112.0,17.0],[111.0,17.0],[111.0,16.0],[110.0,16.0],[109.4,16.400000000000002],[108.5,16.5],[108.0,17.0],[107.4,16.6],[106.0,17.0],[105.0,17.0],[104.0,17.6],[102.28571428571428,18.285714285714285],[102.0,18.5],[101.0,20.0],[100.46153846153847,20.461538461538463],[99.5,21.0],[98.75,21.75],[98.0,22.0],[98.0,23.0],[97.14285714285714,24.142857142857142],[95.77777777777777,24.77777777777778],[95.66666666666667,25.0],[96.0,26.0],[97.0,26.0],[97.0,27.0],[96.5,27.5],[96.33333333333333,28.0],[95.28571428571428,28.285714285714285],[94.83333333333333,29.0],[94.0,29.294117647058822],[93.64179104477613,29.64179104477612],[93.47826086956522,30.0],[92.66666666666667,30.666666666666668],[92.26666666666668,31.266666666666666],[91.0,31.588235294117645],[90.51219512195122,31.48780487804878],[89.71428571428572,31.0],[90.23809523809524,30.0],[90.27272727272727,29.272727272727273],[90.6,29.0],[90.80000000000001,27.8],[91.0,27.666666666666668],[91.0,26.333333333333336],[90.63636363636363,26.636363636363637],[89.75,26.75],[89.0,27.25],[88.5,27.0],[88.33333333333334,26.666666666666668],[88.25,26.0],[87.9,25.9],[87.0,26.0],[86.0,25.25],[85.71428571428571,25.714285714285715],[85.19047619047619,26.19047619047619],[84.0,27.0],[84.0,28.0],[83.38095238095238,28.38095238095238],[83.0,29.0],[82.1875,29.1875],[82.0,29.5],[81.57142857142857,29.42857142857143],[81.5,29.0],[81.60000000000001,28.6],[82.375,27.375],[82.5,27.0],[82.30000000000001,26.7],[81.77777777777777,26.77777777777778],[81.47619047619048,27.476190476190474],[80.69999999999999,27.700000000000003],[80.26666666666667,28.266666666666666],[80.0,28.400000000000002],[79.42105263157895,27.578947368421048],[79.0,27.200000000000003],[78.14285714285714,26.857142857142854],[76.0,26.846153846153847],[74.0,27.428571428571427],[73.0,27.375],[72.0,27.142857142857146],[71.8,27.0],[71.77777777777777,26.77777777777778],[74.0,25.666666666666668],[74.6,25.0],[74.3076923076923,24.692307692307693],[74.0,24.57142857142857],[73.0,24.733333333333334],[71.42424242424244,24.575757575757578],[71.0,24.299999999999997],[70.0,24.0],[69.05555555555556,23.944444444444443],[69.0,23.5],[68.0,23.333333333333336],[67.0,23.0],[67.0,22.0],[66.28571428571428,22.285714285714285],[66.0,22.200000000000003],[65.46153846153847,21.53846153846154],[64.86666666666667,21.133333333333333],[64.0,21.0],[63.71428571428571,20.285714285714285],[63.0,20.0],[62.0,20.0],[62.0,19.0],[61.1,18.9],[61.0,18.5],[60.882352941176464,18.88235294117647],[60.46153846153846,19.46153846153846],[59.307692307692314,20.30769230769231],[59.0,20.4],[58.0,20.25],[56.71428571428571,20.714285714285715],[56.0,21.5],[55.66666666666667,21.333333333333336],[55.0,21.25],[54.333333333333336,21.333333333333336],[53.75,21.75],[53.36363636363637,22.363636363636363],[53.16666666666667,23.0],[53.5,26.0],[53.4,27.0],[53.5,28.0],[53.0,29.0],[53.21052631578947,29.789473684210527],[53.0,30.5],[52.0,32.0],[51.272727272727266,32.27272727272727],[50.75,33.0],[49.75,33.75],[49.315789473684205,34.315789473684205],[48.66666666666667,34.66666666666667],[47.66666666666667,36.0],[47.333333333333336,37.0],[46.66666666666667,38.0],[46.28571428571428,38.285714285714285],[45.75,39.0],[44.733333333333334,39.733333333333334],[44.25,40.25],[41.76470588235294,41.76470588235294],[41.0,42.8],[40.23529411764706,43.23529411764706],[39.333333333333336,44.0],[38.2,45.2],[38.0,45.333333333333336],[36.0,45.2],[34.733333333333334,45.266666666666666],[33.0,45.0],[32.0,44.5],[31.625,44.625],[31.0,45.0],[30.625,45.625],[30.5,46.0],[30.53846153846154,47.46153846153846],[30.75,48.25],[31.285714285714285,48.71428571428571],[32.0,49.0],[31.555555555555557,49.55555555555556],[31.5,50.0],[30.529411764705884,50.529411764705884],[30.0,51.0],[29.0,51.33333333333334],[27.0,51.375],[26.0,51.8],[25.0,51.5],[24.0,51.5],[23.0,52.0],[22.0,51.75],[21.0,52.0],[19.0,52.0],[18.0,53.0],[18.0,54.5],[19.0,56.0],[20.0,57.0],[20.733333333333334,57.266666666666666],[22.0,58.0],[23.0,58.25],[24.0,58.833333333333336],[27.0,59.0],[29.0,58.875],[30.38095238095238,58.38095238095238],[31.0,57.5],[31.764705882352942,56.76470588235294],[32.0,56.0],[32.63636363636364,55.63636363636364],[34.13333333333333,54.13333333333333],[34.888888888888886,52.888888888888886],[35.0,52.0],[35.5,51.5],[35.714285714285715,51.0],[35.904761904761905,49.904761904761905],[36.375,49.375],[37.0,48.333333333333336],[38.0,48.2],[40.333333333333336,48.333333333333336],[41.0,48.0],[41.333333333333336,48.66666666666667],[42.0,49.0],[42.0,50.0],[41.400000000000006,50.400000000000006],[41.25,51.0],[39.5,51.5],[39.0,52.22222222222222],[38.46153846153847,52.46153846153847],[37.25,54.25],[37.0,55.0],[36.35294117647059,55.35294117647058],[35.84615384615385,55.84615384615384],[35.42857142857143,56.42857142857143],[35.0,57.5],[33.75,58.75],[32.4,60.400000000000006],[32.16,61.16],[31.578947368421048,61.57894736842105],[31.0,62.66666666666667],[30.42857142857143,63.42857142857143],[30.299999999999997,64.0],[30.42857142857143,64.57142857142858],[31.333333333333336,65.66666666666667],[33.0,66.0],[33.5,66.5],[34.2,66.8],[38.0,67.0],[38.6,67.4],[39.0,67.5],[39.25,67.75],[39.75,67.75],[40.66666666666667,68.0],[41.36363636363637,68.63636363636364],[42.5,69.0],[42.75,69.25],[44.333333333333336,69.66666666666667],[45.272727272727266,69.72727272727272],[45.76470588235294,70.23529411764707],[48.0,71.0],[48.46153846153847,71.53846153846153],[49.71428571428571,72.28571428571428],[51.83333333333333,73.16666666666667],[52.16666666666667,73.16666666666667],[52.33333333333333,73.0],[53.0,72.77777777777777],[53.66666666666667,73.0],[54.0,73.25],[55.0,73.2],[56.0,72.9],[61.0,73.0],[61.647058823529406,73.35294117647058],[63.00000000000001,73.66666666666667],[64.0,74.2],[65.0,73.875],[66.4,74.6],[67.0,74.75],[68.22222222222223,74.77777777777777],[69.81818181818181,75.18181818181819],[72.16666666666667,75.16666666666667],[73.0,74.75],[74.0,75.0],[77.0,75.0]],[[79.33333333333334,44.333333333333336],[78.91304347826087,44.08695652173913],[78.66666666666667,44.0],[79.00000000000001,43.833333333333336],[80.0,44.0],[79.33333333333334,44.333333333333336]],[[70.66666666666666,43.0],[70.08333333333333,43.083333333333336],[69.89473684210526,43.0],[69.94029850746269,42.940298507462686],[70.66666666666666,43.0]],[[73.0,44.0],[72.08333333333333,44.083333333333336],[71.75,44.0],[71.82608695652175,43.826086956521735],[73.0,44.0]],[[74.75,37.25],[74.33333333333334,36.66666666666667],[74.0,36.5],[73.9375,36.0625],[73.80000000000001,36.0],[74.0,35.0],[74.6,34.6],[75.0,34.5],[75.25,34.75],[75.55555555555556,35.44444444444444],[76.0,35.66666666666667],[76.08695652173913,35.91304347826087],[77.0,36.0],[77.6,36.400000000000006],[78.0,36.5],[78.4,36.400000000000006],[79.0,36.0],[81.91304347826087,35.91304347826087],[84.0,35.66666666666667],[84.5,36.0],[83.75,36.25],[83.25,36.25],[82.66666666666667,36.66666666666667],[82.5,37.0],[81.0,37.0],[80.14285714285714,37.142857142857146],[80.0,37.5],[79.0,37.5],[78.66666666666667,37.66666666666667],[78.5,38.0],[77.8,38.2],[77.19999999999999,38.2],[77.0,39.0],[77.18181818181819,39.81818181818181],[78.0,40.0],[78.60000000000001,40.4],[80.0,41.0],[79.2,41.2],[77.18181818181819,41.18181818181818],[76.33333333333334,41.333333333333336],[76.0,42.0],[75.66666666666667,41.333333333333336],[75.60000000000001,40.4],[75.33333333333334,39.66666666666667],[75.0,39.5],[74.88888888888889,38.888888888888886],[75.0,38.0],[74.75,37.25]],[[85.93548387096774,40.064516129032256],[85.0,40.0],[86.125,40.0],[85.93548387096774,40.064516129032256]],[[113.5,22.0],[114.4,22.6],[114.66666666666666,23.0],[114.36363636363637,23.363636363636363],[113.21052631578947,23.210526315789473],[112.66666666666667,23.0],[112.44444444444444,22.555555555555557],[110.99999999999999,22.299999999999997],[109.58333333333333,22.583333333333332],[109.0,23.0],[107.80952380952381,23.19047619047619],[107.0,23.0],[107.25,22.25],[107.66666666666667,21.666666666666668],[108.28571428571428,21.285714285714285],[110.0,21.0],[111.0,21.25],[112.0,21.25],[113.5,22.0]],[[46.333333333333336,50.0],[45.888888888888886,50.111111111111114],[45.0,50.0],[46.0,49.66666666666667],[46.333333333333336,50.0]],[[81.33333333333334,29.666666666666668],[81.25,30.0],[81.0,30.166666666666664],[80.875,30.125],[81.0,29.75],[81.33333333333334,29.666666666666668]]]]}}]}