{"type":"FeatureCollection","features":[{"type":"Feature","properties":{"ageMa":510},"geometry":{"type":"MultiPolygon","coordinates":[[[[-15.571428571428573,-41.57142857142858],[-13.0,-42.333333333333336],[-10.647058823529411,-42.647058823529406],[-9.31578947368421,-43.315789473684205],[-7.0,-43.75],[-6.0,-44.333333333333336],[-3.0,-45.0],[-2.3333333333333335,-45.333333333333336],[-1.0,-45.599999999999994],[1.0,-46.333333333333336],[2.1538461538461537,-46.84615384615385],[2.8571428571428568,-48.14285714285714],[3.666666666666667,-49.0],[3.7142857142857144,-49.285714285714285],[4.0,-49.5],[4.125,-50.0],[4.0,-51.0],[3.2222222222222223,-51.22222222222223],[2.666666666666667,-51.66666666666667],[2.5,-52.0],[1.6363636363636362,-52.63636363636363],[1.5,-53.0],[0.625,-53.625],[0.4,-54.0],[-0.33333333333333337,-54.66666666666667],[-1.5555555555555554,-56.44444444444444],[-2.5,-59.0],[-3.0,-60.0],[-3.6842105263157894,-60.315789473684205],[-4.5,-61.0],[-6.0,-61.30769230769231],[-7.0,-61.85714285714286],[-8.0,-62.18181818181819],[-10.421052631578947,-62.57894736842105],[-11.0,-62.800000000000004],[-13.0,-62.75],[-14.0,-63.0],[-15.0,-63.0],[-19.11764705882353,-62.11764705882353],[-22.0,-62.0],[-25.0,-61.0],[-28.0,-61.0],[-29.0,-60.66666666666667],[-30.0,-61.0],[-31.0,-61.0],[-31.6,-60.60000000000001],[-32.0,-60.0],[-35.0,-60.0],[-35.0,-59.0],[-36.0,-59.0],[-37.0,-58.33333333333333],[-37.5,-57.5],[-38.13333333333333,-57.13333333333333],[-38.4,-56.400000000000006],[-39.5,-55.0],[-39.66666666666667,-53.66666666666667],[-40.0,-53.0],[-39.0,-52.0],[-39.0,-51.0],[-38.0,-51.0],[-36.77777777777778,-50.22222222222222],[-35.0,-49.625],[-33.714285714285715,-49.71428571428571],[-33.0,-50.0],[-32.0,-50.0],[-31.461538461538463,-50.46153846153847],[-31.0,-50.599999999999994],[-30.0,-50.5],[-29.0,-50.800000000000004],[-27.0,-50.66666666666667],[-26.0,-50.75],[-24.0,-50.5],[-22.5,-50.5],[-22.0,-51.0],[-21.0,-51.0],[-21.0,-50.0],[-22.0,-50.0],[-23.285714285714285,-49.285714285714285],[-23.333333333333332,-48.0],[-23.666666666666664,-47.0],[-24.30769230769231,-46.30769230769231],[-24.57142857142857,-45.57142857142857],[-25.0,-45.0],[-25.333333333333332,-44.0],[-25.0,-43.0],[-24.470588235294116,-42.529411764705884],[-23.71428571428571,-42.285714285714285],[-23.0,-41.75],[-21.6,-41.6],[-20.0,-41.25],[-18.0,-41.4],[-17.0,-41.6],[-15.571428571428573,-41.57142857142858]]],[[[42.0,-52.0],[41.0,-52.42424242424242],[40.51724137931035,-52.0],[40.52542372881356,-51.525423728813564],[41.0,-51.0],[42.0,-52.0]]],[[[51.0,-45.76470588235294],[52.018348623853214,-45.98165137614679],[52.0,-46.07692307692308],[51.17777777777778,-46.17777777777778],[50.875,-46.0],[51.0,-45.76470588235294]]],[[[-58.0,-79.33333333333334],[-57.0,-79.0],[-56.0,-79.0],[-56.0,-80.0],[-55.0,-80.0],[-54.0,-80.2],[-53.0,-80.0],[-52.0,-80.33333333333334],[-51.00000000000001,-80.33333333333334],[-50.0,-81.0],[-49.266666666666666,-81.26666666666667],[-47.0,-81.71428571428571],[-45.75,-81.75],[-45.0,-82.20000000000002],[-43.0,-82.5],[-42.66666666666667,-82.66666666666667],[-42.666666666666664,-83.0],[-42.19047619047619,-83.19047619047619],[-40.0,-83.0],[-39.5,-82.5],[-39.0,-82.5],[-38.77777777777778,-82.77777777777777],[-38.0,-83.0],[-37.0,-83.0],[-35.0,-83.55555555555556],[-31.583333333333332,-83.58333333333334],[-30.71428571428571,-83.71428571428571],[-29.0,-84.25],[-28.0,-84.0],[-22.0,-84.0],[-21.0,-84.2],[-18.0,-84.2],[-16.0,-84.71428571428572],[-14.833333333333334,-84.83333333333334],[-14.0,-84.69999999999999],[-13.0,-85.0],[-12.0,-85.0],[-10.0,-85.42857142857142],[-4.0,-85.2],[-3.0,-85.375],[-2.0,-85.28571428571428],[1.0,-85.83333333333334],[2.8,-85.80000000000001],[3.666666666666667,-85.66666666666667],[4.0,-85.5],[6.0,-85.75],[8.0,-85.6],[13.0,-85.6],[15.0,-85.71428571428572],[16.083333333333332,-85.91666666666667],[16.857142857142858,-85.85714285714286],[18.0,-86.0],[19.0,-85.9],[22.0,-86.28571428571428],[24.0,-86.4],[29.0,-86.375],[33.0,-86.6],[37.0,-86.54545454545455],[38.0,-86.63636363636363],[45.0,-86.16666666666667],[48.0,-86.14285714285715],[49.0,-86.0],[60.0,-86.0],[71.0,-85.75],[74.66666666666667,-85.33333333333334],[76.0,-85.33333333333334],[77.0,-85.0],[78.0,-85.0],[78.63636363636364,-85.36363636363637],[79.0,-85.4],[80.0,-85.25],[81.36363636363636,-85.36363636363637],[83.0,-85.0],[83.77777777777777,-85.22222222222223],[85.0,-85.2],[86.0,-85.4],[88.00000000000001,-85.16666666666667],[91.0,-85.28571428571428],[91.5,-85.0],[91.63636363636364,-84.63636363636363],[92.0,-84.33333333333334],[92.44444444444443,-84.55555555555554],[92.66666666666667,-85.0],[93.0,-85.14285714285714],[94.0,-85.0],[94.85714285714286,-85.14285714285714],[98.0,-85.25],[99.0,-85.125],[103.0,-85.14285714285714],[104.0,-85.0],[107.0,-85.14285714285714],[108.0,-85.0],[107.4,-84.60000000000001],[107.0,-84.5],[106.0,-84.5],[105.60000000000001,-84.4],[105.0,-84.0],[104.0,-84.0],[103.4,-83.6],[103.0,-83.0],[103.0,-82.0],[104.0,-81.66666666666667],[104.33333333333334,-81.66666666666667],[105.0,-82.0],[106.0,-82.0],[105.5,-81.5],[105.5,-81.0],[106.0,-80.66666666666667],[107.2,-80.2],[108.0,-79.0],[108.66666666666667,-78.66666666666667],[111.0,-78.5],[112.0,-78.0],[113.4,-78.60000000000001],[115.22222222222223,-78.77777777777777],[116.0,-79.0],[116.60000000000001,-78.60000000000001],[117.0,-78.0],[118.0,-78.0],[118.4,-77.4],[118.0,-76.0],[117.4,-75.60000000000001],[117.0,-75.0],[116.4,-74.6],[116.0,-74.0],[117.0,-73.5],[118.0,-73.33333333333334],[119.0,-73.0],[119.0,-72.0],[118.5,-72.5],[118.0,-72.5],[117.0,-72.0],[117.0,-71.0],[116.5,-71.5],[116.0,-71.5],[115.71428571428571,-71.28571428571428],[115.33333333333334,-70.66666666666667],[114.0,-70.0],[113.0,-69.0],[112.0,-69.0],[111.4,-68.60000000000001],[111.0,-68.5],[110.5,-68.0],[111.0,-67.0],[110.60000000000001,-66.4],[110.0,-66.25],[109.66666666666666,-66.0],[109.44444444444444,-65.55555555555556],[109.0,-65.33333333333333],[108.75,-65.0],[108.66666666666667,-64.33333333333334],[108.5,-64.0],[108.66666666666667,-63.66666666666667],[110.0,-63.0],[109.4,-62.6],[108.60000000000001,-62.4],[107.33333333333334,-61.66666666666667],[106.81818181818181,-61.18181818181819],[105.60000000000001,-59.400000000000006],[105.5,-59.0],[105.0,-58.5],[103.42857142857142,-56.0],[103.16666666666667,-55.0],[103.4,-54.400000000000006],[104.60000000000001,-53.60000000000001],[106.0,-53.0],[105.4,-52.6],[104.66666666666667,-52.33333333333334],[104.5,-52.0],[104.5,-51.0],[104.2,-50.8],[104.0,-50.0],[104.38709677419355,-49.387096774193544],[104.46153846153847,-49.0],[106.0,-47.93333333333333],[107.0,-47.55555555555556],[109.0,-47.0],[110.0,-47.0],[110.0,-46.0],[109.4,-45.6],[108.5,-44.0],[108.5,-42.0],[108.4,-41.6],[108.0,-41.0],[108.10000000000001,-39.0],[108.5813953488372,-38.581395348837205],[109.0,-38.400000000000006],[111.00000000000001,-38.2],[112.38461538461539,-38.61538461538461],[113.0,-39.0],[113.90476190476191,-39.095238095238095],[114.00000000000001,-39.333333333333336],[115.0,-40.25],[115.66666666666669,-40.333333333333336],[117.6,-41.400000000000006],[119.0,-41.5],[119.4,-41.6],[120.0,-42.0],[121.0,-42.0],[122.0,-41.66666666666667],[127.25,-41.75],[128.0,-42.0],[127.0,-43.0],[125.0,-43.0],[125.0,-44.0],[123.0,-44.0],[123.0,-45.0],[122.0,-45.0],[122.0,-46.0],[123.0,-46.25],[124.0,-46.0],[124.4,-45.4],[126.0,-45.0],[126.60000000000001,-44.6],[128.66666666666669,-43.66666666666667],[131.0,-43.333333333333336],[131.25,-43.25],[131.66666666666669,-42.66666666666667],[132.0,-42.5],[133.0,-42.5],[133.4,-42.4],[134.0,-42.0],[134.0,-41.0],[133.0,-41.0],[133.0,-40.0],[133.60000000000002,-39.6],[134.4,-39.400000000000006],[138.0,-37.0],[138.4,-36.400000000000006],[139.0,-35.0],[140.0,-35.0],[140.0,-33.0],[140.5,-32.5],[140.77777777777777,-31.77777777777778],[141.25,-31.25],[141.5,-30.5],[142.4,-29.400000000000002],[143.0,-29.0],[143.33333333333334,-28.333333333333336],[144.60000000000002,-27.6],[148.0,-27.0],[149.33333333333334,-26.333333333333336],[152.0,-26.0],[154.14285714285714,-26.142857142857146],[154.5,-26.0],[155.0,-25.5],[155.4,-25.400000000000002],[156.0,-25.0],[156.5,-24.5],[158.0,-24.0],[159.0,-24.0],[161.60000000000002,-22.6],[163.0,-22.5],[164.6,-21.6],[165.0,-21.5],[165.75,-20.75],[166.44444444444446,-20.444444444444443],[167.0,-20.0],[168.0,-19.0],[168.77777777777777,-17.77777777777778],[169.5,-17.5],[170.60000000000002,-16.6],[171.0,-16.0],[171.33333333333334,-15.000000000000002],[171.60000000000002,-14.600000000000001],[172.33333333333334,-14.0],[172.5,-13.0],[173.4,-11.400000000000002],[173.5,-11.0],[174.22222222222223,-10.222222222222221],[174.83333333333331,-8.833333333333334],[175.30769230769232,-8.307692307692308],[175.5,-8.0],[175.55555555555554,-7.555555555555555],[176.0,-7.0],[176.0,-6.0],[175.0,-5.0],[176.0,-4.0],[175.4,-3.6000000000000005],[175.0,-3.0],[175.60000000000002,-1.6],[176.0,-1.0],[175.4,-0.6000000000000001],[174.6,0.6000000000000001],[174.4,1.4000000000000001],[174.0,2.0],[175.0,3.0],[175.0,4.0],[176.0,5.0],[176.60000000000002,4.6],[177.0,4.5],[178.0,4.5],[178.33333333333334,4.666666666666667],[178.5,5.0],[178.28571428571428,5.285714285714286],[176.5,5.5],[176.0,6.0],[175.28571428571428,6.285714285714285],[174.75,6.75],[174.44444444444446,7.444444444444444],[174.0,8.0],[174.0,9.0],[174.5,10.0],[174.4,10.4],[174.0,11.0],[174.0,13.0],[174.66666666666669,13.333333333333336],[175.0,14.0],[176.8,15.2],[177.66666666666669,16.333333333333336],[178.0,17.0],[178.60000000000002,17.4],[179.0,18.333333333333336],[179.3478260869565,18.652173913043477],[180.0,19.75],[180.0,-90.0],[-180.0,-90.0],[-180.0,19.75],[-179.66666666666669,20.0],[-179.66666666666669,21.0],[-180.0,21.5],[-180.0,31.4],[-179.63636363636365,31.363636363636363],[-179.0,31.0],[-177.20689655172413,30.793103448275865],[-177.0,30.5],[-176.0,30.0],[-175.5,29.5],[-173.6470588235294,28.352941176470587],[-173.25,27.75],[-172.0,26.8],[-170.6470588235294,26.352941176470587],[-168.6470588235294,25.352941176470587],[-167.33333333333334,24.0],[-167.5,23.0],[-167.71428571428572,22.71428571428571],[-168.0,22.6],[-169.16666666666666,22.833333333333332],[-170.6470588235294,23.352941176470587],[-173.16666666666669,23.833333333333336],[-174.00000000000003,24.200000000000003],[-175.22222222222223,24.22222222222222],[-175.5,24.0],[-175.60000000000002,23.6],[-175.60000000000002,22.4],[-175.4,21.6],[-175.0,21.0],[-174.0,20.5],[-173.0,20.5],[-172.22222222222223,19.77777777777778],[-171.0,19.333333333333336],[-170.22222222222223,18.77777777777778],[-169.75,18.25],[-169.0,18.0],[-167.83333333333334,17.166666666666664],[-165.83333333333331,15.166666666666668],[-165.46153846153845,14.538461538461538],[-163.66666666666669,12.333333333333334],[-162.75,10.0],[-163.0,9.0],[-162.57142857142858,8.428571428571429],[-162.13333333333333,6.866666666666666],[-161.5,6.0],[-161.5,5.0],[-160.6923076923077,4.3076923076923075],[-160.4,3.6000000000000005],[-159.60000000000002,2.4],[-159.33333333333334,1.6666666666666665],[-159.25,1.0],[-159.33333333333334,0.0],[-159.0,-1.0],[-158.5,-1.5],[-158.33333333333334,-2.0],[-158.5,-3.0],[-158.5,-4.0],[-158.0,-5.0],[-157.5,-7.0],[-157.0,-7.666666666666666],[-156.0,-8.0],[-156.0,-9.0],[-155.0,-9.0],[-155.0,-10.0],[-155.33333333333334,-10.666666666666668],[-155.25,-13.25],[-155.0,-14.0],[-155.0,-16.0],[-155.4,-16.6],[-156.0,-17.0],[-155.66666666666669,-17.666666666666668],[-155.66666666666669,-18.0],[-154.83333333333334,-18.833333333333332],[-154.125,-20.125],[-153.20000000000002,-21.0],[-153.0,-22.0],[-152.28571428571428,-21.714285714285715],[-151.75,-21.75],[-151.0,-22.0],[-150.5,-22.5],[-149.85714285714286,-22.857142857142858],[-149.55555555555554,-23.555555555555557],[-149.0,-24.0],[-148.5,-25.5],[-147.4,-26.400000000000002],[-147.0,-27.0],[-146.0,-28.0],[-146.0,-29.0],[-145.0,-29.0],[-145.0,-31.0],[-144.0,-31.0],[-144.0,-32.0],[-143.0,-32.0],[-143.0,-34.0],[-142.0,-34.0],[-142.0,-37.0],[-141.66666666666669,-37.66666666666667],[-141.66666666666666,-38.0],[-140.0,-39.2],[-138.75,-39.25],[-138.0,-39.0],[-137.0,-39.0],[-135.83333333333331,-38.166666666666664],[-135.0,-37.833333333333336],[-133.66666666666669,-37.0],[-133.0,-36.2],[-132.66666666666669,-35.333333333333336],[-132.28571428571428,-34.71428571428571],[-132.0,-34.5],[-131.5,-33.5],[-130.55555555555554,-32.44444444444444],[-130.0,-32.2],[-129.0,-32.22222222222222],[-128.53333333333333,-32.53333333333333],[-127.375,-34.0],[-127.125,-36.0],[-127.375,-37.0],[-128.0,-38.333333333333336],[-128.66666666666669,-39.0],[-128.66666666666669,-40.0],[-128.5,-41.0],[-127.33333333333334,-42.0],[-127.0,-43.0],[-126.18181818181819,-44.18181818181819],[-126.0,-45.0],[-126.0,-47.0],[-126.14285714285714,-47.857142857142854],[-126.83333333333333,-49.16666666666667],[-127.33333333333334,-49.66666666666667],[-128.0,-50.0],[-128.44444444444443,-50.55555555555555],[-129.0,-50.800000000000004],[-130.0,-51.0],[-131.16666666666666,-51.83333333333333],[-131.66666666666669,-53.0],[-131.6,-53.400000000000006],[-132.0,-53.66666666666667],[-133.0,-53.75],[-134.0,-54.0],[-134.4,-54.6],[-135.0,-55.0],[-135.5,-56.0],[-135.4,-56.400000000000006],[-134.0,-56.5],[-132.77777777777777,-56.22222222222223],[-132.5,-56.0],[-132.5,-55.0],[-132.33333333333334,-54.66666666666667],[-132.0,-54.5],[-131.33333333333334,-53.66666666666667],[-130.875,-53.875],[-130.2,-53.8],[-129.0,-54.0],[-126.0,-54.0],[-125.33333333333334,-54.333333333333336],[-124.0,-54.25],[-122.0,-54.8],[-119.88235294117646,-54.88235294117647],[-119.5,-55.0],[-119.33333333333334,-55.33333333333334],[-119.0,-55.5],[-116.71428571428571,-55.28571428571428],[-116.5,-55.0],[-116.08,-54.92],[-115.5,-55.0],[-115.28571428571428,-55.28571428571428],[-112.0,-55.75],[-111.00000000000001,-56.333333333333336],[-110.0,-56.5],[-109.0,-56.5],[-108.66666666666667,-56.66666666666667],[-108.0,-56.75],[-106.0,-57.599999999999994],[-105.0,-57.66666666666667],[-104.0,-57.5],[-103.0,-57.66666666666667],[-102.0,-57.66666666666667],[-101.0,-57.33333333333334],[-100.66666666666669,-57.333333333333336],[-98.0,-57.800000000000004],[-97.0,-57.800000000000004],[-95.55555555555556,-58.55555555555556],[-94.0,-59.0],[-93.33333333333334,-59.333333333333336],[-92.0,-59.75],[-91.0,-59.8],[-90.0,-60.33333333333334],[-87.8,-60.800000000000004],[-85.83333333333333,-61.83333333333333],[-85.36363636363637,-62.36363636363636],[-84.33333333333334,-63.00000000000001],[-84.28571428571428,-63.285714285714285],[-84.0,-63.5],[-83.75,-64.0],[-84.0,-65.0],[-84.0,-66.0],[-85.0,-66.0],[-85.0,-67.0],[-84.4,-67.4],[-84.0,-68.0],[-84.33333333333334,-69.0],[-84.0,-69.33333333333334],[-83.6,-69.4],[-82.4,-68.60000000000001],[-81.75,-68.75],[-81.5,-69.5],[-80.75,-69.75],[-80.66666666666667,-70.33333333333334],[-81.0,-71.0],[-80.0,-72.0],[-80.4,-72.6],[-80.5,-73.0],[-80.0,-73.33333333333334],[-79.0,-73.0],[-79.0,-72.0],[-78.60000000000001,-71.4],[-78.5,-71.0],[-78.4,-69.6],[-78.0,-69.0],[-78.0,-68.0],[-79.0,-68.0],[-79.0,-66.0],[-77.0,-66.0],[-76.4,-66.4],[-76.0,-66.5],[-75.60000000000001,-66.4],[-75.0,-66.0],[-73.0,-66.0],[-72.4,-65.60000000000001],[-72.0,-65.5],[-71.0,-65.66666666666667],[-70.84615384615384,-65.84615384615384],[-70.0,-66.0],[-69.4,-66.4],[-68.0,-67.0],[-67.6,-67.6],[-67.0,-68.0],[-66.0,-69.0],[-66.0,-74.0],[-67.0,-75.0],[-66.4,-75.4],[-65.66666666666667,-75.66666666666667],[-65.5,-76.0],[-65.5,-76.5],[-66.0,-77.0],[-65.0,-77.0],[-65.0,-78.0],[-64.0,-78.0],[-64.0,-77.0],[-63.400000000000006,-76.60000000000001],[-63.0,-76.5],[-62.5,-77.0],[-62.5,-77.5],[-63.0,-78.0],[-63.0,-79.0],[-60.0,-79.0],[-58.0,-79.33333333333334]],[[121.0,-72.0],[121.0,-73.0],[123.0,-73.0],[125.0,-72.4],[126.18181818181819,-72.18181818181819],[126.80000000000001,-71.8],[128.0,-71.5],[129.0,-71.66666666666667],[130.4,-71.4],[131.0,-71.0],[131.0,-70.0],[130.46153846153845,-69.53846153846155],[129.66666666666669,-69.33333333333334],[129.13333333333333,-68.86666666666666],[127.6,-68.4],[127.0,-68.0],[123.0,-68.0],[122.0,-69.0],[120.66666666666667,-69.66666666666667],[120.28571428571428,-70.28571428571428],[119.60000000000001,-70.60000000000001],[119.5,-71.5],[119.0,-72.0],[121.0,-72.0]],[[-136.0,-41.5],[-137.0,-42.0],[-136.0,-42.333333333333336],[-135.0,-42.0],[-136.0,-41.5]],[[-134.33333333333334,-42.333333333333336],[-134.0,-43.0],[-133.0,-43.333333333333336],[-131.0,-43.5],[-130.0,-43.0],[-130.0,-42.0],[-130.60000000000002,-41.6],[-131.0,-41.5],[-131.33333333333334,-41.66666666666667],[-133.0,-41.66666666666667],[-135.0,-42.0],[-134.33333333333334,-42.333333333333336]],[[-20.333333333333336,-87.66666666666667],[-21.0,-88.0],[-18.181818181818183,-88.18181818181819],[-17.0,-88.0],[-18.0,-87.75],[-20.0,-87.66666666666667],[-20.333333333333336,-87.66666666666667]],[[115.5,-55.0],[115.5,-56.0],[116.0,-57.0],[117.22222222222223,-57.22222222222222],[117.33333333333334,-57.00000000000001],[116.5,-55.0],[116.5,-54.0],[116.33333333333334,-53.66666666666667],[115.63636363636363,-53.36363636363637],[115.5,-53.0],[115.33333333333334,-52.0],[115.33333333333334,-50.0],[115.0,-49.0],[114.4,-49.400000000000006],[114.0,-49.5],[113.60000000000001,-49.400000000000006],[113.33333333333334,-48.66666666666667],[113.0,-48.5],[112.66666666666669,-48.66666666666667],[112.5,-49.0],[113.4,-50.60000000000001],[114.33333333333334,-52.66666666666667],[114.33333333333334,-53.0],[114.77777777777777,-54.22222222222222],[115.5,-55.0]]],[[[-101.23529411764706,-27.764705882352942],[-101.42857142857143,-28.571428571428573],[-101.75,-29.0],[-102.0,-30.0],[-101.25,-31.0],[-102.0,-32.0],[-102.46153846153848,-31.461538461538463],[-103.0,-31.3],[-103.125,-30.875],[-103.2121212121212,-29.0],[-103.0,-28.299999999999997],[-102.73913043478261,-28.26086956521739],[-102.66666666666667,-28.0],[-102.24,-27.759999999999998],[-102.0,-26.0],[-101.21052631578948,-25.789473684210527],[-101.0,-24.666666666666664],[-100.81818181818181,-24.81818181818182],[-100.6,-26.0],[-100.66666666666666,-27.0],[-100.75,-27.25],[-101.23529411764706,-27.764705882352942]]],[[[-64.8,-7.0],[-63.6,-9.0],[-63.46153846153847,-9.461538461538462],[-63.0,-10.0],[-63.0,-13.0],[-62.66666666666667,-14.0],[-63.0,-16.0],[-62.800000000000004,-17.0],[-62.800000000000004,-18.0],[-63.33333333333334,-19.0],[-63.33333333333334,-20.0],[-63.0,-21.0],[-63.60000000000001,-22.4],[-64.0,-22.5],[-64.5,-23.0],[-64.5,-23.5],[-65.0,-24.0],[-65.0,-25.0],[-64.0,-25.0],[-64.0,-26.0],[-59.0,-26.0],[-59.0,-24.0],[-58.0,-24.0],[-58.0,-23.0],[-55.0,-23.0],[-55.0,-24.0],[-54.0,-24.0],[-54.0,-25.0],[-53.0,-25.0],[-53.0,-27.0],[-54.0,-27.0],[-54.0,-28.0],[-55.0,-28.0],[-55.0,-29.0],[-56.0,-29.0],[-55.5,-29.5],[-55.5,-30.0],[-55.60000000000001,-30.400000000000002],[-56.66666666666667,-32.333333333333336],[-57.0,-32.5],[-57.71428571428571,-33.285714285714285],[-58.28571428571428,-33.714285714285715],[-59.0,-34.0],[-59.5,-34.5],[-61.0,-35.0],[-62.0,-36.0],[-63.0,-36.0],[-65.25,-36.75],[-65.5,-37.0],[-65.875,-37.125],[-67.0,-37.0],[-67.77777777777777,-37.22222222222222],[-69.0,-37.25],[-71.0,-37.0],[-72.0,-36.66666666666667],[-73.0,-37.0],[-73.5,-36.5],[-74.0,-36.25],[-75.13333333333333,-36.13333333333333],[-77.33333333333334,-35.333333333333336],[-79.0,-34.5],[-80.13333333333334,-34.13333333333333],[-80.33333333333333,-34.0],[-80.5,-33.0],[-81.5,-32.5],[-82.0,-32.0],[-84.0,-31.0],[-84.5,-29.5],[-85.0,-29.0],[-85.60000000000001,-27.6],[-86.33333333333334,-27.333333333333336],[-86.5,-27.0],[-86.5,-26.0],[-86.75,-24.0],[-87.25,-23.0],[-86.25,-20.0],[-86.33333333333334,-19.333333333333336],[-86.5,-19.0],[-87.0,-18.75],[-88.66666666666667,-18.666666666666668],[-89.0,-18.5],[-91.28571428571428,-18.714285714285715],[-91.77777777777777,-19.22222222222222],[-92.0,-20.0],[-93.0,-21.0],[-93.0,-22.0],[-95.0,-22.0],[-95.0,-21.0],[-96.0,-21.0],[-97.0,-20.0],[-97.0,-19.0],[-98.0,-19.0],[-98.0,-18.0],[-97.18181818181819,-17.81818181818182],[-96.0,-18.0],[-95.33333333333334,-17.666666666666668],[-95.0,-17.0],[-95.0,-16.0],[-95.60000000000001,-15.600000000000001],[-96.0,-15.5],[-96.66666666666667,-14.666666666666668],[-97.0,-14.5],[-98.0,-14.5],[-98.33333333333334,-14.666666666666668],[-98.66666666666667,-15.333333333333334],[-99.0,-17.0],[-100.0,-17.0],[-101.0,-16.0],[-101.0,-15.0],[-103.0,-15.0],[-103.0,-13.0],[-104.0,-13.0],[-104.0,-9.0],[-102.0,-9.0],[-102.0,-8.0],[-101.42857142857143,-7.571428571428571],[-100.0,-7.5],[-99.61538461538461,-7.615384615384615],[-99.10526315789474,-8.105263157894736],[-97.75,-9.0],[-97.66666666666669,-10.333333333333334],[-98.0,-11.0],[-98.0,-12.0],[-96.0,-12.0],[-95.0,-11.5],[-94.5,-11.0],[-94.0,-10.8],[-92.83333333333334,-10.833333333333334],[-92.0,-11.0],[-90.0,-11.0],[-89.22222222222223,-11.222222222222221],[-88.0,-11.25],[-85.0,-12.0],[-83.6,-11.400000000000002],[-83.0,-11.0],[-82.0,-11.0],[-81.0,-10.0],[-80.0,-10.0],[-80.0,-9.0],[-78.0,-9.0],[-77.5,-8.5],[-77.0,-8.5],[-76.71428571428572,-8.285714285714285],[-76.33333333333334,-7.666666666666668],[-75.0,-7.0],[-74.5,-6.5],[-73.5,-6.0],[-73.33333333333334,-5.666666666666667],[-73.0,-5.5],[-72.33333333333334,-4.666666666666667],[-71.71428571428571,-4.285714285714286],[-71.0,-3.5],[-69.6,-3.4000000000000004],[-69.0,-3.0],[-68.4,-3.4000000000000004],[-66.0,-4.5],[-65.0,-5.5],[-64.75,-6.0],[-64.8,-7.0]]],[[[-101.33333333333334,-19.0],[-101.55555555555554,-19.444444444444443],[-102.00000000000001,-19.666666666666668],[-102.44444444444443,-19.444444444444443],[-103.0,-19.375],[-103.17142857142858,-19.17142857142857],[-104.0,-19.0],[-104.32432432432432,-18.324324324324323],[-104.75,-18.0],[-105.0,-17.5],[-105.08163265306122,-16.918367346938776],[-105.0,-16.0],[-104.0,-15.5],[-103.60000000000001,-15.600000000000001],[-103.5,-16.0],[-103.25,-16.25],[-103.0,-17.0],[-103.0,-18.0],[-101.55555555555554,-18.555555555555554],[-101.33333333333334,-19.0]]],[[[8.30379746835443,1.3037974683544302],[11.7,0.7],[13.181818181818183,0.18181818181818182],[15.76,-0.24],[18.0,-0.25],[19.0,-0.9166666666666666],[19.333333333333336,-1.0],[18.857142857142858,-1.8571428571428572],[18.0,-2.25],[16.80952380952381,-3.8095238095238093],[16.0,-5.125],[15.0,-5.857142857142858],[13.0,-7.0],[12.2,-6.800000000000001],[11.666666666666668,-6.333333333333334],[11.200000000000001,-5.0],[11.166666666666668,-4.0],[10.5,-3.5],[10.166666666666668,-3.0],[8.272727272727272,-2.727272727272727],[7.0,-2.5999999999999996],[3.666666666666667,-3.666666666666667],[3.0,-4.25],[1.8823529411764706,-4.882352941176471],[1.0,-5.75],[0.0,-6.0],[-0.5714285714285714,-6.428571428571429],[-2.0,-7.0],[-3.0,-7.833333333333334],[-4.0,-8.0],[-6.0,-8.0],[-7.153846153846153,-8.153846153846153],[-8.0,-8.0],[-8.655172413793103,-7.655172413793103],[-10.0,-7.333333333333333],[-11.363636363636363,-6.363636363636363],[-11.826086956521738,-5.826086956521739],[-13.142857142857142,-5.142857142857143],[-14.0,-4.0],[-13.666666666666668,-3.3333333333333335],[-13.153846153846153,-2.846153846153846],[-12.0,-2.666666666666667],[-10.064516129032258,-1.935483870967742],[-9.0,-1.8571428571428572],[-7.0,-1.4285714285714284],[-5.285714285714286,-0.7142857142857142],[-4.707317073170732,-0.29268292682926833],[-2.72093023255814,0.7209302325581395],[0.7142857142857143,2.0],[2.311111111111111,2.311111111111111],[4.0,2.4705882352941178],[5.0,2.333333333333333],[5.175,2.175],[7.0,2.0],[8.30379746835443,1.3037974683544302]]],[[[48.0,9.399999999999999],[47.18181818181818,10.0],[48.0,10.23076923076923],[48.81818181818181,10.0],[48.0,9.399999999999999]]],[[[60.0,9.176470588235293],[58.958333333333336,10.0],[59.333333333333336,10.666666666666668],[60.0,10.823529411764707],[61.10526315789474,10.0],[61.0,9.666666666666666],[60.68,9.32],[60.0,9.176470588235293]]],[[[62.79166666666667,-35.0],[62.77142857142857,-34.0],[63.0,-33.75757575757576],[64.0,-33.733333333333334],[64.47058823529412,-34.0],[64.11111111111111,-35.0],[63.0,-35.15625],[62.79166666666667,-35.0]]],[[[69.0,-25.42857142857143],[68.70967741935483,-25.0],[69.0,-24.625],[70.0,-24.857142857142858],[70.12,-25.0],[70.0,-25.230769230769234],[69.3913043478261,-25.39130434782609],[69.0,-25.42857142857143]]],[[[71.89189189189189,-14.0],[72.0,-13.902439024390244],[72.80000000000001,-14.000000000000002],[72.0,-14.307692307692307],[71.89189189189189,-14.0]]],[[[73.19444444444444,-2.0],[73.21428571428571,-3.0],[72.75,-3.0],[72.5,-2.0],[73.0,-1.8653846153846154],[73.19444444444444,-2.0]]],[[[68.3125,7.0],[69.0,7.354838709677419],[69.36666666666666,7.0],[69.4,6.0],[69.13333333333333,5.866666666666666],[68.6470588235294,6.0],[68.3125,7.0]]],[[[146.0,25.5],[147.27272727272725,24.272727272727273],[148.23076923076923,21.0],[148.53846153846155,19.0],[148.8,17.0],[148.86666666666667,13.133333333333333],[148.28571428571428,11.714285714285714],[147.55555555555554,10.444444444444443],[147.0,10.0],[146.86666666666667,9.133333333333333],[146.6,8.4],[146.0,7.666666666666666],[145.4,6.6000000000000005],[144.83333333333334,6.0],[144.66666666666669,5.0],[144.42105263157893,4.578947368421052],[143.71428571428572,4.0],[143.57142857142856,3.0],[143.38095238095238,2.6190476190476186],[143.0,2.3333333333333335],[142.64285714285714,1.3571428571428572],[142.23076923076923,0.7692307692307692],[141.375,0.0],[141.35294117647058,-0.3529411764705882],[141.0,-1.0],[140.84615384615384,-1.8461538461538463],[140.46153846153848,-2.4615384615384617],[140.0,-2.75],[139.75,-3.75],[139.35294117647058,-4.352941176470588],[138.0,-5.0],[137.28571428571428,-4.7142857142857135],[137.0,-4.0],[137.0,-2.0],[137.23529411764707,-1.2352941176470589],[137.20000000000002,0.0],[138.0,2.0],[138.9322033898305,3.067796610169492],[139.0,3.666666666666667],[139.63636363636363,4.363636363636363],[140.0,5.0],[140.22222222222223,5.777777777777778],[140.30769230769232,7.692307692307693],[140.75,9.0],[140.77777777777777,10.222222222222221],[141.0,11.0],[141.1,14.0],[141.0,16.0],[140.75,17.0],[140.88888888888889,18.0],[140.88888888888889,20.0],[141.25,23.75],[141.66666666666666,26.0],[142.41666666666666,26.583333333333336],[144.0,27.0],[144.8095238095238,26.80952380952381],[145.4,26.400000000000002],[146.0,25.5]]],[[[178.0,21.0],[177.15384615384616,19.846153846153847],[177.0,19.0],[176.28571428571428,18.714285714285715],[176.28571428571428,18.285714285714285],[176.0,17.5],[175.66666666666669,17.333333333333336],[175.5,17.0],[174.5,16.5],[174.16666666666669,15.833333333333332],[173.33333333333334,15.666666666666668],[172.66666666666669,15.333333333333334],[172.22222222222223,14.777777777777779],[171.66666666666669,14.666666666666668],[170.4,15.4],[170.0,16.0],[169.0,16.0],[169.0,17.0],[168.0,17.0],[168.0,21.0],[169.0,21.0],[169.0,22.0],[170.0,22.0],[170.0,24.0],[172.0,24.0],[172.0,25.0],[173.0,26.0],[174.0,26.0],[174.0,27.0],[174.6,27.4],[175.0,28.0],[175.60000000000002,28.400000000000002],[176.0,28.5],[177.0,29.5],[177.4,29.400000000000002],[178.0,29.0],[178.33333333333334,30.000000000000004],[178.66666666666669,30.333333333333336],[179.33333333333334,30.666666666666668],[180.0,31.4],[180.0,21.5],[179.0,21.5],[178.60000000000002,21.4],[178.0,21.0]],[[177.55555555555554,28.444444444444443],[177.375,27.0],[177.66666666666669,24.666666666666668],[178.0,23.5],[178.28571428571428,23.71428571428571],[178.57142857142856,25.0],[178.45454545454547,27.454545454545453],[178.33333333333334,28.333333333333336],[178.0,29.0],[177.55555555555554,28.444444444444443]]],[[[139.5,39.0],[141.0,39.9],[141.86206896551724,40.13793103448276],[142.0,40.33333333333333],[142.33333333333334,40.333333333333336],[143.0,40.0],[142.66666666666669,39.333333333333336],[142.66666666666669,39.0],[142.36363636363637,38.63636363636363],[141.0,37.8],[140.0,37.666666666666664],[139.5,38.0],[139.5,39.0]]],[[[166.5,43.5],[167.125,43.125],[169.06451612903226,42.935483870967744],[170.86666666666667,43.13333333333333],[172.0,43.0],[172.44444444444443,42.44444444444444],[173.25,42.0],[173.625,41.625],[174.5,40.0],[174.0,39.333333333333336],[170.8,38.2],[168.0,37.4],[166.0,37.4],[163.2,38.2],[162.6,38.6],[161.66666666666669,40.0],[161.5,41.5],[162.0,42.0],[160.0,42.0],[159.33333333333334,42.333333333333336],[159.0,43.0],[159.0,44.0],[159.22222222222223,44.77777777777777],[159.5,45.0],[161.0,45.25],[163.0,45.0],[164.28571428571428,44.285714285714285],[164.63636363636363,44.36363636363637],[166.2,44.0],[166.5,43.5]]]]}}]}