{"type":"FeatureCollection","features":[{"type":"Feature","properties":{"ageMa":350},"geometry":{"type":"MultiPolygon","coordinates":[[[[-175.0,-88.5],[-174.6,-88.4],[-174.0,-88.0],[-173.0,-88.0],[-172.4,-88.4],[-172.0,-88.5],[-167.0,-88.5],[-166.0,-88.66666666666666],[-165.0,-88.5],[-164.0,-88.66666666666666],[-163.0,-88.66666666666666],[-162.0,-88.5],[-155.0,-88.5],[-154.60000000000002,-88.4],[-154.0,-88.0],[-153.4,-88.4],[-153.0,-88.5],[-152.6,-88.4],[-152.0,-88.0],[-151.4,-88.4],[-151.0,-88.5],[-150.60000000000002,-88.4],[-150.0,-88.0],[-149.4,-88.4],[-149.0,-88.5],[-148.60000000000002,-88.4],[-148.0,-88.0],[-144.0,-88.0],[-143.0,-87.75],[-133.0,-87.66666666666667],[-132.0,-87.5],[-128.0,-87.5],[-127.6,-87.4],[-127.0,-87.0],[-125.0,-87.0],[-124.4,-87.4],[-124.0,-87.5],[-123.60000000000001,-87.4],[-123.0,-87.0],[-122.0,-87.0],[-121.4,-87.4],[-120.60000000000001,-87.6],[-120.0,-88.0],[-114.0,-88.0],[-113.4,-88.4],[-113.0,-88.5],[-112.6,-88.4],[-112.0,-88.0],[-109.0,-88.0],[-108.4,-88.4],[-108.0,-88.5],[-106.0,-88.5],[-105.60000000000001,-88.4],[-105.0,-88.0],[-97.0,-88.0],[-96.33333333333334,-87.66666666666667],[-95.0,-87.5],[-94.60000000000001,-87.6],[-94.0,-88.0],[-93.0,-88.0],[-92.4,-88.4],[-92.0,-88.5],[-90.0,-88.5],[-89.60000000000001,-88.4],[-89.0,-88.0],[-88.0,-89.0],[-88.0,-90.0],[-180.0,-90.0],[-180.0,-87.66666666666667],[-176.77777777777777,-87.77777777777777],[-176.0,-88.0],[-175.4,-88.4],[-175.0,-88.5]]],[[[-63.5,-43.0],[-63.42857142857143,-44.0],[-63.529411764705884,-44.470588235294116],[-64.0,-45.5],[-64.23076923076923,-46.769230769230774],[-64.66666666666666,-48.0],[-64.66666666666666,-49.0],[-64.23529411764706,-50.23529411764706],[-64.0,-52.0],[-63.25,-52.25],[-62.315789473684205,-52.315789473684205],[-61.52380952380952,-52.523809523809526],[-61.0,-53.0],[-61.0,-54.0],[-61.315789473684205,-54.68421052631579],[-62.272727272727266,-55.72727272727272],[-63.0,-56.0],[-63.333333333333336,-56.66666666666667],[-64.0,-57.0],[-64.34782608695653,-57.652173913043484],[-65.0,-58.0],[-65.42105263157895,-58.578947368421055],[-66.16666666666667,-59.0],[-66.54545454545455,-59.45454545454545],[-67.5,-60.0],[-68.75,-61.0],[-69.0,-61.33333333333333],[-70.33333333333334,-62.0],[-71.66666666666667,-63.333333333333336],[-73.60000000000001,-64.4],[-75.0,-65.0],[-76.0,-65.75],[-77.0,-66.0],[-78.0,-66.5],[-80.0,-67.0],[-84.0,-69.0],[-85.28571428571428,-69.28571428571428],[-87.0,-69.33333333333334],[-88.0,-70.0],[-90.0,-70.0],[-91.0,-70.33333333333333],[-92.0,-70.5],[-93.0,-71.0],[-95.0,-71.0],[-96.0,-70.0],[-97.0,-70.0],[-97.0,-69.0],[-98.0,-69.0],[-99.0,-70.0],[-100.0,-70.0],[-100.60000000000001,-70.4],[-101.4,-70.60000000000001],[-102.0,-71.0],[-102.0,-72.0],[-103.0,-72.0],[-104.5,-72.5],[-105.0,-73.0],[-107.0,-73.0],[-108.28571428571428,-73.28571428571428],[-113.0,-73.5],[-113.4,-73.60000000000001],[-114.0,-74.0],[-118.0,-74.0],[-119.0,-74.25],[-126.0,-74.33333333333333],[-127.33333333333334,-74.66666666666667],[-128.25,-74.75],[-129.0,-75.0],[-130.0,-75.0],[-131.6923076923077,-75.30769230769232],[-134.0,-75.5],[-136.0,-76.0],[-137.0,-76.0],[-137.63636363636363,-76.36363636363637],[-138.4,-76.60000000000001],[-140.0,-76.66666666666667],[-141.125,-76.875],[-142.0,-77.33333333333333],[-143.0,-77.33333333333333],[-145.0,-78.0],[-146.0,-78.0],[-148.0,-79.0],[-149.0,-79.0],[-149.71428571428572,-79.28571428571428],[-151.4,-79.6],[-153.28571428571428,-79.71428571428571],[-154.0,-80.0],[-155.0,-80.0],[-155.7142857142857,-80.28571428571428],[-157.0,-80.5],[-158.0,-80.5],[-159.28571428571428,-80.71428571428572],[-160.0,-81.0],[-165.0,-81.0],[-167.0,-81.66666666666667],[-168.0,-81.75],[-169.0,-82.0],[-170.0,-82.0],[-172.0,-82.66666666666667],[-173.25,-82.75],[-174.0,-83.0],[-175.0,-83.0],[-176.0,-82.5],[-180.0,-82.5],[-180.0,-71.25],[-177.0,-71.33333333333334],[-176.0,-71.5],[-170.0,-71.5],[-168.0,-71.75],[-167.0,-71.6],[-166.0,-71.66666666666667],[-165.0,-71.5],[-163.0,-71.55555555555556],[-158.07692307692307,-70.92307692307692],[-157.0,-70.66666666666666],[-154.0,-70.28571428571428],[-153.0,-70.28571428571428],[-151.08333333333334,-69.91666666666667],[-148.0,-69.77777777777777],[-143.0,-69.0],[-139.0,-68.83333333333333],[-132.94736842105263,-68.05263157894737],[-130.93333333333334,-67.93333333333334],[-127.0,-67.95833333333334],[-124.25531914893617,-67.74468085106383],[-120.85185185185185,-67.14814814814815],[-118.0,-66.91304347826087],[-116.45000000000002,-66.55],[-115.14285714285714,-66.0],[-114.0,-65.6875],[-110.0,-65.0],[-107.0,-64.7],[-103.0,-64.0],[-99.77777777777777,-63.77777777777778],[-97.78947368421052,-63.78947368421053],[-97.0,-64.0],[-94.0,-63.0],[-91.28571428571428,-62.714285714285715],[-88.0,-61.78125],[-85.0,-61.347826086956516],[-84.33333333333334,-61.0],[-81.0,-60.0],[-78.0,-59.440000000000005],[-77.0,-59.142857142857146],[-75.28571428571428,-58.0],[-72.78048780487805,-55.21951219512195],[-72.0,-53.125],[-71.28571428571428,-51.71428571428571],[-71.06349206349206,-50.93650793650794],[-71.0,-49.75],[-70.69999999999999,-49.0],[-69.84615384615385,-47.0],[-68.0,-43.27777777777778],[-67.0,-41.76470588235294],[-66.0,-40.86666666666666],[-65.0,-40.625],[-64.68421052631578,-40.68421052631579],[-64.0909090909091,-41.09090909090909],[-63.733333333333334,-41.733333333333334],[-63.5,-43.0]]],[[[-39.5,-15.5],[-39.5,-16.0],[-40.285714285714285,-16.714285714285715],[-40.5,-18.0],[-41.0,-18.5],[-43.0,-17.666666666666668],[-44.0,-17.0],[-44.66666666666667,-16.0],[-44.66666666666667,-15.000000000000002],[-44.30769230769231,-14.692307692307693],[-44.0,-14.5],[-43.0,-14.333333333333334],[-42.0,-14.5],[-41.0,-15.0],[-40.0,-15.0],[-39.5,-15.5]]],[[[28.0,-2.5],[28.166666666666668,-3.0],[28.07142857142857,-4.0],[27.615384615384613,-4.615384615384615],[27.0,-5.0],[26.0,-5.199999999999999],[24.894736842105264,-4.894736842105264],[24.5,-5.0],[23.0,-6.0],[22.22222222222222,-6.222222222222222],[21.0,-6.0],[20.4,-5.0],[20.25,-4.0],[20.846153846153847,-2.846153846153846],[23.6,-0.6000000000000001],[24.0,0.0],[24.6,0.4],[25.0,1.0],[26.0,1.5],[27.0,1.0],[27.0,0.0],[26.666666666666668,-0.6666666666666667],[26.66666666666667,-1.0],[27.333333333333336,-2.0],[28.0,-2.5]]],[[[32.0,10.05263157894737],[30.999999999999996,10.352941176470587],[30.639344262295083,10.639344262295081],[30.5,11.0],[30.733333333333334,12.0],[30.875,12.125],[32.0,12.193548387096772],[32.23076923076923,12.0],[32.5625,11.0],[32.46153846153846,10.53846153846154],[32.0,10.05263157894737]]],[[[27.432432432432435,14.567567567567568],[27.0,14.272727272727273],[26.0,14.4],[25.636363636363637,14.636363636363637],[25.53846153846154,15.0],[24.9375,15.9375],[24.68181818181818,17.0],[24.81081081081081,17.18918918918919],[25.0,17.31818181818182],[26.0,17.307692307692307],[27.0,16.714285714285715],[27.625,16.0],[27.61538461538462,15.0],[27.432432432432435,14.567567567567568]]],[[[19.352941176470587,20.64705882352941],[19.0,20.0],[18.5,19.5],[17.714285714285715,19.285714285714285],[17.0,19.25],[16.421052631578945,19.421052631578945],[15.272727272727272,20.272727272727273],[15.125,21.0],[15.137931034482758,21.862068965517242],[15.333333333333334,22.666666666666668],[17.0,23.333333333333332],[18.0,22.933333333333334],[18.77777777777778,22.0],[19.153846153846153,21.153846153846153],[19.42857142857143,21.0],[19.352941176470587,20.64705882352941]]],[[[10.0,53.03703703703703],[11.791666666666666,51.79166666666667],[13.0,51.36585365853659],[14.915492957746478,50.91549295774648],[16.0,50.85185185185185],[22.0,51.09375],[25.0,51.0],[25.891891891891895,50.891891891891895],[30.0,49.84615384615385],[31.203389830508474,49.20338983050847],[32.0,49.0],[33.0,48.52380952380952],[34.0,47.875],[36.05084745762712,46.05084745762712],[36.452380952380956,45.45238095238095],[37.458333333333336,44.45833333333333],[39.26086956521739,43.0],[41.46153846153846,40.46153846153847],[44.0,39.0],[45.0,38.0],[44.5,37.0],[40.285714285714285,35.71428571428571],[39.083333333333336,35.0],[38.0,34.61290322580645],[35.5,33.0],[33.23684210526316,31.763157894736842],[32.63333333333334,31.366666666666667],[32.388888888888886,31.0],[31.695652173913047,30.695652173913043],[31.32,30.68],[31.0,30.46666666666667],[30.0,30.428571428571427],[29.529411764705884,30.529411764705884],[29.0,31.0],[29.0,32.0],[28.71428571428571,32.71428571428571],[28.0,33.333333333333336],[26.0,33.333333333333336],[25.0,33.0],[24.0,33.5],[23.0,33.5],[22.0,33.666666666666664],[21.0,33.333333333333336],[18.0,33.333333333333336],[16.0,33.666666666666664],[15.0,33.5],[13.8,33.8],[13.0,34.16666666666667],[12.0,34.0],[10.0,34.0],[7.0,34.666666666666664],[5.636363636363637,35.63636363636364],[3.571428571428571,37.57142857142858],[2.4615384615384617,39.46153846153847],[2.0,40.0],[2.5,42.0],[2.3333333333333335,43.0],[2.5,44.0],[2.3333333333333335,44.333333333333336],[2.166666666666667,46.166666666666664],[1.6363636363636362,46.63636363636364],[1.0,47.5],[-0.6000000000000001,48.400000000000006],[-1.0,48.5],[-1.5,49.0],[-1.4000000000000001,49.400000000000006],[-0.5,50.5],[0.0,52.0],[0.0,53.0],[-0.33333333333333337,54.0],[1.4,55.0],[2.2142857142857144,55.214285714285715],[4.0,55.35714285714286],[5.0,55.05555555555556],[7.1,54.0],[10.0,53.03703703703703]]],[[[-60.60000000000001,-26.400000000000002],[-60.0,-26.0],[-51.0,-26.0],[-51.0,-25.0],[-48.0,-25.0],[-47.0,-25.333333333333336],[-46.0,-25.333333333333336],[-45.0,-25.0],[-43.44444444444444,-25.444444444444443],[-41.0,-25.75],[-40.0,-26.200000000000003],[-38.0,-26.6],[-36.0,-26.285714285714285],[-35.0,-26.428571428571427],[-34.333333333333336,-26.333333333333336],[-32.0,-25.666666666666664],[-31.0,-25.6],[-29.875,-25.125],[-29.0,-25.0],[-27.25,-24.0],[-27.0,-23.5],[-26.0,-23.5],[-25.714285714285715,-23.285714285714285],[-24.0,-23.0],[-25.0,-22.0],[-24.5,-21.5],[-23.6,-21.4],[-23.0,-21.0],[-23.0,-20.0],[-23.5,-20.5],[-24.5,-20.5],[-25.0,-20.0],[-24.0,-19.0],[-24.0,-16.0],[-25.0,-16.0],[-25.0,-15.0],[-26.0,-15.0],[-26.0,-14.0],[-27.0,-14.0],[-27.0,-13.0],[-28.0,-12.0],[-28.6,-11.600000000000001],[-30.0,-11.0],[-30.799999999999997,-12.2],[-31.400000000000002,-12.6],[-32.0,-13.333333333333332],[-35.0,-14.333333333333332],[-35.333333333333336,-14.333333333333334],[-36.0,-14.0],[-37.0,-14.0],[-37.0,-13.0],[-36.0,-11.0],[-34.0,-9.0],[-32.55555555555555,-8.444444444444445],[-32.0,-8.0],[-30.0,-8.0],[-30.0,-7.0],[-29.0,-7.0],[-29.0,-6.0],[-28.0,-6.0],[-28.0,-5.0],[-27.0,-5.0],[-27.0,-3.0],[-26.0,-3.0],[-26.0,-1.0],[-25.0,-1.0],[-25.0,2.0],[-26.0,2.0],[-26.285714285714285,2.714285714285714],[-26.5,4.0],[-26.25,5.0],[-26.0,5.333333333333333],[-24.5,5.5],[-24.0,5.0],[-24.0,9.0],[-23.6,9.600000000000001],[-23.0,11.0],[-22.0,11.0],[-22.0,13.0],[-22.666666666666668,14.333333333333334],[-23.400000000000002,14.600000000000001],[-24.0,15.0],[-25.0,16.0],[-26.0,16.0],[-27.0,17.0],[-28.0,17.0],[-29.0,18.0],[-28.400000000000002,18.400000000000002],[-28.0,19.0],[-26.0,19.5],[-25.0,20.0],[-24.2,20.200000000000003],[-23.6,20.6],[-23.0,21.333333333333336],[-22.0,21.75],[-21.0,22.4],[-18.0,22.25],[-15.000000000000002,21.666666666666668],[-13.5,21.0],[-12.266666666666666,20.733333333333334],[-11.571428571428571,20.42857142857143],[-11.0,20.0],[-10.307692307692308,19.692307692307693],[-9.777777777777779,19.22222222222222],[-7.571428571428571,18.42857142857143],[-7.0,18.0],[-5.0,17.25],[-4.0,17.333333333333332],[-3.0,17.0],[-0.17142857142857143,18.17142857142857],[2.0,18.90909090909091],[3.0,19.0],[4.166666666666667,17.166666666666664],[4.666666666666667,16.0],[4.7142857142857135,14.714285714285712],[5.0,14.0],[6.0,13.0],[7.0,13.0],[7.6,13.4],[9.0,13.666666666666668],[10.285714285714285,14.714285714285712],[11.0,15.0],[13.0,15.0],[15.0,14.0],[16.0,13.0],[16.0,12.0],[15.0,12.0],[14.400000000000002,11.600000000000001],[14.0,11.0],[14.0,10.0],[13.5,9.0],[13.5,7.0],[13.333333333333332,6.0],[13.666666666666668,4.0],[13.666666666666668,3.0],[13.5,2.0],[13.5,0.5],[13.0,0.0],[13.0,-2.0],[14.0,-2.0],[14.0,-4.0],[15.0,-4.0],[15.0,-5.0],[14.0,-6.0],[13.4,-6.4],[12.5,-6.5],[12.0,-6.0],[12.0,-7.0],[11.400000000000002,-7.4],[11.0,-7.5],[10.333333333333334,-8.333333333333334],[8.0,-8.5],[6.846153846153846,-8.846153846153847],[6.6000000000000005,-9.0],[6.375,-9.375],[4.666666666666667,-10.0],[4.363636363636363,-10.363636363636363],[3.3333333333333335,-11.0],[3.5,-11.5],[4.0,-12.0],[5.0,-11.666666666666668],[6.0,-12.0],[7.0,-11.5],[8.285714285714285,-11.285714285714285],[11.0,-10.0],[11.0,-9.0],[13.0,-9.0],[13.0,-8.0],[15.0,-8.0],[16.142857142857142,-7.857142857142858],[17.692307692307693,-8.307692307692308],[18.0,-8.5],[20.0,-9.0],[20.25,-9.75],[20.5,-10.0],[20.0,-11.0],[19.285714285714285,-11.285714285714285],[19.285714285714285,-11.714285714285714],[19.0,-12.200000000000001],[18.400000000000002,-12.4],[18.0,-13.5],[17.6,-13.600000000000001],[17.0,-14.0],[16.0,-14.0],[15.600000000000001,-14.600000000000001],[15.5,-15.0],[16.0,-16.0],[16.0,-17.0],[15.5,-18.0],[14.222222222222221,-19.22222222222222],[12.0,-20.0],[11.0,-20.0],[10.0,-21.0],[9.4,-21.4],[8.600000000000001,-21.6],[8.0,-22.0],[7.5,-23.0],[6.0,-24.75],[5.0,-24.75],[4.0,-25.0],[3.4000000000000004,-25.400000000000002],[3.2,-26.200000000000003],[3.0,-26.5],[2.6,-26.6],[2.5,-27.0],[2.714285714285714,-27.285714285714285],[2.7142857142857144,-28.0],[3.0,-28.666666666666664],[5.0,-30.666666666666664],[5.777777777777778,-31.22222222222222],[6.333333333333334,-32.0],[7.285714285714286,-32.71428571428571],[8.0,-33.5],[9.0,-34.0],[12.0,-37.0],[13.0,-37.333333333333336],[13.818181818181817,-38.18181818181818],[14.5,-38.5],[15.0,-39.0],[15.714285714285712,-39.28571428571428],[17.0,-40.66666666666667],[18.444444444444443,-41.55555555555555],[19.555555555555554,-42.44444444444444],[21.0,-43.0],[21.4,-43.60000000000001],[22.0,-44.0],[23.0,-45.0],[24.0,-45.333333333333336],[25.400000000000002,-45.6],[26.0,-46.0],[26.666666666666668,-45.66666666666667],[27.333333333333336,-45.66666666666667],[29.400000000000002,-46.6],[30.0,-47.0],[30.6,-46.6],[31.0,-46.5],[31.400000000000002,-46.6],[32.0,-47.0],[33.0,-47.0],[33.6,-46.6],[34.400000000000006,-46.400000000000006],[35.0,-46.0],[35.0,-45.0],[34.6,-44.400000000000006],[34.5,-44.0],[34.5,-41.0],[34.333333333333336,-39.66666666666667],[33.333333333333336,-37.66666666666667],[33.0,-37.5],[32.333333333333336,-36.66666666666667],[32.0,-36.5],[31.666666666666664,-36.0],[32.0,-35.0],[33.0,-35.0],[33.66666666666667,-36.333333333333336],[35.6,-37.4],[36.0,-37.5],[36.400000000000006,-37.4],[37.66666666666667,-36.66666666666667],[38.4,-35.400000000000006],[38.66666666666667,-34.0],[38.66666666666667,-33.0],[38.44444444444444,-32.55555555555555],[37.75,-32.25],[37.0,-32.2],[36.666666666666664,-32.0],[37.0,-31.666666666666664],[37.5,-31.5],[38.5,-30.5],[38.66666666666667,-30.0],[39.0,-29.75],[39.66666666666667,-29.666666666666668],[40.4,-29.400000000000002],[41.71428571428571,-28.71428571428571],[42.0,-28.0],[45.0,-28.0],[45.5,-28.5],[46.5,-29.0],[46.66666666666667,-29.333333333333336],[48.0,-30.0],[48.0,-31.0],[49.0,-31.0],[49.6,-31.400000000000002],[51.0,-32.0],[52.0,-31.666666666666664],[53.0,-32.0],[53.60000000000001,-32.4],[54.400000000000006,-32.6],[56.0,-32.75],[56.5,-33.0],[56.66666666666667,-33.333333333333336],[58.60000000000001,-34.400000000000006],[62.0,-36.0],[62.5,-36.5],[64.71428571428571,-37.285714285714285],[65.28571428571428,-37.71428571428571],[69.33333333333334,-39.66666666666667],[70.0,-40.333333333333336],[71.0,-41.0],[71.75,-40.75],[72.16666666666667,-40.833333333333336],[72.5,-41.5],[73.0,-42.0],[74.0,-42.333333333333336],[75.0,-43.0],[77.22222222222223,-43.77777777777778],[77.5,-44.0],[77.6,-44.400000000000006],[78.0,-45.0],[79.0,-45.0],[79.6,-45.4],[81.0,-46.0],[81.0,-47.0],[81.5,-46.5],[85.0,-46.66666666666667],[86.71428571428571,-47.285714285714285],[89.2,-47.8],[90.0,-48.33333333333333],[92.44444444444443,-48.55555555555555],[94.0,-49.0],[96.0,-49.0],[96.60000000000001,-49.400000000000006],[97.0,-49.5],[99.0,-49.5],[100.28571428571428,-49.285714285714285],[100.77777777777777,-48.77777777777778],[102.0,-48.5],[102.5,-48.0],[102.71428571428571,-46.71428571428571],[103.0,-46.0],[103.0,-44.0],[103.60000000000001,-43.60000000000001],[104.5,-42.5],[104.77777777777777,-41.77777777777778],[106.0,-40.5],[106.25,-40.0],[106.0,-39.0],[104.66666666666667,-37.0],[104.75,-35.0],[105.42857142857143,-34.42857142857143],[106.0,-33.5],[106.77777777777777,-32.77777777777778],[108.0,-32.0],[109.0,-32.0],[109.77777777777777,-31.77777777777778],[114.00000000000001,-31.333333333333336],[115.0,-31.333333333333336],[116.0,-31.666666666666664],[116.33333333333334,-31.66666666666667],[117.0,-32.0],[117.4,-31.400000000000002],[117.5,-31.0],[117.25,-30.75],[117.16666666666666,-30.0],[116.11111111111111,-28.88888888888889],[116.0,-27.0],[116.5,-26.5],[117.23529411764707,-26.235294117647058],[118.84615384615385,-26.153846153846153],[120.00000000000001,-26.333333333333336],[120.2,-26.200000000000003],[120.33333333333334,-26.0],[120.25,-24.0],[120.4,-23.0],[120.625,-22.625],[121.14285714285714,-22.142857142857142],[121.5,-21.5],[124.0,-19.0],[125.0,-18.333333333333336],[126.0,-18.25],[127.0,-18.0],[129.63636363636363,-18.363636363636363],[131.0,-19.0],[131.44444444444443,-19.555555555555554],[132.0,-21.0],[132.4,-21.6],[133.0,-22.0],[135.0,-24.0],[136.25,-24.75],[136.4,-25.0],[137.44444444444443,-25.555555555555554],[137.75,-26.0],[138.5,-26.5],[139.0,-27.125],[140.0,-27.833333333333336],[141.0,-28.111111111111107],[142.06451612903226,-28.93548387096774],[142.88888888888889,-29.999999999999996],[143.63636363636363,-31.363636363636363],[144.0,-31.8],[144.8,-32.2],[145.33333333333331,-33.0],[146.0,-35.0],[147.0,-36.0],[147.33333333333334,-35.333333333333336],[147.52941176470588,-34.529411764705884],[148.0,-34.2],[149.0,-34.833333333333336],[149.15384615384616,-36.0],[149.0,-37.0],[147.6,-36.6],[147.0,-37.0],[147.6,-37.4],[148.5,-38.5],[148.75,-39.0],[148.46153846153848,-39.46153846153847],[148.16666666666669,-41.0],[150.0,-43.0],[150.36363636363637,-44.0],[150.66666666666669,-46.0],[151.0,-46.5],[151.1,-46.9],[151.5,-47.5],[152.25,-48.0],[152.4,-48.60000000000001],[153.0,-49.0],[153.33333333333334,-49.66666666666667],[154.0,-50.0],[154.60000000000002,-51.400000000000006],[155.5,-53.0],[155.60000000000002,-54.400000000000006],[156.5,-55.5],[157.25,-55.75],[157.66666666666669,-56.333333333333336],[158.5,-57.0],[158.60000000000002,-57.4],[159.0,-58.0],[159.0,-60.0],[159.66666666666669,-61.0],[160.0,-61.16666666666667],[161.0,-61.5],[162.28571428571428,-61.71428571428571],[163.0,-62.0],[165.71428571428572,-62.285714285714285],[166.5,-63.0],[167.0,-64.0],[166.5,-64.5],[165.8095238095238,-64.80952380952381],[165.0,-64.92307692307692],[163.7142857142857,-64.71428571428571],[162.5,-65.0],[163.0,-66.0],[163.60000000000002,-66.4],[165.28571428571428,-66.71428571428571],[166.0,-67.0],[166.5,-67.5],[168.0,-68.0],[168.60000000000002,-68.4],[170.0,-68.66666666666667],[170.5,-69.5],[171.0,-70.0],[174.0,-70.0],[174.5,-70.5],[175.28571428571428,-70.71428571428571],[176.22222222222223,-70.77777777777777],[178.0,-70.83333333333334],[179.0,-70.5],[179.89999999999998,-71.1],[180.0,-71.25],[180.0,-82.5],[179.0,-82.5],[177.4,-81.60000000000001],[176.0,-81.33333333333334],[175.0,-81.0],[174.0,-81.0],[173.4,-80.60000000000001],[171.71428571428572,-80.28571428571428],[171.0,-80.0],[167.0,-80.0],[166.40000000000003,-79.6],[165.60000000000002,-79.4],[164.0,-79.33333333333334],[163.0,-79.0],[162.0,-79.0],[161.0,-78.5],[159.71428571428572,-78.28571428571428],[159.0,-78.0],[158.0,-78.0],[157.4,-77.6],[157.0,-77.5],[156.0,-77.5],[155.0,-77.33333333333333],[154.0,-77.0],[153.0,-77.0],[147.0,-75.0],[146.0,-75.0],[145.4,-74.6],[144.0,-74.0],[143.0,-74.0],[142.5,-73.5],[141.0,-73.0],[140.0,-73.0],[139.4,-72.6],[138.60000000000002,-72.4],[138.0,-72.33333333333334],[137.0,-72.5],[136.0,-72.33333333333334],[134.0,-72.33333333333334],[132.6,-72.6],[132.0,-73.0],[130.0,-73.0],[129.28571428571428,-73.28571428571428],[127.6,-73.60000000000001],[127.0,-74.0],[126.5,-75.0],[127.36363636363637,-75.63636363636364],[128.0,-76.33333333333334],[130.0,-77.0],[131.0,-77.0],[131.6,-77.4],[133.0,-77.66666666666667],[134.0,-78.0],[135.0,-78.0],[135.60000000000002,-78.4],[136.4,-78.60000000000001],[138.0,-78.66666666666667],[139.0,-79.0],[139.60000000000002,-79.4],[141.28571428571428,-79.71428571428571],[142.0,-80.0],[144.0,-80.0],[144.60000000000002,-80.4],[146.0,-80.66666666666667],[147.0,-81.0],[147.6,-81.4],[149.0,-81.5],[150.0,-82.0],[151.0,-82.0],[151.66666666666669,-82.33333333333334],[152.0,-82.33333333333334],[154.0,-83.0],[154.60000000000002,-83.4],[157.0,-83.66666666666667],[159.0,-84.5],[161.0,-84.5],[162.28571428571428,-84.71428571428571],[163.0,-85.0],[166.0,-85.0],[166.60000000000002,-85.4],[168.28571428571428,-85.71428571428571],[169.0,-86.0],[170.0,-85.75],[171.0,-86.0],[172.0,-86.0],[172.6,-86.4],[174.28571428571428,-86.71428571428571],[175.0,-87.0],[178.0,-87.0],[178.5,-87.5],[179.0,-87.66666666666667],[180.0,-87.66666666666667],[180.0,-90.0],[-42.0,-90.0],[-42.0,-89.0],[-50.0,-89.0],[-50.0,-88.0],[-60.0,-88.0],[-60.0,-87.0],[-67.0,-87.0],[-67.0,-86.0],[-71.0,-86.0],[-71.0,-85.0],[-72.0,-85.0],[-72.0,-84.0],[-75.0,-84.0],[-75.0,-83.0],[-72.6,-82.4],[-70.0,-82.0],[-68.42857142857143,-81.57142857142857],[-65.0,-81.125],[-63.0,-81.0],[-61.6,-80.4],[-57.0,-80.0],[-55.0,-80.0],[-54.0,-79.66666666666666],[-53.0,-79.75],[-51.71428571428571,-79.28571428571428],[-50.826086956521735,-79.17391304347825],[-47.0,-79.0],[-46.44444444444444,-78.55555555555554],[-45.66666666666667,-78.33333333333334],[-42.0,-78.0],[-39.75,-77.25],[-37.5,-77.0],[-36.0,-76.2],[-35.0,-76.0],[-34.400000000000006,-75.60000000000001],[-34.0,-75.0],[-33.25,-74.75],[-33.0,-74.5],[-31.714285714285715,-74.28571428571428],[-30.0,-73.5],[-29.0,-73.33333333333334],[-28.0,-73.0],[-28.0,-72.0],[-28.6,-71.60000000000001],[-29.0,-71.0],[-30.0,-70.0],[-30.333333333333336,-69.0],[-30.636363636363637,-68.63636363636364],[-31.22222222222222,-68.22222222222223],[-32.0,-68.0],[-32.0,-67.0],[-33.0,-66.0],[-33.6,-65.60000000000001],[-35.0,-65.0],[-41.0,-65.0],[-41.6,-65.4],[-42.0,-65.5],[-43.400000000000006,-65.4],[-44.0,-65.0],[-44.6,-65.4],[-45.0,-65.5],[-46.28571428571428,-65.28571428571428],[-47.0,-65.0],[-50.0,-65.0],[-50.75,-64.75],[-52.0,-64.75],[-54.22222222222222,-63.22222222222222],[-55.28571428571428,-62.285714285714285],[-56.0,-62.0],[-56.400000000000006,-61.400000000000006],[-57.0,-61.0],[-57.0,-58.0],[-56.0,-58.0],[-56.0,-57.0],[-54.0,-57.0],[-54.0,-56.0],[-53.0,-56.0],[-52.0,-55.0],[-51.0,-55.0],[-50.0,-55.25],[-49.0,-54.66666666666667],[-48.0,-54.5],[-46.0,-54.5],[-45.0,-54.66666666666667],[-44.0,-54.66666666666667],[-43.0,-54.33333333333334],[-42.0,-54.5],[-39.0,-54.66666666666667],[-38.0,-54.5],[-35.0,-54.4],[-32.0,-54.0],[-30.0,-54.0],[-29.0,-54.25],[-27.000000000000004,-54.33333333333334],[-26.0,-54.0],[-25.400000000000002,-54.400000000000006],[-25.0,-55.0],[-24.0,-55.0],[-22.0,-56.0],[-21.0,-57.0],[-18.0,-57.0],[-17.0,-57.66666666666667],[-16.666666666666668,-57.66666666666667],[-16.0,-58.0],[-15.0,-57.0],[-11.714285714285714,-55.28571428571428],[-11.0,-54.0],[-11.333333333333332,-53.0],[-12.0,-52.0],[-12.6,-51.6],[-14.0,-51.0],[-14.0,-50.0],[-15.0,-49.5],[-16.0,-50.0],[-16.6,-49.6],[-17.0,-49.0],[-21.0,-49.0],[-22.0,-48.5],[-22.4,-48.60000000000001],[-23.0,-49.0],[-23.6,-48.60000000000001],[-25.0,-48.0],[-27.0,-48.0],[-29.0,-47.33333333333333],[-30.285714285714285,-47.285714285714285],[-31.0,-47.0],[-32.0,-47.25],[-33.0,-46.75],[-34.0,-47.0],[-34.63636363636363,-46.63636363636364],[-36.0,-46.5],[-37.0,-46.75],[-39.0,-46.75],[-41.0,-46.66666666666667],[-43.0,-46.33333333333333],[-44.0,-46.66666666666667],[-45.0,-46.5],[-46.0,-46.66666666666667],[-47.0,-46.66666666666667],[-48.0,-46.5],[-53.0,-46.5],[-54.0,-46.33333333333333],[-55.33333333333334,-46.333333333333336],[-56.71428571428571,-45.71428571428571],[-59.0,-45.0],[-60.0,-44.0],[-60.333333333333336,-43.0],[-60.5,-42.0],[-61.0,-41.0],[-60.55555555555555,-39.44444444444444],[-60.400000000000006,-38.0],[-60.0,-37.0],[-59.0,-36.0],[-59.0,-35.0],[-58.173913043478265,-34.826086956521735],[-57.61904761904762,-34.38095238095238],[-57.16666666666667,-33.83333333333333],[-57.0,-33.0],[-56.519999999999996,-32.48],[-56.33333333333333,-32.0],[-56.25,-31.0],[-56.473684210526315,-30.0],[-56.63636363636364,-27.636363636363637],[-57.0,-27.2],[-57.28571428571428,-27.285714285714285],[-58.0,-27.0],[-58.0,-28.0],[-59.33333333333333,-28.0],[-59.55555555555555,-27.555555555555554],[-60.25,-27.25],[-62.0,-27.0],[-63.0,-27.0],[-63.60000000000001,-26.6],[-65.0,-26.5],[-66.0,-26.0],[-66.0,-25.0],[-62.0,-25.0],[-61.5,-25.5],[-61.400000000000006,-26.400000000000002],[-61.0,-26.5],[-60.60000000000001,-26.400000000000002]],[[-3.2,-17.0],[-3.6000000000000005,-18.400000000000002],[-4.0,-19.0],[-4.4,-20.0],[-4.5,-21.0],[-4.2105263157894735,-21.210526315789473],[-2.0,-21.333333333333336],[-0.6666666666666667,-21.0],[0.4,-19.400000000000002],[0.5,-18.0],[0.3333333333333333,-17.0],[0.5,-16.5],[1.0,-16.0],[1.0,-15.0],[1.5,-14.0],[1.3333333333333333,-13.666666666666668],[1.0,-13.5],[0.5,-14.0],[0.5,-14.5],[0.0,-15.0],[-0.7142857142857142,-14.714285714285712],[-1.5,-15.0],[-1.7142857142857142,-15.285714285714285],[-2.0,-15.333333333333334],[-3.2,-17.0]],[[-21.0,-2.0],[-21.0,-1.0],[-23.0,-1.0],[-23.0,-2.0],[-24.0,-2.0],[-24.0,-6.0],[-22.0,-6.0],[-22.0,-2.0],[-21.0,-2.0]]],[[[97.0,-14.0],[96.0,-14.25],[95.0,-14.0],[96.0,-13.666666666666666],[97.0,-14.0]]],[[[106.4,0.4],[107.0,0.0],[107.5,-1.0],[107.0,-2.0],[105.60000000000001,-2.4],[104.0,-2.5],[103.36363636363637,-3.3636363636363633],[102.5,-4.0],[101.8,-4.8],[101.0,-5.0],[99.22222222222223,-6.222222222222222],[97.71428571428571,-6.7142857142857135],[96.0,-7.833333333333334],[95.0,-8.0],[93.66666666666667,-8.666666666666668],[93.25,-9.0],[92.8,-9.8],[92.5,-10.0],[92.4,-11.400000000000002],[92.0,-12.0],[90.0,-12.0],[89.33333333333334,-11.666666666666668],[86.5,-11.0],[86.25806451612902,-9.741935483870968],[85.58333333333333,-9.416666666666668],[85.0,-9.368421052631579],[84.52,-9.52],[84.0,-10.0],[83.17543859649123,-10.175438596491228],[82.48275862068967,-10.482758620689657],[82.0,-11.0],[80.3448275862069,-11.344827586206897],[79.0,-12.0],[77.3030303030303,-12.303030303030303],[76.61290322580645,-12.612903225806452],[76.25,-13.0],[74.5,-13.5],[73.80000000000001,-14.000000000000002],[72.45454545454545,-14.454545454545455],[71.75,-15.0],[70.73913043478261,-15.26086956521739],[69.0,-15.444444444444445],[66.66666666666667,-15.0],[64.6923076923077,-13.307692307692308],[63.0,-12.333333333333334],[62.0,-12.0],[61.5,-12.5],[61.25,-13.25],[60.0,-13.833333333333334],[59.00000000000001,-13.857142857142858],[58.0,-14.076923076923077],[52.0625,-14.0625],[49.83333333333333,-13.833333333333332],[49.0,-13.666666666666668],[47.2,-13.0],[46.66666666666667,-12.0],[46.4,-11.0],[46.5,-10.0],[47.333333333333336,-9.333333333333334],[47.57142857142857,-9.0],[48.57575757575758,-8.575757575757576],[49.285714285714285,-8.0],[50.550000000000004,-7.55],[51.375,-7.0],[54.83157894736843,-5.831578947368421],[57.0,-5.512195121951219],[59.0,-5.421052631578947],[60.0,-5.5],[62.0,-5.976744186046512],[63.10526315789474,-6.105263157894736],[65.93023255813954,-5.930232558139536],[69.0,-5.5434782608695645],[71.52808988764045,-5.47191011235955],[74.0,-5.580645161290323],[75.29787234042553,-5.297872340425531],[76.68181818181819,-4.681818181818182],[77.57142857142857,-4.0],[78.72972972972974,-3.72972972972973],[79.42424242424242,-3.4242424242424243],[80.0,-3.0],[81.51724137931035,-2.5172413793103448],[82.20000000000002,-2.0],[82.83333333333333,-1.8333333333333333],[83.0,-1.6363636363636362],[83.46666666666667,-1.4666666666666666],[84.0,-1.0],[85.0,-1.0],[85.47058823529412,-1.5294117647058822],[86.0,-1.8571428571428572],[86.14285714285714,-3.0],[87.0,-3.2608695652173916],[89.0,-3.185185185185185],[91.0,-2.653846153846154],[92.75,-2.0],[94.58333333333333,-1.5833333333333333],[99.0,-0.14285714285714285],[101.81818181818181,1.1818181818181817],[104.0,1.8333333333333335],[104.81818181818181,1.8181818181818181],[105.55555555555554,1.5555555555555554],[106.4,0.4]]],[[[38.16393442622951,0.8360655737704918],[38.0,0.6875],[37.44444444444444,1.0],[37.64285714285714,2.0],[38.18181818181818,2.9999999999999996],[38.625,3.375],[39.0,3.580645161290322],[39.515151515151516,3.515151515151515],[40.170212765957444,3.170212765957447],[40.23529411764706,3.0],[39.75,2.0],[39.00000000000001,1.0526315789473686],[38.16393442622951,0.8360655737704918]]],[[[35.9,5.1],[35.0,5.0],[34.17391304347826,6.0],[33.705882352941174,7.0],[33.94117647058824,8.058823529411764],[34.733333333333334,7.733333333333333],[35.0,7.777777777777778],[35.61764705882353,7.0],[35.904761904761905,6.0],[35.9,5.1]]],[[[56.148148148148145,23.14814814814815],[56.44444444444444,22.0],[55.68000000000001,19.68],[55.38709677419355,17.0],[55.0,16.200000000000003],[54.372093023255815,15.627906976744185],[54.0,14.88888888888889],[52.33333333333333,13.0],[51.540983606557376,12.459016393442623],[50.111111111111114,10.88888888888889],[48.0,9.666666666666666],[47.0,9.23076923076923],[46.0,9.0],[45.32,9.32],[44.5,10.0],[42.0,10.90909090909091],[41.0,11.464285714285714],[40.0,12.149999999999999],[38.74193548387097,13.741935483870968],[36.0,15.346153846153847],[34.64285714285714,17.0],[33.421052631578945,19.421052631578945],[32.45454545454545,21.0],[32.57142857142857,22.0],[33.0,22.42857142857143],[35.0,22.636363636363637],[36.21052631578948,22.210526315789473],[40.0,21.5],[42.66666666666667,20.666666666666668],[43.32,20.68],[44.16,20.84],[46.00000000000001,21.8],[46.9,22.1],[47.333333333333336,22.666666666666668],[47.333333333333336,23.0],[48.61290322580645,23.387096774193544],[49.19047619047619,23.80952380952381],[49.25,24.0],[50.0,24.260869565217394],[51.0,24.066666666666666],[52.0,23.636363636363637],[52.85714285714286,24.142857142857142],[54.17142857142858,24.17142857142857],[56.148148148148145,23.14814814814815]],[[48.857142857142854,22.142857142857142],[48.5,22.0],[48.84615384615384,21.846153846153847],[49.904761904761905,21.904761904761905],[50.2,22.0],[50.0,22.25],[48.857142857142854,22.142857142857142]]],[[[69.0,36.62068965517241],[68.0,36.708333333333336],[66.94117647058823,37.0],[67.48,37.52],[67.66666666666666,38.0],[69.0,38.82758620689655],[70.0,39.29032258064516],[71.92857142857143,39.92857142857143],[73.0,40.07142857142857],[74.0,40.0],[74.22222222222223,39.0],[73.9,38.0],[72.5925925925926,37.407407407407405],[70.0,36.75],[69.0,36.62068965517241]]],[[[80.0,37.31999999999999],[79.0,37.368421052631575],[78.59322033898306,37.59322033898305],[78.25,38.0],[78.84848484848484,39.15151515151515],[80.0,39.48148148148148],[80.93548387096774,38.935483870967744],[80.89473684210526,38.0],[80.425,37.575],[80.0,37.31999999999999]]]]}}]}