{"type":"FeatureCollection","features":[{"type":"Feature","properties":{"ageMa":460},"geometry":{"type":"MultiPolygon","coordinates":[[[[31.6,-89.60000000000001],[32.0,-89.5],[32.5,-90.0],[31.0,-90.0],[31.6,-89.60000000000001]]],[[[-102.0,-79.0],[-103.0,-78.0],[-104.0,-78.0],[-103.5,-78.5],[-103.5,-79.0],[-103.66666666666669,-79.33333333333334],[-104.0,-79.5],[-104.5,-79.5],[-105.60000000000001,-78.60000000000001],[-106.5,-78.5],[-107.0,-78.0],[-107.0,-77.0],[-106.0,-77.0],[-105.4,-77.4],[-105.0,-77.5],[-104.60000000000001,-77.4],[-104.4,-76.60000000000001],[-104.0,-76.0],[-103.4,-76.4],[-102.66666666666667,-76.66666666666667],[-102.4,-77.4],[-101.60000000000001,-77.6],[-101.0,-78.0],[-101.66666666666667,-78.33333333333334],[-102.0,-79.0]]],[[[-8.0,-54.416666666666664],[-5.0,-54.57142857142857],[-3.0,-54.142857142857146],[-2.8000000000000003,-54.0],[-2.054054054054054,-53.945945945945944],[1.8333333333333335,-54.0],[1.5555555555555554,-54.55555555555556],[0.25,-55.25],[-2.1904761904761907,-55.80952380952381],[-2.6842105263157894,-56.315789473684205],[-4.0,-56.5],[-4.32,-56.68000000000001],[-4.7142857142857135,-57.28571428571428],[-5.3809523809523805,-57.61904761904762],[-7.0,-58.0],[-7.200000000000001,-59.0],[-7.578947368421053,-59.421052631578945],[-9.0,-60.25],[-10.0,-60.5],[-12.0,-60.333333333333336],[-16.0,-59.6],[-17.22222222222222,-59.22222222222222],[-18.545454545454543,-58.54545454545455],[-19.347826086956523,-58.347826086956516],[-20.565217391304348,-57.565217391304344],[-21.307692307692307,-57.30769230769231],[-21.57142857142857,-57.0],[-21.6,-56.0],[-20.6,-54.400000000000006],[-20.083333333333336,-53.916666666666664],[-16.3,-53.7],[-11.75,-54.0],[-11.0,-54.5],[-9.0,-54.57142857142857],[-8.0,-54.416666666666664]]],[[[-47.0,-53.54545454545455],[-45.87878787878788,-53.878787878787875],[-44.13636363636363,-54.13636363636364],[-43.45454545454545,-54.45454545454545],[-43.0,-54.833333333333336],[-42.0,-55.0],[-40.1025641025641,-54.8974358974359],[-38.0,-55.0],[-37.30769230769231,-55.30769230769231],[-35.769230769230774,-55.230769230769226],[-34.0,-55.357142857142854],[-32.5,-56.0],[-32.0,-57.0],[-33.22857142857143,-57.77142857142857],[-33.94736842105263,-58.05263157894736],[-37.0,-58.54545454545455],[-39.0,-58.33333333333333],[-40.71428571428571,-57.71428571428571],[-42.0,-57.4],[-47.0,-57.285714285714285],[-47.666666666666664,-57.00000000000001],[-51.0,-56.375],[-52.0,-55.57142857142857],[-54.35294117647059,-55.35294117647058],[-56.44444444444444,-54.44444444444444],[-57.0,-54.0],[-57.111111111111114,-53.0],[-57.0,-52.857142857142854],[-56.0,-52.5],[-54.00000000000001,-52.333333333333336],[-51.0,-52.5],[-49.88888888888889,-52.888888888888886],[-49.42857142857143,-53.42857142857143],[-47.0,-53.54545454545455]]],[[[-176.0,-2.0],[-175.42857142857144,-2.428571428571429],[-174.0,-4.5],[-173.38095238095235,-6.380952380952381],[-172.89473684210526,-6.894736842105263],[-172.30769230769232,-8.307692307692308],[-171.40000000000003,-9.4],[-170.0,-10.666666666666668],[-169.79999999999998,-11.0],[-169.66666666666669,-12.0],[-169.0,-13.0],[-168.4,-13.4],[-168.1818181818182,-14.18181818181818],[-167.0,-15.0],[-166.0,-16.0],[-165.71428571428572,-16.714285714285715],[-165.0,-17.0],[-164.84615384615384,-17.846153846153847],[-164.66666666666669,-18.0],[-164.6,-18.400000000000002],[-165.0,-19.0],[-164.0,-19.0],[-164.0,-20.0],[-164.33333333333334,-21.0],[-164.25,-21.25],[-163.63636363636363,-21.636363636363637],[-163.2,-22.2],[-162.33333333333334,-22.333333333333336],[-162.0,-22.5],[-161.33333333333334,-23.333333333333336],[-160.60000000000002,-23.6],[-160.0,-24.0],[-159.77777777777777,-24.77777777777778],[-159.22222222222223,-24.77777777777778],[-158.9090909090909,-24.90909090909091],[-158.66666666666669,-25.333333333333336],[-158.66666666666669,-25.66666666666667],[-158.33333333333334,-25.66666666666667],[-157.90476190476193,-25.904761904761905],[-157.5,-26.5],[-156.60000000000002,-27.0],[-156.4,-27.4],[-155.33333333333334,-28.333333333333336],[-153.0,-29.5],[-151.71428571428572,-29.714285714285715],[-150.38095238095238,-30.38095238095238],[-149.0,-30.75],[-147.89473684210526,-30.89473684210526],[-146.0,-31.5],[-145.0,-31.25],[-143.66666666666669,-31.66666666666667],[-143.0,-32.25],[-142.5,-32.0],[-142.33333333333331,-31.0],[-142.1818181818182,-30.81818181818182],[-141.6216216216216,-28.37837837837838],[-141.2,-27.2],[-141.20000000000002,-26.0],[-141.0,-25.5],[-140.5,-25.5],[-140.5,-26.0],[-140.125,-26.125],[-138.22222222222223,-26.22222222222222],[-136.3157894736842,-27.315789473684212],[-135.8181818181818,-27.818181818181817],[-135.125,-29.125],[-134.65217391304347,-29.652173913043477],[-134.3,-30.3],[-133.8,-30.799999999999997],[-133.21052631578948,-32.21052631578947],[-132.71428571428572,-33.0],[-132.3157894736842,-34.315789473684205],[-131.61904761904762,-35.61904761904762],[-131.1904761904762,-36.19047619047619],[-130.64285714285714,-36.642857142857146],[-130.32,-37.32],[-129.82608695652175,-37.82608695652174],[-128.60000000000002,-39.6],[-127.375,-40.375],[-125.73913043478261,-40.73913043478261],[-125.0,-41.0],[-124.4,-41.400000000000006],[-123.0,-41.7],[-121.4,-42.4],[-120.0,-42.666666666666664],[-117.78571428571429,-42.785714285714285],[-117.27272727272725,-43.272727272727266],[-116.55555555555554,-43.55555555555555],[-113.0,-43.77777777777778],[-112.0,-44.0],[-110.0,-44.0],[-109.0,-44.4],[-107.0,-44.5],[-105.0,-45.0],[-104.28571428571428,-44.71428571428571],[-103.0,-45.0],[-102.71428571428571,-45.71428571428571],[-102.36363636363636,-45.63636363636364],[-100.9090909090909,-45.90909090909091],[-100.0,-46.75],[-98.9090909090909,-46.909090909090914],[-97.75,-47.75],[-96.75,-48.0],[-96.0,-48.75],[-94.92,-48.92],[-94.5,-49.5],[-93.33333333333334,-50.0],[-93.2,-51.00000000000001],[-93.0,-51.25],[-92.66666666666667,-51.333333333333336],[-92.0,-51.0],[-92.0,-52.0],[-91.4,-51.6],[-90.78947368421052,-51.78947368421053],[-90.42857142857144,-52.42857142857143],[-89.875,-52.875],[-89.5,-53.5],[-88.875,-53.875],[-88.375,-54.375],[-87.25,-55.0],[-86.26666666666667,-56.266666666666666],[-85.68421052631578,-56.68421052631579],[-85.5,-57.0],[-85.5,-58.0],[-85.75,-58.25],[-86.0,-59.0],[-85.84615384615385,-59.846153846153854],[-85.875,-62.0],[-86.41666666666667,-62.583333333333336],[-86.55555555555556,-63.0],[-86.75,-64.0],[-86.625,-65.0],[-87.0,-67.0],[-87.33333333333334,-67.66666666666667],[-87.78947368421052,-69.21052631578947],[-89.0,-71.0],[-89.55555555555556,-71.44444444444444],[-90.0,-72.33333333333334],[-90.44444444444444,-72.55555555555556],[-90.66666666666667,-73.0],[-91.4,-73.60000000000001],[-91.63636363636364,-74.36363636363636],[-92.0,-75.0],[-93.4,-75.60000000000001],[-94.0,-76.0],[-95.0,-76.0],[-95.0,-75.0],[-95.5,-74.5],[-95.5,-74.0],[-95.75,-73.75],[-96.28571428571428,-73.71428571428571],[-96.66666666666667,-74.33333333333334],[-97.0,-74.33333333333333],[-99.00000000000001,-73.66666666666667],[-99.22222222222223,-73.77777777777777],[-99.55555555555556,-74.44444444444443],[-100.44444444444444,-74.55555555555554],[-101.0,-75.0],[-101.5,-74.5],[-102.0,-74.33333333333333],[-102.5,-74.5],[-103.0,-75.0],[-103.60000000000001,-74.6],[-104.0,-74.5],[-104.4,-74.6],[-105.0,-75.0],[-106.0,-75.0],[-106.4,-75.60000000000001],[-106.5,-76.5],[-107.0,-77.0],[-108.0,-77.0],[-108.0,-76.0],[-113.0,-76.0],[-113.0,-75.0],[-114.0,-75.0],[-115.0,-76.0],[-119.0,-76.0],[-120.0,-77.0],[-121.0,-77.0],[-121.0,-78.0],[-122.0,-78.0],[-122.4,-78.60000000000001],[-122.5,-80.0],[-122.66666666666667,-80.33333333333334],[-123.0,-80.5],[-123.5,-80.5],[-124.0,-80.0],[-124.0,-82.0],[-123.0,-83.0],[-120.0,-83.0],[-119.4,-83.4],[-119.0,-83.5],[-118.60000000000001,-83.4],[-118.0,-83.0],[-117.4,-83.4],[-117.0,-83.5],[-116.0,-83.0],[-114.0,-83.0],[-112.66666666666669,-83.66666666666667],[-112.28571428571428,-84.28571428571428],[-112.0,-84.5],[-111.00000000000001,-84.33333333333334],[-109.0,-84.66666666666667],[-108.00000000000001,-84.33333333333334],[-107.6,-84.4],[-107.0,-84.0],[-107.0,-85.0],[-106.0,-85.0],[-105.5,-85.5],[-105.0,-85.66666666666666],[-102.28571428571428,-85.71428571428571],[-101.5,-85.5],[-101.0,-85.0],[-100.28571428571428,-85.28571428571428],[-99.83333333333333,-85.16666666666667],[-99.30769230769232,-84.6923076923077],[-98.0,-84.0],[-97.0,-83.0],[-96.0,-82.5],[-95.0,-82.5],[-94.33333333333334,-81.66666666666667],[-93.6,-81.4],[-93.0,-81.0],[-92.33333333333334,-81.33333333333334],[-91.0,-81.5],[-90.55555555555556,-81.44444444444444],[-90.0,-81.0],[-89.4,-81.4],[-89.0,-81.5],[-88.0,-81.5],[-87.66666666666667,-81.66666666666667],[-87.4,-81.60000000000001],[-84.0,-82.20000000000002],[-82.66666666666667,-82.66666666666667],[-81.8,-82.8],[-81.0,-83.16666666666667],[-80.0,-82.9],[-79.44444444444443,-83.44444444444443],[-79.0,-83.57142857142858],[-76.68,-83.67999999999999],[-74.0,-84.28571428571428],[-73.0,-84.16666666666667],[-72.0,-84.33333333333334],[-71.0,-84.0],[-69.0,-83.875],[-66.0,-83.77777777777777],[-65.0,-84.0],[-64.0,-84.0],[-63.0,-83.75],[-62.0,-83.77777777777777],[-61.333333333333336,-84.0],[-61.0,-84.33333333333334],[-59.0,-84.6],[-58.00000000000001,-85.2],[-55.42857142857143,-85.42857142857143],[-54.0,-85.2],[-53.0,-85.4],[-52.0,-84.875],[-50.0,-85.0],[-49.0,-85.33333333333334],[-47.833333333333336,-85.16666666666667],[-46.0,-85.33333333333334],[-44.0,-85.36363636363637],[-43.0,-85.22222222222223],[-40.0,-85.27272727272728],[-39.0,-85.4],[-35.86666666666667,-85.13333333333333],[-33.0,-85.11111111111111],[-32.0,-85.0],[-31.0,-84.66666666666667],[-30.5,-85.0],[-30.0,-85.125],[-29.66666666666667,-85.0],[-29.0,-84.0],[-28.400000000000002,-84.4],[-28.0,-85.0],[-27.0,-85.0],[-26.400000000000002,-84.60000000000001],[-26.0,-84.5],[-25.0,-84.5],[-24.0,-85.0],[-21.0,-85.0],[-20.400000000000002,-85.4],[-19.0,-85.66666666666666],[-18.0,-85.4],[-17.0,-85.5],[-16.1,-86.1],[-14.875,-86.125],[-14.0,-86.0],[-13.0,-86.33333333333334],[-8.0,-86.55555555555556],[-7.0,-86.75],[-2.0,-86.66666666666667],[0.8571428571428572,-86.85714285714286],[2.0,-86.75],[3.0,-87.0],[5.0,-86.85714285714286],[6.0,-87.0],[10.0,-87.0],[15.0,-86.7],[18.0,-86.88888888888889],[29.11764705882353,-86.88235294117648],[30.0,-87.0],[30.5,-87.5],[30.5,-89.0],[31.0,-90.0],[-180.0,-90.0],[-180.0,4.2],[-177.85714285714286,2.0],[-177.57142857142856,1.0],[-176.9047619047619,0.09523809523809523],[-176.33333333333334,-1.0],[-176.0,-2.0]],[[-87.8,-57.199999999999996],[-87.81818181818181,-56.81818181818182],[-88.0,-56.66666666666667],[-88.19999999999999,-56.8],[-88.14285714285714,-57.14285714285714],[-88.0,-57.25],[-87.8,-57.199999999999996]],[[23.400000000000002,-87.6],[23.0,-87.5],[22.6,-87.6],[22.0,-88.0],[22.71428571428571,-88.28571428571428],[23.285714285714285,-88.28571428571428],[24.0,-88.0],[23.400000000000002,-87.6]],[[27.0,-87.5],[26.6,-87.6],[26.0,-88.0],[29.166666666666664,-88.16666666666667],[29.5,-88.0],[29.400000000000002,-87.6],[29.0,-87.5],[27.0,-87.5]]],[[[14.142857142857144,-23.0],[15.555555555555554,-24.444444444444443],[16.0,-24.75],[16.5625,-25.4375],[17.299999999999997,-26.0],[17.517241379310345,-26.48275862068966],[18.42857142857143,-27.571428571428573],[18.77777777777778,-28.22222222222222],[19.6,-29.0],[20.0,-29.799999999999997],[20.240000000000002,-30.759999999999998],[20.428571428571427,-31.0],[20.714285714285715,-33.0],[21.333333333333336,-34.0],[21.166666666666664,-35.0],[20.16,-35.16],[19.0,-35.57142857142857],[18.4,-36.0],[18.0,-37.0],[18.0,-38.0],[18.166666666666664,-39.0],[18.0,-40.0],[17.555555555555557,-40.55555555555556],[15.789473684210527,-41.78947368421053],[15.352941176470587,-42.35294117647059],[15.0,-42.6],[14.142857142857142,-43.14285714285714],[12.73913043478261,-43.73913043478261],[12.3,-44.3],[10.75,-44.75],[10.363636363636363,-45.36363636363637],[9.727272727272727,-45.72727272727273],[9.3,-46.3],[8.0,-46.66666666666667],[4.866666666666667,-46.86666666666666],[4.0,-47.2],[2.8181818181818183,-46.81818181818182],[1.8181818181818181,-46.81818181818182],[1.0,-47.0],[0.0,-46.57142857142857],[-0.8,-46.00000000000001],[-2.375,-44.375],[-2.714285714285714,-42.71428571428571],[-3.2666666666666666,-42.266666666666666],[-3.4,-42.0],[-3.25,-41.75],[-2.6521739130434785,-41.34782608695652],[-2.3478260869565215,-40.652173913043484],[-2.0,-40.42857142857142],[-1.0,-40.333333333333336],[-0.3529411764705882,-39.647058823529406],[0.0,-39.5],[1.0,-39.42857142857143],[1.2999999999999998,-39.3],[2.0,-38.6],[4.125,-38.125],[5.375,-37.375],[6.5,-36.5],[8.0,-35.0],[8.5,-34.0],[8.846153846153847,-33.84615384615385],[9.222222222222221,-33.77777777777778],[10.0,-34.0],[11.0,-33.5],[12.0,-34.0],[13.0,-34.0],[13.4,-33.4],[13.5,-33.0],[15.0,-32.0],[15.5,-31.0],[14.833333333333334,-30.833333333333332],[14.5,-31.0],[14.333333333333334,-31.333333333333336],[13.714285714285714,-31.285714285714285],[13.0,-31.0],[11.0,-31.0],[10.333333333333334,-31.333333333333336],[8.0,-31.4],[7.333333333333334,-31.0],[7.222222222222222,-30.77777777777778],[6.75,-30.75],[5.0,-31.333333333333332],[4.0,-31.333333333333332],[3.3333333333333335,-32.0],[3.0,-32.166666666666664],[1.2000000000000002,-32.2],[0.0,-32.5],[-2.0,-32.4],[-4.0,-32.0],[-4.6,-31.0],[-4.75,-30.0],[-4.636363636363637,-28.636363636363633],[-5.0,-28.0],[-4.6,-27.4],[-4.5,-27.0],[-3.7142857142857144,-26.285714285714285],[-3.3809523809523805,-25.619047619047617],[-2.3333333333333335,-24.666666666666668],[-1.4166666666666667,-23.583333333333336],[-1.0,-22.666666666666664],[1.0,-22.0],[2.0,-21.42857142857143],[3.0,-21.285714285714285],[4.0,-20.692307692307693],[6.199999999999999,-20.200000000000003],[8.0,-19.555555555555557],[8.380952380952381,-19.619047619047617],[9.0,-20.0],[10.444444444444443,-20.555555555555554],[11.0,-21.0],[12.333333333333334,-21.666666666666668],[12.81818181818182,-22.18181818181818],[14.142857142857144,-23.0]]],[[[-140.5,-25.5],[-140.5,-25.0],[-140.0,-24.799999999999997],[-139.66666666666666,-25.0],[-140.0,-25.5],[-140.5,-25.5]]],[[[-141.46153846153845,-18.53846153846154],[-142.0,-19.133333333333333],[-142.69230769230768,-19.307692307692307],[-143.0,-19.57142857142857],[-144.14285714285714,-19.142857142857142],[-144.71428571428572,-18.714285714285715],[-144.94594594594594,-17.945945945945944],[-145.1,-16.1],[-145.0,-15.857142857142858],[-144.0,-15.307692307692308],[-142.57575757575756,-15.575757575757576],[-142.0,-16.0],[-141.0952380952381,-17.095238095238095],[-141.14285714285714,-18.0],[-141.46153846153845,-18.53846153846154]]],[[[-71.77777777777777,-15.222222222222221],[-72.14285714285714,-15.142857142857142],[-72.5,-15.0],[-72.125,-14.875],[-71.5,-15.0],[-71.77777777777777,-15.222222222222221]]],[[[-49.647058823529406,2.3529411764705883],[-48.913043478260875,2.0869565217391304],[-48.48,1.52],[-47.833333333333336,1.1666666666666665],[-47.5,0.5],[-46.583333333333336,-0.5833333333333334],[-46.26086956521739,-1.2608695652173911],[-45.733333333333334,-1.7333333333333334],[-45.166666666666664,-3.0],[-44.6,-5.0],[-44.55555555555556,-8.0],[-44.83333333333333,-10.0],[-44.81818181818182,-11.0],[-45.42857142857142,-12.0],[-45.8,-15.2],[-46.5,-16.0],[-47.0,-18.0],[-47.66666666666667,-19.0],[-47.4,-19.400000000000002],[-46.66666666666667,-20.0],[-46.44444444444444,-20.444444444444443],[-46.0,-20.666666666666668],[-44.0,-20.0],[-43.0,-19.0],[-42.25,-18.75],[-41.75,-18.25],[-41.0,-18.0],[-40.421052631578945,-17.57894736842105],[-38.71428571428571,-17.285714285714285],[-38.0,-17.0],[-37.44444444444444,-16.555555555555554],[-37.13793103448276,-15.862068965517242],[-36.42857142857143,-15.571428571428573],[-36.0,-15.0],[-34.565217391304344,-14.43478260869565],[-34.19047619047619,-13.80952380952381],[-34.0,-13.714285714285714],[-33.0,-13.555555555555557],[-32.69230769230769,-13.692307692307693],[-32.41666666666667,-14.416666666666668],[-31.80952380952381,-14.80952380952381],[-31.476190476190474,-15.476190476190474],[-30.88235294117647,-15.882352941176471],[-31.0,-17.0],[-30.764705882352942,-17.764705882352942],[-30.666666666666664,-19.0],[-31.0,-19.75],[-31.166666666666664,-19.833333333333332],[-31.53846153846154,-20.461538461538463],[-31.77777777777778,-21.22222222222222],[-32.34782608695652,-21.652173913043477],[-32.625,-23.0],[-33.5,-24.0],[-35.48275862068965,-25.51724137931035],[-36.0,-26.2],[-36.69230769230769,-26.30769230769231],[-37.333333333333336,-27.000000000000004],[-38.55555555555556,-27.444444444444443],[-39.0,-28.0],[-39.73913043478261,-28.26086956521739],[-40.25806451612903,-28.741935483870968],[-41.0,-29.090909090909093],[-41.88235294117647,-29.11764705882353],[-42.6,-29.400000000000002],[-43.0,-30.0],[-44.71428571428571,-30.285714285714285],[-45.4,-30.6],[-45.75,-31.0],[-46.0,-31.1],[-47.315789473684205,-31.315789473684212],[-47.733333333333334,-31.266666666666666],[-49.0,-31.75],[-50.833333333333336,-32.166666666666664],[-56.0,-32.5],[-56.400000000000006,-32.6],[-57.0,-33.0],[-58.0,-33.18181818181818],[-60.0,-33.111111111111114],[-63.0,-33.22222222222222],[-63.72727272727272,-32.72727272727273],[-64.16666666666667,-32.166666666666664],[-64.11111111111111,-31.88888888888889],[-63.0,-31.166666666666668],[-61.33333333333334,-30.666666666666668],[-60.75,-30.25],[-58.44444444444444,-29.555555555555554],[-58.0,-29.0],[-53.0,-28.81818181818182],[-51.0,-28.545454545454547],[-49.83333333333333,-28.166666666666664],[-48.0,-28.0],[-49.36363636363636,-27.363636363636363],[-51.0,-26.375],[-52.0,-26.0],[-52.53333333333333,-25.533333333333335],[-54.06666666666667,-25.066666666666666],[-54.51724137931034,-24.517241379310345],[-55.18181818181819,-24.181818181818183],[-55.58620689655172,-23.586206896551722],[-56.57142857142857,-23.0],[-56.68421052631579,-22.684210526315788],[-57.76470588235294,-21.764705882352942],[-59.19047619047619,-21.19047619047619],[-60.0,-20.5],[-61.095238095238095,-20.095238095238095],[-62.66666666666667,-18.666666666666668],[-63.38461538461538,-18.384615384615383],[-64.57142857142858,-17.571428571428573],[-67.0,-17.125],[-67.52380952380952,-16.523809523809522],[-68.0,-16.285714285714285],[-69.125,-16.125],[-70.17391304347825,-16.17391304347826],[-71.0,-16.0],[-70.5,-15.5],[-70.0,-15.333333333333336],[-69.0,-15.5],[-68.0,-15.333333333333336],[-67.5,-15.0],[-67.0,-14.857142857142858],[-66.0,-14.833333333333332],[-65.0,-15.0],[-64.0,-14.75],[-63.0,-14.666666666666668],[-62.0,-14.333333333333334],[-61.36363636363636,-13.636363636363637],[-60.733333333333334,-13.266666666666666],[-59.75,-11.0],[-59.5,-10.0],[-59.5,-9.0],[-59.66666666666667,-8.0],[-59.2,-7.0],[-59.0,-6.0],[-59.0,-5.0],[-58.0,-4.0],[-58.25,-3.25],[-58.25,-2.75],[-58.0,-2.0],[-58.0,4.0],[-56.0,5.0],[-54.83333333333333,4.166666666666667],[-54.0,4.0],[-52.0,3.1666666666666665],[-50.80952380952381,3.1904761904761907],[-49.647058823529406,2.3529411764705883]],[[-46.0,-26.66666666666667],[-46.5,-27.0],[-46.0,-27.25],[-45.0,-27.0],[-46.0,-26.66666666666667]]],[[[-150.60000000000002,-14.400000000000002],[-151.0,-14.666666666666668],[-152.0,-14.625],[-152.45454545454544,-14.454545454545455],[-153.43478260869566,-13.43478260869565],[-153.6923076923077,-12.692307692307693],[-153.75,-11.25],[-153.48,-10.52],[-153.0,-10.25],[-152.0,-10.454545454545453],[-151.08333333333334,-11.083333333333334],[-150.8095238095238,-11.80952380952381],[-150.05263157894737,-13.0],[-150.14814814814815,-13.851851851851851],[-150.60000000000002,-14.400000000000002]]],[[[-164.46153846153848,-5.461538461538463],[-164.66666666666669,-5.0],[-164.67441860465118,-4.325581395348838],[-164.45454545454544,-3.5454545454545454],[-164.0,-3.090909090909091],[-163.5744680851064,-3.574468085106383],[-162.94029850746267,-3.9402985074626864],[-162.03125,-5.0],[-162.05,-5.95],[-163.0,-7.0],[-164.0,-6.142857142857142],[-164.46153846153848,-5.461538461538463]]],[[[-168.625,-3.0],[-168.68421052631578,-3.31578947368421],[-169.0,-3.631578947368421],[-169.44444444444443,-3.444444444444444],[-169.70588235294116,-2.9999999999999996],[-169.36363636363637,-2.6363636363636367],[-169.0,-2.586206896551724],[-168.625,-3.0]]],[[[-173.66666666666669,4.666666666666667],[-173.33333333333334,4.666666666666667],[-173.4,4.4],[-173.25,4.0],[-174.0,3.571428571428571],[-174.28571428571428,3.7142857142857144],[-174.46153846153845,4.0],[-174.00000000000003,4.857142857142858],[-173.66666666666669,4.666666666666667]]],[[[-174.80869565217392,11.191304347826087],[-175.3125,12.0],[-175.61111111111114,13.0],[-175.44,13.440000000000001],[-175.0,13.846153846153847],[-174.0,13.785714285714285],[-173.41666666666669,13.583333333333332],[-172.32258064516128,12.67741935483871],[-172.0,12.0],[-171.88888888888889,11.0],[-173.0,10.526315789473685],[-174.80869565217392,11.191304347826087]]],[[[23.285714285714285,20.285714285714285],[25.0,19.5],[26.0,19.333333333333336],[28.0,18.555555555555557],[30.0,18.357142857142858],[31.105263157894736,18.105263157894736],[32.75,18.0],[33.61904761904762,17.619047619047617],[35.0,17.5],[35.315789473684205,17.31578947368421],[35.5,17.0],[34.208333333333336,16.791666666666668],[34.0,16.545454545454547],[33.61290322580645,16.387096774193548],[33.333333333333336,16.0],[32.22222222222222,15.777777777777779],[32.0,15.333333333333336],[30.41935483870968,14.580645161290324],[29.4375,13.5625],[29.090909090909093,12.909090909090908],[28.703703703703702,11.296296296296296],[27.857142857142858,10.000000000000002],[27.61904761904762,9.38095238095238],[27.5,9.0],[27.6,8.0],[26.714285714285715,6.285714285714285],[26.555555555555557,5.0],[26.140845070422536,4.859154929577465],[26.0,4.583333333333334],[25.642857142857142,4.642857142857142],[25.285714285714285,5.0],[25.333333333333336,8.0],[25.57142857142857,9.0],[25.166666666666668,10.0],[24.400000000000002,10.4],[23.666666666666668,11.0],[22.5,11.5],[22.0,12.0],[20.0,12.428571428571427],[17.714285714285715,12.714285714285714],[17.0,13.0],[15.375,12.625],[12.0,12.272727272727272],[10.0,11.666666666666668],[9.0,11.666666666666668],[8.0,11.428571428571427],[7.0,11.444444444444445],[6.0,11.0],[5.0,11.25],[2.0,11.125],[0.2857142857142857,11.285714285714285],[-1.2666666666666666,11.733333333333333],[-2.0,12.333333333333332],[-2.2222222222222223,13.0],[-2.0,14.1],[-1.3333333333333333,14.333333333333334],[0.0,15.8],[1.0,16.0],[2.0,16.0],[4.285714285714286,16.714285714285715],[5.15,16.85],[9.575757575757576,18.424242424242426],[11.0,19.1],[12.125,19.875],[13.600000000000001,20.400000000000002],[16.0,20.76923076923077],[18.0,20.692307692307693],[18.999999999999996,20.916666666666668],[22.434782608695652,20.434782608695652],[23.285714285714285,20.285714285714285]]],[[[-177.91304347826087,22.0],[-177.7058823529412,21.294117647058826],[-176.21818181818182,20.78181818181818],[-175.81578947368422,20.18421052631579],[-174.0,19.921787709497206],[-173.0119760479042,19.0],[-173.045197740113,18.045197740112993],[-174.89999999999998,17.9],[-176.66666666666669,18.0],[-177.0,18.07692307692308],[-177.42857142857144,18.571428571428573],[-178.0,18.913043478260867],[-178.25641025641025,19.743589743589745],[-178.9090909090909,20.0],[-179.24489795918367,20.755102040816325],[-179.57142857142856,21.0],[-179.65384615384613,21.346153846153847],[-180.0,21.75],[-180.0,25.021978021978022],[-179.78277153558054,24.217228464419478],[-179.29268292682926,24.0],[-179.28235294117647,23.71764705882353],[-179.0,23.4],[-178.8095238095238,22.80952380952381],[-178.7826086956522,22.217391304347828],[-177.91304347826087,22.0]]],[[[77.0,-70.5],[76.33333333333334,-70.0],[76.22222222222223,-69.77777777777777],[76.0,-69.75],[75.5,-69.0],[75.5,-68.0],[75.75,-67.75],[76.0,-67.66666666666666],[77.19999999999999,-67.8],[77.5,-68.0],[77.5,-69.0],[78.0,-70.0],[77.5,-70.5],[77.0,-70.5]]],[[[173.6470588235294,9.647058823529411],[174.25,9.25],[175.66666666666669,7.666666666666668],[176.43478260869566,7.434782608695651],[177.2,7.0],[178.57894736842104,5.578947368421053],[179.33333333333334,5.0],[179.57894736842104,4.578947368421052],[180.0,4.2],[180.0,-90.0],[35.5,-90.0],[36.0,-89.66666666666667],[37.0,-89.5],[37.15384615384615,-89.15384615384616],[38.0,-88.66666666666666],[38.30769230769231,-88.30769230769232],[39.6,-87.6],[42.84615384615385,-86.84615384615384],[43.5,-87.0],[44.0,-87.5],[45.0,-87.5],[45.285714285714285,-87.28571428571428],[45.333333333333336,-87.0],[45.77777777777778,-86.77777777777777],[46.28571428571428,-86.71428571428571],[47.0,-86.66666666666667],[49.0,-87.0],[50.0,-87.0],[50.76470588235294,-86.76470588235294],[52.0,-86.80000000000001],[52.55555555555555,-86.55555555555556],[53.0,-86.0],[53.78947368421052,-85.78947368421052],[55.88235294117647,-85.88235294117648],[58.0,-85.7],[70.0,-85.54545454545455],[71.37037037037037,-85.37037037037037],[72.0,-85.0],[74.0,-84.5],[74.85714285714286,-83.85714285714286],[75.66666666666667,-83.66666666666667],[76.0,-83.0],[77.42857142857143,-82.42857142857143],[78.0,-81.80000000000001],[79.0,-81.42857142857142],[79.4,-81.4],[80.60000000000001,-80.60000000000001],[80.75,-80.0],[80.53846153846153,-78.46153846153847],[80.28571428571428,-77.71428571428571],[79.85714285714286,-77.0],[79.4,-74.6],[79.0,-74.0],[79.0,-71.0],[80.0,-71.0],[82.0,-70.0],[83.0,-70.0],[82.6,-69.4],[82.66666666666667,-68.66666666666667],[83.0,-68.0],[82.4,-67.6],[82.0,-67.5],[81.83333333333334,-67.16666666666667],[81.75,-66.0],[81.5,-65.5],[81.0,-65.0],[80.5,-62.0],[81.0,-60.0],[81.60000000000001,-60.400000000000006],[82.0,-60.5],[82.33333333333334,-60.333333333333336],[82.28571428571428,-59.71428571428571],[82.0,-59.0],[82.19999999999999,-58.2],[82.0,-57.0],[82.75,-55.75],[84.0,-55.400000000000006],[85.0,-55.6],[86.0,-55.285714285714285],[87.6923076923077,-55.30769230769231],[89.0,-55.16666666666667],[90.0,-55.44444444444444],[93.0,-55.666666666666664],[94.0,-56.0],[95.0,-55.888888888888886],[96.18181818181819,-56.18181818181818],[97.81818181818181,-56.18181818181818],[100.0,-55.888888888888886],[101.0,-56.0],[102.21052631578948,-55.78947368421052],[103.0909090909091,-55.90909090909091],[103.57142857142858,-56.42857142857143],[104.3076923076923,-56.69230769230769],[105.0,-56.83333333333333],[106.0,-56.83333333333333],[107.0,-57.33333333333334],[108.0,-57.5],[108.4,-57.4],[109.0,-57.0],[114.0,-56.599999999999994],[115.28571428571428,-56.285714285714285],[116.0,-55.9],[117.125,-55.875],[118.0,-56.0],[118.75,-55.75],[119.0,-55.5],[119.33333333333334,-55.66666666666667],[119.5,-56.5],[120.0,-57.0],[121.4,-56.400000000000006],[122.0,-56.0],[123.0,-55.0],[122.0,-54.0],[122.6,-53.60000000000001],[123.0,-53.0],[125.25,-52.25],[126.28571428571428,-51.285714285714285],[126.60000000000001,-50.60000000000001],[126.60000000000001,-50.0],[127.25,-49.25],[127.6,-48.60000000000001],[128.11111111111111,-48.111111111111114],[129.0,-46.0],[129.44444444444443,-45.44444444444444],[130.0,-44.0],[131.31578947368422,-43.315789473684205],[131.71428571428572,-42.71428571428571],[132.375,-42.375],[133.47619047619048,-41.47619047619047],[133.8,-40.8],[134.375,-40.375],[134.7,-39.7],[135.0,-39.4],[136.0,-39.0],[136.89473684210526,-37.89473684210526],[137.5,-37.5],[138.44444444444443,-36.44444444444444],[139.60000000000002,-35.6],[139.85714285714286,-34.857142857142854],[141.1818181818182,-34.18181818181818],[141.66666666666669,-33.66666666666667],[142.33333333333334,-33.333333333333336],[142.73913043478262,-32.73913043478261],[144.55555555555554,-32.55555555555555],[145.0,-32.0],[145.71428571428572,-31.714285714285715],[146.28571428571428,-31.714285714285715],[147.0,-32.0],[147.53846153846155,-31.53846153846154],[147.84615384615384,-30.846153846153847],[149.375,-30.375],[149.8181818181818,-29.81818181818182],[150.36363636363637,-29.63636363636364],[150.71428571428572,-29.714285714285715],[151.0,-29.0],[151.71428571428572,-29.285714285714285],[152.25,-29.25],[153.0,-29.0],[154.5,-29.5],[155.0,-30.0],[156.0,-29.0],[156.6,-29.400000000000002],[157.0,-29.5],[158.0,-29.0],[157.0,-28.0],[157.5,-27.5],[158.0,-27.5],[159.0,-27.0],[159.0,-25.0],[158.55555555555554,-24.444444444444443],[157.4,-23.6],[156.0,-23.0],[156.0,-21.0],[155.5,-20.5],[155.4,-20.0],[156.15384615384616,-17.153846153846153],[155.4,-14.0],[155.66666666666669,-13.0],[155.66666666666669,-12.0],[155.33333333333334,-11.0],[155.5,-10.0],[155.0,-9.5],[154.33333333333334,-8.0],[154.28571428571428,-6.7142857142857135],[153.75,-5.0],[154.0,-4.0],[153.66666666666666,-3.0],[153.83333333333334,-2.0],[153.66666666666666,-1.0],[153.66666666666666,1.0],[154.33333333333334,3.0],[154.79999999999998,5.0],[155.47058823529412,5.529411764705882],[157.33333333333334,8.666666666666668],[157.84615384615387,9.153846153846153],[158.0,10.0],[160.0,11.666666666666666],[160.25,11.75],[161.0,12.666666666666668],[162.0,13.0],[162.57142857142858,13.42857142857143],[164.0,14.0],[165.0,13.8],[165.86666666666667,14.133333333333333],[167.15384615384616,14.153846153846153],[167.71428571428572,14.285714285714285],[169.26666666666668,14.266666666666666],[170.10526315789474,14.105263157894736],[170.7142857142857,12.714285714285714],[171.55555555555554,11.555555555555555],[173.6470588235294,9.647058823529411]],[[124.60000000000001,-58.400000000000006],[125.0,-59.0],[125.60000000000001,-58.60000000000001],[126.0,-58.5],[126.5,-58.5],[127.0,-59.0],[128.0,-59.0],[128.66666666666669,-58.66666666666667],[129.0,-58.666666666666664],[129.25,-58.75],[129.66666666666669,-59.333333333333336],[130.0,-59.5],[131.0,-59.0],[132.0,-59.5],[133.4,-59.6],[134.0,-60.0],[134.5,-59.5],[135.33333333333334,-59.333333333333336],[136.0,-59.0],[135.0,-58.0],[136.0,-57.0],[135.0,-56.5],[133.66666666666669,-56.333333333333336],[133.0,-56.0],[132.0,-56.0],[131.4,-55.60000000000001],[131.0,-55.5],[130.0,-55.5],[129.28571428571428,-54.71428571428571],[128.60000000000002,-54.400000000000006],[128.5,-54.0],[128.0,-53.5],[127.6,-53.60000000000001],[127.5,-54.0],[127.6,-54.400000000000006],[128.0,-55.0],[127.4,-55.400000000000006],[127.0,-56.0],[126.0,-56.0],[126.0,-57.0],[125.0,-57.0],[124.60000000000001,-57.6],[124.5,-58.0],[124.60000000000001,-58.400000000000006]],[[143.25,-35.0],[143.1818181818182,-34.81818181818182],[143.0,-34.75],[142.66666666666669,-35.0],[142.8,-35.2],[143.0,-35.25],[143.25,-35.0]]],[[[156.0,-27.0],[155.4,-27.4],[155.0,-27.5],[154.66666666666669,-27.333333333333336],[154.5,-27.0],[154.66666666666669,-26.666666666666668],[155.0,-26.5],[156.0,-27.0]]],[[[49.76086956521739,-19.76086956521739],[49.0,-20.142857142857142],[48.0,-20.125],[48.0,-19.0],[48.17142857142858,-18.17142857142857],[49.16470588235295,-17.16470588235294],[50.04,-17.04],[50.87096774193548,-17.129032258064516],[51.0,-18.0],[50.71900826446281,-18.719008264462808],[50.0,-19.633333333333333],[49.76086956521739,-19.76086956521739]]],[[[56.01169590643275,-10.011695906432749],[56.81395348837209,-9.813953488372093],[57.0,-9.555555555555555],[58.0,-10.0],[57.9080459770115,-11.908045977011493],[56.1,-12.100000000000001],[56.0,-12.200000000000001],[55.38095238095238,-11.619047619047617],[55.3,-11.0],[56.01169590643275,-10.011695906432749]]],[[[61.8,-4.0],[62.0,-3.473684210526316],[62.285714285714285,-4.0],[62.0,-4.285714285714286],[61.8,-4.0]]],[[[127.28571428571428,9.285714285714285],[127.9090909090909,6.909090909090909],[128.43478260869566,6.434782608695652],[128.55555555555554,6.0],[128.55555555555554,4.0],[128.75,3.0],[128.875,1.0],[128.66666666666669,0.0],[128.8,-1.0],[128.77777777777777,-4.0],[128.625,-5.0],[128.75,-6.0],[128.66666666666669,-7.0],[128.5,-7.5],[127.91666666666667,-7.916666666666667],[127.69230769230771,-8.692307692307693],[127.0,-9.0],[126.84615384615384,-9.846153846153847],[126.0,-10.333333333333332],[125.77777777777777,-10.777777777777779],[125.0,-11.0],[124.6923076923077,-11.692307692307693],[123.99999999999999,-11.888888888888888],[123.53846153846153,-12.538461538461538],[122.71428571428572,-13.0],[121.66666666666669,-14.666666666666668],[121.5,-16.0],[121.34782608695653,-16.347826086956523],[120.73913043478261,-16.73913043478261],[120.42857142857143,-18.0],[120.28571428571428,-18.285714285714285],[120.0,-18.42857142857143],[119.7142857142857,-18.285714285714285],[119.57142857142858,-18.0],[119.33333333333334,-17.0],[119.5,-16.0],[119.39999999999999,-15.0],[119.5,-14.0],[119.65217391304347,-13.652173913043477],[120.17391304347825,-13.17391304347826],[120.85714285714286,-10.0],[122.0,-8.0],[121.75,-7.0],[122.25,-6.25],[122.5,-5.0],[122.30769230769232,-3.6923076923076925],[122.25,-1.0],[121.75,0.0],[121.46153846153847,1.4615384615384615],[121.20000000000002,5.0],[121.0,6.0],[120.57894736842105,6.578947368421051],[120.25,8.0],[120.16666666666666,11.000000000000002],[120.68421052631578,12.315789473684209],[121.25,12.75],[121.66666666666669,13.333333333333336],[122.0,13.5],[123.0,13.600000000000001],[124.13333333333333,13.133333333333333],[125.89473684210526,10.894736842105264],[126.41666666666667,10.416666666666666],[126.7037037037037,9.703703703703702],[127.28571428571428,9.285714285714285]]],[[[69.45669291338584,6.456692913385827],[69.78378378378378,6.0],[69.48739495798318,5.512605042016807],[69.0,5.194444444444445],[68.536,5.536],[68.25641025641026,6.0],[68.55725190839695,6.442748091603054],[69.0,6.674418604651162],[69.45669291338584,6.456692913385827]]],[[[70.0,14.533333333333333],[69.64102564102564,14.641025641025642],[69.22222222222221,15.0],[70.0,15.368421052631579],[70.25925925925927,15.0],[70.0,14.533333333333333]]],[[[153.4,17.6],[153.0,17.0],[152.83333333333331,18.0],[153.0,18.2],[153.2,18.2],[153.5,18.0],[153.4,17.6]]],[[[163.0,26.0],[164.0,26.0],[164.0,25.0],[164.4,24.400000000000002],[165.0,24.0],[164.0,23.0],[164.4,22.4],[164.5,22.0],[164.0,21.5],[163.0,21.5],[162.25,20.75],[161.6470588235294,20.352941176470587],[161.39999999999998,20.0],[161.1,18.9],[160.71428571428572,18.714285714285715],[160.28571428571428,18.714285714285715],[160.0,18.0],[159.25,18.25],[159.0,18.2],[158.75,18.0],[158.5,17.5],[157.5,17.0],[156.0,15.5],[155.66666666666669,15.333333333333334],[155.22222222222223,14.777777777777779],[155.0,14.0],[154.5,13.5],[154.0,12.0],[153.42857142857144,11.571428571428571],[153.1,10.9],[152.0,10.666666666666668],[151.73333333333335,10.733333333333334],[151.33333333333334,11.0],[151.5,14.0],[152.0,15.0],[153.0,14.5],[153.4,14.600000000000001],[154.0,15.0],[153.60000000000002,15.600000000000001],[153.5,16.0],[153.60000000000002,16.400000000000002],[154.28571428571428,16.714285714285715],[154.5,19.0],[155.0,20.0],[155.5,22.0],[155.44444444444446,22.444444444444443],[154.8181818181818,22.81818181818182],[154.83333333333334,23.0],[155.0,23.25],[155.33333333333334,23.333333333333336],[156.0,23.0],[156.0,24.0],[155.6470588235294,24.647058823529413],[155.7142857142857,25.285714285714285],[156.0,25.75],[156.1818181818182,25.81818181818182],[157.0,26.75],[157.66666666666669,26.666666666666668],[158.0,26.5],[160.0,26.8],[161.0,26.66666666666667],[162.0,26.75],[162.6,26.6],[163.0,26.0]]],[[[63.74647887323944,20.25352112676056],[64.15789473684211,20.0],[64.0,19.86764705882353],[62.869565217391305,20.0],[63.0,20.272727272727273],[63.74647887323944,20.25352112676056]]],[[[177.57142857142856,22.0],[177.33333333333334,22.333333333333336],[177.15384615384616,23.0],[179.1509433962264,24.849056603773583],[179.96396396396398,25.036036036036037],[180.0,21.75],[179.0,22.285714285714285],[178.23076923076923,21.769230769230766],[178.0,21.75],[177.57142857142856,22.0]]],[[[118.0,22.8],[117.0,23.0],[116.81818181818181,23.81818181818182],[116.84,24.16],[117.0,24.333333333333336],[118.0,24.666666666666668],[119.0,24.8],[119.44444444444443,24.444444444444443],[119.66666666666669,24.0],[119.4,23.6],[118.0,22.8]]],[[[165.4,23.400000000000002],[165.0,24.0],[166.0,25.0],[166.30769230769232,24.30769230769231],[166.66666666666669,24.0],[166.0,23.0],[165.4,23.400000000000002]]],[[[149.57142857142856,33.57142857142857],[150.33333333333334,33.0],[149.75,32.25],[149.75,32.0],[149.31578947368422,31.684210526315788],[147.55555555555554,31.444444444444443],[147.125,30.875],[145.8,30.200000000000003],[145.36363636363637,29.63636363636364],[145.0,29.428571428571423],[143.0,29.22222222222222],[140.0,29.666666666666668],[139.0,30.333333333333336],[137.0,30.666666666666664],[136.77777777777777,30.77777777777778],[136.36363636363637,31.363636363636363],[136.0,31.5],[135.0,31.57142857142857],[134.7,31.7],[134.26086956521738,32.26086956521739],[134.0,32.375],[131.83333333333334,32.833333333333336],[131.0,33.2],[130.52941176470588,33.529411764705884],[130.2,34.0],[130.6190476190476,34.38095238095238],[131.0,34.5],[133.0,34.66666666666667],[137.0,34.6],[138.0,34.38461538461539],[145.0,34.5625],[147.0,34.142857142857146],[149.5,34.0],[149.57142857142856,33.57142857142857]]]]}}]}