{"type":"FeatureCollection","features":[{"type":"Feature","properties":{"ageMa":410},"geometry":{"type":"MultiPolygon","coordinates":[[[[-50.84615384615385,-54.84615384615384],[-48.63636363636363,-55.0],[-48.36842105263159,-55.36842105263158],[-48.0,-55.53846153846154],[-47.79661016949153,-55.79661016949152],[-46.42857142857143,-56.0],[-46.0,-56.42857142857143],[-45.80952380952381,-56.80952380952381],[-43.909090909090914,-57.0],[-43.69230769230769,-57.69230769230769],[-43.30769230769231,-57.69230769230769],[-42.92592592592593,-57.925925925925924],[-41.0,-58.0],[-40.833333333333336,-58.83333333333333],[-39.0,-59.0],[-36.0,-59.0],[-36.0,-60.0],[-35.5,-59.5],[-35.0,-59.5],[-34.75,-59.75],[-34.25,-59.75],[-33.5,-60.0],[-33.333333333333336,-60.333333333333336],[-32.5,-61.0],[-31.846153846153847,-61.153846153846146],[-31.0,-61.0],[-30.0,-61.57142857142857],[-28.999999999999996,-61.42857142857142],[-28.0,-61.0],[-25.0,-60.5],[-24.0,-60.42857142857143],[-22.0,-60.57142857142857],[-21.0,-60.44444444444444],[-20.741935483870968,-60.25806451612903],[-20.0,-60.0625],[-19.0,-60.0],[-17.799999999999997,-60.2],[-17.0,-60.0],[-16.400000000000002,-60.400000000000006],[-16.0,-60.5],[-14.666666666666668,-60.333333333333336],[-12.0,-60.33333333333334],[-11.0,-60.5],[-10.666666666666668,-60.66666666666667],[-10.285714285714285,-61.28571428571428],[-10.0,-61.5],[-9.5,-61.5],[-9.0,-62.0],[-10.0,-62.5],[-11.0,-62.66666666666667],[-11.636363636363637,-63.36363636363636],[-12.0,-63.5],[-13.0,-63.5],[-14.200000000000001,-63.8],[-15.0,-64.0],[-15.600000000000001,-64.4],[-16.333333333333336,-64.66666666666667],[-18.0,-65.0],[-18.571428571428573,-65.42857142857143],[-21.0,-66.5],[-21.846153846153847,-67.15384615384616],[-24.0,-67.66666666666667],[-25.0,-68.4],[-27.210526315789473,-68.78947368421052],[-28.461538461538463,-69.53846153846155],[-30.0,-69.83333333333334],[-31.0,-70.5],[-33.0,-71.0],[-34.0,-71.66666666666667],[-35.0,-72.0],[-37.0,-72.0],[-37.53846153846155,-72.46153846153845],[-38.285714285714285,-72.71428571428571],[-38.77777777777778,-73.22222222222223],[-40.0,-74.0],[-42.0,-74.0],[-43.0,-75.0],[-46.0,-75.0],[-46.0,-74.0],[-48.0,-74.0],[-48.0,-73.0],[-47.6,-72.4],[-47.5,-72.0],[-48.0,-71.66666666666667],[-49.400000000000006,-71.4],[-50.0,-71.0],[-51.0,-71.0],[-52.0,-70.66666666666667],[-53.0,-70.66666666666667],[-54.0,-70.33333333333333],[-55.28571428571428,-70.28571428571428],[-56.66666666666667,-69.66666666666667],[-58.44444444444444,-69.44444444444444],[-59.0,-69.0],[-60.0,-69.0],[-61.66666666666667,-68.66666666666667],[-62.4,-68.4],[-63.0,-68.0],[-64.0,-67.0],[-64.6,-66.60000000000001],[-65.0,-66.0],[-65.0,-65.0],[-64.3076923076923,-61.69230769230769],[-62.55555555555555,-59.44444444444444],[-61.46153846153847,-58.53846153846154],[-60.5,-58.0],[-60.0,-57.5],[-59.46153846153847,-56.53846153846154],[-58.57142857142858,-55.42857142857143],[-57.0,-54.0],[-55.0,-53.4],[-54.68421052631579,-53.684210526315795],[-54.315789473684205,-53.684210526315795],[-53.88461538461539,-53.88461538461539],[-52.25,-54.0],[-51.625,-54.625],[-50.84615384615385,-54.84615384615384]]],[[[-106.60000000000001,-57.0],[-107.0,-57.333333333333336],[-108.0,-57.25],[-108.46153846153847,-57.53846153846154],[-109.0,-58.2],[-110.0,-58.0],[-110.51515151515152,-58.484848484848484],[-112.33333333333334,-59.0],[-113.99999999999999,-59.647058823529406],[-115.57142857142858,-59.57142857142858],[-116.5,-59.0],[-116.0,-58.833333333333336],[-114.93548387096774,-58.064516129032256],[-114.45,-57.55],[-113.72222222222223,-57.27777777777778],[-112.25,-57.0],[-110.99999999999999,-56.3],[-109.75,-56.25],[-109.0,-56.0],[-108.0,-56.5],[-107.0,-56.0],[-106.60000000000001,-57.0]]],[[[-97.16666666666667,-58.0],[-97.58333333333333,-58.416666666666664],[-98.0,-58.55555555555556],[-99.00000000000001,-58.66666666666667],[-100.0,-58.33333333333333],[-101.30769230769232,-58.30769230769231],[-102.78571428571428,-57.785714285714285],[-103.5,-57.0],[-103.0,-56.57142857142857],[-102.66666666666667,-56.0],[-102.0,-55.6],[-99.8076923076923,-55.19230769230769],[-95.88888888888889,-54.888888888888886],[-94.0,-55.0],[-94.0,-56.0],[-95.44444444444444,-57.55555555555555],[-96.14285714285714,-57.85714285714286],[-97.16666666666667,-58.0]]],[[[-123.0,-51.0],[-123.25,-52.0],[-124.125,-52.875],[-124.81818181818181,-53.18181818181819],[-126.0,-53.25],[-127.0,-53.5],[-128.0,-54.142857142857146],[-129.0,-54.285714285714285],[-131.0,-54.0],[-132.0,-54.0],[-133.0,-53.75],[-134.11764705882354,-53.11764705882353],[-135.13333333333333,-52.13333333333334],[-135.2,-51.8],[-134.75,-50.0],[-134.5,-49.5],[-133.88235294117646,-49.11764705882353],[-133.60000000000002,-48.400000000000006],[-132.84615384615387,-48.153846153846146],[-132.36363636363637,-47.63636363636364],[-131.6,-47.4],[-131.13333333333333,-46.86666666666666],[-130.0,-47.0],[-129.44444444444443,-47.44444444444444],[-127.0,-47.625],[-125.83333333333334,-47.833333333333336],[-124.52941176470588,-48.529411764705884],[-123.29999999999998,-50.0],[-123.0,-51.0]]],[[[-136.25,-43.0],[-136.4,-43.60000000000001],[-137.0,-44.0],[-138.0,-44.0],[-138.33333333333334,-44.66666666666667],[-140.0,-45.0],[-140.60000000000002,-44.6],[-141.0,-44.5],[-143.0,-44.42857142857143],[-143.3157894736842,-44.315789473684205],[-144.0,-43.5],[-144.66666666666669,-43.0],[-144.71428571428572,-42.71428571428571],[-145.0,-42.5],[-145.16666666666666,-42.16666666666667],[-145.2,-41.0],[-145.0,-40.875],[-144.2,-40.8],[-144.0,-40.5],[-143.0,-40.400000000000006],[-142.0,-40.0],[-139.90243902439025,-39.90243902439024],[-138.0,-40.07692307692308],[-135.88888888888889,-41.0],[-135.5,-42.0],[-135.60000000000002,-42.4],[-136.25,-43.0]]],[[[161.46153846153848,2.4615384615384617],[162.44444444444443,1.4444444444444444],[164.16666666666669,0.16666666666666669],[164.6,-0.4],[165.5,-1.0],[166.40000000000003,-2.6],[167.0,-3.0],[167.5,-5.0],[167.44444444444443,-6.444444444444445],[167.0,-7.0],[167.5,-7.5],[167.66666666666669,-8.0],[167.66666666666669,-9.333333333333334],[168.0,-9.5],[168.2,-9.8],[168.0,-11.0],[168.5,-12.0],[169.5,-13.0],[169.83333333333334,-14.166666666666666],[170.5,-15.5],[170.83333333333334,-17.0],[170.83333333333334,-18.166666666666668],[171.22222222222223,-18.77777777777778],[171.25,-20.0],[171.83333333333331,-22.166666666666668],[172.6,-23.400000000000002],[173.0,-25.0],[173.5,-25.5],[173.75,-26.0],[173.84615384615384,-27.153846153846153],[174.36363636363637,-27.636363636363637],[174.71428571428572,-28.285714285714285],[175.33333333333334,-28.66666666666667],[175.69230769230768,-29.307692307692307],[177.66666666666669,-30.333333333333336],[178.0,-31.0],[179.0,-31.0],[179.5,-33.0],[179.63636363636365,-33.36363636363636],[180.0,-33.66666666666667],[180.0,-90.0],[-180.0,-90.0],[-180.0,-33.666666666666664],[-179.88888888888889,-34.0],[-179.79999999999998,-36.0],[-179.77777777777777,-39.77777777777777],[-179.63636363636365,-40.36363636363637],[-179.71428571428572,-40.71428571428571],[-179.0,-41.0],[-178.66666666666669,-41.66666666666667],[-178.0,-42.0],[-178.0,-44.0],[-177.0,-44.0],[-176.25,-44.25],[-176.0,-44.5],[-174.0,-44.5],[-173.66666666666669,-45.0],[-173.5,-46.0],[-173.5,-47.0],[-173.4,-47.4],[-173.0,-48.0],[-173.0,-50.0],[-173.25,-50.75],[-173.5,-51.0],[-173.33333333333334,-52.0],[-173.4,-52.4],[-173.0,-53.0],[-173.0,-54.0],[-172.5,-53.5],[-172.0,-53.5],[-170.28571428571428,-54.285714285714285],[-169.0,-54.5],[-166.0,-54.66666666666667],[-165.0,-55.0],[-164.0,-55.0],[-163.0,-54.66666666666667],[-162.0,-55.0],[-160.0,-55.0],[-159.5,-55.5],[-158.125,-56.125],[-157.0,-56.2],[-155.0,-57.0],[-153.0,-57.166666666666664],[-152.0,-57.42857142857142],[-146.6,-57.6],[-144.83333333333331,-57.83333333333333],[-144.0,-58.142857142857146],[-142.0,-58.16666666666667],[-141.0,-58.333333333333336],[-140.0,-58.666666666666664],[-139.0,-58.5],[-138.0,-58.75],[-136.75,-58.75],[-136.0,-59.0],[-127.0,-59.0],[-127.0,-60.0],[-126.5,-59.5],[-123.0,-59.66666666666667],[-122.0,-60.0],[-121.0,-61.0],[-121.0,-62.0],[-120.0,-62.0],[-119.4,-62.4],[-118.60000000000001,-62.6],[-115.0,-62.75],[-114.0,-63.0],[-113.0,-63.0],[-112.0,-62.66666666666667],[-111.0,-63.0],[-109.0,-63.0],[-108.25,-63.25],[-107.0,-63.33333333333334],[-105.0,-64.0],[-101.0,-64.0],[-100.4,-64.4],[-99.0,-65.0],[-98.0,-65.0],[-97.4,-65.4],[-97.0,-65.5],[-96.0,-65.33333333333334],[-95.0,-65.5],[-94.33333333333334,-66.33333333333334],[-93.0,-67.0],[-92.66666666666667,-68.0],[-92.0,-68.5],[-90.84615384615384,-68.84615384615384],[-90.0,-71.0],[-90.0,-72.0],[-89.66666666666667,-73.0],[-90.0,-74.0],[-90.5,-74.5],[-90.77777777777777,-75.22222222222223],[-91.33333333333334,-75.66666666666667],[-91.71428571428571,-76.28571428571428],[-92.33333333333334,-76.66666666666667],[-92.5,-77.0],[-92.4,-77.4],[-92.0,-78.0],[-92.0,-79.0],[-93.0,-80.0],[-90.0,-81.0],[-89.0,-80.8],[-87.0,-80.8],[-85.0,-80.5],[-84.0,-80.5],[-83.33333333333334,-81.33333333333334],[-81.4,-82.4],[-80.60000000000001,-82.6],[-79.0,-82.66666666666666],[-77.0,-83.0],[-77.0,-84.0],[-80.0,-84.0],[-80.0,-85.0],[-81.0,-85.0],[-81.0,-86.0],[-80.28571428571428,-86.28571428571428],[-79.71428571428571,-86.28571428571428],[-79.0,-86.0],[-67.0,-86.0],[-67.0,-85.0],[-65.0,-85.0],[-65.0,-86.0],[-64.5,-85.5],[-63.5,-85.5],[-63.0,-86.0],[-62.0,-86.0],[-61.5,-85.5],[-60.5,-85.5],[-60.0,-86.0],[-59.0,-86.0],[-58.0,-85.0],[-57.4,-85.4],[-57.0,-85.5],[-56.6,-85.4],[-56.0,-85.0],[-50.0,-85.0],[-49.400000000000006,-85.4],[-49.0,-85.5],[-47.0,-85.5],[-46.6,-85.4],[-46.0,-85.0],[-44.0,-85.0],[-43.400000000000006,-85.4],[-43.0,-85.5],[-42.6,-85.4],[-42.0,-85.0],[-39.0,-85.0],[-39.0,-84.0],[-38.0,-84.0],[-38.0,-83.0],[-37.0,-83.0],[-36.400000000000006,-82.6],[-35.6,-82.4],[-35.0,-82.0],[-34.0,-82.0],[-33.0,-81.0],[-31.0,-81.0],[-30.5,-80.5],[-29.6,-80.4],[-29.0,-80.0],[-29.75,-79.75],[-30.285714285714285,-79.71428571428571],[-31.0,-80.0],[-32.0,-80.0],[-32.0,-78.0],[-31.0,-78.0],[-30.400000000000002,-77.6],[-30.0,-77.5],[-28.71428571428571,-77.71428571428571],[-27.285714285714285,-78.28571428571428],[-26.352941176470587,-78.35294117647058],[-24.0,-78.4],[-21.0,-78.25],[-18.0,-78.5],[-15.0,-78.5],[-14.600000000000001,-78.4],[-14.0,-78.0],[-14.600000000000001,-77.6],[-15.0,-77.5],[-17.0,-77.5],[-18.0,-77.0],[-17.0,-76.5],[-15.600000000000001,-76.4],[-15.0,-76.0],[-14.25,-75.75],[-14.0,-75.5],[-12.6,-75.4],[-12.0,-75.0],[-6.4,-74.6],[-5.6000000000000005,-74.4],[-5.0,-74.0],[-4.222222222222222,-73.77777777777777],[-2.4,-73.60000000000001],[-1.6,-73.4],[1.0,-72.0],[2.0,-72.0],[3.0,-71.66666666666667],[3.6000000000000005,-71.60000000000001],[4.4,-71.4],[5.0,-71.0],[6.666666666666667,-70.66666666666667],[7.0,-70.5],[10.0,-70.5],[11.0,-70.66666666666666],[12.0,-70.5],[13.0,-70.66666666666666],[13.5,-70.5],[14.400000000000002,-69.4],[14.5,-69.0],[14.400000000000002,-68.60000000000001],[14.0,-68.0],[14.600000000000001,-67.6],[15.0,-67.0],[16.0,-67.0],[16.6,-66.60000000000001],[17.0,-66.0],[18.0,-65.0],[19.0,-65.0],[20.0,-64.0],[20.6,-63.60000000000001],[21.0,-63.0],[21.333333333333336,-61.33333333333334],[21.733333333333334,-60.733333333333334],[23.25,-60.0],[23.64705882352941,-59.647058823529406],[24.0,-59.57142857142857],[26.0,-59.5],[27.0,-60.07692307692308],[27.904761904761905,-60.095238095238095],[29.5,-60.5],[33.0,-62.25],[34.25,-62.75],[35.0,-63.25],[37.71428571428571,-64.28571428571428],[38.0,-64.5],[39.0,-64.66666666666666],[40.0,-64.6],[42.0,-64.0],[42.5,-63.5],[42.66666666666667,-62.66666666666667],[43.400000000000006,-62.4],[43.5,-62.0],[44.0,-61.5],[45.285714285714285,-61.28571428571428],[46.0,-61.0],[46.55555555555555,-61.44444444444444],[47.25,-61.75],[49.0,-62.0],[50.0,-62.5],[52.0,-63.0],[53.0,-63.0],[54.0,-64.0],[55.0,-63.75],[56.0,-64.0],[58.60000000000001,-65.4],[59.0,-65.33333333333334],[59.77777777777778,-66.22222222222223],[61.22222222222223,-66.77777777777777],[61.66666666666667,-67.33333333333334],[63.60000000000001,-68.4],[64.0,-69.0],[64.6,-69.4],[66.33333333333334,-69.66666666666667],[67.0,-70.0],[74.0,-70.0],[74.0,-68.0],[73.60000000000001,-67.4],[73.66666666666667,-66.66666666666667],[74.0,-66.0],[74.0,-65.0],[73.5,-64.5],[73.5,-64.0],[73.33333333333334,-63.66666666666667],[72.66666666666667,-63.333333333333336],[72.33333333333334,-62.66666666666667],[71.66666666666667,-62.333333333333336],[71.4,-61.6],[71.0,-61.0],[70.0,-60.0],[70.0,-59.0],[71.0,-59.0],[71.66666666666667,-58.66666666666667],[73.0,-58.5],[73.22222222222223,-58.22222222222222],[73.33333333333334,-57.333333333333336],[73.5,-57.0],[73.5,-56.0],[74.0,-55.0],[75.0,-54.5],[75.4,-54.6],[76.0,-55.0],[76.84615384615384,-55.153846153846146],[77.5,-55.5],[77.75,-56.0],[78.0,-56.11111111111111],[80.0,-56.0],[80.60000000000001,-56.400000000000006],[81.0,-56.5],[81.4,-56.400000000000006],[82.0,-56.0],[82.4,-55.400000000000006],[82.6,-54.6],[83.0,-54.0],[84.0,-55.0],[85.0,-55.0],[85.0,-54.0],[86.0,-54.0],[86.0,-53.0],[88.0,-53.0],[89.0,-52.800000000000004],[92.33333333333334,-51.333333333333336],[95.18181818181819,-51.18181818181818],[95.5,-50.5],[96.22222222222223,-50.22222222222222],[96.33333333333333,-50.0],[96.6,-48.0],[96.75,-47.75],[97.42857142857144,-47.42857142857143],[97.85714285714286,-46.857142857142854],[99.0,-46.0],[101.0,-45.333333333333336],[102.0,-45.5],[103.28571428571428,-45.285714285714285],[104.0,-45.0],[106.0,-45.0],[106.66666666666669,-45.333333333333336],[110.33333333333334,-45.66666666666667],[111.60000000000001,-45.6],[112.4,-45.4],[113.0,-45.0],[114.0,-45.0],[114.5,-44.0],[114.63636363636364,-42.63636363636364],[115.0,-41.0],[116.0,-40.5],[117.4,-40.4],[118.0,-40.0],[120.0,-40.0],[120.0,-39.0],[123.0,-39.0],[123.77777777777777,-38.77777777777778],[125.71428571428571,-38.71428571428571],[127.0,-39.0],[128.0,-40.0],[130.0,-40.0],[131.0,-40.333333333333336],[132.6,-40.4],[134.0,-41.0],[135.0,-41.0],[136.0,-40.66666666666667],[139.33333333333334,-40.66666666666667],[140.0,-41.0],[140.60000000000002,-40.6],[143.0,-39.666666666666664],[145.0,-39.333333333333336],[146.0,-38.66666666666667],[146.33333333333334,-38.66666666666667],[147.0,-39.0],[147.6,-38.6],[149.0,-38.5],[149.60000000000002,-37.6],[150.16666666666669,-37.166666666666664],[151.0,-37.0],[151.0,-35.0],[152.0,-34.0],[152.5,-33.0],[152.33333333333334,-32.0],[152.33333333333334,-30.000000000000004],[151.55555555555554,-27.444444444444443],[151.0,-26.5],[150.28571428571428,-25.714285714285715],[150.0,-25.0],[149.46153846153845,-24.53846153846154],[148.73333333333335,-24.266666666666666],[148.33333333333334,-23.666666666666668],[146.86666666666667,-23.133333333333333],[146.5,-22.5],[146.0,-22.0],[145.46153846153848,-21.53846153846154],[144.5,-21.0],[143.8,-20.200000000000003],[143.66666666666669,-19.0],[143.33333333333334,-18.0],[143.5,-17.0],[143.33333333333334,-16.0],[143.5,-15.5],[144.0,-15.0],[143.60000000000002,-14.400000000000002],[143.84615384615384,-12.846153846153847],[146.0,-10.5],[147.0,-11.0],[148.0,-10.5],[148.5,-10.0],[149.0,-9.833333333333334],[150.0,-10.0],[151.25,-9.75],[151.8181818181818,-10.181818181818182],[152.25,-10.25],[153.0,-10.0],[154.0,-10.0],[154.0,-9.0],[152.0,-7.0],[151.0,-6.25],[150.0,-6.0],[149.0,-6.0],[148.5,-5.0],[148.28571428571428,-3.7142857142857144],[148.0,-3.0],[148.0,-2.0],[148.5,-1.0],[148.5,0.0],[149.66666666666669,2.0],[150.0,3.0],[150.0,4.0],[151.0,5.0],[153.71428571428572,5.7142857142857135],[157.0,5.5],[157.33333333333331,5.0],[157.71428571428572,4.7142857142857135],[158.42857142857144,4.428571428571429],[161.46153846153848,2.4615384615384617]],[[-23.0,-83.0],[-23.6,-82.6],[-24.0,-82.5],[-24.400000000000002,-82.6],[-25.0,-83.0],[-24.400000000000002,-83.4],[-24.0,-83.5],[-23.6,-83.4],[-23.0,-83.0]],[[-20.0,-82.0],[-20.0,-83.0],[-19.0,-83.0],[-19.0,-82.0],[-20.0,-82.0]],[[-16.0,-83.0],[-16.714285714285715,-82.71428571428571],[-17.333333333333336,-82.66666666666667],[-18.0,-83.0],[-17.4,-83.4],[-17.0,-83.5],[-16.6,-83.4],[-16.0,-83.0]],[[77.0,-68.0],[78.0,-68.0],[78.0,-67.0],[77.0,-66.0],[76.60000000000001,-66.60000000000001],[76.5,-67.0],[76.60000000000001,-67.4],[77.0,-68.0]],[[82.0,-70.0],[81.71428571428571,-70.71428571428571],[81.75,-71.25],[83.0,-71.5],[83.33333333333334,-71.33333333333334],[83.5,-71.0],[83.36363636363636,-70.63636363636364],[82.55555555555554,-70.44444444444444],[82.0,-70.0]]],[[[-151.0,-39.375],[-150.60000000000002,-39.6],[-150.16666666666666,-40.0],[-150.33333333333334,-41.0],[-150.57894736842104,-41.421052631578945],[-151.2,-41.8],[-152.0,-42.0],[-152.42857142857144,-42.57142857142857],[-153.16666666666669,-42.83333333333333],[-154.9047619047619,-42.904761904761905],[-155.60000000000002,-42.6],[-156.0,-42.0],[-156.33333333333334,-41.0],[-156.63636363636363,-40.63636363636364],[-157.0,-40.5],[-157.23529411764707,-40.23529411764706],[-157.28571428571428,-39.71428571428571],[-157.0,-39.0],[-155.86206896551724,-38.13793103448276],[-154.3404255319149,-38.340425531914896],[-153.28571428571428,-39.0],[-153.28571428571428,-39.28571428571428],[-153.0,-39.666666666666664],[-151.0,-39.375]]],[[[-167.4,-34.6],[-168.0,-34.75],[-168.5,-35.0],[-168.71428571428572,-35.285714285714285],[-169.0,-35.333333333333336],[-171.0,-35.4],[-172.0,-35.0],[-172.33333333333331,-34.0],[-172.6,-33.6],[-173.5,-33.0],[-173.66666666666669,-32.0],[-173.0,-31.0],[-172.48,-30.519999999999996],[-171.0,-30.230769230769226],[-169.66666666666669,-31.0],[-168.8095238095238,-31.80952380952381],[-166.79999999999998,-33.0],[-167.0,-34.0],[-167.4,-34.6]]],[[[-45.4,-28.400000000000002],[-45.0,-28.5],[-43.0,-28.5],[-42.6,-28.6],[-42.0,-29.0],[-43.0,-30.0],[-44.400000000000006,-30.6],[-47.0,-32.0],[-48.0,-33.0],[-49.0,-33.5],[-50.0,-33.66666666666667],[-50.60000000000001,-33.6],[-52.0,-33.333333333333336],[-53.0,-33.0],[-54.0,-33.0],[-54.6,-32.6],[-55.0,-32.5],[-55.5,-32.0],[-55.60000000000001,-31.6],[-56.0,-31.0],[-55.5,-30.5],[-55.2,-29.8],[-54.5,-29.5],[-53.5,-28.5],[-53.22222222222222,-27.77777777777778],[-52.5,-27.0],[-52.4,-26.6],[-52.0,-26.0],[-51.75,-24.25],[-51.333333333333336,-23.666666666666668],[-51.25,-23.0],[-51.0,-22.5],[-50.66666666666667,-22.333333333333336],[-50.0,-21.0],[-49.0,-21.0],[-48.77777777777778,-22.22222222222222],[-49.0,-23.0],[-49.0,-25.0],[-47.5,-26.5],[-47.0,-27.5],[-45.4,-28.400000000000002]]],[[[-178.45333333333335,-24.546666666666663],[-178.0,-24.32],[-177.37037037037038,-25.0],[-177.44444444444443,-25.444444444444443],[-177.35294117647058,-25.647058823529413],[-177.85714285714283,-26.142857142857146],[-178.1176470588235,-26.11764705882353],[-178.6923076923077,-25.692307692307693],[-178.8095238095238,-25.0],[-178.45333333333335,-24.546666666666663]]],[[[-38.5,-25.0],[-38.0,-24.0],[-36.6,-23.400000000000002],[-36.0,-23.0],[-35.0,-23.0],[-35.0,-24.0],[-36.0,-25.0],[-37.0,-25.333333333333332],[-38.0,-25.5],[-38.333333333333336,-25.333333333333336],[-38.5,-25.0]]],[[[-15.30188679245283,1.6981132075471699],[-14.725490196078432,1.2745098039215688],[-13.0,0.375],[-11.310344827586206,-0.3103448275862069],[-10.719298245614034,-0.7192982456140351],[-10.0,-1.0],[-9.5,-1.5],[-8.327868852459018,-2.3278688524590163],[-6.0,-3.1538461538461537],[-3.4000000000000004,-2.6],[-3.0,-2.0],[-2.0,-1.5],[-1.4000000000000001,-0.6000000000000001],[-0.75,-0.25],[-0.26666666666666666,0.26666666666666666],[0.375,0.625],[0.75,1.0],[3.0,4.5],[4.0,4.5],[5.0,4.0],[7.0,4.0],[8.4,3.4000000000000004],[11.0,2.0],[13.0,2.0],[13.0,1.0],[14.0,1.0],[14.0,2.0],[15.0,2.0],[15.4,1.4000000000000001],[16.0,1.3333333333333335],[16.17391304347826,1.1739130434782608],[17.0,1.0],[17.6,0.6000000000000001],[18.0,0.5],[18.2,0.2],[19.0,0.0],[19.8,-1.0],[20.166666666666664,-2.8333333333333335],[20.166666666666668,-4.0],[20.0,-5.0],[20.75,-6.0],[20.8,-7.000000000000001],[21.285714285714285,-8.0],[21.22222222222222,-8.777777777777779],[21.333333333333336,-10.0],[21.153846153846153,-10.153846153846153],[21.0,-11.0],[20.5,-11.5],[20.0,-12.333333333333334],[19.0,-13.0],[19.333333333333336,-14.0],[19.0,-15.0],[19.5,-16.0],[18.666666666666668,-17.666666666666668],[18.666666666666668,-18.0],[17.0,-19.0],[14.333333333333332,-20.0],[11.0,-20.26530612244898],[10.469135802469134,-20.469135802469133],[10.0,-20.95],[9.169491525423728,-21.16949152542373],[9.0,-21.5],[8.0,-21.727272727272727],[5.5,-22.0],[3.8461538461538463,-22.846153846153847],[3.0,-23.0],[1.6,-23.6],[0.5,-24.5],[-1.0,-25.333333333333332],[-2.0,-25.333333333333332],[-2.6923076923076925,-26.30769230769231],[-3.0,-26.5],[-4.0,-28.0],[-6.0,-30.0],[-7.0,-30.25],[-8.0,-30.8],[-8.461538461538462,-31.53846153846154],[-9.0,-31.857142857142858],[-9.19047619047619,-32.80952380952381],[-10.193548387096774,-33.806451612903224],[-10.75,-34.0],[-11.416666666666668,-34.583333333333336],[-12.428571428571427,-35.0],[-13.277777777777779,-35.72222222222222],[-14.071428571428573,-35.92857142857143],[-14.560975609756099,-36.4390243902439],[-15.2,-36.8],[-16.065573770491802,-36.93442622950819],[-16.615384615384613,-37.38461538461538],[-18.571428571428573,-38.42857142857143],[-19.10810810810811,-38.891891891891895],[-19.96923076923077,-39.03076923076923],[-21.473684210526315,-40.0],[-22.25974025974026,-40.74025974025974],[-22.68,-41.32],[-23.0,-41.52173913043478],[-26.714285714285715,-43.28571428571428],[-29.0,-44.647058823529406],[-30.0,-44.8125],[-31.0,-45.21428571428571],[-32.0,-45.06666666666666],[-33.3728813559322,-45.6271186440678],[-33.955555555555556,-46.044444444444444],[-35.6875,-46.3125],[-37.0,-47.0],[-38.0,-47.0],[-38.61290322580645,-46.61290322580645],[-40.0,-46.35714285714286],[-41.0,-46.38636363636364],[-42.0,-46.69230769230769],[-42.339622641509436,-46.339622641509436],[-43.19459459459459,-46.19459459459459],[-46.0,-46.09375],[-46.400000000000006,-45.4],[-47.15555555555556,-45.15555555555555],[-48.75,-45.0],[-48.71428571428571,-44.71428571428571],[-49.0,-44.0],[-48.375,-43.625],[-47.0,-43.22222222222222],[-46.23529411764706,-42.76470588235294],[-45.5,-42.5],[-42.66666666666667,-42.0],[-41.46153846153846,-41.53846153846154],[-40.0,-41.16666666666667],[-38.87096774193549,-41.12903225806451],[-36.0,-40.599999999999994],[-34.0,-40.53846153846154],[-33.0,-40.7],[-31.0,-40.16666666666667],[-28.421052631578945,-38.57894736842105],[-28.0,-38.42857142857142],[-27.285714285714285,-37.71428571428571],[-26.2,-37.0],[-25.0,-36.0],[-23.6,-35.400000000000006],[-23.0,-35.0],[-21.0,-35.0],[-20.0,-34.5],[-19.0,-34.5],[-18.5,-33.5],[-18.0,-33.0],[-18.333333333333336,-32.333333333333336],[-18.333333333333336,-31.66666666666667],[-17.666666666666668,-31.333333333333336],[-17.5,-31.0],[-17.75,-30.75],[-19.0,-31.0],[-19.6,-31.400000000000002],[-22.0,-32.333333333333336],[-24.0,-32.6],[-25.0,-32.5],[-26.0,-32.75],[-27.25,-32.25],[-28.0,-31.666666666666668],[-28.5,-31.5],[-29.0,-31.0],[-29.0,-29.0],[-29.25,-28.25],[-29.0,-27.0],[-29.22222222222222,-26.22222222222222],[-29.333333333333336,-25.0],[-30.0,-24.0],[-30.0,-23.0],[-29.333333333333336,-21.666666666666668],[-28.75,-21.0],[-28.75,-20.0],[-28.0,-18.0],[-26.66666666666667,-16.0],[-27.0,-15.0],[-25.5,-14.0],[-25.400000000000002,-13.600000000000001],[-25.0,-13.0],[-23.5,-11.5],[-23.0,-10.5],[-22.6,-10.4],[-21.0,-9.5],[-20.0,-9.5],[-19.0,-9.0],[-19.0,-8.0],[-18.0,-7.0],[-16.0,-7.0],[-14.600000000000001,-6.4],[-14.0,-6.0],[-13.0,-6.0],[-12.833333333333332,-5.166666666666666],[-12.904761904761905,-4.904761904761904],[-13.555555555555555,-4.555555555555555],[-13.833333333333334,-4.0],[-14.600000000000001,-3.6000000000000005],[-15.25,-3.0],[-17.0,-2.4000000000000004],[-19.0,-2.0],[-20.0,-2.0],[-22.375,-1.375],[-24.266666666666666,-0.26666666666666666],[-24.80952380952381,0.19047619047619047],[-25.714285714285715,1.2857142857142856],[-26.266666666666666,2.7333333333333334],[-26.285714285714285,3.2857142857142856],[-26.0,4.0],[-25.0,4.6],[-24.692307692307693,4.6923076923076925],[-21.619047619047617,4.3809523809523805],[-20.0,3.5555555555555554],[-17.34285714285714,2.6571428571428575],[-16.79310344827586,2.206896551724138],[-15.30188679245283,1.6981132075471699]],[[11.181818181818182,-16.18181818181818],[12.0,-16.25],[13.0,-16.0],[16.0,-16.0],[17.333333333333336,-15.333333333333334],[17.5,-15.0],[17.4,-14.600000000000001],[17.0,-14.0],[16.333333333333336,-13.666666666666668],[14.777777777777779,-13.777777777777779],[14.0,-14.0],[11.0,-13.428571428571427],[9.0,-13.5],[8.0,-13.25],[7.7142857142857135,-13.285714285714285],[5.0,-12.5],[3.75,-12.75],[3.5,-13.0],[4.0,-13.333333333333334],[5.444444444444444,-13.555555555555555],[6.6000000000000005,-14.400000000000002],[9.444444444444445,-15.555555555555554],[10.0,-16.0],[11.181818181818182,-16.18181818181818]]],[[[-32.0,-8.0],[-31.285714285714285,-8.285714285714285],[-31.0,-9.0],[-30.333333333333336,-10.0],[-30.333333333333336,-10.333333333333334],[-30.0,-11.0],[-30.0,-13.0],[-30.6,-13.4],[-31.0,-13.5],[-32.0,-14.5],[-33.0,-14.5],[-33.4,-14.600000000000001],[-34.0,-15.0],[-35.0,-15.0],[-35.6,-15.4],[-36.0,-16.0],[-38.0,-16.0],[-38.800000000000004,-15.0],[-38.66666666666667,-14.0],[-38.81818181818181,-12.81818181818182],[-38.833333333333336,-11.000000000000002],[-38.44444444444444,-8.555555555555555],[-38.15384615384615,-7.846153846153847],[-37.38095238095238,-6.619047619047619],[-36.0,-6.0],[-34.0,-6.200000000000001],[-33.46153846153846,-6.461538461538462],[-32.833333333333336,-6.833333333333333],[-32.333333333333336,-7.333333333333334],[-32.0,-8.0]]],[[[9.540983606557377,11.540983606557377],[9.956521739130434,11.0],[9.407407407407408,10.592592592592593],[9.0,10.463414634146343],[8.488372093023255,11.0],[9.0,11.916666666666666],[9.540983606557377,11.540983606557377]]],[[[-1.4000000000000001,24.400000000000002],[-2.0,24.0],[-5.0,24.0],[-6.0,25.0],[-6.0,26.0],[-5.0,26.5],[-4.0,26.5],[-3.6000000000000005,26.400000000000002],[-3.0,26.0],[-2.0,26.0],[-1.4000000000000001,25.6],[-1.0,25.5],[-0.5,25.0],[-1.0,24.5],[-1.4000000000000001,24.400000000000002]]],[[[16.238095238095237,42.23809523809524],[17.0,42.0],[20.0,41.41666666666667],[22.0,41.5],[23.0,41.38461538461539],[24.1,41.0],[24.833333333333336,40.0],[24.230769230769234,39.0],[23.258823529411764,38.74117647058823],[20.885714285714286,37.114285714285714],[20.140350877192983,36.859649122807014],[20.0,36.63636363636364],[19.0,36.0],[18.184615384615384,35.815384615384616],[17.10909090909091,34.89090909090909],[16.5,34.0],[16.10810810810811,31.89189189189189],[15.833333333333334,29.0],[15.37037037037037,28.62962962962963],[15.076923076923077,28.0],[14.37037037037037,27.62962962962963],[14.0,27.0],[13.0,27.0],[12.25,27.25],[12.0,27.5],[11.0,28.0],[10.600000000000001,28.6],[10.333333333333334,30.000000000000004],[10.0,30.333333333333336],[9.5,30.5],[9.166666666666668,32.166666666666664],[8.555555555555555,32.55555555555555],[8.166666666666666,33.16666666666667],[7.4,33.4],[7.0,34.0],[6.4,33.6],[5.0,33.0],[-9.0,33.0],[-9.833333333333332,33.16666666666667],[-12.0,33.11111111111111],[-15.0,33.285714285714285],[-16.0,33.5],[-16.75,34.0],[-17.0,35.0],[-16.75,36.75],[-16.666666666666668,37.0],[-16.0,37.66666666666667],[-15.0,37.800000000000004],[-14.333333333333334,38.333333333333336],[-13.666666666666668,38.66666666666667],[-11.8,39.0],[-8.574468085106384,40.57446808510638],[-8.0,41.08],[-7.274509803921569,41.274509803921575],[-5.833333333333333,42.0],[-3.7222222222222223,42.72222222222222],[-3.0,42.882352941176464],[-1.0,43.0],[0.0,43.33333333333333],[0.33333333333333337,43.66666666666667],[1.0,44.0],[3.7627118644067794,44.23728813559322],[9.075471698113208,44.075471698113205],[12.285714285714285,43.71428571428571],[14.0,43.349999999999994],[15.0,43.0],[16.238095238095237,42.23809523809524]]],[[[41.0,-52.0],[41.0,-53.0],[40.0,-53.0],[39.333333333333336,-53.333333333333336],[38.0,-53.5],[36.3,-52.7],[36.0,-52.25],[34.400000000000006,-51.6],[33.5,-51.0],[33.81818181818182,-50.81818181818181],[34.0,-50.0],[35.0,-49.333333333333336],[36.0,-49.25],[37.30769230769231,-49.69230769230769],[37.66666666666667,-50.0],[39.487804878048784,-50.512195121951216],[40.0,-51.25],[41.0,-52.0]]],[[[46.0,-48.7],[47.0,-49.0],[47.25,-50.0],[47.14285714285714,-50.14285714285714],[46.63636363636364,-50.63636363636363],[45.142857142857146,-51.142857142857146],[44.0,-51.142857142857146],[43.66666666666667,-51.0],[43.18181818181818,-49.81818181818181],[43.0,-49.0],[42.18181818181818,-48.81818181818181],[42.0,-48.5],[41.6,-48.400000000000006],[41.0,-48.0],[42.0,-47.800000000000004],[42.5,-47.5],[43.266666666666666,-47.266666666666666],[43.99999999999999,-47.23809523809524],[45.0,-47.44444444444444],[45.35087719298245,-47.649122807017534],[45.66666666666667,-48.333333333333336],[46.0,-48.7]]],[[[60.421052631578945,-45.421052631578945],[59.333333333333336,-46.333333333333336],[59.0,-46.42857142857143],[57.0,-46.42857142857143],[55.0,-46.2],[53.846153846153854,-45.15384615384615],[53.0,-44.0],[53.0,-43.0],[56.0,-43.0],[57.0,-42.8],[58.88888888888889,-43.11111111111111],[59.57142857142858,-43.42857142857143],[60.00000000000001,-44.333333333333336],[60.66666666666667,-45.0],[60.421052631578945,-45.421052631578945]]],[[[101.0,-36.5],[100.66666666666669,-36.66666666666667],[100.0,-36.75],[99.30769230769232,-37.30769230769231],[99.0,-37.4],[96.0,-37.4],[95.0,-37.25],[94.42857142857143,-36.57142857142858],[93.84615384615385,-36.15384615384615],[93.33333333333334,-35.0],[93.4,-34.6],[93.0,-34.0],[94.0,-34.0],[94.81818181818181,-32.81818181818182],[95.83333333333334,-31.833333333333336],[98.5,-31.0],[99.36363636363636,-29.363636363636367],[99.4,-28.0],[100.47999999999999,-26.479999999999997],[101.0,-26.0],[101.27586206896552,-25.275862068965516],[101.57142857142858,-25.0],[102.57894736842105,-23.0],[103.0,-22.636363636363637],[103.48275862068965,-22.482758620689655],[104.0,-21.866666666666667],[104.60000000000001,-21.6],[104.92857142857143,-21.0],[105.54545454545455,-20.545454545454547],[106.0,-19.6],[106.41379310344828,-19.413793103448274],[107.58333333333334,-18.0],[108.89090909090909,-16.89090909090909],[110.25641025641025,-15.256410256410255],[110.625,-15.0],[111.0,-14.4],[111.875,-13.875],[112.375,-13.375],[113.14285714285714,-12.142857142857142],[113.42857142857142,-11.0],[114.3157894736842,-9.31578947368421],[115.0,-7.0],[116.0,-5.4],[116.44444444444444,-3.0],[117.0,-1.75],[117.86363636363637,1.1363636363636362],[118.14285714285714,2.8571428571428568],[119.0,4.25],[120.0,5.0],[120.7142857142857,4.7142857142857135],[121.0,4.0],[122.66666666666667,3.666666666666667],[123.0,3.0],[124.0,3.0],[124.28571428571428,2.2857142857142856],[125.0,2.0],[125.0,0.0],[124.0,0.0],[124.0,-5.0],[125.0,-5.0],[125.0,-4.0],[126.0,-4.0],[128.0,-2.0],[128.0,0.0],[129.0,1.0],[129.33333333333334,1.6666666666666665],[129.33333333333334,2.3333333333333335],[129.0,3.0],[129.0,5.0],[128.60000000000002,6.4],[129.0,7.0],[129.0,9.0],[129.4,9.600000000000001],[129.5,10.0],[130.0,10.25],[131.66666666666669,10.333333333333334],[132.0,10.5],[133.5,10.0],[133.60000000000002,9.600000000000001],[134.0,9.0],[134.0,8.0],[134.30769230769232,7.307692307692308],[134.6,6.0],[135.16666666666669,5.166666666666666],[135.28571428571428,4.285714285714286],[135.25,2.0],[135.0,1.0],[135.0,0.0],[134.0,-1.3333333333333335],[133.66666666666669,-1.3333333333333333],[133.0,-1.0],[132.66666666666669,-1.6666666666666665],[132.66666666666669,-2.3333333333333335],[133.5,-4.0],[133.0,-4.25],[132.0,-4.25],[131.0,-4.5],[130.5,-4.5],[130.0,-4.0],[130.0,-6.0],[129.4,-6.4],[129.0,-7.0],[128.0,-7.0],[127.0,-8.0],[126.4,-8.4],[125.0,-8.5],[124.60000000000001,-8.600000000000001],[124.0,-9.0],[126.0,-11.0],[126.0,-12.0],[125.60000000000001,-12.6],[124.5,-15.0],[124.0,-15.5],[123.60000000000001,-15.600000000000001],[121.0,-17.0],[120.0,-17.0],[119.0,-18.0],[119.0,-19.0],[118.77777777777777,-19.77777777777778],[118.75,-21.0],[118.33333333333333,-23.0],[118.0,-23.333333333333332],[117.16666666666667,-25.166666666666664],[115.5,-26.0],[115.25,-26.25],[113.0,-27.0],[110.55555555555554,-28.555555555555554],[109.0,-29.0],[108.18181818181817,-28.818181818181817],[107.0,-29.0],[105.0,-28.6],[104.4,-29.400000000000002],[103.5,-30.0],[103.5,-30.5],[103.0,-31.0],[104.0,-31.0],[104.55555555555556,-32.44444444444444],[106.0,-34.0],[106.66666666666669,-33.66666666666667],[107.0,-33.666666666666664],[108.0,-34.0],[107.4,-34.400000000000006],[107.0,-35.0],[106.0,-35.0],[104.0,-36.0],[103.0,-36.333333333333336],[102.0,-36.5],[101.0,-36.5]]],[[[177.75,-11.0],[177.0,-12.0],[176.54999999999998,-11.45],[176.4375,-11.0],[176.58139534883722,-10.581395348837209],[177.0,-10.1],[177.75,-11.0]]],[[[175.3125,-5.6875],[174.66666666666669,-5.333333333333334],[174.5,-5.0],[174.52380952380952,-4.523809523809524],[174.57142857142858,-4.0],[174.78571428571428,-3.7857142857142856],[176.0,-3.466666666666667],[176.53333333333336,-4.0],[176.76190476190476,-5.0],[176.45070422535213,-5.450704225352113],[176.0,-5.800000000000001],[175.3125,-5.6875]]],[[[30.200000000000003,-1.8],[30.62857142857143,-1.6285714285714286],[31.0,-1.6578947368421053],[31.220338983050848,-2.0],[31.0,-2.282608695652174],[29.941176470588236,-2.0],[30.0,-1.75],[30.200000000000003,-1.8]]],[[[169.0,-0.4545454545454546],[168.66666666666669,-0.33333333333333337],[168.16666666666666,0.0],[169.0,0.21739130434782605],[169.19607843137254,-0.19607843137254904],[169.0,-0.4545454545454546]]],[[[171.71052631578948,1.0],[172.0,1.2619047619047619],[172.25581395348837,1.0],[172.0,0.6764705882352942],[171.71052631578948,1.0]]],[[[18.205882352941178,8.0],[19.0,8.6],[19.490909090909092,8.0],[19.0,7.509090909090909],[18.205882352941178,8.0]]],[[[47.5625,10.0],[46.794117647058826,9.205882352941176],[46.53623188405797,8.46376811594203],[46.2,8.0],[45.0,6.761904761904762],[43.57894736842105,6.421052631578947],[42.909090909090914,6.090909090909091],[41.74712643678161,4.252873563218391],[40.785714285714285,3.7857142857142856],[40.21428571428571,3.7857142857142856],[40.0,3.571428571428571],[39.72727272727272,3.727272727272727],[39.315789473684205,4.315789473684211],[39.07692307692308,6.0],[39.21052631578948,6.789473684210526],[39.5,7.0],[39.6,8.4],[40.333333333333336,9.0],[40.5,9.5],[41.0,10.0],[41.71428571428571,10.285714285714285],[44.0,10.666666666666668],[44.2,10.8],[44.333333333333336,11.0],[45.357142857142854,11.642857142857144],[45.82352941176471,12.176470588235293],[46.86206896551724,14.0],[47.63934426229508,14.360655737704917],[48.0,14.785714285714285],[48.42857142857143,14.571428571428571],[48.916666666666664,13.999999999999998],[48.785714285714285,13.0],[48.48888888888889,12.511111111111111],[47.833333333333336,12.0],[47.5625,10.0]]],[[[38.55555555555556,8.444444444444445],[37.11764705882353,7.882352941176471],[35.0,8.916666666666668],[34.121212121212125,8.878787878787879],[33.85714285714286,9.0],[34.0,10.0],[33.625,11.0],[34.46153846153846,11.53846153846154],[34.81818181818181,12.0],[36.5,12.0],[37.84210526315789,10.842105263157894],[38.166666666666664,10.0],[38.875,9.0],[38.55555555555556,8.444444444444445]]],[[[122.0,14.25],[122.6,14.400000000000002],[123.0,15.0],[123.33333333333334,14.0],[123.0,13.5],[122.0,13.5],[121.89473684210526,13.894736842105264],[122.0,14.25]]],[[[53.42857142857143,20.42857142857143],[53.535714285714285,20.0],[53.0,19.42307692307692],[52.347826086956516,20.0],[52.98757763975156,21.012422360248447],[53.42857142857143,20.42857142857143]]],[[[59.0,28.317073170731707],[58.64102564102564,29.0],[59.0,29.451612903225808],[59.333333333333336,29.333333333333336],[59.63636363636364,29.0],[59.0,28.317073170731707]]],[[[37.22222222222222,39.77777777777777],[38.0,40.01724137931035],[38.59183673469388,39.59183673469388],[38.725,39.0],[38.0,38.34090909090909],[37.46153846153847,38.46153846153847],[37.0,38.714285714285715],[36.760000000000005,39.0],[37.22222222222222,39.77777777777777]]]]}}]}