{"type":"FeatureCollection","features":[{"type":"Feature","properties":{"ageMa":380},"geometry":{"type":"MultiPolygon","coordinates":[[[[-73.0,-55.66666666666667],[-73.51351351351352,-56.48648648648649],[-74.23076923076923,-56.99999999999999],[-74.5,-57.5],[-75.25,-58.0],[-75.44444444444444,-58.55555555555556],[-76.0,-59.0],[-76.16666666666667,-60.0],[-76.0,-61.0],[-76.0,-63.0],[-77.0,-63.75],[-78.0,-64.0],[-80.0,-64.0],[-81.0,-65.0],[-83.28571428571428,-65.71428571428571],[-84.0,-66.11111111111111],[-85.625,-66.375],[-87.10810810810811,-66.8918918918919],[-88.0,-67.0],[-88.62962962962963,-67.37037037037037],[-91.0,-68.25],[-93.0,-68.69999999999999],[-95.91304347826087,-68.91304347826087],[-99.0,-69.375],[-100.28571428571428,-69.71428571428572],[-102.0,-70.4],[-104.0,-70.5],[-106.0,-70.33333333333333],[-108.0,-70.5],[-109.0,-70.33333333333333],[-109.5,-70.5],[-110.0,-71.0],[-111.0,-71.0],[-112.0,-70.5],[-112.4,-70.60000000000001],[-113.0,-71.0],[-114.0,-71.0],[-115.0,-70.0],[-115.5,-71.0],[-116.0,-71.33333333333333],[-117.00000000000001,-71.66666666666667],[-118.0,-71.66666666666667],[-118.5,-72.0],[-118.91304347826087,-72.08695652173913],[-121.30769230769232,-72.30769230769232],[-121.77777777777779,-72.22222222222223],[-125.0,-72.625],[-126.0,-72.57142857142857],[-128.75,-72.75],[-130.0,-72.66666666666667],[-132.0,-72.80000000000001],[-133.0,-72.6],[-136.0,-72.5],[-136.36363636363637,-72.36363636363636],[-136.66666666666669,-72.0],[-137.0,-71.83333333333333],[-138.0,-72.0],[-141.0,-72.0],[-142.0,-71.6],[-144.0,-71.5],[-147.0,-71.0],[-148.2,-70.2],[-148.8,-70.2],[-149.5,-70.0],[-150.0,-69.5],[-151.0,-69.5],[-151.28571428571428,-69.28571428571428],[-153.0,-69.0],[-153.0,-68.0],[-154.0,-68.0],[-154.0,-67.0],[-155.0,-66.66666666666667],[-156.0,-66.0],[-157.0,-66.0],[-157.6,-66.4],[-158.0,-66.4],[-159.0,-66.0],[-160.11764705882354,-65.88235294117648],[-161.0,-66.0],[-162.0,-65.75],[-163.0,-65.75],[-164.0,-66.0],[-165.0,-65.83333333333333],[-165.9047619047619,-66.0952380952381],[-168.9090909090909,-66.0909090909091],[-173.0,-66.4],[-176.0,-66.33333333333334],[-177.0,-67.0],[-177.76,-67.24000000000001],[-179.0,-67.5],[-180.0,-67.55555555555556],[-180.0,-60.0],[-176.17391304347825,-60.173913043478265],[-171.0,-60.0],[-170.0,-59.75],[-169.0,-60.0],[-168.0,-59.5],[-167.0,-59.66666666666667],[-164.0,-59.5],[-163.66666666666669,-59.66666666666667],[-163.0,-59.75],[-162.5,-59.5],[-162.0,-59.0],[-161.40000000000003,-59.400000000000006],[-160.60000000000002,-59.6],[-160.0,-60.0],[-159.0,-59.5],[-157.0,-59.75],[-156.0,-60.0],[-152.16666666666666,-60.16666666666667],[-150.60000000000002,-60.60000000000001],[-150.0,-61.0],[-149.0,-61.0],[-148.60000000000002,-60.400000000000006],[-148.0,-60.25],[-146.33333333333334,-60.333333333333336],[-145.0,-60.75],[-144.0,-60.75],[-141.0,-61.400000000000006],[-139.4,-62.4],[-138.0,-62.66666666666667],[-137.8181818181818,-62.81818181818182],[-137.0,-63.0],[-136.0,-63.0],[-135.0,-62.5],[-134.0,-62.66666666666667],[-133.8095238095238,-62.80952380952381],[-131.0,-62.85714285714286],[-130.0,-63.0],[-126.0,-63.85714285714286],[-125.2608695652174,-63.73913043478261],[-125.0,-63.57142857142857],[-124.0,-63.57142857142857],[-123.72727272727272,-63.72727272727272],[-122.08695652173913,-63.91304347826087],[-119.0,-63.84615384615385],[-117.0,-64.0],[-116.36363636363637,-64.36363636363637],[-115.55555555555554,-64.55555555555554],[-112.0,-64.77777777777777],[-111.0,-64.61538461538461],[-108.08510638297872,-64.91489361702128],[-107.0,-64.86666666666667],[-106.0,-65.0],[-105.26666666666667,-65.26666666666667],[-104.0,-65.375],[-103.0,-65.33333333333334],[-102.0,-65.45454545454545],[-99.0,-65.0],[-95.13953488372093,-64.86046511627907],[-94.42307692307693,-64.57692307692307],[-93.99999999999999,-64.08333333333333],[-93.06299212598427,-63.93700787401575],[-92.32653061224491,-63.673469387755105],[-92.00000000000001,-63.2],[-91.66666666666667,-63.00000000000001],[-90.19672131147541,-62.80327868852459],[-89.53191489361703,-62.46808510638298],[-89.08333333333333,-62.0],[-88.11904761904762,-61.88095238095238],[-87.0,-61.125],[-85.12658227848101,-60.87341772151898],[-84.46153846153847,-60.53846153846154],[-84.15789473684211,-60.0],[-83.85,-59.85],[-83.20833333333334,-59.791666666666664],[-82.5813953488372,-59.41860465116278],[-82.35714285714286,-59.0],[-82.08064516129032,-58.91935483870968],[-82.0,-58.722222222222214],[-81.50943396226415,-58.490566037735846],[-79.87234042553192,-57.12765957446809],[-79.0,-56.705882352941174],[-78.67123287671232,-56.32876712328766],[-76.41758241758242,-54.582417582417584],[-74.0,-52.157894736842096],[-73.03809523809524,-51.96190476190476],[-73.0,-51.81818181818181],[-72.77777777777777,-51.77777777777778],[-72.06666666666666,-52.06666666666667],[-71.55555555555554,-52.55555555555555],[-71.42857142857142,-53.0],[-72.125,-54.875],[-72.53846153846153,-55.46153846153847],[-73.0,-55.66666666666667]],[[-140.75,-64.0],[-140.77777777777777,-63.77777777777778],[-141.0,-63.66666666666667],[-141.33333333333334,-64.0],[-141.0,-64.25],[-140.75,-64.0]]],[[[1.4444444444444444,-45.44444444444444],[1.6666666666666665,-45.0],[2.0,-44.75],[2.5,-45.0],[2.3333333333333335,-45.333333333333336],[2.2222222222222223,-46.22222222222222],[1.0,-46.33333333333333],[0.8,-46.2],[0.8333333333333333,-45.83333333333333],[1.4444444444444444,-45.44444444444444]]],[[[-16.0,5.944444444444444],[-14.0,5.111111111111112],[-13.064516129032258,4.935483870967742],[-10.785714285714285,4.214285714285714],[-9.600000000000001,3.4000000000000004],[-9.25,3.0],[-8.272727272727272,2.727272727272727],[-8.0,2.4000000000000004],[-7.0,2.0],[-5.375,1.625],[-5.0,1.25],[-4.0,0.8333333333333334],[-3.0,1.0],[-2.555555555555556,0.4444444444444444],[-2.5,0.0],[-2.0,-0.5],[-1.0,-0.5],[-0.75,0.0],[-0.6666666666666667,1.0],[-0.4,1.4000000000000001],[0.18181818181818182,1.8181818181818181],[1.3333333333333335,3.0],[2.0,4.0],[3.142857142857143,4.857142857142858],[3.571428571428571,5.428571428571429],[4.0,5.75],[5.0,6.0],[5.833333333333334,7.166666666666666],[6.636363636363637,7.363636363636364],[8.0,7.4],[9.0,7.0],[10.0,7.0],[11.0,5.5],[11.5,5.0],[10.666666666666668,4.0],[10.266666666666666,3.7333333333333334],[9.0,3.75],[8.4,3.6000000000000005],[6.666666666666667,1.0],[6.666666666666667,0.0],[7.0,-1.0],[6.75,-2.25],[7.333333333333333,-4.0],[7.285714285714286,-4.285714285714286],[6.5,-5.0],[6.7142857142857135,-5.285714285714286],[7.5,-5.5],[8.0,-6.0],[7.666666666666667,-7.0],[6.5,-9.0],[6.5,-10.0],[7.0,-11.0],[8.0,-11.333333333333334],[9.0,-13.0],[9.571428571428573,-13.42857142857143],[12.0,-14.0],[13.826086956521738,-14.173913043478262],[15.5,-15.0],[15.142857142857142,-15.142857142857142],[14.833333333333332,-16.0],[14.0,-16.142857142857142],[13.0,-16.896551724137932],[11.0,-17.41176470588235],[9.0,-17.5],[8.0,-17.75],[7.5,-18.0],[6.133333333333333,-19.133333333333333],[4.666666666666667,-20.0],[4.0,-20.666666666666668],[3.2,-21.2],[2.5,-22.0],[0.33333333333333337,-23.333333333333336],[0.0,-24.0],[-0.6000000000000001,-24.400000000000002],[-1.0,-25.0],[-2.5,-26.5],[-2.7777777777777777,-27.22222222222222],[-3.2857142857142856,-27.714285714285715],[-4.0,-28.75],[-4.25,-29.0],[-4.777777777777778,-29.22222222222222],[-5.333333333333334,-30.000000000000004],[-6.714285714285714,-31.0],[-7.594594594594595,-31.405405405405403],[-8.08955223880597,-31.91044776119403],[-8.709677419354838,-32.29032258064516],[-9.173913043478262,-32.826086956521735],[-11.794871794871796,-34.205128205128204],[-16.0,-37.0],[-16.804878048780488,-37.19512195121951],[-17.390243902439025,-37.609756097560975],[-18.759999999999998,-38.24],[-19.27906976744186,-38.72093023255814],[-20.82089552238806,-39.179104477611936],[-21.950617283950617,-40.04938271604938],[-22.3728813559322,-40.62711864406779],[-23.0,-41.0],[-24.62162162162162,-42.37837837837838],[-25.523809523809522,-43.47619047619047],[-26.0,-43.833333333333336],[-26.22222222222222,-45.22222222222222],[-26.0,-45.5],[-24.400000000000002,-46.400000000000006],[-24.0,-46.5],[-23.0,-46.0],[-22.363636363636363,-46.36363636363637],[-22.0,-46.4],[-20.0,-46.0],[-16.0,-46.0],[-15.000000000000002,-45.333333333333336],[-14.666666666666668,-45.333333333333336],[-14.5,-45.0],[-14.200000000000001,-44.8],[-13.0,-44.75],[-12.75,-45.0],[-12.81818181818182,-45.18181818181819],[-13.5,-45.5],[-14.0,-46.0],[-13.666666666666666,-47.0],[-13.714285714285714,-47.285714285714285],[-14.0,-47.5],[-14.142857142857142,-47.857142857142854],[-14.142857142857142,-48.14285714285714],[-14.0,-48.33333333333333],[-13.0,-48.5],[-12.0,-48.5],[-11.0,-48.33333333333333],[-10.0,-48.666666666666664],[-9.666666666666668,-48.66666666666667],[-9.0,-49.0],[-8.0,-49.0],[-8.0,-50.0],[-8.4,-50.60000000000001],[-9.0,-51.0],[-7.818181818181818,-51.18181818181818],[-7.0,-51.0],[-6.0,-51.25],[-5.2,-51.2],[-4.666666666666667,-51.00000000000001],[-4.0,-50.0],[-3.4000000000000004,-48.60000000000001],[-2.4210526315789473,-47.578947368421055],[-2.0,-47.333333333333336],[-0.5384615384615385,-47.53846153846154],[0.0,-48.0],[0.7142857142857142,-47.71428571428571],[2.0,-47.5],[3.0,-47.0],[3.75,-46.0],[3.7142857142857144,-45.71428571428571],[4.0,-45.0],[4.578947368421052,-42.578947368421055],[5.4,-41.400000000000006],[6.0,-41.16666666666667],[8.0,-41.22222222222222],[10.0,-42.0],[11.923076923076923,-43.07692307692308],[12.0,-43.25],[13.0,-43.66666666666667],[13.818181818181817,-44.18181818181819],[14.285714285714285,-44.285714285714285],[15.0,-44.0],[15.285714285714285,-44.71428571428571],[15.25,-45.25],[14.75,-46.0],[15.0,-46.2],[16.0,-46.333333333333336],[17.0,-47.0],[18.0,-46.66666666666667],[19.0,-47.0],[20.0,-47.75],[22.0,-48.25],[22.461538461538463,-48.53846153846154],[23.000000000000004,-49.2],[24.666666666666668,-49.33333333333334],[25.0,-49.5],[27.333333333333336,-49.66666666666667],[29.166666666666664,-50.833333333333336],[29.285714285714285,-51.285714285714285],[29.0,-52.0],[30.0,-52.2],[31.846153846153847,-53.15384615384616],[33.4,-53.60000000000001],[34.0,-54.0],[35.0,-54.0],[36.0,-53.333333333333336],[36.5,-54.0],[36.875,-55.125],[39.0,-55.400000000000006],[40.0,-55.666666666666664],[43.0,-55.75],[44.0,-56.0],[44.6,-56.400000000000006],[45.0,-56.333333333333336],[47.2,-56.8],[47.5,-57.0],[47.66666666666667,-57.333333333333336],[48.0,-57.5],[49.0,-57.5],[51.0,-58.0],[52.0,-58.0],[52.5,-58.5],[53.0,-58.75],[54.22222222222222,-58.77777777777778],[55.0,-59.0],[55.60000000000001,-59.400000000000006],[57.0,-59.75],[58.0,-59.75],[59.0,-60.33333333333334],[61.25,-60.75],[62.0,-61.0],[62.55555555555555,-60.55555555555555],[65.33333333333334,-59.333333333333336],[66.0,-58.666666666666664],[67.0,-58.333333333333336],[68.0,-57.0],[67.6,-56.400000000000006],[67.0,-56.0],[66.0,-54.5],[65.0,-54.0],[64.5,-53.5],[62.733333333333334,-52.266666666666666],[62.375,-51.625],[61.333333333333336,-51.00000000000001],[61.33333333333334,-50.66666666666667],[61.0,-50.5],[60.800000000000004,-50.2],[60.5,-49.0],[60.30769230769231,-48.69230769230769],[59.22222222222222,-47.77777777777778],[58.75,-47.0],[58.5,-46.0],[58.75,-45.0],[59.66666666666667,-44.0],[60.0,-43.0],[61.0,-42.4],[62.285714285714285,-42.285714285714285],[63.0,-42.0],[64.0,-41.8],[66.0,-41.42857142857143],[67.6,-41.400000000000006],[69.5,-41.5],[70.0,-42.0],[70.0,-41.0],[71.0,-41.0],[72.0,-40.75],[73.0,-41.5],[73.4,-41.6],[74.0,-42.0],[75.0,-42.0],[77.71428571428571,-40.71428571428571],[80.0,-40.42857142857142],[81.0,-40.16666666666667],[83.0,-40.800000000000004],[84.28571428571428,-40.71428571428571],[85.0,-41.0],[86.0,-42.0],[86.71428571428571,-41.71428571428571],[87.25,-41.25],[88.0,-41.0],[89.0,-41.2],[90.0,-42.0],[91.66666666666667,-42.333333333333336],[92.4,-42.6],[93.0,-43.0],[93.55555555555554,-42.55555555555556],[95.0,-42.5],[97.0,-43.0],[98.0,-43.599999999999994],[100.0,-43.42857142857143],[103.0,-45.0],[104.0,-45.0],[104.75,-44.75],[108.0,-44.75],[109.0,-45.0],[109.4,-45.6],[110.0,-46.0],[110.84615384615384,-46.15384615384615],[112.13333333333333,-46.13333333333334],[113.0,-45.599999999999994],[114.0,-45.75],[115.0,-45.599999999999994],[117.00000000000001,-46.333333333333336],[119.0,-45.666666666666664],[122.0,-45.75],[123.0,-45.25],[123.42857142857143,-45.57142857142857],[123.6,-46.0],[123.5,-47.0],[125.0,-48.5],[125.28571428571428,-48.28571428571428],[125.33333333333334,-48.0],[126.0,-47.0],[126.0,-46.0],[126.4,-44.0],[126.0,-43.0],[126.20000000000002,-42.0],[126.20000000000002,-41.00000000000001],[126.0,-40.5],[125.71428571428571,-40.285714285714285],[125.66666666666667,-39.0],[125.33333333333334,-37.0],[124.44444444444443,-35.55555555555556],[123.44444444444444,-34.55555555555555],[122.25,-33.0],[122.33333333333334,-32.333333333333336],[122.5,-32.0],[120.5,-28.0],[120.25,-27.0],[120.2,-25.8],[119.5,-25.0],[119.81818181818181,-23.81818181818182],[120.25,-23.25],[121.0,-23.0],[122.33333333333334,-22.0],[122.5,-21.5],[123.0,-21.0],[124.0,-21.0],[125.28571428571428,-20.285714285714285],[126.00000000000001,-20.2],[126.63636363636363,-20.363636363636363],[127.33333333333334,-20.666666666666668],[128.0,-21.200000000000003],[129.0,-21.0],[130.0,-21.0],[130.75,-21.25],[131.33333333333334,-21.666666666666668],[131.5,-22.0],[132.0,-22.166666666666668],[133.14285714285714,-22.142857142857142],[133.25,-22.0],[133.1818181818182,-20.81818181818182],[133.0,-20.666666666666668],[132.0,-20.833333333333332],[131.25,-20.75],[130.71428571428572,-20.285714285714285],[130.75,-20.0],[129.5,-18.5],[128.83333333333334,-18.166666666666668],[128.36363636363637,-17.636363636363637],[127.73333333333333,-17.266666666666666],[127.25,-16.0],[127.0,-15.0],[127.5,-14.0],[128.33333333333334,-13.0],[128.66666666666669,-11.0],[129.0,-10.0],[130.0,-9.0],[131.0,-7.666666666666666],[134.0,-6.25],[137.0,-6.25],[137.6,-6.4],[138.0,-7.0],[139.0,-7.5],[139.4,-7.4],[139.77777777777777,-6.777777777777779],[140.0,-6.666666666666666],[141.13333333333333,-6.866666666666666],[142.22222222222223,-9.777777777777779],[143.0,-11.0],[144.33333333333334,-11.666666666666668],[144.73333333333335,-12.266666666666666],[145.5,-13.0],[145.4,-13.4],[144.66666666666669,-14.0],[145.0,-14.5],[146.0,-14.5],[146.25,-14.75],[146.60000000000002,-16.0],[146.5,-16.5],[146.0,-17.0],[146.5,-17.5],[147.0,-18.5],[147.5,-18.5],[148.60000000000002,-19.400000000000002],[149.0,-19.333333333333336],[149.28571428571428,-20.0],[149.33333333333334,-21.666666666666668],[149.5,-22.0],[149.4,-22.4],[149.0,-23.0],[148.60000000000002,-22.4],[148.0,-22.0],[147.55555555555554,-22.555555555555557],[146.42857142857144,-23.42857142857143],[146.0,-23.6],[145.0,-23.6],[144.33333333333334,-24.0],[145.5,-25.0],[146.55555555555557,-25.444444444444443],[147.44444444444446,-26.555555555555554],[147.5,-27.0],[148.0,-27.5],[148.5,-27.5],[149.0,-28.0],[150.0,-28.0],[151.0,-29.0],[151.60000000000002,-30.0],[151.0,-31.0],[151.33333333333331,-32.0],[151.25,-32.25],[151.0,-32.5],[150.60000000000002,-32.6],[150.0,-33.0],[149.0,-33.0],[149.0,-34.0],[148.0,-34.0],[148.0,-35.0],[149.0,-35.0],[149.28571428571428,-35.71428571428571],[149.0,-37.0],[148.4,-37.4],[148.0,-38.0],[148.0,-39.0],[147.5,-39.5],[146.6,-39.6],[146.28571428571428,-40.285714285714285],[145.71428571428572,-40.285714285714285],[144.33333333333334,-39.66666666666667],[144.0,-39.75],[143.83333333333334,-40.0],[143.83333333333334,-41.16666666666667],[144.0,-42.0],[146.36363636363637,-42.63636363636364],[146.75,-43.25],[147.5,-43.5],[148.0,-44.0],[148.5,-43.5],[149.0,-43.333333333333336],[149.60000000000002,-44.400000000000006],[150.33333333333334,-45.0],[150.5,-45.5],[151.0,-46.0],[151.0,-47.0],[151.75,-47.25],[152.5,-48.0],[152.8181818181818,-49.18181818181818],[153.5,-50.0],[154.0,-51.0],[153.66666666666669,-52.0],[153.36363636363637,-52.36363636363636],[152.5,-52.5],[152.0,-52.0],[152.0,-53.0],[151.0,-53.0],[151.0,-54.0],[150.0,-54.0],[149.71428571428572,-54.71428571428571],[149.0,-55.33333333333333],[147.75,-55.25],[145.63636363636363,-55.36363636363637],[144.25,-54.75],[144.0,-54.5],[142.0,-54.5],[141.6,-54.400000000000006],[141.0,-54.0],[140.1818181818182,-53.81818181818181],[139.5,-54.0],[140.0,-55.0],[140.0,-56.0],[140.0,-57.0],[139.75,-57.75],[139.8,-58.00000000000001],[140.0,-58.25],[140.5,-58.5],[141.0,-59.5],[141.4,-59.6],[142.0,-60.0],[141.4,-60.400000000000006],[141.0,-60.5],[140.75,-61.0],[141.28571428571428,-61.28571428571428],[141.7142857142857,-61.28571428571428],[142.0,-62.0],[142.5,-62.5],[142.83333333333334,-63.16666666666667],[144.0,-63.2],[144.47058823529412,-63.529411764705884],[144.66666666666669,-64.0],[144.66666666666669,-64.66666666666667],[144.5,-65.0],[143.0,-65.75],[141.0,-66.4],[140.0,-66.5],[138.0,-66.4],[137.0,-66.66666666666667],[135.0,-66.85714285714286],[134.2,-67.19999999999999],[133.8,-67.19999999999999],[133.11111111111111,-66.88888888888889],[131.89473684210526,-66.89473684210526],[131.66666666666669,-67.0],[131.5,-67.5],[131.0,-68.0],[131.0,-69.0],[130.60000000000002,-69.6],[130.5,-70.0],[131.0,-70.33333333333334],[132.0,-70.5],[132.63636363636363,-71.36363636363636],[133.0,-71.5],[134.0,-71.5],[134.75,-72.25],[135.44444444444446,-72.55555555555556],[136.0,-73.0],[136.6,-72.6],[137.0,-72.0],[137.28571428571428,-72.71428571428571],[138.0,-73.0],[141.0,-73.0],[142.55555555555554,-73.44444444444444],[144.0,-73.5],[146.0,-74.0],[147.0,-74.0],[147.0,-75.0],[148.0,-75.33333333333334],[149.0,-75.33333333333334],[150.0,-76.0],[153.0,-76.0],[154.0,-76.33333333333334],[155.0,-76.28571428571428],[155.55555555555557,-76.44444444444444],[156.0,-77.0],[156.6,-77.4],[158.0,-77.5],[158.33333333333334,-77.66666666666667],[159.0,-78.5],[160.33333333333334,-78.66666666666667],[161.0,-79.0],[160.5,-79.5],[159.77777777777777,-79.77777777777777],[159.46153846153845,-80.46153846153847],[159.0,-81.0],[158.4,-81.4],[158.0,-81.6],[157.0,-81.33333333333334],[156.0,-81.4],[155.0,-82.0],[154.0,-82.0],[153.60000000000002,-82.6],[153.5,-83.0],[153.16666666666669,-83.16666666666666],[150.75,-83.25],[150.0,-83.0],[148.0,-83.0],[147.5,-83.5],[147.33333333333334,-84.0],[147.15384615384616,-84.15384615384616],[146.8,-84.2],[146.5,-84.0],[146.4,-83.6],[146.0,-83.0],[145.0,-83.0],[144.0,-84.0],[143.2,-83.8],[141.1818181818182,-83.81818181818181],[140.0,-84.0],[139.0,-85.0],[139.55555555555554,-85.44444444444444],[140.25,-85.75],[140.5,-86.0],[140.60000000000002,-86.4],[141.0,-87.0],[142.0,-87.08333333333333],[144.0,-87.0],[144.0,-86.0],[145.0,-86.0],[145.5,-86.5],[146.0,-86.66666666666667],[148.0,-86.6],[149.30769230769232,-86.6923076923077],[151.75,-87.25],[156.0,-87.0],[158.625,-86.625],[164.0,-86.66666666666667],[167.0,-87.5],[167.77777777777777,-88.22222222222223],[168.0,-89.0],[168.0,-90.0],[-102.0,-90.0],[-102.0,-89.0],[-98.0,-88.0],[-97.0,-88.0],[-96.0,-87.8],[-92.0,-87.8],[-85.14285714285714,-87.14285714285714],[-84.5,-87.0],[-84.33333333333334,-86.66666666666667],[-84.0,-86.5],[-83.0,-86.5],[-82.6,-86.60000000000001],[-82.0,-87.0],[-81.28571428571428,-86.71428571428571],[-80.0,-86.66666666666667],[-79.0,-87.0],[-73.0,-87.0],[-71.9047619047619,-87.0952380952381],[-68.0,-87.0],[-67.0,-86.5],[-66.60000000000001,-86.60000000000001],[-66.0,-87.0],[-61.0,-87.0],[-60.0,-87.25],[-58.0,-87.0],[-57.0,-86.0],[-56.333333333333336,-86.33333333333334],[-52.85714285714286,-86.14285714285714],[-52.5,-86.0],[-52.33333333333334,-85.66666666666667],[-51.71428571428571,-85.28571428571428],[-50.400000000000006,-84.60000000000001],[-49.6,-84.4],[-49.0,-84.0],[-47.0,-84.0],[-46.22222222222222,-83.77777777777777],[-44.22222222222222,-83.77777777777777],[-43.0,-83.5],[-42.0,-83.75],[-41.57142857142858,-83.42857142857144],[-40.0,-82.75],[-36.875,-82.125],[-35.5,-81.0],[-35.44444444444444,-80.55555555555556],[-35.0,-80.33333333333334],[-34.0,-78.5],[-33.0,-78.0],[-34.0,-77.66666666666667],[-35.0,-77.0],[-37.2,-76.8],[-38.0,-77.0],[-40.0,-77.0],[-41.0,-77.4],[-42.25,-77.25],[-43.0,-77.0],[-43.75,-77.25],[-48.0,-77.4],[-49.75,-77.75],[-53.0,-77.6],[-54.0,-78.0],[-55.0,-78.0],[-56.0,-78.33333333333334],[-57.0,-78.0],[-58.0,-78.0],[-59.0,-78.33333333333334],[-60.0,-78.33333333333334],[-61.0,-78.5],[-62.0,-78.33333333333334],[-63.0,-78.5],[-64.0,-78.5],[-65.22222222222223,-78.22222222222223],[-67.0,-78.33333333333334],[-68.0,-78.0],[-69.0,-78.0],[-70.0,-78.4],[-71.0,-78.33333333333334],[-72.0,-78.5],[-77.0,-78.57142857142856],[-79.22222222222223,-78.22222222222223],[-80.76470588235294,-77.76470588235294],[-83.28571428571428,-77.28571428571428],[-84.28571428571428,-76.28571428571428],[-84.71428571428571,-76.28571428571428],[-85.5,-76.0],[-85.0,-75.75],[-84.0,-75.66666666666667],[-83.0,-75.25],[-81.83333333333334,-75.16666666666667],[-81.22222222222223,-74.77777777777777],[-78.84615384615385,-74.15384615384615],[-77.46153846153847,-73.53846153846155],[-75.5,-73.0],[-75.0,-72.66666666666667],[-73.60000000000001,-72.4],[-72.5,-71.5],[-71.0,-71.0],[-70.125,-69.875],[-68.73333333333333,-69.26666666666667],[-68.0,-68.75],[-67.0,-69.0],[-66.42857142857143,-69.42857142857143],[-65.0,-70.0],[-64.0,-71.0],[-63.25,-71.25],[-63.0,-71.5],[-62.0,-72.0],[-59.0,-72.0],[-58.0,-71.75],[-53.0,-71.75],[-51.00000000000001,-72.2],[-50.0,-71.6],[-49.0,-71.66666666666667],[-48.0,-71.5],[-46.0,-71.5],[-45.66666666666667,-71.33333333333334],[-44.0,-71.0],[-42.0,-71.0],[-41.0,-70.5],[-37.0,-70.4],[-36.0,-70.2],[-34.0,-70.2],[-30.636363636363637,-70.63636363636364],[-29.0,-71.0],[-27.0,-71.0],[-26.0,-71.2],[-23.0,-71.33333333333334],[-18.0,-72.0],[-17.0,-72.0],[-16.0,-72.25],[-12.0,-72.5],[-11.600000000000001,-72.6],[-11.0,-73.0],[-9.0,-73.0],[-9.0,-74.0],[-8.0,-74.5],[-7.666666666666668,-74.33333333333334],[-7.5,-74.0],[-7.5,-73.5],[-7.0,-73.0],[-6.285714285714285,-72.71428571428571],[-5.0,-72.5],[-4.0,-72.5],[-3.5,-73.0],[-4.0,-73.25],[-5.0,-73.33333333333333],[-5.444444444444444,-73.55555555555554],[-5.666666666666667,-74.0],[-5.444444444444444,-74.44444444444443],[-4.0,-75.0],[-4.0,-78.0],[-3.0,-78.0],[-2.5,-77.5],[-2.0,-77.5],[-1.8461538461538463,-77.15384615384616],[-2.0,-75.0],[-1.8,-73.2],[-1.4615384615384615,-72.53846153846153],[-1.0,-72.0],[-1.1666666666666665,-71.16666666666666],[-1.0,-70.75],[-0.33333333333333337,-70.66666666666667],[0.0,-70.5],[0.8333333333333333,-71.16666666666666],[1.3333333333333335,-71.0],[1.6666666666666665,-70.66666666666667],[2.0,-70.6],[3.0,-70.0],[2.714285714285714,-68.71428571428571],[3.0,-68.5],[3.4000000000000004,-68.60000000000001],[4.0,-69.0],[4.4,-69.6],[4.5,-70.0],[5.0,-70.25],[5.5,-70.0],[5.6000000000000005,-69.6],[6.0,-69.0],[7.0,-70.0],[7.333333333333334,-69.33333333333334],[8.0,-69.0],[7.4,-68.60000000000001],[7.0,-68.0],[6.0,-68.0],[3.0,-67.5],[2.0,-68.0],[1.0,-67.0],[1.2222222222222223,-66.22222222222223],[1.0,-65.0],[0.0,-65.0],[0.0,-66.0],[-0.6666666666666667,-66.33333333333334],[-1.0,-66.25],[-2.0,-66.4],[-3.0,-66.33333333333334],[-4.0,-66.0],[-4.0,-64.0],[-7.0,-64.0],[-7.5,-64.5],[-8.25,-64.75],[-9.2,-64.8],[-10.0,-65.0],[-11.25,-64.75],[-12.0,-65.0],[-13.333333333333336,-64.33333333333334],[-13.5,-64.0],[-13.857142857142858,-63.85714285714286],[-15.0,-64.0],[-16.0,-63.75],[-17.0,-64.0],[-20.0,-63.0],[-21.0,-63.0],[-25.25,-62.25],[-27.0,-62.25],[-28.0,-62.0],[-29.0,-62.4],[-31.0,-62.0],[-37.0,-62.0],[-38.0,-62.25],[-39.0,-62.0],[-40.0,-62.25],[-41.2,-62.199999999999996],[-42.77777777777778,-61.77777777777777],[-44.0,-61.75],[-46.0,-62.0],[-46.6,-62.4],[-47.0,-62.5],[-49.0,-62.33333333333333],[-50.0,-62.599999999999994],[-51.0,-62.33333333333333],[-52.22222222222222,-61.22222222222223],[-53.81818181818181,-60.81818181818182],[-54.42857142857143,-60.42857142857143],[-54.75,-60.0],[-55.0,-59.0],[-55.75,-58.0],[-56.0,-57.0],[-56.0,-55.0],[-55.60000000000001,-54.400000000000006],[-55.0,-53.0],[-54.5,-51.0],[-53.444444444444436,-49.55555555555556],[-52.888888888888886,-49.111111111111114],[-52.28571428571429,-47.0],[-51.76,-46.24],[-51.0,-45.833333333333336],[-50.60000000000001,-45.4],[-48.7,-44.3],[-45.73584905660377,-43.26415094339623],[-44.5,-43.0],[-43.4923076923077,-42.50769230769231],[-42.0,-42.22222222222222],[-37.0,-41.6875],[-34.8,-41.00000000000001],[-33.7037037037037,-40.29629629629629],[-33.0,-40.0],[-31.0,-39.416666666666664],[-29.0,-39.0],[-28.400000000000002,-38.6],[-27.92,-38.08],[-27.22222222222222,-37.77777777777777],[-26.24390243902439,-36.75609756097561],[-24.3859649122807,-35.614035087719294],[-24.0,-35.214285714285715],[-23.622641509433965,-34.37735849056604],[-23.23076923076923,-34.0],[-23.25,-33.75],[-23.0,-33.25],[-22.363636363636363,-32.63636363636364],[-22.0,-32.0],[-22.77777777777778,-30.77777777777778],[-23.444444444444443,-30.444444444444443],[-24.266666666666666,-29.266666666666666],[-24.75,-27.75],[-25.153846153846153,-27.153846153846153],[-25.4,-26.0],[-25.4,-23.0],[-25.6,-21.0],[-25.22222222222222,-18.77777777777778],[-25.22222222222222,-17.77777777777778],[-24.666666666666668,-16.0],[-23.800000000000004,-12.000000000000002],[-23.800000000000004,-10.0],[-23.0,-8.0],[-22.800000000000004,-7.000000000000001],[-21.5,-5.5],[-21.0,-5.2],[-18.0,-4.5],[-15.8,-3.2],[-15.0,-3.0],[-14.0,-3.0],[-14.0,-2.0],[-15.75,-1.75],[-16.0,-1.0],[-18.0,-0.625],[-21.0,0.75],[-23.000000000000004,2.076923076923077],[-25.125,4.0],[-24.857142857142858,4.857142857142858],[-24.461538461538463,5.461538461538463],[-23.0,7.0],[-22.0,7.2],[-20.904761904761905,6.904761904761905],[-20.133333333333333,7.133333333333333],[-19.0,7.0],[-18.0,6.714285714285714],[-16.846153846153847,6.153846153846153],[-16.0,5.944444444444444]],[[156.1848739495798,-87.81512605042016],[156.1122448979592,-88.0],[156.43478260869566,-88.56521739130434],[157.0,-88.75652173913043],[157.56390977443607,-88.56390977443608],[157.87,-88.0],[157.78861788617886,-87.78861788617886],[157.9493670886076,-87.0506329113924],[156.0,-87.0],[156.1848739495798,-87.81512605042016]],[[122.0,-47.333333333333336],[122.5,-47.0],[122.0,-46.5],[121.0,-46.5],[120.0,-47.0],[121.0,-47.25],[122.0,-47.333333333333336]],[[128.22222222222223,-67.77777777777777],[127.8,-67.8],[127.5,-68.0],[128.0,-68.25],[129.0,-68.0],[128.22222222222223,-67.77777777777777]],[[162.95238095238096,-87.04761904761904],[161.04938271604937,-87.04938271604938],[161.09375,-88.0],[161.36641221374046,-88.63358778625954],[162.0,-88.82075471698113],[162.31147540983608,-88.68852459016394],[162.7090909090909,-88.7090909090909],[162.93548387096774,-88.0],[162.95238095238096,-87.04761904761904]],[[-26.285714285714285,-47.285714285714285],[-25.5,-47.0],[-25.6,-46.6],[-26.400000000000002,-46.400000000000006],[-27.0,-46.0],[-27.6,-46.400000000000006],[-28.0,-46.4],[-28.315789473684212,-46.68421052631579],[-29.0,-47.0],[-29.400000000000002,-47.6],[-30.0,-48.0],[-29.400000000000002,-48.400000000000006],[-28.0,-48.5],[-27.25,-48.0],[-27.0,-47.5],[-26.714285714285715,-47.285714285714285],[-26.285714285714285,-47.285714285714285]],[[118.0,-69.33333333333334],[120.00000000000001,-69.33333333333334],[122.0,-68.0],[122.5,-67.5],[123.0,-67.5],[124.0,-67.0],[123.0,-66.71428571428572],[122.0,-67.0],[121.0,-66.66666666666667],[120.25,-66.75],[119.85714285714286,-66.85714285714286],[119.4,-67.4],[119.0,-67.66666666666667],[118.0,-67.75],[117.33333333333334,-67.66666666666667],[117.0,-67.5],[116.0,-68.0],[117.44444444444444,-68.55555555555556],[118.0,-69.33333333333334]]],[[[18.400000000000002,-32.6],[19.0,-33.0],[18.333333333333336,-33.333333333333336],[18.0,-34.0],[17.0,-34.0],[16.714285714285715,-35.285714285714285],[17.0,-36.0],[17.0,-37.0],[14.0,-37.0],[13.0,-36.66666666666667],[12.6,-36.400000000000006],[12.333333333333332,-36.0],[12.5,-35.0],[12.764705882352942,-34.76470588235294],[12.95,-34.0],[13.642857142857142,-33.642857142857146],[14.0,-32.8],[14.523809523809522,-32.52380952380952],[15.0,-32.0],[16.421052631578945,-31.421052631578945],[17.0,-31.0],[17.714285714285715,-30.71428571428571],[18.0,-30.625],[19.285714285714285,-30.71428571428571],[19.5,-31.0],[19.285714285714285,-31.285714285714285],[19.0,-31.333333333333332],[18.0,-32.0],[18.400000000000002,-32.6]]],[[[21.0,-33.0],[19.8,-33.2],[19.0,-33.0],[20.0,-32.5],[20.400000000000002,-32.6],[21.0,-33.0]]],[[[25.476190476190474,-31.476190476190474],[24.352941176470587,-32.35294117647059],[24.0,-32.5],[22.4,-32.6],[21.6,-32.4],[21.5,-32.0],[21.714285714285715,-31.714285714285715],[22.0,-31.666666666666664],[23.0,-31.0],[22.0,-30.5],[20.6,-30.400000000000002],[20.0,-30.0],[24.0,-29.285714285714285],[25.0,-29.57142857142857],[25.285714285714285,-29.714285714285715],[25.833333333333336,-31.0],[25.476190476190474,-31.476190476190474]]],[[[-45.0,-26.0],[-44.0,-26.0],[-44.0,-27.0],[-43.0,-27.25],[-42.0,-27.0],[-41.75,-26.25],[-41.5,-26.0],[-40.46153846153847,-25.53846153846154],[-39.6,-25.400000000000002],[-38.44444444444444,-24.555555555555554],[-38.0,-24.0],[-36.0,-24.0],[-36.0,-25.0],[-35.6,-25.6],[-35.400000000000006,-26.400000000000002],[-35.0,-27.0],[-36.0,-28.333333333333332],[-37.0,-28.5],[-38.285714285714285,-29.714285714285715],[-39.0,-30.0],[-42.0,-30.0],[-43.333333333333336,-31.0],[-43.400000000000006,-31.400000000000002],[-43.0,-32.0],[-44.0,-32.0],[-44.0,-33.0],[-45.666666666666664,-34.0],[-47.0,-35.0],[-47.75,-34.75],[-48.66666666666667,-33.66666666666667],[-49.0,-33.0],[-49.75,-32.75],[-51.0,-33.0],[-52.0,-32.6],[-53.0,-32.5],[-53.5,-32.0],[-52.33333333333333,-30.0],[-52.0,-29.0],[-51.0,-28.0],[-50.33333333333333,-27.0],[-50.0,-26.0],[-50.400000000000006,-25.400000000000002],[-50.5,-25.0],[-50.0,-24.0],[-49.0,-23.5],[-48.6,-22.0],[-48.75,-21.0],[-48.46153846153847,-20.53846153846154],[-47.81818181818182,-20.18181818181818],[-47.4,-19.6],[-47.0,-19.333333333333336],[-46.333333333333336,-20.0],[-46.2,-22.0],[-45.75,-23.0],[-46.0,-24.0],[-45.5,-25.5],[-45.0,-26.0]]],[[[35.5,-27.5],[35.0,-28.0],[34.375,-28.375],[33.0,-28.5],[31.0,-28.400000000000002],[30.315789473684212,-27.684210526315788],[29.684210526315788,-27.315789473684212],[29.5,-27.0],[29.6,-26.6],[30.71428571428571,-25.714285714285715],[32.30769230769231,-25.692307692307693],[34.0,-26.0],[35.0,-26.333333333333336],[35.400000000000006,-26.6],[35.66666666666667,-27.000000000000004],[35.5,-27.5]]],[[[-31.66666666666667,-12.333333333333334],[-32.0,-12.399999999999999],[-32.266666666666666,-12.266666666666666],[-32.5,-12.0],[-32.6,-11.0],[-32.0,-10.0],[-31.0,-9.0],[-30.4,-8.0],[-30.0,-7.6],[-29.0,-7.5],[-28.733333333333334,-7.733333333333333],[-28.333333333333336,-9.0],[-28.733333333333334,-10.266666666666666],[-30.0,-11.0],[-31.0,-12.0],[-31.66666666666667,-12.333333333333334]]],[[[20.166666666666664,-12.166666666666668],[19.0,-12.5],[17.5,-12.0],[16.8,-11.0],[17.25,-10.0],[18.0,-9.25],[19.0,-9.0],[19.818181818181817,-7.818181818181818],[21.210526315789473,-7.2105263157894735],[21.333333333333336,-7.0],[21.285714285714285,-6.285714285714285],[21.5,-5.0],[21.866666666666667,-3.8666666666666667],[22.18181818181818,-3.8181818181818183],[23.0,-4.0],[23.666666666666664,-5.0],[23.833333333333332,-7.0],[23.666666666666664,-8.0],[23.444444444444443,-8.444444444444445],[21.0,-11.666666666666666],[20.166666666666664,-12.166666666666668]]],[[[30.0,0.0],[29.0,0.5],[28.285714285714285,1.0],[27.849056603773583,1.849056603773585],[27.6,2.0],[27.833333333333336,3.0],[29.043010752688172,3.043010752688172],[30.000000000000004,2.9130434782608696],[31.0,2.130434782608696],[31.084507042253524,0.9154929577464789],[30.75,0.25],[30.0,0.0]]],[[[24.200000000000003,7.000000000000001],[25.0,7.275862068965517],[26.0,6.588235294117648],[26.21276595744681,6.0],[26.0,4.8],[25.0,5.2],[24.636363636363637,5.636363636363637],[24.200000000000003,7.000000000000001]]],[[[19.0,8.1875],[18.482758620689655,8.482758620689657],[17.666666666666668,10.0],[18.137931034482758,10.862068965517242],[20.0,10.478260869565219],[20.34375,10.0],[20.296296296296298,9.0],[20.0,8.384615384615385],[19.0,8.1875]]],[[[9.0,11.25],[8.0,11.333333333333334],[7.555555555555555,11.555555555555555],[7.093023255813954,12.093023255813954],[6.804878048780488,12.804878048780488],[6.833333333333334,13.0],[7.818181818181818,14.0],[9.045977011494253,14.045977011494253],[9.733333333333334,13.733333333333334],[10.2,13.0],[9.92,12.08],[9.479999999999999,11.52],[9.0,11.25]]],[[[2.0,27.25],[1.0,27.0],[-2.166666666666667,27.833333333333332],[-3.5,28.5],[-4.0,29.0],[-5.0,29.25],[-6.166666666666667,29.833333333333336],[-7.0,31.0],[-6.166666666666667,32.166666666666664],[-5.0,32.66666666666667],[-4.529411764705882,32.470588235294116],[-3.375,31.625],[-0.26666666666666666,29.733333333333334],[2.0,28.75],[2.5999999999999996,28.0],[2.375,27.625],[2.0,27.25]]],[[[17.269841269841272,44.26984126984127],[18.272727272727273,44.0],[19.370370370370367,43.37037037037037],[20.72222222222222,43.0],[22.225563909774436,42.225563909774436],[23.142857142857142,42.0],[24.253521126760564,41.25352112676056],[25.166666666666668,41.0],[28.66666666666667,38.66666666666667],[29.333333333333336,38.333333333333336],[30.599999999999998,38.0],[31.26086956521739,37.26086956521739],[31.75,37.0],[31.2,36.0],[30.074074074074076,35.925925925925924],[29.266666666666666,35.733333333333334],[28.000000000000004,35.2],[26.941176470588236,34.05882352941177],[25.68,33.32],[24.206896551724135,32.79310344827586],[23.06896551724138,31.93103448275862],[23.0,31.75],[21.88235294117647,31.11764705882353],[21.0,30.0],[20.0,29.0],[19.0,28.8],[18.0,30.0],[18.0,32.0],[16.75,34.0],[16.6,35.0],[16.0,35.75],[15.0,36.0],[14.333333333333334,36.333333333333336],[14.0,36.75],[13.5,37.0],[12.0,37.5],[10.666666666666668,37.66666666666667],[9.0,38.66666666666667],[8.0,39.0],[7.0,38.75],[6.25,38.0],[6.199999999999999,37.8],[5.444444444444444,37.55555555555555],[3.0,37.4],[2.0,37.5],[1.0,37.333333333333336],[0.0,37.0],[-2.0,37.0],[-2.555555555555556,37.44444444444444],[-3.0000000000000004,38.2],[-4.0,38.25],[-7.0,39.0],[-9.142857142857142,39.85714285714286],[-10.0,40.75],[-11.428571428571429,41.57142857142858],[-12.25,43.0],[-11.571428571428571,43.57142857142858],[-10.666666666666668,44.0],[-10.11111111111111,44.11111111111111],[-9.0,44.0],[-7.090909090909091,44.090909090909086],[-6.0,44.63636363636364],[-3.0,44.44444444444444],[-2.0,44.5],[-1.0,44.714285714285715],[1.0,44.8125],[2.9024390243902443,45.09756097560975],[3.0,45.22222222222222],[4.538461538461539,45.53846153846154],[8.0,45.72727272727273],[12.0,45.54545454545455],[13.243902439024389,45.243902439024396],[16.0,44.83870967741935],[17.269841269841272,44.26984126984127]]],[[[132.5,-69.0],[132.0,-69.5],[131.6,-69.4],[131.0,-69.0],[131.5,-68.5],[132.0,-68.5],[132.5,-69.0]]],[[[177.0,-67.25],[176.5,-67.0],[174.0,-66.4],[173.07407407407408,-65.92592592592592],[173.0,-65.66666666666667],[172.0,-65.6],[171.0,-65.0],[170.1818181818182,-64.81818181818181],[169.28571428571428,-63.71428571428571],[169.20000000000002,-63.00000000000001],[169.33333333333334,-62.333333333333336],[170.0,-62.0],[173.0,-61.333333333333336],[174.0,-62.0],[175.0,-61.5],[175.4,-61.6],[175.75,-62.0],[176.00000000000003,-62.05263157894738],[177.0,-62.0],[178.16666666666666,-62.166666666666664],[179.0,-61.666666666666664],[179.08333333333334,-61.083333333333336],[179.42105263157896,-60.421052631578945],[180.0,-60.0],[180.0,-67.55555555555556],[179.0,-68.0],[178.33333333333334,-67.66666666666667],[178.0,-67.33333333333333],[177.0,-67.25]]],[[[167.66666666666669,-62.0],[167.5,-62.5],[167.0,-62.66666666666667],[166.60000000000002,-62.4],[166.0,-62.0],[166.6923076923077,-61.69230769230769],[167.28571428571428,-61.71428571428571],[167.66666666666669,-62.0]]],[[[141.33333333333334,-55.66666666666667],[141.5,-56.0],[141.0,-56.5],[140.5,-56.5],[140.0,-56.0],[140.5,-55.5],[141.0,-55.5],[141.33333333333334,-55.66666666666667]]],[[[172.38095238095235,-49.61904761904762],[173.0,-50.333333333333336],[174.15384615384613,-50.84615384615385],[174.33333333333334,-52.0],[174.0,-52.25],[173.8181818181818,-52.18181818181819],[173.4,-51.6],[173.0,-51.5],[172.76470588235293,-51.76470588235294],[171.92,-51.92],[169.3,-51.7],[168.60000000000002,-51.400000000000006],[168.0,-50.83333333333333],[167.4,-50.60000000000001],[167.0,-50.0],[167.25,-49.0],[168.0,-48.5],[169.47058823529412,-48.470588235294116],[170.33333333333334,-48.66666666666667],[170.75,-49.0],[171.76470588235293,-49.23529411764706],[172.0,-49.5],[172.38095238095235,-49.61904761904762]]],[[[155.2,-28.799999999999997],[155.10526315789474,-28.0],[155.3,-27.0],[155.5625,-26.5625],[156.0,-26.363636363636367],[156.3783783783784,-26.621621621621625],[157.0,-26.71428571428571],[157.77358490566039,-28.0],[157.68,-28.68],[157.0,-29.4],[155.66666666666669,-29.333333333333336],[155.2,-28.799999999999997]]],[[[156.55172413793105,-22.448275862068964],[156.31578947368422,-22.0],[156.50943396226413,-21.50943396226415],[157.0,-21.133333333333333],[158.0,-21.25],[158.45283018867926,-21.547169811320757],[158.75,-22.0],[158.3582089552239,-22.358208955223883],[158.0,-22.5],[157.0,-22.61904761904762],[156.55172413793105,-22.448275862068964]]],[[[150.16666666666669,-15.166666666666668],[150.78947368421052,-14.789473684210526],[151.0,-14.818181818181818],[151.13333333333333,-15.0],[151.53846153846155,-16.0],[151.0,-16.636363636363637],[150.51724137931035,-16.482758620689655],[150.0,-16.0],[150.16666666666669,-15.166666666666668]]],[[[111.0,-2.0],[111.4,-1.4000000000000001],[112.28571428571428,-1.2857142857142856],[112.81818181818181,-0.8181818181818181],[114.0,-0.6],[114.26666666666667,-0.7333333333333334],[114.5,-1.0],[115.625,-3.375],[116.33333333333334,-4.0],[116.5,-5.0],[117.0,-6.0],[117.22222222222223,-5.222222222222221],[117.28571428571428,-4.0],[118.2,-2.0],[117.33333333333334,0.0],[117.5,0.5],[117.85714285714286,1.1428571428571428],[119.0,1.5],[120.0,1.25],[120.33333333333334,1.0],[120.4,0.6000000000000001],[120.0,0.0],[120.5,-0.5],[120.66666666666667,-2.0],[120.66666666666667,-5.0],[120.47058823529412,-5.470588235294118],[119.15384615384616,-7.153846153846153],[118.15384615384616,-8.153846153846153],[116.80000000000001,-8.8],[116.0,-9.0],[115.75,-10.0],[115.4,-10.4],[114.69230769230771,-10.692307692307693],[114.18181818181819,-11.181818181818182],[112.66666666666669,-11.666666666666668],[112.15384615384616,-12.153846153846153],[110.53846153846153,-12.538461538461538],[110.15384615384615,-13.153846153846153],[109.52941176470588,-13.529411764705882],[107.0,-16.0],[106.4,-16.400000000000002],[106.0,-17.0],[105.0,-17.4],[104.0,-17.0],[102.18181818181819,-18.181818181818183],[100.0,-19.0],[97.5,-21.5],[96.5,-22.0],[95.75,-22.75],[95.0,-23.0],[94.5,-23.5],[94.0,-23.75],[92.52941176470588,-25.529411764705884],[91.44444444444444,-26.444444444444443],[91.0,-26.66666666666667],[89.33333333333334,-26.666666666666668],[88.0,-26.333333333333336],[86.0,-26.333333333333336],[85.0,-26.5],[84.0,-26.5],[82.71428571428571,-26.714285714285715],[82.0,-27.0],[80.0,-27.0],[78.4,-27.4],[77.71428571428571,-27.714285714285715],[77.5,-28.0],[77.0,-28.25],[75.60000000000001,-28.400000000000002],[75.0,-28.0],[75.0,-29.0],[72.71428571428571,-29.285714285714285],[72.0,-29.0],[71.5,-30.0],[71.0,-30.25],[70.0,-30.333333333333336],[69.0,-30.599999999999998],[68.0,-30.4],[67.0,-30.0],[66.66666666666667,-29.0],[66.0,-28.0],[66.4,-27.4],[67.53846153846155,-26.53846153846154],[69.0,-25.666666666666664],[69.66666666666667,-25.0],[71.13333333333333,-24.133333333333333],[71.58333333333334,-23.583333333333336],[73.0,-22.714285714285715],[74.25454545454545,-21.25454545454545],[74.77777777777777,-21.0],[75.42553191489361,-20.425531914893618],[78.0,-19.6],[79.33333333333334,-19.333333333333336],[79.85714285714286,-19.0],[81.0,-18.75],[84.42666666666665,-17.426666666666666],[87.19999999999999,-15.2],[87.8,-15.0],[88.0,-14.600000000000001],[88.3157894736842,-14.315789473684209],[89.875,-13.875],[90.4,-13.4],[91.25,-13.0],[92.19047619047619,-12.19047619047619],[93.0,-12.0],[93.0,-11.0],[94.0,-11.0],[94.5,-11.5],[95.0,-11.666666666666668],[96.25,-11.25],[97.00000000000001,-11.200000000000001],[97.14285714285715,-11.0],[97.33333333333334,-10.0],[97.0,-8.0],[97.3076923076923,-7.307692307692308],[98.71428571428571,-5.7142857142857135],[99.13333333333333,-4.866666666666667],[99.21052631578948,-4.2105263157894735],[100.0,-3.5],[100.46153846153847,-2.4615384615384617],[101.0,-2.0],[102.28571428571428,-0.2857142857142857],[104.0,0.6666666666666667],[104.57894736842105,1.4210526315789473],[105.68421052631578,2.3157894736842106],[106.34782608695652,2.6521739130434785],[106.77777777777777,3.2222222222222223],[108.0,3.8333333333333335],[108.22222222222223,3.7777777777777777],[109.0,4.0],[109.5,4.5],[110.0,4.75],[110.6,4.0],[110.80000000000001,3.0000000000000004],[110.5,1.0],[110.19999999999999,0.0],[110.25,-0.25],[110.0,-1.0],[111.0,-2.0]],[[113.0,-2.0],[112.0,-3.0],[110.0,-3.0],[109.75,-3.75],[109.85714285714286,-4.142857142857142],[112.0,-4.0],[112.5,-3.5],[113.0,-3.5],[113.66666666666667,-3.0],[113.0,-2.0]],[[105.5,-9.0],[105.33333333333334,-8.666666666666668],[104.86666666666667,-8.866666666666667],[104.75,-9.0],[104.84615384615384,-9.153846153846153],[105.0,-9.2],[105.5,-9.0]],[[107.33333333333334,-8.0],[107.55555555555556,-7.555555555555555],[108.22222222222223,-7.222222222222222],[108.33333333333334,-7.0],[108.0,-6.0],[107.4,-6.4],[107.0,-6.5],[106.5,-7.5],[105.86666666666667,-7.866666666666667],[105.66666666666667,-8.333333333333334],[106.0,-8.5],[106.28571428571428,-8.285714285714285],[107.00000000000001,-8.200000000000001],[107.33333333333334,-8.0]]],[[[96.60000000000001,-8.600000000000001],[96.66666666666667,-9.0],[96.4,-9.4],[96.0,-9.666666666666668],[95.33333333333334,-9.0],[96.0,-8.0],[97.0,-8.0],[96.60000000000001,-8.600000000000001]]],[[[34.0,-2.8000000000000003],[33.4,-2.6],[33.2,-2.0],[33.5,-1.0],[34.27777777777778,-0.2777777777777778],[35.75824175824176,0.24175824175824173],[36.0,0.43137254901960786],[37.16216216216216,0.0],[36.74074074074073,-1.0],[36.35087719298245,-1.3508771929824561],[36.0,-2.0],[34.0,-2.8000000000000003]]],[[[35.79591836734694,17.79591836734694],[36.16666666666667,17.166666666666664],[36.45454545454545,17.0],[37.15384615384615,16.0],[37.4,15.4],[38.0,14.8],[38.7037037037037,13.703703703703702],[39.625,13.0],[40.285714285714285,12.285714285714285],[40.89473684210527,12.105263157894736],[42.0,11.5],[44.0,11.181818181818182],[45.0,10.727272727272727],[46.0,10.818181818181818],[48.0,10.545454545454545],[48.400000000000006,10.600000000000001],[49.111111111111114,10.88888888888889],[49.375,12.625],[49.6,13.0],[51.0,13.357142857142858],[51.833333333333336,13.0],[52.02830188679245,11.971698113207546],[51.275000000000006,11.0],[51.0,10.3125],[50.72222222222222,10.277777777777779],[50.2,9.8],[49.875,9.0],[49.054054054054056,7.945945945945946],[48.72972972972973,7.27027027027027],[48.093023255813954,6.906976744186046],[47.6,6.4],[46.904761904761905,6.095238095238096],[46.33333333333333,6.0],[44.760000000000005,5.24],[42.0,4.666666666666666],[40.230769230769226,5.230769230769231],[40.0,5.428571428571428],[39.733333333333334,6.0],[39.0,6.733333333333333],[38.52542372881356,7.52542372881356],[38.03125,8.03125],[37.66666666666667,8.666666666666668],[37.15384615384615,9.0],[36.63636363636364,9.636363636363637],[35.57142857142857,10.0],[35.30769230769231,10.307692307692308],[34.0,10.846153846153847],[33.0,11.857142857142858],[32.769230769230774,12.76923076923077],[31.34782608695652,15.347826086956522],[31.0,16.666666666666664],[30.333333333333336,18.0],[30.2,19.0],[30.733333333333334,19.266666666666666],[32.42857142857143,19.42857142857143],[33.0,19.625],[34.0,19.333333333333336],[35.0,18.666666666666668],[35.23529411764706,18.235294117647058],[35.79591836734694,17.79591836734694]]],[[[57.25,17.0],[57.0595744680851,15.940425531914894],[56.631578947368425,16.0],[56.733333333333334,17.0],[57.0,17.170212765957448],[57.25,17.0]]],[[[41.48148148148148,35.0],[43.0,35.86363636363636],[43.5,35.5],[43.904761904761905,35.0],[43.0,34.457142857142856],[42.0,34.36363636363637],[41.63636363636364,34.63636363636363],[41.48148148148148,35.0]]],[[[49.30769230769231,35.69230769230769],[50.0,36.05555555555556],[50.12,36.0],[50.28125,35.0],[50.0,34.83018867924528],[49.0,34.70909090909091],[48.68627450980392,35.0],[49.0,35.66666666666667],[49.30769230769231,35.69230769230769]]],[[[60.0,34.90163934426229],[59.0,35.0],[58.57142857142857,36.0],[58.77777777777778,36.22222222222222],[59.38356164383561,36.61643835616438],[60.0,36.775],[61.47706422018349,36.477064220183486],[62.33333333333333,36.0],[61.63934426229508,35.36065573770492],[61.0,35.07142857142857],[60.0,34.90163934426229]]]]}}]}