{"type":"FeatureCollection","features":[{"type":"Feature","properties":{"ageMa":210},"geometry":{"type":"MultiPolygon","coordinates":[[[[-65.91304347826087,-13.08695652173913],[-66.0,-13.5],[-66.04255319148936,-12.957446808510639],[-66.0,-12.0],[-65.5,-12.5],[-65.5,-13.0],[-65.91304347826087,-13.08695652173913]]],[[[-50.78787878787879,-12.212121212121213],[-51.110236220472444,-12.11023622047244],[-51.205882352941174,-11.794117647058822],[-51.0,-11.681818181818182],[-50.66666666666667,-11.666666666666668],[-50.36363636363636,-12.0],[-50.78787878787879,-12.212121212121213]]],[[[-65.0,-12.0],[-66.0,-12.0],[-66.18604651162791,-10.813953488372093],[-66.0,-10.6],[-65.78378378378379,-10.783783783783782],[-65.0,-11.0],[-65.0,-12.0]]],[[[-67.0,-10.121212121212121],[-67.0,-9.6],[-66.5,-9.5],[-66.6,-10.0],[-66.81395348837209,-10.186046511627907],[-67.0,-10.121212121212121]]],[[[-66.33333333333334,-8.666666666666668],[-66.44594594594594,-8.445945945945946],[-66.39285714285714,-8.0],[-66.0,-6.653846153846153],[-65.54666666666667,-6.453333333333333],[-65.0,-6.0],[-64.85981308411215,-7.140186915887851],[-65.0,-7.9375],[-66.0,-9.57142857142857],[-66.5,-9.5],[-66.57142857142857,-9.0],[-66.33333333333334,-8.666666666666668]]],[[[-65.0,-4.75],[-65.12903225806451,-4.870967741935484],[-65.9090909090909,-5.090909090909091],[-66.61538461538461,-4.615384615384615],[-67.05825242718447,-4.058252427184466],[-68.02307692307691,-4.023076923076923],[-68.15686274509804,-3.156862745098039],[-68.66666666666667,-3.0],[-69.0,-2.0],[-68.26086956521739,-1.7391304347826086],[-66.66666666666667,-2.0],[-66.0,-2.3157894736842106],[-65.688622754491,-2.6886227544910177],[-64.9434628975265,-2.943462897526502],[-64.89090909090909,-4.109090909090909],[-65.0,-4.75]]],[[[-69.66666666666667,-1.0],[-68.96666666666667,-1.0],[-69.0,-2.0],[-69.28571428571428,-1.2857142857142856],[-69.66666666666667,-1.0]]],[[[-74.62068965517241,4.379310344827586],[-75.3076923076923,5.0],[-75.23529411764706,5.235294117647059],[-75.0,5.4],[-74.0,5.636363636363637],[-73.875,5.125],[-73.0,5.0],[-72.79220779220779,2.792207792207792],[-73.0,2.0],[-74.0,2.3333333333333335],[-74.30434782608697,3.695652173913044],[-74.56,4.0],[-74.62068965517241,4.379310344827586]]],[[[-88.0,5.8125],[-88.0576923076923,5.9423076923076925],[-88.5,6.0],[-88.0,6.428571428571429],[-87.7,6.300000000000001],[-87.5,6.0],[-87.77777777777777,5.777777777777778],[-88.0,5.8125]]],[[[-60.0,34.0],[-58.0,34.0],[-58.0,32.0],[-60.0,32.0],[-60.0,34.0]]],[[[-77.32,50.68],[-76.8,50.0],[-77.11764705882352,49.11764705882353],[-77.33333333333334,49.0],[-77.6,48.0],[-77.66666666666667,47.0],[-77.25,46.0],[-78.0,45.0],[-79.18181818181819,44.18181818181819],[-80.0,44.0],[-80.61290322580645,43.612903225806456],[-80.55932203389831,43.440677966101696],[-80.78861788617886,42.78861788617886],[-80.9009900990099,41.9009900990099],[-81.46043165467626,41.46043165467626],[-81.65306122448979,41.0],[-81.8780487804878,39.0],[-81.79166666666666,38.791666666666664],[-81.9375,38.0625],[-81.11111111111111,38.111111111111114],[-80.98148148148148,38.01851851851852],[-81.0,37.6],[-81.3,37.3],[-81.3,36.7],[-81.0,36.25],[-80.94117647058823,35.05882352941177],[-80.17391304347827,35.17391304347826],[-79.91304347826087,35.0],[-79.48780487804878,33.512195121951216],[-78.79166666666667,33.0],[-78.64285714285714,32.642857142857146],[-78.75,32.25],[-78.33333333333334,32.333333333333336],[-77.92792792792793,32.072072072072075],[-77.7560975609756,31.0],[-77.82608695652173,30.826086956521742],[-78.0,30.799999999999997],[-78.47619047619048,31.0],[-78.60000000000001,31.400000000000002],[-79.0,31.733333333333334],[-79.35087719298245,32.64912280701754],[-80.0,32.8974358974359],[-80.45238095238095,33.54761904761905],[-81.04524886877827,33.95475113122172],[-81.05714285714285,35.94285714285714],[-82.0188679245283,35.9811320754717],[-82.19277108433735,37.19277108433735],[-82.04347826086956,38.0],[-82.28571428571428,38.71428571428571],[-83.01550387596899,38.98449612403101],[-83.2135922330097,41.213592233009706],[-83.03539823008849,42.0353982300885],[-83.0,43.199999999999996],[-82.6923076923077,44.0],[-82.3157894736842,44.315789473684205],[-82.15789473684211,45.0],[-82.2,47.0],[-82.01809954751131,48.01809954751131],[-81.33333333333334,48.333333333333336],[-81.0,49.03125],[-80.37735849056604,49.37735849056604],[-80.0,50.30434782608695],[-79.05000000000001,51.05],[-79.0,51.4],[-78.53846153846155,51.53846153846154],[-78.11111111111111,52.11111111111111],[-78.26666666666667,52.733333333333334],[-78.2,53.0],[-77.84,53.16],[-77.16,53.16],[-77.0,53.800000000000004],[-76.5,53.5],[-76.2,53.00000000000001],[-76.78947368421052,51.78947368421053],[-77.5,51.5],[-77.8,51.0],[-77.32,50.68]]],[[[-73.0,43.63636363636364],[-72.0,43.66666666666667],[-71.60000000000001,43.400000000000006],[-71.55555555555556,43.0],[-74.2,43.0],[-73.5,43.5],[-73.0,43.63636363636364]]],[[[-86.83333333333334,68.83333333333334],[-86.9375,68.0],[-86.66666666666667,66.33333333333334],[-86.0,66.125],[-85.7872340425532,65.7872340425532],[-85.74545454545455,65.25454545454545],[-85.0,65.02439024390245],[-85.0,64.75],[-85.375,64.375],[-86.0,64.125],[-88.18181818181819,64.18181818181819],[-88.5,64.0],[-88.30769230769232,63.69230769230769],[-88.0,63.6],[-86.85714285714286,63.85714285714286],[-86.0,63.875],[-85.0,63.625],[-84.0,64.0],[-83.61904761904762,63.38095238095238],[-82.9795918367347,63.0204081632653],[-82.0,63.0],[-81.87692307692308,62.12307692307692],[-80.8125,62.0],[-80.48148148148148,61.518518518518526],[-80.0,61.27777777777778],[-79.9074074074074,61.092592592592595],[-77.99152542372882,61.00847457627119],[-77.79220779220779,60.20779220779221],[-75.98206278026906,60.01793721973094],[-75.71875,59.28125],[-74.93798449612403,59.06201550387597],[-72.92307692307692,59.0],[-72.84615384615385,58.15384615384615],[-72.15384615384616,58.15384615384615],[-71.95454545454545,58.0],[-71.87234042553192,57.12765957446809],[-71.09302325581395,57.093023255813954],[-70.96899224806202,56.968992248062015],[-71.86666666666667,56.86666666666667],[-72.0,56.0],[-72.92156862745098,55.92156862745098],[-73.0,55.6],[-74.0,54.833333333333336],[-75.0,54.6],[-75.30769230769232,54.69230769230769],[-75.78947368421052,55.21052631578948],[-76.55555555555556,55.44444444444444],[-76.93548387096774,56.064516129032256],[-78.0,56.0],[-78.60000000000001,56.400000000000006],[-78.66666666666667,57.00000000000001],[-79.0,57.2],[-79.25,57.25],[-80.0,57.0],[-80.04123711340206,57.95876288659794],[-80.74358974358974,58.25641025641025],[-81.0,58.55555555555556],[-81.09302325581396,58.906976744186046],[-82.02510460251047,58.97489539748954],[-82.07407407407408,59.92592592592593],[-82.42857142857143,60.0],[-83.0,60.66666666666667],[-83.04347826086956,60.95652173913044],[-83.22222222222223,61.0],[-83.5625,61.4375],[-84.0,61.53846153846153],[-84.17910447761194,61.82089552238806],[-85.06666666666666,62.0],[-85.29411764705883,62.705882352941174],[-88.04545454545455,62.95454545454545],[-90.0,62.90625],[-90.64285714285714,62.99999999999999],[-90.6774193548387,63.322580645161295],[-91.0,63.55555555555556],[-91.1311475409836,63.868852459016395],[-94.0,64.0],[-94.41860465116278,64.5813953488372],[-95.16,64.84],[-98.0,64.98863636363637],[-98.24657534246575,65.75342465753425],[-99.55555555555556,66.0],[-98.56410256410257,66.56410256410257],[-98.43333333333334,67.0],[-98.18439716312056,67.18439716312056],[-97.43636363636364,67.43636363636364],[-97.0576923076923,68.0576923076923],[-96.225,68.225],[-96.04705882352941,69.04705882352941],[-93.25531914893617,69.25531914893617],[-93.0,70.0],[-84.69999999999999,70.0],[-85.12244897959184,69.87755102040816],[-85.91111111111111,69.91111111111111],[-85.98360655737706,68.98360655737706],[-86.83333333333334,68.83333333333334]]],[[[-100.80000000000001,66.0],[-101.02941176470588,66.02941176470588],[-101.02941176470588,66.97058823529412],[-102.07142857142858,67.0],[-102.09756097560977,67.90243902439025],[-106.02857142857142,67.97142857142858],[-106.1764705882353,68.17647058823529],[-106.13333333333334,68.86666666666666],[-107.0,69.0],[-105.6,69.0],[-105.33333333333334,68.66666666666667],[-105.0,68.57142857142857],[-104.87301587301587,68.12698412698413],[-100.94893617021276,68.05106382978724],[-100.82608695652175,67.82608695652173],[-100.95918367346938,67.04081632653062],[-100.80000000000001,66.0]]],[[[-165.23076923076923,69.0],[-164.03174603174605,69.03174603174604],[-163.3448275862069,69.3448275862069],[-163.4,69.6],[-163.27272727272728,70.0],[-163.07999999999998,70.08],[-160.0,70.10309278350516],[-159.74358974358975,70.0],[-160.0,69.0],[-163.0,68.8780487804878],[-165.23076923076923,69.0]]],[[[-111.16216216216216,70.16216216216216],[-110.85,70.0],[-112.125,70.0],[-113.0,70.58333333333334],[-113.16666666666666,70.83333333333333],[-115.96078431372548,70.96078431372548],[-116.08333333333333,71.08333333333334],[-112.0,71.11340206185567],[-111.7843137254902,71.0],[-111.68115942028984,70.68115942028984],[-111.93103448275862,70.06896551724138],[-111.16216216216216,70.16216216216216]]],[[[-119.17241379310344,72.17241379310344],[-118.92248062015503,72.07751937984496],[-116.85714285714286,72.0],[-116.875,71.875],[-117.83838383838385,71.83838383838383],[-121.4,72.0],[-119.17241379310344,72.17241379310344]]],[[[-160.0,77.0],[-160.97560975609755,76.97560975609755],[-163.0,77.0],[-162.0,78.0],[-161.40000000000003,77.6],[-160.60000000000002,77.4],[-160.0,77.0]]],[[[-96.9090909090909,79.9090909090909],[-97.0,79.75],[-97.55555555555554,79.55555555555554],[-97.85714285714286,79.0],[-97.98130841121495,78.98130841121495],[-104.0,78.98780487804878],[-106.0,78.87755102040816],[-107.0625,79.0],[-106.0,79.13953488372093],[-104.03125,79.03125],[-103.11764705882354,79.11764705882354],[-103.0,80.0],[-101.0,80.14893617021276],[-99.08510638297872,80.08510638297872],[-98.69230769230771,80.3076923076923],[-98.30769230769232,80.3076923076923],[-98.0909090909091,81.0],[-96.71428571428572,81.0],[-96.47619047619047,80.52380952380952],[-96.0,80.28571428571429],[-95.8974358974359,80.1025641025641],[-94.92857142857143,80.0],[-96.9090909090909,79.9090909090909]]],[[[-21.52,-65.52],[-21.142857142857142,-66.14285714285714],[-20.000000000000004,-66.13333333333334],[-18.545454545454543,-66.54545454545455],[-18.09090909090909,-67.0],[-18.0,-68.0],[-19.0,-68.36363636363636],[-20.0,-68.25],[-20.83783783783784,-67.83783783783784],[-21.642857142857142,-67.64285714285714],[-22.0,-67.375],[-23.0,-67.25],[-23.200000000000003,-67.0],[-24.484848484848484,-66.48484848484848],[-25.0,-66.0],[-26.0,-66.0],[-25.759999999999998,-65.24000000000001],[-25.83783783783784,-64.83783783783784],[-26.5,-64.5],[-26.85714285714286,-64.0],[-26.714285714285715,-63.71428571428571],[-26.8,-63.2],[-26.333333333333336,-63.333333333333336],[-26.0,-63.2],[-25.333333333333336,-63.333333333333336],[-25.0,-64.0],[-24.275862068965516,-64.27586206896552],[-24.0,-64.8],[-23.5,-65.0],[-22.0,-65.14285714285714],[-21.52,-65.52]]],[[[-13.677419354838708,-60.677419354838705],[-13.5,-61.0],[-13.600000000000001,-61.400000000000006],[-14.0,-61.5],[-14.344827586206897,-61.344827586206904],[-14.5,-61.0],[-14.3125,-60.6875],[-14.0,-60.54545454545455],[-13.677419354838708,-60.677419354838705]]],[[[39.66666666666667,0.33333333333333337],[40.4,0.6000000000000001],[41.0,1.0],[42.0,1.0],[42.0,0.0],[41.18181818181818,-0.18181818181818182],[41.0,-0.33333333333333337],[40.0,-0.5],[39.66666666666667,-0.33333333333333337],[39.5,0.0],[39.66666666666667,0.33333333333333337]]],[[[-57.0,31.0],[-57.0,35.0],[-56.0,35.0],[-56.0,36.0],[-58.0,36.0],[-58.0,39.0],[-59.0,39.0],[-59.0,35.0],[-60.0,35.0],[-60.15384615384616,35.84615384615385],[-60.66666666666667,36.0],[-60.66666666666667,36.333333333333336],[-61.0,37.0],[-61.6,37.4],[-61.833333333333336,38.0],[-62.0,39.0],[-61.0,41.0],[-60.400000000000006,40.6],[-60.0,40.0],[-59.0,41.0],[-58.0,41.0],[-57.66666666666667,41.66666666666667],[-57.66666666666667,42.0],[-58.0,42.5],[-59.0,42.0],[-59.400000000000006,42.6],[-59.375,43.0],[-59.65217391304348,44.34782608695652],[-60.0,45.0],[-60.882352941176464,44.882352941176464],[-61.99999999999999,45.45454545454545],[-62.4,46.0],[-62.53846153846154,46.46153846153847],[-63.2,47.0],[-61.33333333333333,48.0],[-58.225352112676056,48.225352112676056],[-57.527272727272724,48.527272727272724],[-57.054545454545455,49.05454545454546],[-56.08888888888889,49.08888888888889],[-56.08888888888889,49.91111111111111],[-55.91836734693878,50.08163265306122],[-55.333333333333336,50.0],[-55.0,49.66666666666667],[-54.71428571428571,49.71428571428571],[-54.5,50.0],[-54.66666666666667,50.333333333333336],[-55.0,50.5],[-55.023529411764706,52.976470588235294],[-55.08955223880597,53.91044776119403],[-55.230769230769226,54.23076923076923],[-55.18181818181819,54.81818181818182],[-56.0,54.952380952380956],[-56.0,55.33333333333333],[-55.0,55.66666666666667],[-54.6,55.60000000000001],[-54.0,56.0],[-54.0,54.0],[-53.0,54.0],[-53.0,55.0],[-52.0,55.0],[-52.0,56.0],[-51.400000000000006,56.400000000000006],[-51.0,57.0],[-49.66666666666667,57.66666666666667],[-49.5,58.0],[-49.6,58.400000000000006],[-50.0,59.0],[-50.0,60.0],[-48.0,60.0],[-48.0,61.0],[-47.0,61.0],[-47.0,62.0],[-43.0,62.0],[-43.0,63.0],[-41.0,63.0],[-41.0,62.0],[-39.0,62.0],[-39.0,59.0],[-40.0,59.0],[-40.0,57.0],[-39.0,57.0],[-39.0,56.0],[-36.0,56.0],[-35.400000000000006,56.400000000000006],[-34.71428571428571,56.285714285714285],[-34.0,55.0],[-34.5,54.5],[-35.400000000000006,54.400000000000006],[-36.0,54.0],[-35.0,53.5],[-34.5,53.5],[-34.0,53.0],[-34.0,54.0],[-33.0,54.0],[-33.0,55.0],[-32.71428571428571,55.71428571428571],[-32.0,56.5],[-31.5,56.5],[-31.0,56.0],[-31.0,57.0],[-30.400000000000002,56.6],[-30.000000000000004,56.66666666666667],[-29.0,56.5],[-28.77777777777778,56.77777777777778],[-28.0,56.85714285714286],[-27.52,56.48],[-27.166666666666668,55.83333333333333],[-27.0,55.81818181818181],[-26.75,56.0],[-26.285714285714285,57.28571428571428],[-25.0,57.81818181818181],[-24.0,58.0],[-24.0,60.0],[-21.0,60.0],[-21.0,61.0],[-16.0,61.0],[-15.666666666666668,61.66666666666667],[-15.4,61.6],[-13.5,62.0],[-13.666666666666668,63.00000000000001],[-13.333333333333336,63.333333333333336],[-12.0,63.66666666666667],[-11.53846153846154,63.53846153846155],[-11.0,64.0],[-11.444444444444443,63.44444444444444],[-11.25,63.0],[-11.363636363636363,62.63636363636363],[-11.285714285714285,62.285714285714285],[-12.0,62.0],[-10.333333333333334,61.66666666666667],[-10.333333333333334,61.33333333333334],[-10.133333333333333,60.86666666666666],[-9.777777777777779,60.77777777777778],[-9.444444444444445,61.44444444444444],[-9.0,61.66666666666667],[-8.5,61.5],[-8.0,61.0],[-9.222222222222221,60.22222222222222],[-9.25,59.75],[-9.0,59.0],[-11.0,59.0],[-10.600000000000001,58.400000000000006],[-10.666666666666668,58.0],[-9.375,57.625],[-9.0,57.0],[-8.0,57.0],[-7.6,57.6],[-7.0,58.0],[-5.0,58.0],[-4.222222222222222,56.77777777777778],[-2.7,56.3],[-2.5,56.0],[-2.428571428571429,55.57142857142858],[-2.0,55.0],[-1.1818181818181817,55.18181818181819],[-0.8333333333333333,55.16666666666667],[-0.75,55.0],[-1.4705882352941175,54.47058823529412],[-1.5,54.0],[-1.24,52.760000000000005],[-0.25,52.0],[-0.2,50.0],[-0.6,49.0],[-0.6,48.0],[-1.0,47.0],[-1.1333333333333333,46.13333333333334],[-1.5,45.5],[-2.0,45.25],[-2.166666666666667,44.833333333333336],[-2.0,44.0],[-1.0,44.0],[-0.6000000000000001,44.6],[-0.5,45.0],[-0.5,46.0],[-0.2857142857142857,46.28571428571428],[0.0,46.25],[0.5,47.0],[0.6000000000000001,49.6],[0.3333333333333333,52.0],[0.42857142857142855,55.0],[0.5,55.5],[1.0,56.0],[1.6,57.4],[2.0,58.0],[2.5714285714285716,58.42857142857143],[3.2857142857142856,58.71428571428571],[5.0,59.0],[7.0,59.0],[7.0,60.0],[8.333333333333334,60.66666666666667],[8.5,61.0],[6.5,63.0],[6.5,64.0],[6.199999999999999,64.2],[5.0,64.33333333333334],[4.0,64.66666666666666],[2.6363636363636367,65.63636363636364],[2.0,66.5],[1.0,66.5],[0.8571428571428571,67.0],[0.48,67.48],[-0.8461538461538461,67.84615384615384],[-2.0,68.0],[-2.0,69.0],[-1.0,69.0],[-0.6666666666666667,69.66666666666667],[0.0,70.0],[-0.6000000000000001,70.4],[-1.5,71.5],[-1.5,72.0],[-1.8181818181818181,72.18181818181819],[-3.0,72.33333333333334],[-4.7142857142857135,72.28571428571428],[-6.5,72.5],[-6.5,73.0],[-6.7142857142857135,73.28571428571428],[-8.0,74.0],[-11.0,74.0],[-11.866666666666667,74.13333333333334],[-14.285714285714285,73.71428571428571],[-15.0,74.0],[-15.4,73.4],[-15.5,72.5],[-16.400000000000002,72.4],[-17.0,72.0],[-17.875,71.875],[-18.02020202020202,72.02020202020202],[-18.153846153846153,73.84615384615384],[-19.0,73.92307692307692],[-19.024390243902438,74.97560975609757],[-19.25,75.0],[-19.5,75.5],[-20.0,75.75],[-20.022471910112362,75.97752808988764],[-21.022556390977446,75.97744360902256],[-21.02409638554217,76.97590361445783],[-22.022222222222222,77.0],[-22.0,78.0],[-24.0,78.0],[-24.041666666666668,78.95833333333333],[-26.0,79.0],[-26.071428571428573,79.92857142857143],[-29.0625,80.0],[-29.125,80.875],[-37.2,81.0],[-37.4,81.60000000000001],[-38.0,81.80000000000001],[-38.04651162790698,81.95348837209303],[-45.25,82.0],[-45.5,82.5],[-46.0,82.75],[-49.71428571428571,82.71428571428571],[-50.5,82.5],[-51.0,82.0],[-51.125,82.875],[-52.04,82.96],[-69.0,83.0],[-69.5,83.5],[-70.0,83.66666666666667],[-71.60000000000001,83.6],[-72.33333333333334,83.33333333333334],[-72.5,83.0],[-72.97777777777777,82.97777777777777],[-97.97183098591549,82.97183098591549],[-99.0,83.0],[-99.07407407407408,83.92592592592592],[-105.92592592592592,83.92592592592592],[-106.0,83.5],[-106.4,83.4],[-106.5,83.0],[-106.94736842105263,82.94736842105264],[-107.35714285714286,82.35714285714286],[-107.35714285714285,82.0],[-107.70491803278688,81.70491803278688],[-108.0,81.10000000000001],[-110.73333333333333,80.73333333333332],[-111.0,79.94285714285715],[-114.0,79.825],[-117.0,79.91666666666667],[-117.65217391304348,80.34782608695653],[-119.0,80.6590909090909],[-120.0,80.53333333333333],[-121.0,80.73076923076923],[-128.0,80.69444444444444],[-128.39285714285714,80.60714285714286],[-128.6875,80.6875],[-129.0,80.375],[-129.14999999999998,80.0],[-128.56862745098042,79.43137254901961],[-127.28571428571429,79.0],[-126.59375,78.40625],[-125.29411764705881,78.0],[-125.21739130434781,77.78260869565217],[-124.6896551724138,77.3103448275862],[-122.8974358974359,77.1025641025641],[-122.64705882352942,76.6470588235294],[-122.66666666666667,76.33333333333334],[-122.3913043478261,76.3913043478261],[-120.5625,76.0],[-121.80000000000001,75.80000000000001],[-121.84615384615384,75.15384615384616],[-122.0,74.93406593406593],[-123.76923076923076,74.76923076923077],[-124.14285714285714,73.85714285714286],[-124.0,73.66666666666667],[-123.95744680851064,73.04255319148936],[-123.83333333333334,73.0],[-123.91666666666667,72.91666666666667],[-124.92,72.92],[-126.0,72.75],[-126.05882352941177,72.94117647058823],[-127.00000000000001,73.07692307692308],[-127.90123456790124,72.90123456790124],[-132.0,72.70967741935485],[-136.03680981595093,72.96319018404907],[-146.0,72.93548387096774],[-146.46153846153845,73.0],[-146.58823529411765,73.41176470588235],[-147.0,73.63636363636364],[-147.14545454545453,73.85454545454546],[-149.02985074626864,73.97014925373135],[-149.13333333333333,74.13333333333334],[-149.13333333333333,74.86666666666666],[-149.86666666666667,74.86666666666666],[-150.09090909090907,75.0],[-150.1818181818182,75.81818181818181],[-150.8181818181818,75.81818181818181],[-151.02941176470588,75.97058823529412],[-152.5,76.0],[-152.66666666666669,76.33333333333334],[-153.0,76.5],[-154.0,76.5],[-154.4,76.4],[-155.0,76.0],[-156.0,76.0],[-156.0,78.0],[-157.0,78.0],[-158.00000000000003,78.16666666666667],[-159.875,78.125],[-161.28571428571428,78.28571428571428],[-162.0,78.0],[-162.0,79.0],[-162.5,78.5],[-163.5,78.5],[-164.0,79.0],[-165.0909090909091,79.0909090909091],[-166.0,79.0],[-166.53846153846155,78.53846153846155],[-167.66666666666669,78.0],[-168.0,77.97826086956522],[-168.5238095238095,78.47619047619047],[-169.27777777777777,78.72222222222223],[-171.0,78.72340425531915],[-171.19402985074626,78.80597014925374],[-171.5625,79.4375],[-172.0,79.63636363636363],[-180.0,79.86486486486487],[-180.0,90.0],[180.0,90.0],[180.0,79.86486486486487],[179.82758620689654,80.0],[179.6,80.60000000000001],[179.0,80.96],[178.51515151515153,80.48484848484848],[178.1732283464567,78.82677165354332],[177.45,78.55000000000001],[177.22727272727275,78.0],[177.0,77.76744186046511],[175.31034482758622,77.6896551724138],[174.0,77.1875],[172.0,77.0],[171.46153846153848,76.53846153846153],[171.16666666666666,76.0],[155.22727272727272,75.77272727272728],[154.31034482758622,75.6896551724138],[153.64285714285714,75.35714285714286],[153.5,75.0],[153.09389671361504,74.90610328638498],[151.0,74.8103448275862],[147.44444444444446,75.0],[147.22857142857143,75.22857142857143],[146.0,75.62962962962963],[144.0,75.4090909090909],[142.0,75.47826086956522],[140.0,74.86363636363637],[138.0,74.925],[135.32432432432432,74.67567567567568],[134.5844155844156,74.41558441558442],[134.23809523809524,74.0],[134.0,73.89583333333334],[131.25,73.75],[130.45283018867926,73.54716981132077],[129.88888888888889,73.0],[127.16374269005848,72.83625730994152],[126.33766233766234,72.66233766233766],[126.03305785123966,71.96694214876034],[124.18897637795276,71.81102362204724],[123.56989247311827,71.43010752688173],[123.28571428571428,71.0],[123.0,70.82978723404256],[121.0,70.67741935483872],[120.53333333333333,70.46666666666667],[120.22222222222221,70.0],[120.0,69.87234042553192],[118.30303030303031,69.6969696969697],[117.65714285714284,69.34285714285714],[117.53846153846153,69.0],[117.0,68.74545454545455],[115.38709677419355,68.61290322580645],[114.75,68.25],[114.65217391304347,68.0],[114.0,67.74137931034483],[112.4367816091954,67.56321839080461],[111.29585798816568,66.70414201183432],[110.0,66.525],[109.6283185840708,66.3716814159292],[109.34375,66.0],[109.0,65.79245283018868],[107.0,65.625],[106.56521739130434,65.43478260869564],[106.10152284263958,64.8984771573604],[104.4,64.6],[104.0,64.0],[102.42990654205607,63.570093457943926],[101.91304347826087,63.00000000000001],[101.25925925925927,62.74074074074075],[99.57948717948717,62.42051282051282],[99.0,61.78],[97.0,61.528301886792455],[96.64331210191082,61.35668789808918],[96.24836601307189,60.751633986928105],[95.53731343283582,60.462686567164184],[94.95,60.05],[94.41935483870968,59.0],[94.6470588235294,58.647058823529406],[95.35789473684211,58.3578947368421],[98.95294117647059,58.04705882352941],[102.90697674418604,58.093023255813954],[103.98930481283423,59.01069518716578],[112.96521739130435,59.03478260869565],[113.86666666666667,59.13333333333333],[114.0,59.44444444444444],[114.83333333333334,60.0],[121.8970588235294,60.10294117647059],[122.75999999999999,60.24],[123.0,60.6],[123.33333333333334,60.66666666666667],[123.85714285714286,61.0],[128.8967741935484,61.10322580645161],[129.7979797979798,61.2020202020202],[131.0,61.61538461538461],[132.0,61.5],[132.3181818181818,61.31818181818181],[138.16666666666666,61.0],[138.56521739130434,60.56521739130435],[139.0,60.375],[139.10526315789474,60.10526315789474],[142.0,60.01388888888889],[142.44444444444443,59.44444444444444],[143.14285714285714,59.142857142857146],[144.0,59.02173913043478],[147.86666666666667,58.86666666666667],[148.0,58.66666666666667],[148.33333333333334,58.66666666666667],[149.0,59.0],[153.11111111111111,59.0],[153.16666666666669,58.16666666666667],[154.0,57.714285714285715],[154.16666666666666,57.83333333333333],[157.11764705882354,58.11764705882353],[160.1764705882353,58.17647058823529],[160.0,57.857142857142854],[158.06060606060606,57.93939393939394],[158.10810810810813,57.10810810810811],[157.57142857142856,56.42857142857143],[157.0,55.07142857142858],[156.04545454545453,54.95454545454545],[156.04545454545453,54.04545454545454],[155.83333333333334,53.833333333333336],[155.22222222222223,54.22222222222222],[154.66666666666669,54.00000000000001],[154.75,53.75],[155.0,53.77777777777778],[155.38888888888889,53.38888888888889],[155.27906976744185,52.0],[154.73626373626374,51.73626373626374],[154.36842105263156,51.99999999999999],[154.35897435897436,52.35897435897436],[154.13333333333333,52.866666666666674],[154.16666666666666,53.166666666666664],[154.0,53.2],[153.70212765957444,52.29787234042553],[153.65853658536582,51.65853658536585],[154.03846153846155,51.0],[153.03389830508473,50.96610169491525],[152.36363636363637,50.63636363636363],[152.0344827586207,50.0],[151.02127659574467,49.97872340425532],[150.75,49.75],[150.33333333333334,49.66666666666667],[150.1818181818182,49.0],[149.06896551724137,48.93103448275862],[149.01694915254237,47.983050847457626],[147.03174603174602,47.96825396825396],[147.0083682008368,46.99163179916318],[146.01869158878503,46.981308411214954],[145.23076923076923,46.769230769230774],[145.05,46.0],[143.06837606837607,45.93162393162393],[143.0,45.78947368421053],[142.4,45.6],[142.0625,45.0],[138.07042253521126,44.92957746478873],[137.0,44.652173913043484],[136.0,44.89583333333333],[134.44827586206898,44.55172413793103],[134.0,44.13333333333333],[133.0,43.92857142857143],[132.35294117647058,43.647058823529406],[132.03603603603605,42.96396396396396],[131.10752688172045,42.89247311827957],[131.01526717557252,41.98473282442748],[129.2173913043478,41.78260869565217],[129.2173913043478,41.21739130434783],[129.0595238095238,40.94047619047619],[128.77777777777777,40.77777777777778],[128.1951219512195,40.80487804878049],[128.22222222222223,40.22222222222222],[128.0,39.83870967741935],[127.65517241379311,39.6551724137931],[127.34482758620692,39.6551724137931],[127.37837837837839,39.378378378378386],[127.10852713178294,38.89147286821706],[127.03636363636365,37.96363636363636],[126.14285714285714,37.857142857142854],[126.02962962962962,36.970370370370375],[125.16,36.839999999999996],[125.0,35.897959183673464],[124.25,35.75],[124.0,34.333333333333336],[123.71428571428571,34.0],[123.07936507936509,33.920634920634924],[122.4375,33.5625],[122.10344827586206,32.89655172413793],[122.04237288135593,31.95762711864407],[121.82758620689656,31.82758620689655],[121.17241379310344,31.82758620689655],[121.17241379310344,31.17241379310345],[121.0,30.893617021276594],[120.26415094339623,30.735849056603776],[120.1063829787234,30.0],[119.78260869565217,29.782608695652172],[119.25925925925927,29.74074074074074],[119.21739130434783,29.217391304347828],[119.0,28.886363636363637],[118.22727272727272,28.772727272727273],[118.22727272727272,28.227272727272727],[118.06211180124222,27.93788819875776],[117.72972972972974,27.72972972972973],[117.3111111111111,27.68888888888889],[117.0,25.0],[116.1467889908257,24.853211009174313],[116.0,23.93548387096774],[115.33333333333334,23.666666666666668],[115.04761904761905,22.0],[115.29090909090908,20.29090909090909],[115.7948717948718,20.205128205128204],[116.03755868544602,20.037558685446008],[116.16,19.16],[116.53333333333333,19.0],[116.62162162162161,18.62162162162162],[117.0,18.3],[117.12765957446808,17.872340425531917],[117.12765957446808,17.127659574468083],[117.75,17.0],[118.0,16.5],[118.01785714285715,16.017857142857142],[118.25806451612902,15.258064516129032],[119.0,15.045454545454545],[119.19999999999999,14.200000000000001],[119.8,14.000000000000002],[120.0,13.5],[120.5,13.5],[120.5,13.0],[121.0,12.5],[121.02272727272727,10.0],[120.08333333333333,9.916666666666668],[120.02272727272728,8.0],[119.04545454545453,7.954545454545455],[119.02272727272727,7.0],[118.0,7.0],[117.16666666666667,6.833333333333333],[117.0,6.571428571428571],[115.83333333333334,6.0],[115.07246376811595,5.927536231884058],[114.73684210526316,5.736842105263158],[114.23529411764706,5.764705882352942],[114.32,5.32],[114.06866952789699,4.931330472103005],[113.0,4.8076923076923075],[109.0,4.934782608695652],[106.0,4.826923076923077],[104.0,4.988636363636363],[103.70588235294117,5.705882352941177],[103.38709677419354,5.612903225806451],[102.0,5.781818181818182],[100.74468085106383,6.74468085106383],[99.86973180076629,6.869731800766284],[99.67924528301887,7.0],[99.56962025316456,7.4303797468354436],[99.7037037037037,7.703703703703704],[99.29629629629629,7.703703703703704],[98.6923076923077,8.0],[98.625,8.625],[98.28571428571428,9.285714285714285],[97.6923076923077,9.692307692307693],[97.33333333333334,10.333333333333334],[96.0,10.5],[95.97802197802197,10.978021978021978],[95.5,11.0],[95.0,11.25],[94.93478260869566,11.934782608695652],[93.97142857142858,12.0],[93.85714285714285,12.857142857142858],[93.0,13.0],[92.91999999999999,13.92],[92.13793103448276,13.86206896551724],[91.88235294117646,14.0],[91.81818181818181,14.18181818181818],[92.0,15.0],[91.28571428571428,15.285714285714285],[91.28571428571428,15.714285714285712],[91.0,16.5],[90.60000000000001,16.6],[89.5,16.5],[89.25,16.0],[88.95833333333333,16.0],[89.0,17.0],[88.00000000000001,17.071428571428573],[87.675,17.675],[87.07142857142858,18.0],[86.76811594202898,18.768115942028984],[86.2,19.0],[85.90697674418604,19.906976744186046],[85.33333333333334,20.0],[85.28571428571428,20.285714285714285],[84.5,21.0],[84.5,22.0],[84.33333333333334,22.333333333333336],[83.66666666666667,22.666666666666668],[83.33333333333334,23.333333333333336],[82.66666666666667,23.666666666666668],[82.33333333333334,24.333333333333336],[81.66666666666667,24.666666666666668],[81.33333333333334,25.333333333333336],[81.0,25.5],[79.0,25.5],[78.66666666666667,25.66666666666667],[78.33333333333334,26.333333333333336],[78.0,26.5],[77.0,26.5],[76.60000000000001,26.400000000000002],[76.0,26.0],[75.0,26.0],[74.4,26.400000000000002],[74.0,26.5],[73.66666666666667,26.333333333333336],[73.33333333333334,25.66666666666667],[73.0,25.5],[67.0,25.5],[66.60000000000001,25.6],[65.4,26.400000000000002],[65.0,26.5],[64.66666666666667,26.333333333333336],[64.5,26.0],[64.5,20.0],[64.6,19.6],[65.0,19.0],[58.666666666666664,19.0],[58.44444444444444,19.444444444444443],[58.0,19.666666666666664],[57.95454545454545,19.954545454545453],[55.888888888888886,20.0],[55.77777777777778,20.77777777777778],[55.22222222222222,20.77777777777778],[54.96153846153847,20.961538461538463],[52.0,21.0],[51.91666666666667,21.916666666666668],[48.9,22.0],[48.8,22.799999999999997],[48.2,22.799999999999997],[47.96363636363636,22.963636363636365],[44.989417989417994,22.989417989417987],[44.882352941176464,23.11764705882353],[44.882352941176464,23.88235294117647],[40.0,24.0],[39.93548387096774,24.93548387096774],[37.0,25.0],[36.85714285714286,25.857142857142858],[34.96,26.0],[34.92,26.92],[33.958333333333336,27.0],[33.91666666666667,27.916666666666668],[32.8,28.0],[32.6,28.6],[32.0,28.8],[31.978494623655912,28.978494623655912],[30.992395437262356,28.992395437262356],[30.976744186046513,29.976744186046513],[29.9375,30.0],[29.933333333333334,30.933333333333334],[27.99148936170213,30.99148936170213],[27.966101694915253,31.966101694915253],[26.977272727272727,32.0],[27.0,33.166666666666664],[27.333333333333336,33.333333333333336],[27.666666666666668,33.333333333333336],[27.666666666666668,33.66666666666667],[27.833333333333336,34.0],[30.01639344262295,34.01639344262295],[30.125,33.875],[30.125,33.125],[31.333333333333332,33.0],[31.555555555555557,32.55555555555555],[32.0,32.333333333333336],[32.02197802197802,32.02197802197802],[33.0077519379845,32.007751937984494],[33.02439024390244,31.024390243902438],[34.07142857142857,31.0],[34.14285714285714,30.142857142857146],[35.0,30.07142857142857],[35.85714285714286,30.142857142857146],[35.92857142857143,31.0],[37.95454545454545,31.045454545454543],[38.0,32.0],[49.972972972972975,32.027027027027025],[50.85542168674699,32.144578313253014],[51.333333333333336,32.66666666666667],[51.37931034482759,33.0],[52.0,33.295081967213115],[54.0,33.065217391304344],[56.0,33.0],[56.06060606060606,32.06060606060606],[59.0,32.0],[59.15384615384616,31.153846153846153],[61.03225806451613,31.03225806451613],[63.94285714285714,31.057142857142857],[63.98473282442748,32.01526717557252],[65.80000000000001,32.2],[65.80000000000001,32.8],[65.98913043478261,33.01086956521739],[69.91489361702128,33.08510638297872],[71.0,33.36363636363636],[73.11881188118812,33.11881188118812],[79.33333333333334,33.0],[80.0,32.5],[80.13333333333334,32.13333333333333],[82.5,32.0],[83.0,31.666666666666668],[83.12121212121212,31.12121212121212],[84.28571428571428,30.71428571428571],[84.71428571428571,30.71428571428571],[85.0,30.5],[85.05714285714285,30.057142857142857],[85.5,30.0],[85.71428571428571,29.714285714285715],[85.71428571428571,29.285714285714285],[86.0,28.75],[86.5,28.5],[86.75,28.0],[87.5,27.5],[88.0,26.75],[88.6,26.6],[89.0,26.0],[89.85714285714286,25.857142857142858],[90.0,25.5],[90.4,25.400000000000002],[91.0,25.0],[92.0,25.0],[92.4,24.400000000000002],[93.28571428571428,24.285714285714285],[93.33333333333334,22.333333333333336],[93.66666666666667,21.666666666666668],[94.25,21.25],[94.16666666666667,21.0],[94.25,20.25],[94.66666666666667,19.666666666666668],[95.0,19.5],[95.14285714285714,19.142857142857142],[95.18181818181819,18.181818181818183],[96.15384615384615,18.153846153846153],[96.5,18.0],[96.28571428571428,17.714285714285715],[96.25,16.75],[96.0,16.0],[97.0,15.666666666666668],[97.4,15.4],[97.5,15.0],[98.0,14.666666666666668],[98.25806451612902,14.258064516129032],[100.33333333333334,13.333333333333336],[102.0,13.0],[102.6,12.6],[103.0,12.0],[103.53846153846155,11.53846153846154],[104.3076923076923,11.307692307692308],[104.77777777777777,10.777777777777779],[105.4,10.4],[106.0,10.285714285714286],[109.0,10.333333333333332],[109.47058823529412,10.529411764705882],[109.88888888888889,11.11111111111111],[110.73333333333333,11.266666666666666],[116.0,11.5],[117.0,11.333333333333332],[117.4,11.600000000000001],[117.66666666666666,12.0],[117.25,13.25],[116.0,14.5],[115.71428571428571,14.285714285714285],[115.28571428571428,14.285714285714285],[114.11428571428571,13.885714285714286],[108.0,14.0],[107.5,15.0],[107.5,15.5],[108.0,16.0],[109.0,16.0],[109.0,17.0],[109.60000000000001,17.4],[110.0,17.5],[110.5,18.0],[110.28571428571428,18.285714285714285],[109.66666666666669,18.666666666666668],[109.5,19.0],[109.5,19.5],[110.0,20.0],[110.0,22.0],[109.0,22.0],[109.0,21.0],[108.33333333333334,20.666666666666668],[107.77777777777777,20.77777777777778],[107.5,21.0],[107.4,21.4],[107.0,22.0],[106.0,22.0],[105.91304347826086,19.913043478260867],[106.0,19.666666666666668],[106.4,19.400000000000002],[106.66666666666667,19.0],[106.60000000000001,16.6],[107.0,16.0],[106.0,16.0],[106.5,15.5],[106.5,15.0],[106.25,14.75],[105.36363636363637,14.636363636363637],[104.0,14.666666666666668],[102.84615384615384,14.846153846153847],[101.72727272727272,14.727272727272727],[99.72222222222223,15.722222222222221],[98.5,16.0],[98.0,16.333333333333336],[97.66666666666669,16.666666666666668],[97.5,17.5],[96.84615384615384,18.846153846153847],[96.9090909090909,19.0],[96.73333333333333,19.733333333333334],[96.0,20.0],[95.77777777777777,20.77777777777778],[95.83333333333333,21.0],[95.0,21.833333333333336],[94.75,21.75],[94.5,22.0],[94.66666666666667,22.333333333333336],[94.75,23.0],[94.66666666666666,24.0],[94.44444444444444,24.444444444444443],[93.71428571428571,24.714285714285715],[93.75,25.0],[93.95121951219512,25.04878048780488],[93.94736842105263,26.947368421052634],[93.0,27.0],[92.96875,32.0],[93.0,32.166666666666664],[93.33333333333334,32.333333333333336],[93.66666666666667,32.333333333333336],[93.66666666666667,32.66666666666667],[93.83333333333334,33.0],[93.0,35.0],[92.41666666666667,35.41666666666667],[91.9622641509434,35.96226415094339],[90.99999999999999,36.083333333333336],[89.95604395604396,36.956043956043956],[88.14285714285714,37.142857142857146],[87.95833333333333,37.95833333333333],[85.85714285714286,38.0],[85.71428571428571,38.285714285714285],[85.71428571428571,38.71428571428571],[85.28571428571428,38.71428571428571],[84.97619047619048,38.976190476190474],[83.9906103286385,38.990610328638496],[83.92156862745098,39.92156862745098],[82.96774193548387,40.0],[82.73913043478261,40.73913043478261],[81.875,41.0],[80.98019801980199,41.98019801980198],[80.24242424242425,42.24242424242424],[80.0,42.44444444444444],[79.9074074074074,42.90740740740741],[79.28571428571428,43.0],[79.00000000000001,43.16666666666667],[78.66666666666667,43.66666666666667],[77.85714285714286,43.85714285714286],[73.0,43.955555555555556],[71.0,43.869565217391305],[70.27160493827161,43.72839506172839],[69.06666666666668,43.0],[68.0,42.90243902439024],[67.43835616438355,42.56164383561644],[67.17777777777778,42.0],[65.57264957264957,41.42735042735043],[65.12363636363636,40.876363636363635],[63.21782178217822,40.78217821782178],[63.0,40.38888888888889],[62.5,40.0],[61.09790209790209,39.9020979020979],[60.0,39.64285714285714],[58.99999999999999,39.18181818181818],[54.18840579710145,37.81159420289855],[53.0,37.28],[52.0,37.08333333333333],[46.0,36.81308411214953],[45.28571428571429,37.0],[45.25396825396825,37.25396825396825],[44.83050847457627,37.83050847457627],[43.869565217391305,37.869565217391305],[42.0,37.666666666666664],[39.0,37.80808080808081],[33.517857142857146,37.482142857142854],[33.0,37.0],[31.0,36.63076923076923],[30.0,36.84782608695652],[29.30188679245283,36.698113207547166],[29.0,35.93478260869565],[26.93684210526316,35.93684210526315],[26.4,36.0],[26.0,36.285714285714285],[25.0,36.4],[24.0,36.0],[18.0,36.0],[18.0,34.94117647058823],[17.26086956521739,34.73913043478261],[17.058823529411764,34.0],[16.375,33.625],[16.166666666666668,33.0],[15.045454545454547,32.95454545454545],[15.022222222222222,32.0],[14.5,32.0],[14.166666666666666,32.166666666666664],[13.91304347826087,32.08695652173913],[13.25,31.0],[13.057142857142857,30.942857142857143],[13.0,30.75],[12.714285714285714,30.71428571428571],[12.0,31.0],[11.0,31.0],[10.4,31.400000000000002],[10.25,32.25],[10.0,32.5],[9.600000000000001,32.6],[9.0,33.0],[6.0,33.0],[6.333333333333334,33.66666666666667],[6.25,34.0],[6.333333333333334,36.333333333333336],[6.0,37.0],[5.0,36.0],[5.0,35.0],[5.4,34.400000000000006],[5.5,34.0],[5.4,33.6],[5.0,33.5],[4.666666666666667,33.66666666666667],[4.285714285714286,34.285714285714285],[4.0,34.25],[3.5,34.0],[3.4000000000000004,33.6],[3.0,33.0],[4.6,32.6],[5.0,32.0],[5.8,31.8],[7.0,31.75],[7.5,31.5],[8.0,30.666666666666668],[8.444444444444445,30.444444444444443],[8.833333333333334,29.833333333333336],[8.846153846153847,28.846153846153847],[9.0,28.5],[9.4,28.400000000000002],[10.0,28.0],[11.0,28.0],[11.0,27.0],[8.0,27.0],[7.0,28.0],[6.285714285714285,27.714285714285715],[5.818181818181818,27.818181818181817],[5.25,28.25],[4.0,28.5],[3.6363636363636362,28.363636363636363],[3.6,28.0],[4.48,27.479999999999997],[4.724137931034482,26.724137931034484],[5.0,26.42857142857143],[5.375,26.375],[6.0,26.0],[6.25,25.0],[6.052631578947368,23.94736842105263],[5.0,22.8],[3.9230769230769234,22.92307692307692],[3.888888888888889,24.0],[3.4285714285714284,25.0],[3.0,25.5],[2.6,25.400000000000002],[2.0,25.0],[1.1538461538461537,25.153846153846153],[0.0,25.0],[0.0,24.0],[-0.25,23.0],[-1.0,22.5],[-1.352941176470588,22.64705882352941],[-1.6,23.0],[-1.8,24.000000000000004],[-1.25,25.0],[-1.0,26.0],[-0.5,27.0],[-0.5714285714285714,28.0],[-0.38095238095238093,28.38095238095238],[0.23076923076923078,28.76923076923077],[3.0,29.0],[2.3333333333333335,30.000000000000004],[2.0,30.25],[1.75,30.25],[1.25,29.75],[1.0,29.666666666666668],[0.8,29.8],[0.6666666666666666,30.0],[0.75,31.0],[0.6666666666666667,31.66666666666667],[0.4,32.4],[0.0,32.333333333333336],[-0.4,32.6],[-0.6666666666666667,33.0],[-1.0,34.0],[-2.0,34.0],[-2.4,33.4],[-3.0,33.0],[-3.166666666666667,32.166666666666664],[-3.5555555555555554,31.555555555555557],[-4.2,31.2],[-4.333333333333334,31.0],[-4.0,30.5],[-3.666666666666667,30.333333333333336],[-3.5,30.0],[-3.666666666666667,29.666666666666668],[-3.6,28.0],[-4.0,27.0],[-4.0,26.0],[-4.6,25.6],[-5.0,25.5],[-6.0,25.5],[-6.529411764705882,26.470588235294116],[-7.0,26.666666666666668],[-8.0,26.0],[-9.0,26.0],[-10.0,26.4],[-10.5,26.0],[-10.0,25.333333333333332],[-9.666666666666668,25.333333333333336],[-9.5,25.0],[-10.0,24.5],[-10.25,24.0],[-11.38095238095238,23.38095238095238],[-11.666666666666668,23.0],[-11.600000000000001,22.6],[-12.0,22.333333333333336],[-12.200000000000001,22.0],[-12.2,21.799999999999997],[-11.5,21.5],[-11.5,21.0],[-11.714285714285714,20.714285714285715],[-12.4,20.400000000000002],[-12.5,20.0],[-12.0,19.57142857142857],[-10.999999999999998,19.769230769230766],[-10.571428571428571,20.0],[-10.444444444444443,20.444444444444443],[-9.75,21.0],[-9.5,22.0],[-9.0,22.4],[-8.0,22.57142857142857],[-5.571428571428571,22.42857142857143],[-5.000000000000001,21.857142857142858],[-3.0,21.0],[-1.0,21.4],[-0.7647058823529411,21.235294117647058],[0.0,21.214285714285715],[0.75,21.0],[1.5789473684210527,20.57894736842105],[4.0,20.0],[4.666666666666667,19.666666666666668],[5.0,19.0],[6.333333333333334,19.666666666666668],[7.0,19.75],[7.75,19.0],[7.6,18.6],[8.0,18.0],[7.6,17.4],[7.818181818181818,16.81818181818182],[9.0,16.333333333333332],[9.2,16.0],[9.666666666666668,15.666666666666668],[10.0,15.6],[10.75,15.0],[11.095238095238095,14.095238095238095],[11.25,14.0],[11.75,13.0],[13.0,12.25],[14.0,11.2],[14.600000000000001,11.400000000000002],[15.0,12.0],[15.8,12.2],[16.0,12.5],[16.400000000000002,12.4],[17.0,12.0],[18.0,11.8],[18.22222222222222,11.222222222222221],[19.22222222222222,11.0],[20.166666666666664,10.166666666666666],[21.1,10.0],[21.5,9.5],[22.205128205128204,9.205128205128204],[23.0,9.0],[26.0,9.0],[26.75,8.75],[28.0,8.75],[28.66666666666667,8.666666666666668],[29.0,8.5],[30.0,8.5],[30.333333333333336,8.333333333333334],[30.5,8.0],[30.81818181818182,7.818181818181818],[31.75,7.75],[32.44444444444444,7.444444444444444],[32.75,6.75],[33.333333333333336,6.333333333333334],[33.714285714285715,5.7142857142857135],[34.333333333333336,5.333333333333334],[34.5,5.0],[34.66666666666667,4.0],[35.0,3.0],[35.5,2.5],[35.66666666666667,2.0],[35.66666666666667,0.0],[35.77777777777778,-0.2222222222222222],[36.44444444444444,-0.5555555555555556],[36.66666666666667,-1.0],[36.66666666666667,-2.0],[36.8,-2.2],[37.44444444444444,-2.555555555555556],[37.77777777777777,-3.2222222222222223],[38.44444444444444,-3.5555555555555554],[38.66666666666667,-4.0],[38.66666666666667,-6.0],[38.77777777777778,-6.222222222222222],[39.400000000000006,-6.6000000000000005],[39.6,-7.4],[40.0,-8.0],[41.0,-7.5],[41.400000000000006,-7.6],[42.0,-8.0],[42.4,-8.600000000000001],[42.5,-9.0],[42.333333333333336,-9.333333333333334],[42.0,-9.5],[41.75,-10.25],[41.75,-10.75],[41.0,-11.0],[41.6,-11.400000000000002],[42.22222222222223,-11.222222222222221],[46.0,-11.0],[47.0,-11.25],[47.46153846153846,-11.53846153846154],[48.0,-12.5],[48.04651162790698,-12.953488372093023],[49.0,-13.0],[49.18181818181818,-15.818181818181818],[50.0,-16.0],[50.125,-16.875],[50.33333333333333,-17.0],[50.542857142857144,-17.457142857142856],[51.0,-17.727272727272727],[51.16666666666667,-18.166666666666668],[51.16666666666667,-18.833333333333332],[51.8,-18.8],[52.16666666666667,-19.0],[52.266666666666666,-19.266666666666666],[52.11111111111111,-19.88888888888889],[52.888888888888886,-19.88888888888889],[53.16666666666667,-20.0],[53.52380952380952,-20.476190476190474],[54.0,-20.625],[54.10526315789474,-20.89473684210526],[55.05555555555556,-21.0],[55.28571428571428,-21.714285714285715],[55.68000000000001,-21.68],[56.44444444444444,-22.0],[56.6,-22.4],[57.0,-22.625],[57.10714285714286,-22.892857142857142],[58.02919708029197,-22.97080291970803],[58.12765957446808,-23.872340425531913],[59.375,-24.0],[59.6,-24.400000000000002],[60.0,-24.555555555555557],[60.16666666666667,-24.833333333333332],[62.83333333333333,-25.0],[63.24242424242424,-25.757575757575758],[64.10810810810811,-25.891891891891895],[68.0,-26.0],[68.41666666666667,-26.583333333333336],[69.13793103448276,-26.862068965517242],[72.66666666666667,-27.000000000000004],[73.0,-27.333333333333336],[73.28571428571428,-27.285714285714285],[73.33333333333334,-27.000000000000004],[77.33333333333333,-27.0],[77.5,-27.5],[78.0,-28.0],[78.91111111111111,-27.91111111111111],[81.0,-28.0],[81.18181818181819,-28.818181818181817],[81.81818181818181,-28.818181818181817],[82.0655737704918,-28.934426229508194],[86.0,-29.0],[86.4,-29.6],[87.14634146341463,-29.853658536585364],[91.0,-29.95744680851064],[91.19999999999999,-30.0],[91.44444444444444,-30.555555555555554],[92.0,-30.727272727272727],[93.0,-30.81818181818182],[93.36363636363636,-30.636363636363637],[93.6923076923077,-31.30769230769231],[94.0,-31.4],[95.16666666666666,-31.166666666666664],[95.25,-30.75],[95.0,-30.5],[94.75,-30.75],[94.33333333333334,-30.666666666666668],[94.0,-30.75],[93.55555555555554,-30.444444444444443],[93.6,-30.0],[95.98360655737704,-29.983606557377048],[97.80952380952381,-29.80952380952381],[97.84210526315789,-29.157894736842103],[98.0,-28.93181818181818],[100.0,-28.872340425531917],[100.21428571428572,-29.0],[100.50561797752809,-29.494382022471907],[101.16216216216216,-29.83783783783784],[103.01498127340824,-29.98501872659176],[103.11347517730496,-30.886524822695037],[103.4,-31.6],[104.16216216216216,-32.0],[104.3,-32.3],[104.25,-32.75],[104.72222222222223,-32.72222222222222],[105.11904761904762,-33.0],[105.11320754716981,-33.88679245283019],[105.51020408163265,-34.48979591836734],[106.0,-34.75],[106.2051282051282,-35.205128205128204],[106.25531914893618,-35.74468085106383],[106.7948717948718,-35.794871794871796],[107.03940886699507,-35.960591133004925],[107.2439024390244,-37.75609756097561],[107.83333333333333,-38.0],[107.57142857142856,-39.0],[107.68421052631578,-39.315789473684205],[108.0,-39.5],[108.03333333333333,-41.0],[107.78571428571428,-41.214285714285715],[107.27777777777777,-41.27777777777778],[107.08108108108108,-42.08108108108108],[107.03652968036529,-46.0365296803653],[106.77777777777777,-46.22222222222222],[106.25,-46.25],[106.12048192771084,-47.12048192771084],[106.12121212121212,-50.878787878787875],[106.29629629629629,-51.29629629629629],[106.26086956521739,-51.73913043478261],[106.7037037037037,-51.703703703703695],[107.30769230769232,-52.0],[107.53846153846155,-52.46153846153847],[108.0,-52.642857142857146],[108.19607843137254,-53.19607843137255],[108.13953488372093,-53.860465116279066],[108.42857142857142,-54.0],[108.55555555555556,-54.44444444444444],[109.0,-55.0],[108.20689655172413,-55.20689655172414],[108.24242424242425,-55.75757575757576],[108.06779661016948,-56.06779661016949],[108.03619909502262,-57.036199095022624],[107.81818181818181,-57.18181818181819],[107.11111111111111,-57.111111111111114],[107.11111111111111,-57.88888888888889],[107.0,-58.06896551724138],[106.08,-58.08],[106.18181818181819,-58.81818181818182],[106.0,-59.07317073170732],[105.05263157894737,-59.05263157894737],[105.0,-60.0],[103.11111111111111,-60.11111111111111],[103.0,-61.0],[101.08695652173913,-61.086956521739125],[101.04347826086956,-62.0],[99.14285714285715,-62.14285714285714],[99.07142857142857,-63.0],[98.03225806451613,-63.03225806451613],[97.77777777777777,-63.22222222222222],[97.22222222222223,-63.22222222222222],[97.11111111111111,-64.0],[95.05128205128206,-64.05128205128204],[95.02564102564104,-65.0],[94.05000000000001,-65.05],[94.0,-66.0],[93.02409638554217,-66.02409638554217],[93.0,-66.25],[92.5,-66.5],[92.25,-67.0],[91.04444444444445,-67.04444444444445],[91.0,-68.25],[90.5,-68.5],[90.25,-69.0],[89.06666666666666,-69.06666666666666],[89.03333333333333,-70.0],[88.05405405405405,-70.05405405405406],[88.02702702702703,-71.0],[87.05128205128204,-71.05128205128206],[87.0,-72.0],[84.15555555555555,-72.15555555555557],[83.69565217391305,-72.30434782608695],[83.23529411764707,-72.23529411764706],[83.0,-73.02222222222223],[82.11267605633803,-73.11267605633803],[81.4,-73.4],[81.0,-74.0],[80.08333333333334,-74.08333333333334],[80.0,-75.0],[78.03333333333333,-75.03333333333333],[78.0,-76.01136363636364],[75.03174603174604,-76.03174603174604],[74.77777777777777,-76.22222222222223],[74.22222222222223,-76.22222222222223],[73.5,-77.0],[71.33333333333334,-77.0],[71.0,-76.66666666666667],[70.5,-77.0],[68.0,-77.01149425287358],[67.86666666666666,-76.13333333333333],[63.9815668202765,-76.0184331797235],[63.8974358974359,-75.1025641025641],[60.98039215686274,-75.01960784313725],[60.84615384615384,-74.84615384615384],[60.84615384615384,-74.15384615384615],[59.0,-74.02739726027397],[46.97916666666667,-74.02083333333333],[46.875,-74.0],[46.88235294117647,-72.88235294117646],[47.75,-72.75],[47.75,-72.25],[47.875,-72.0],[47.417910447761194,-71.5820895522388],[47.0,-71.46153846153845],[46.55555555555555,-71.55555555555554],[44.0,-73.0],[44.400000000000006,-73.60000000000001],[45.0,-73.75],[45.22222222222222,-74.0],[45.0,-74.0625],[37.02941176470588,-74.02941176470588],[36.0,-74.0],[35.41666666666667,-73.58333333333333],[35.0,-73.44444444444444],[34.81395348837209,-73.18604651162791],[29.666666666666668,-73.0],[28.736842105263158,-72.26315789473685],[28.0,-72.10416666666666],[26.215384615384615,-72.21538461538461],[26.0,-72.5],[25.0,-72.6875],[23.6875,-72.6875],[23.01098901098901,-73.01098901098901],[22.11764705882353,-72.88235294117646],[21.8,-73.0],[20.0,-73.08771929824562],[14.0,-73.0],[13.52,-72.47999999999999],[12.307692307692308,-71.6923076923077],[10.0,-71.44444444444444],[9.703703703703702,-71.29629629629629],[9.3,-70.7],[8.0,-70.125],[7.0,-70.44444444444444],[5.0,-70.33333333333333],[3.0,-70.45454545454545],[1.0,-70.28571428571428],[0.4,-70.4],[-0.25,-70.75],[-1.0,-70.80000000000001],[-2.0,-70.42857142857143],[-4.421052631578947,-70.42105263157895],[-6.0,-70.14285714285714],[-7.0,-70.14285714285714],[-7.333333333333333,-70.0],[-7.636363636363637,-69.63636363636364],[-8.0,-69.5],[-8.4,-69.6],[-9.0,-70.0],[-10.0,-70.0],[-11.0,-69.75],[-11.133333333333333,-69.86666666666667],[-11.73913043478261,-69.73913043478261],[-14.0,-69.875],[-14.714285714285712,-69.71428571428572],[-14.913043478260871,-69.0],[-14.818181818181817,-68.81818181818181],[-14.888888888888888,-68.11111111111111],[-14.266666666666666,-68.26666666666667],[-13.555555555555557,-68.0],[-14.000000000000002,-67.80000000000001],[-14.925925925925927,-67.92592592592592],[-15.777777777777779,-67.77777777777777],[-16.0,-67.33333333333333],[-17.333333333333336,-67.33333333333334],[-17.5,-67.0],[-17.0,-66.85714285714286],[-16.0,-66.85714285714286],[-15.53846153846154,-66.46153846153847],[-14.0,-66.05882352941177],[-11.875,-66.125],[-11.0,-66.0],[-10.4375,-65.5625],[-9.642857142857142,-65.35714285714286],[-6.258064516129032,-65.25806451612902],[-4.0,-65.0],[-2.0,-65.0625],[-1.0,-64.83333333333334],[0.0,-65.0],[0.7142857142857142,-64.71428571428571],[1.0,-64.0],[0.7142857142857142,-63.285714285714285],[0.0,-63.0],[-2.0,-63.0],[-2.5,-62.5],[-2.5,-62.0],[-2.666666666666667,-61.66666666666667],[-3.0,-61.5],[-3.4000000000000004,-61.6],[-4.0,-62.0],[-5.0,-62.0],[-5.0,-61.0],[-7.0,-61.0],[-7.0,-60.0],[-10.0,-60.0],[-10.0,-59.0],[-10.866666666666667,-58.86666666666667],[-13.0,-59.0],[-14.0,-58.833333333333336],[-15.0,-59.0],[-16.0,-59.0],[-16.05263157894737,-60.0],[-16.32258064516129,-60.677419354838705],[-17.0,-60.94736842105263],[-18.0,-61.0],[-21.0,-61.0],[-21.0,-60.0],[-21.285714285714285,-59.285714285714285],[-21.666666666666668,-59.0],[-21.714285714285715,-58.71428571428571],[-22.0,-58.5],[-22.71428571428571,-59.285714285714285],[-22.57894736842105,-59.57894736842105],[-22.57894736842105,-60.421052631578945],[-23.0,-61.0],[-26.5,-60.0],[-27.285714285714285,-59.285714285714285],[-28.0,-59.2],[-28.034482758620687,-59.03448275862069],[-28.200000000000003,-59.0],[-28.444444444444443,-58.44444444444444],[-29.0,-58.0],[-29.166666666666664,-57.16666666666667],[-29.5,-57.0],[-29.714285714285715,-56.71428571428571],[-30.0,-56.0],[-30.75,-55.75],[-31.5,-54.0],[-31.375,-53.0],[-31.77777777777778,-51.77777777777778],[-32.0,-51.5],[-32.03703703703704,-51.03703703703704],[-32.5,-51.0],[-32.77777777777778,-50.77777777777778],[-32.77777777777778,-50.22222222222222],[-32.9375,-49.9375],[-32.9375,-49.0625],[-34.0,-46.900000000000006],[-34.3,-45.0],[-34.52112676056338,-41.521126760563384],[-34.723076923076924,-40.72307692307693],[-35.0,-40.5],[-35.28125,-40.0],[-35.46666666666667,-37.0],[-35.75,-35.0],[-36.18705035971223,-34.18705035971223],[-36.63975155279503,-32.63975155279503],[-37.107883817427386,-32.107883817427386],[-37.318681318681314,-30.0],[-37.592592592592595,-29.0],[-37.73170731707317,-28.731707317073173],[-38.0,-28.560000000000002],[-38.513513513513516,-27.513513513513516],[-39.09722222222222,-27.09722222222222],[-39.50476190476191,-26.504761904761903],[-41.280936454849495,-25.280936454849503],[-41.710437710437716,-24.71043771043771],[-42.36144578313253,-24.36144578313253],[-42.72185430463576,-23.721854304635762],[-43.39575971731448,-23.39575971731449],[-43.801886792452834,-22.80188679245283],[-45.0,-22.02173913043478],[-46.019417475728154,-21.019417475728158],[-46.38620689655173,-20.386206896551723],[-46.875,-20.0],[-47.53260869565218,-18.532608695652176],[-48.0625,-18.0],[-49.0,-16.133333333333333],[-49.0,-14.0],[-49.170212765957444,-13.170212765957446],[-49.75,-12.0],[-50.0,-10.818181818181818],[-51.0,-10.0],[-51.83333333333333,-9.833333333333332],[-52.0,-9.666666666666668],[-52.22222222222222,-9.777777777777779],[-52.25,-10.0],[-52.89285714285714,-10.107142857142858],[-53.028169014084504,-10.028169014084506],[-53.02197802197802,-9.021978021978022],[-53.733333333333334,-8.0],[-54.00000000000001,-6.666666666666667],[-54.230769230769226,1.0],[-54.41095890410959,1.589041095890411],[-55.0,2.0],[-55.21818181818182,6.0],[-55.07692307692308,8.923076923076923],[-55.367346938775505,9.63265306122449],[-56.098591549295776,9.901408450704226],[-56.291666666666664,10.291666666666666],[-56.291666666666664,10.708333333333332],[-56.70833333333333,10.708333333333332],[-57.0,10.854166666666666],[-57.23880597014925,11.761194029850746],[-57.72727272727273,12.0],[-58.0,12.31578947368421],[-58.23684210526316,13.763157894736842],[-58.53846153846154,14.461538461538462],[-59.0,14.9375],[-59.21487603305785,15.785123966942148],[-60.023715415019765,15.976284584980236],[-60.29310344827587,16.70689655172414],[-61.099999999999994,17.0],[-62.21428571428571,17.785714285714285],[-63.062717770034844,17.937282229965156],[-63.29677419354839,18.703225806451613],[-64.35114503816794,19.64885496183206],[-66.0,20.0],[-66.38356164383562,20.61643835616438],[-67.18181818181819,20.81818181818182],[-68.12096774193549,20.879032258064516],[-68.3061224489796,21.0],[-68.53424657534246,21.465753424657535],[-69.18823529411765,21.811764705882354],[-69.88888888888889,21.999999999999996],[-70.21138211382113,22.788617886178862],[-71.03802281368822,22.961977186311785],[-71.36507936507937,23.63492063492064],[-72.08727272727273,23.912727272727274],[-72.43575418994413,24.564245810055866],[-73.03041825095056,24.96958174904943],[-73.28571428571428,25.714285714285715],[-73.78571428571428,26.0],[-74.26315789473685,26.736842105263158],[-75.00757575757575,26.992424242424242],[-75.30344827586207,27.696551724137933],[-76.04964539007092,27.95035460992908],[-76.14925373134328,28.850746268656717],[-76.29411764705883,29.0],[-76.19047619047619,29.19047619047619],[-75.22764227642276,29.227642276422763],[-74.0,28.90909090909091],[-72.91878172588832,28.081218274111677],[-71.46927374301677,26.53072625698324],[-70.25,26.0],[-69.54054054054053,25.45945945945946],[-68.84507042253522,25.15492957746479],[-67.96694214876032,25.03305785123967],[-67.71794871794872,24.282051282051285],[-67.27027027027027,24.270270270270274],[-66.5,24.0],[-66.3125,23.6875],[-66.0,23.523809523809526],[-65.40449438202248,22.595505617977526],[-65.0,22.379310344827587],[-64.57142857142858,21.42857142857143],[-63.90566037735849,21.09433962264151],[-63.51578947368421,20.48421052631579],[-62.84795321637427,20.15204678362573],[-61.972727272727276,20.027272727272727],[-61.5,19.5],[-61.0,19.24],[-60.41558441558442,19.41558441558442],[-60.0,19.842105263157894],[-59.05594405594405,20.055944055944057],[-58.4375,20.4375],[-58.0,21.535714285714285],[-57.66666666666667,21.666666666666668],[-57.20289855072464,22.202898550724637],[-57.219178082191775,22.78082191780822],[-57.0,23.727272727272727],[-56.66666666666667,23.666666666666668],[-56.0,24.0],[-56.53846153846154,24.461538461538463],[-57.0,24.428571428571427],[-57.04347826086956,26.956521739130434],[-58.0,27.0],[-58.083333333333336,28.083333333333336],[-58.0,31.0],[-57.0,31.0]],[[-21.75,77.25],[-20.833333333333336,77.16666666666666],[-19.666666666666668,76.33333333333334],[-18.714285714285715,76.28571428571428],[-18.0,76.0],[-17.0,76.0],[-17.0,77.0],[-19.0,78.0],[-20.5,79.0],[-21.0,79.16666666666667],[-23.0,79.33333333333334],[-23.285714285714285,79.28571428571428],[-23.666666666666668,79.0],[-23.5,78.5],[-22.666666666666668,78.33333333333334],[-22.0,78.0],[-21.75,77.25]],[[109.0,23.0],[109.44444444444444,23.555555555555557],[109.66666666666669,24.333333333333336],[110.15384615384615,24.846153846153847],[110.66666666666667,25.333333333333336],[111.4,25.6],[112.0,26.0],[112.44444444444444,26.555555555555554],[112.33333333333334,27.333333333333336],[111.53846153846155,27.53846153846154],[111.0,28.0],[110.46153846153847,27.53846153846154],[109.6923076923077,27.307692307692307],[108.73913043478261,27.26086956521739],[108.45454545454544,26.545454545454543],[107.93939393939394,26.06060606060606],[108.0,25.0],[107.86666666666666,24.133333333333333],[107.33333333333334,23.0],[107.5,22.5],[108.0,22.333333333333336],[108.4,22.4],[109.0,22.0],[109.0,23.0]],[[7.0,37.0],[7.0,38.0],[6.0,38.0],[6.0,37.0],[7.0,37.0]],[[7.4,18.400000000000002],[6.800000000000001,18.2],[6.75,18.0],[7.333333333333334,17.666666666666668],[8.0,18.0],[7.4,18.400000000000002]],[[40.75,-11.75],[40.25,-11.75],[39.904761904761905,-11.904761904761905],[39.75,-12.0],[39.66666666666667,-12.333333333333334],[40.0,-12.5],[41.15384615384615,-12.153846153846153],[41.400000000000006,-11.600000000000001],[41.0,-11.0],[40.75,-11.75]],[[-55.0,24.0],[-55.0,23.0],[-54.0,23.0],[-54.0,25.0],[-56.0,25.0],[-56.0,24.0],[-55.0,24.0]],[[-52.0,25.0],[-52.0,26.0],[-53.0,26.0],[-53.0,31.0],[-54.0,31.0],[-54.0,25.0],[-52.0,25.0]],[[-54.0,33.0],[-55.0,33.0],[-55.0,31.0],[-54.0,31.0],[-54.0,33.0]],[[0.25,37.75],[0.75,37.75],[1.0,37.0],[2.0,37.0],[1.5,37.5],[1.5,38.0],[1.6666666666666665,38.333333333333336],[2.3333333333333335,38.66666666666667],[2.666666666666667,39.333333333333336],[3.0,39.5],[3.4000000000000004,39.400000000000006],[4.0,39.0],[5.0,39.0],[6.0,40.0],[5.285714285714286,41.28571428571428],[4.0,41.5],[3.0,42.0],[2.0,41.333333333333336],[0.6000000000000001,41.6],[0.0,42.0],[-0.4,41.400000000000006],[-0.5,41.0],[-0.4,40.6],[0.33333333333333337,40.333333333333336],[0.5,40.0],[-0.2857142857142857,38.285714285714285],[-0.2,38.0],[0.25,37.75]],[[7.0,40.0],[7.0,39.0],[8.0,39.0],[8.0,40.0],[7.0,40.0]],[[-11.666666666666666,60.00000000000001],[-11.882352941176471,60.11764705882352],[-13.0,60.22222222222222],[-13.666666666666666,60.0],[-13.0,59.0],[-12.0,59.0],[-11.600000000000001,59.6],[-11.666666666666666,60.00000000000001]],[[0.75,33.25],[0.6000000000000001,32.6],[1.5,32.5],[2.0,32.0],[2.0,33.0],[1.4000000000000001,33.4],[1.0,33.5],[0.75,33.25]],[[-1.0,36.2],[-2.0,36.0],[-1.2857142857142856,35.71428571428571],[-1.0,35.75],[-0.6666666666666667,36.0],[-1.0,36.2]],[[-9.26086956521739,-57.26086956521739],[-9.0,-57.5],[-7.555555555555555,-57.44444444444444],[-7.0,-57.0],[-8.0,-56.83333333333333],[-8.837837837837839,-56.83783783783784],[-9.3,-57.0],[-9.26086956521739,-57.26086956521739]],[[-1.6666666666666667,-58.0],[-2.4444444444444446,-57.44444444444444],[-2.4000000000000004,-57.0],[-2.8604651162790695,-56.86046511627907],[-4.222222222222222,-56.77777777777778],[-4.916666666666667,-56.916666666666664],[-5.0,-56.75],[-5.333333333333334,-57.00000000000001],[-5.25,-57.25],[-4.0,-57.66666666666667],[-3.0,-57.75],[-2.6,-57.6],[-2.3333333333333335,-58.33333333333334],[-2.0,-58.5],[-1.6666666666666667,-58.0]],[[1.1333333333333333,-58.86666666666667],[0.6666666666666667,-59.0],[0.75,-59.25],[1.2857142857142856,-59.285714285714285],[2.0,-59.0],[1.1333333333333333,-58.86666666666667]],[[12.600000000000001,-27.0],[12.857142857142858,-27.142857142857142],[14.0,-27.0],[13.600000000000001,-26.400000000000002],[13.0,-26.0],[12.0,-25.0],[11.0,-25.0],[10.5,-25.5],[10.0,-27.0],[11.0,-27.375],[11.5,-27.0],[11.600000000000001,-26.6],[12.0,-26.25],[12.5,-26.5],[12.600000000000001,-27.0]],[[19.714285714285715,-55.0],[20.000000000000004,-55.13333333333334],[21.0,-55.2],[21.5,-55.0],[21.0,-54.6],[20.0,-54.6],[19.764705882352942,-54.76470588235294],[19.714285714285715,-55.0]],[[22.5,-25.0],[23.0,-25.6],[24.0,-25.6],[25.0,-25.0],[25.0,-24.0],[25.22222222222222,-22.77777777777778],[25.0,-22.0],[26.0,-22.0],[26.333333333333336,-21.333333333333336],[26.666666666666668,-21.0],[26.0,-20.0],[25.461538461538463,-20.461538461538463],[25.0,-20.6],[24.0,-20.5],[23.0,-21.0],[22.571428571428573,-21.571428571428573],[22.5,-22.0],[22.666666666666668,-23.0],[22.333333333333336,-24.0],[22.5,-25.0]],[[28.5,-69.5],[28.666666666666664,-69.0],[28.0,-68.85714285714286],[26.833333333333332,-69.0],[27.0,-70.0],[28.0,-70.0],[28.5,-69.5]],[[28.92,-33.92],[28.666666666666668,-34.0],[29.076923076923073,-34.07692307692308],[29.064516129032256,-33.935483870967744],[28.92,-33.92]],[[29.75,-69.25],[30.095238095238095,-69.0952380952381],[31.25,-69.0],[31.0,-68.83333333333333],[30.210526315789473,-68.78947368421052],[29.333333333333336,-69.0],[29.75,-69.25]],[[32.0,-20.5],[31.0,-21.0],[32.1,-21.1],[32.5,-21.0],[32.4,-20.6],[32.0,-20.5]],[[34.5,-20.0],[34.375,-19.625],[34.0,-19.5],[33.0,-20.0],[33.333333333333336,-20.666666666666668],[34.0,-21.0],[34.46153846153846,-20.461538461538463],[34.5,-20.0]],[[33.6,-21.6],[33.4,-22.4],[33.0,-22.333333333333336],[32.833333333333336,-23.0],[33.0,-23.28571428571429],[33.285714285714285,-23.285714285714285],[33.666666666666664,-23.0],[33.6,-22.6],[34.0,-22.5],[34.2,-22.2],[34.285714285714285,-21.714285714285715],[34.0,-21.0],[33.6,-21.6]],[[39.333333333333336,-12.666666666666668],[38.888888888888886,-12.88888888888889],[38.833333333333336,-13.166666666666668],[39.0,-13.333333333333334],[39.5,-13.0],[39.333333333333336,-12.666666666666668]],[[43.28571428571428,-60.71428571428571],[42.95454545454545,-60.95454545454545],[42.5,-61.0],[42.89473684210526,-61.10526315789473],[43.333333333333336,-61.0],[43.28571428571428,-60.71428571428571]],[[44.43478260869565,-60.434782608695656],[44.714285714285715,-60.0],[44.0,-59.82142857142857],[43.58333333333333,-59.99999999999999],[43.565217391304344,-60.434782608695656],[44.0,-60.71428571428571],[44.43478260869565,-60.434782608695656]],[[45.66666666666667,-36.66666666666667],[45.42857142857143,-37.0],[45.800000000000004,-38.0],[46.0,-38.13333333333334],[46.22222222222222,-38.0],[46.470588235294116,-37.47058823529412],[47.0,-37.0],[46.0,-36.6],[45.66666666666667,-36.66666666666667]],[[48.0,-37.666666666666664],[48.355555555555554,-37.355555555555554],[48.44444444444444,-37.0],[48.340425531914896,-36.659574468085104],[48.0,-36.42857142857143],[47.0,-37.0],[48.0,-37.666666666666664]],[[48.92857142857143,-59.0],[49.0,-59.16666666666667],[49.5,-59.0],[49.10526315789473,-58.89473684210527],[48.92857142857143,-59.0]],[[53.60000000000001,-37.6],[53.0,-38.0],[53.99999999999999,-38.09090909090909],[54.33333333333334,-38.0],[54.0,-37.5],[53.60000000000001,-37.6]],[[57.0,-52.800000000000004],[56.66666666666667,-53.0],[57.00000000000001,-53.07692307692308],[57.142857142857146,-53.0],[57.0,-52.800000000000004]],[[59.375,-60.375],[59.75,-60.0],[59.0,-59.7],[58.25,-60.0],[58.60000000000001,-60.400000000000006],[59.0,-60.5],[59.375,-60.375]],[[60.0,-34.72222222222222],[59.77272727272727,-34.77272727272727],[59.58333333333333,-35.0],[59.2,-36.0],[60.0,-36.285714285714285],[60.19512195121951,-36.19512195121951],[60.5,-35.5],[61.05714285714286,-35.05714285714286],[61.0,-34.833333333333336],[60.0,-34.72222222222222]],[[64.0,-61.5],[64.15384615384616,-61.84615384615384],[64.83333333333333,-62.166666666666664],[66.0,-61.875],[66.55555555555556,-61.55555555555555],[67.0,-61.0],[66.0,-60.416666666666664],[65.76744186046511,-60.23255813953489],[65.72222222222223,-60.0],[65.30588235294118,-59.69411764705883],[64.0,-59.904761904761905],[61.5,-60.0],[61.33333333333333,-61.0],[61.55555555555555,-61.44444444444444],[62.0,-61.666666666666664],[62.444444444444436,-61.44444444444444],[62.714285714285715,-60.71428571428571],[63.0,-60.5],[63.66666666666667,-61.33333333333334],[64.0,-61.5]],[[65.33333333333334,-30.000000000000004],[65.29629629629629,-29.703703703703702],[65.0,-29.6],[64.78947368421052,-29.789473684210527],[64.8048780487805,-30.195121951219512],[65.17391304347825,-30.173913043478258],[65.33333333333334,-30.000000000000004]],[[68.92307692307692,-51.0],[69.0,-51.166666666666664],[69.33333333333334,-51.00000000000001],[69.0952380952381,-50.904761904761905],[68.92307692307692,-51.0]],[[97.0,-40.66666666666667],[96.66666666666667,-41.0],[97.0,-41.25],[97.25,-41.0],[97.0,-40.66666666666667]],[[-2.9215686274509802,-66.92156862745098],[-3.4,-67.0],[-3.3333333333333335,-67.33333333333334],[-3.0,-67.5],[-2.8333333333333335,-67.16666666666667],[-2.9215686274509802,-66.92156862745098]],[[-1.0,-68.2],[-0.75,-68.0],[-1.2000000000000002,-68.0],[-1.0,-68.2]],[[-34.84615384615385,45.15384615384615],[-35.0,45.5],[-35.333333333333336,45.0],[-35.22222222222222,44.77777777777777],[-35.0,44.75],[-34.84615384615385,45.15384615384615]],[[-33.0,36.0],[-32.0,37.0],[-31.400000000000002,36.6],[-31.0,36.5],[-30.0,36.5],[-29.714285714285715,36.714285714285715],[-29.333333333333336,37.333333333333336],[-29.0,37.33333333333333],[-28.66666666666667,37.66666666666667],[-28.6,38.0],[-28.66666666666667,38.333333333333336],[-29.0,38.66666666666667],[-29.333333333333336,38.66666666666667],[-29.666666666666668,39.333333333333336],[-31.285714285714285,39.71428571428571],[-31.25,40.0],[-31.625,40.375],[-32.0,40.42857142857142],[-33.5,40.0],[-33.5,38.5],[-34.25,38.25],[-35.333333333333336,37.0],[-35.22222222222222,36.77777777777778],[-34.5,36.5],[-34.0,36.0],[-33.0,36.0]],[[-29.0,53.0],[-28.125,52.875],[-27.833333333333336,53.0],[-28.166666666666664,53.166666666666664],[-29.0,53.0]],[[-22.700000000000003,52.7],[-22.4,53.0],[-22.53846153846154,53.46153846153847],[-23.0,53.6],[-23.25,53.0],[-23.352941176470587,52.647058823529406],[-23.0,52.0],[-22.700000000000003,52.7]],[[-23.77777777777778,52.22222222222222],[-24.11111111111111,51.888888888888886],[-23.0,52.0],[-23.77777777777778,52.22222222222222]],[[-19.59090909090909,14.59090909090909],[-19.357142857142858,15.0],[-19.59090909090909,15.40909090909091],[-20.0,15.529411764705882],[-20.450000000000003,15.0],[-20.36,14.64],[-20.0,14.25],[-19.59090909090909,14.59090909090909]],[[-18.642857142857142,43.0],[-18.807692307692307,43.19230769230769],[-19.227272727272727,43.22727272727273],[-19.454545454545453,43.0],[-19.19607843137255,42.80392156862745],[-18.75609756097561,42.756097560975604],[-18.642857142857142,43.0]],[[-17.6,17.6],[-17.444444444444443,18.0],[-17.6,18.400000000000002],[-18.0,18.384615384615387],[-18.384615384615387,18.0],[-18.384615384615383,17.615384615384613],[-18.0,17.285714285714285],[-17.6,17.6]],[[-16.6,19.400000000000002],[-17.0,19.4],[-17.30769230769231,18.692307692307693],[-16.75,18.75],[-16.5,19.0],[-16.6,19.400000000000002]],[[13.615384615384617,-52.0],[13.72972972972973,-52.270270270270274],[15.26086956521739,-52.26086956521739],[15.333333333333336,-52.0],[14.999999999999998,-51.785714285714285],[14.217391304347826,-51.78260869565217],[13.615384615384617,-52.0]],[[24.14814814814815,-31.85185185185185],[23.733333333333334,-31.733333333333334],[23.333333333333332,-32.0],[23.89189189189189,-32.108108108108105],[24.133333333333333,-32.0],[24.14814814814815,-31.85185185185185]],[[26.0,-64.7],[25.0,-65.0],[25.888888888888886,-65.11111111111111],[26.176470588235293,-65.0],[26.1875,-64.8125],[26.0,-64.7]],[[30.700000000000003,-65.7],[30.42857142857143,-66.0],[30.684210526315788,-66.3157894736842],[31.38095238095238,-66.61904761904762],[31.94736842105263,-67.05263157894737],[33.4,-66.4],[33.63636363636364,-66.0],[32.0,-65.48148148148148],[31.000000000000004,-65.58620689655173],[30.700000000000003,-65.7]],[[37.14492753623188,-61.85507246376812],[35.875,-62.0],[35.84615384615385,-62.15384615384615],[36.333333333333336,-62.66666666666667],[37.0,-63.0],[37.86666666666667,-63.13333333333333],[38.0,-63.25],[38.13333333333333,-63.13333333333333],[38.18181818181818,-62.18181818181818],[38.5,-62.0],[37.14492753623188,-61.85507246376812]],[[46.48275862068966,-66.51724137931035],[46.4375,-67.0],[47.0,-67.28125],[47.40909090909091,-67.0],[47.333333333333336,-66.66666666666667],[47.0,-66.35714285714286],[46.523809523809526,-66.47619047619047],[46.333333333333336,-65.66666666666667],[45.65217391304348,-65.34782608695652],[45.333333333333336,-65.0],[45.72413793103448,-64.72413793103448],[47.0,-64.625],[47.25,-64.75],[47.65714285714286,-65.34285714285714],[48.0,-65.4],[48.85714285714286,-65.0],[50.0,-64.0],[49.45454545454545,-63.54545454545455],[48.14285714285714,-62.85714285714286],[46.81818181818182,-62.81818181818182],[44.0,-63.5],[43.66666666666667,-63.66666666666667],[43.400000000000006,-64.0],[44.5,-65.0],[44.5,-66.0],[44.77272727272727,-66.22727272727273],[45.72413793103448,-66.27586206896552],[46.48275862068966,-66.51724137931035]],[[50.26086956521739,-58.26086956521739],[50.19672131147541,-57.803278688524586],[50.0,-57.53846153846154],[49.77358490566037,-57.77358490566038],[49.69230769230769,-58.30769230769231],[50.0,-58.85714285714286],[50.26086956521739,-58.26086956521739]],[[52.0,-59.25],[52.25,-59.0],[51.0,-59.0],[52.0,-59.25]],[[55.857142857142854,-37.0],[56.0,-37.25],[56.2,-37.0],[56.083333333333336,-36.91666666666667],[55.857142857142854,-37.0]],[[-30.0,5.5],[-29.627906976744185,5.627906976744186],[-29.46666666666667,6.0],[-29.692307692307693,6.307692307692308],[-30.0,6.470588235294118],[-30.30188679245283,6.30188679245283],[-30.38095238095238,6.0],[-30.275862068965516,5.724137931034482],[-30.0,5.5]],[[-27.846153846153847,48.84615384615384],[-27.840000000000003,49.16],[-28.216216216216218,49.21621621621622],[-28.307692307692307,49.0],[-28.216216216216218,48.78378378378379],[-28.0,48.69230769230769],[-27.846153846153847,48.84615384615384]],[[-23.85185185185185,49.85185185185185],[-24.0,50.285714285714285],[-24.30769230769231,50.307692307692314],[-24.5,50.0],[-24.0,49.714285714285715],[-23.85185185185185,49.85185185185185]],[[-21.333333333333336,9.0],[-21.714285714285715,9.285714285714285],[-22.0,9.333333333333334],[-22.17391304347826,9.173913043478262],[-22.444444444444443,8.555555555555555],[-21.692307692307693,8.692307692307693],[-21.333333333333336,9.0]],[[-21.166666666666668,13.0],[-21.18181818181818,11.999999999999998],[-21.0,11.0],[-20.666666666666668,12.0],[-20.714285714285715,13.0],[-20.82608695652174,13.17391304347826],[-21.0,13.18181818181818],[-21.166666666666668,13.0]],[[-19.818181818181817,-59.18181818181819],[-19.0,-59.0],[-20.0,-58.5],[-20.285714285714285,-58.71428571428571],[-20.285714285714285,-59.285714285714285],[-20.0,-59.333333333333336],[-19.818181818181817,-59.18181818181819]],[[-15.0,21.0],[-15.684210526315788,20.684210526315788],[-16.25,20.0],[-16.333333333333336,19.666666666666668],[-16.0,19.666666666666668],[-15.636363636363637,19.363636363636363],[-15.0,19.357142857142858],[-14.560975609756099,19.560975609756095],[-14.181818181818182,20.0],[-14.307692307692308,20.692307692307693],[-15.0,21.0]],[[22.666666666666668,-64.66666666666667],[22.0,-65.0],[23.0,-65.28571428571429],[23.666666666666668,-65.0],[23.266666666666666,-64.73333333333333],[22.666666666666668,-64.66666666666667]],[[33.17543859649123,-68.82456140350877],[32.81132075471698,-68.81132075471699],[32.375,-69.0],[33.0,-69.41666666666666],[33.256410256410255,-69.25641025641025],[33.17543859649123,-68.82456140350877]],[[38.71428571428571,-73.28571428571428],[40.55555555555556,-73.44444444444444],[41.400000000000006,-73.4],[42.0,-73.0],[41.0,-72.77777777777777],[38.0,-73.0],[38.71428571428571,-73.28571428571428]],[[-28.0,-52.0],[-28.0,-53.0],[-27.0,-53.0],[-27.0,-52.0],[-28.0,-52.0]],[[-24.0,40.0],[-23.11764705882353,39.88235294117647],[-22.75,40.0],[-23.0,40.25],[-24.0,40.0]],[[-23.625,7.375],[-24.0,7.2727272727272725],[-24.214285714285715,7.0],[-24.0,6.0],[-23.5,7.0],[-23.625,7.375]],[[-22.652173913043477,7.6521739130434785],[-22.42857142857143,8.0],[-22.52941176470588,8.470588235294118],[-23.0,8.5],[-23.25,8.25],[-23.400000000000002,7.6],[-23.0,7.428571428571429],[-22.652173913043477,7.6521739130434785]],[[-134.5,87.5],[-134.0,87.5],[-133.8181818181818,87.81818181818181],[-133.31578947368422,87.68421052631578],[-132.75,88.0],[-133.0,88.2],[-135.0,88.0],[-135.0,87.0],[-134.5,87.5]],[[-120.13333333333334,85.86666666666667],[-120.78947368421052,85.78947368421052],[-121.0,85.875],[-121.68421052631578,85.68421052631578],[-121.875,85.0],[-121.64285714285714,84.0],[-121.31578947368419,83.68421052631578],[-120.99999999999999,83.59090909090908],[-120.18181818181819,84.0],[-120.0,85.0],[-120.13333333333334,85.86666666666667]],[[-78.33333333333334,84.66666666666667],[-78.0,84.5],[-77.0,84.5],[-76.66666666666667,84.66666666666667],[-76.5,85.0],[-76.85714285714286,85.14285714285714],[-78.0,85.2],[-78.5,85.0],[-78.33333333333334,84.66666666666667]],[[5.666666666666667,69.33333333333334],[5.666666666666666,69.0],[6.133333333333333,68.86666666666666],[6.866666666666666,68.86666666666666],[7.0,68.75],[7.222222222222222,68.77777777777777],[7.25,69.0],[7.0,69.33333333333334],[6.0,69.5],[5.666666666666667,69.33333333333334]],[[15.0,65.0],[14.714285714285712,64.28571428571428],[14.0,64.0],[14.0,63.0],[16.0,63.0],[16.0,62.0],[16.5,61.5],[16.81818181818182,60.81818181818182],[17.285714285714285,60.71428571428571],[18.0,61.0],[17.666666666666668,61.66666666666667],[17.6,62.4],[18.0,63.0],[18.0,64.0],[18.400000000000002,64.6],[18.5,65.0],[17.0,66.0],[17.75,66.25],[19.0,66.4],[19.444444444444443,66.55555555555556],[20.0,67.0],[19.5,67.5],[18.266666666666666,67.73333333333333],[15.600000000000001,67.6],[15.285714285714285,67.71428571428571],[14.666666666666668,67.66666666666667],[14.0,68.0],[13.5,67.5],[13.0,67.33333333333334],[11.818181818181818,67.81818181818181],[10.0,68.25],[9.0,68.33333333333334],[8.0,68.0],[8.846153846153847,67.84615384615384],[9.333333333333334,67.33333333333334],[9.333333333333334,67.0],[11.333333333333334,66.33333333333334],[13.0,65.30000000000001],[14.0,65.4],[14.347826086956523,65.34782608695652],[15.0,65.0]],[[24.0,68.33333333333334],[23.5,68.0],[24.0,67.83333333333334],[24.5,68.0],[24.0,68.33333333333334]],[[31.0,68.5],[31.5,69.0],[31.0,69.5],[30.5,69.5],[30.0,70.0],[30.0,69.0],[30.6,68.60000000000001],[31.0,68.5]],[[35.0,86.66666666666667],[36.0,86.66666666666667],[37.0,87.0],[36.0,87.25],[35.0,87.25],[34.5,87.0],[35.0,86.66666666666667]],[[42.2,40.2],[41.57894736842105,40.57894736842105],[41.57894736842105,41.421052631578945],[42.0,41.800000000000004],[42.5,42.0],[42.4,42.4],[42.0,43.0],[41.28571428571428,41.71428571428571],[41.0,41.875],[40.51724137931035,41.48275862068966],[40.36363636363636,41.0],[40.53333333333333,40.53333333333333],[41.0,40.22222222222222],[41.36363636363637,40.36363636363637],[41.5,40.0],[42.22222222222222,40.0],[42.2,40.2]],[[103.33333333333334,30.000000000000004],[103.0,30.333333333333336],[102.81818181818181,30.18181818181818],[102.81818181818181,29.81818181818182],[103.18181818181819,29.81818181818182],[103.33333333333334,30.000000000000004]],[[120.63636363636364,48.36363636363636],[118.63636363636364,48.36363636363636],[118.33333333333333,48.0],[119.0,47.0],[119.63636363636363,47.36363636363636],[121.25,47.75],[121.4,48.0],[121.4,48.400000000000006],[121.0,48.666666666666664],[120.63636363636364,48.36363636363636]],[[15.818181818181818,57.18181818181819],[15.0,57.0],[15.75,56.75],[17.0,57.0],[16.0,57.5],[15.818181818181818,57.18181818181819]]],[[[27.0,14.0],[28.032258064516128,14.0],[28.0,13.0],[27.6,13.600000000000001],[27.0,14.0]]],[[[120.5,13.5],[120.5,14.0],[121.01492537313433,14.014925373134327],[121.0,13.5],[120.5,13.5]]],[[[-11.5,22.0],[-11.333333333333334,22.333333333333336],[-10.666666666666668,22.0],[-10.75,21.75],[-11.5,21.5],[-11.5,22.0]]],[[[92.0327868852459,26.0327868852459],[92.0,25.0],[91.5,25.5],[91.5,26.0],[92.0327868852459,26.0327868852459]]],[[[-33.5,38.0],[-33.5,38.5],[-33.0,38.333333333333336],[-32.55555555555555,38.55555555555556],[-32.22222222222222,39.22222222222222],[-31.714285714285715,39.28571428571428],[-31.5,38.0],[-31.6,37.6],[-32.0,37.0],[-32.6,37.4],[-33.333333333333336,37.66666666666667],[-33.5,38.0]]],[[[166.29333333333335,60.70666666666666],[165.6176470588235,60.382352941176464],[165.38095238095238,60.0],[164.1294964028777,59.8705035971223],[163.4,59.6],[163.0180995475113,58.98190045248869],[160.775,58.775],[160.75,59.0],[161.1551724137931,59.155172413793096],[161.95454545454547,59.04545454545455],[162.36363636363637,59.63636363636364],[162.33333333333334,60.00000000000001],[163.367816091954,60.367816091954026],[163.6949152542373,60.30508474576271],[164.28571428571428,61.0],[166.7864077669903,61.213592233009706],[168.20833333333331,61.20833333333333],[168.9375,61.0625],[169.0,61.33333333333333],[169.04999999999998,61.05],[166.29333333333335,60.70666666666666]]],[[[170.0,62.02702702702703],[171.0,62.72413793103448],[171.34782608695653,62.652173913043484],[171.8181818181818,62.81818181818182],[172.12244897959184,62.12244897959184],[172.02702702702703,61.97297297297297],[170.76536312849163,61.76536312849162],[169.66666666666669,62.0],[170.0,62.02702702702703]]],[[[-35.0,66.33333333333334],[-34.66666666666667,66.66666666666667],[-34.0,67.0],[-31.0,67.0],[-31.0,68.0],[-28.0,68.0],[-28.0,67.0],[-26.75,66.25],[-26.0,66.18181818181817],[-24.684210526315788,66.68421052631578],[-24.25,67.0],[-24.333333333333336,67.33333333333334],[-24.0,68.0],[-21.0,68.0],[-21.0,67.0],[-20.0,67.0],[-18.25,67.25],[-18.333333333333336,67.66666666666667],[-18.2,68.0],[-17.0,68.0],[-17.0,66.0],[-19.0,66.0],[-19.0,65.0],[-20.0,65.0],[-20.0,63.0],[-21.0,63.0],[-21.0,62.0],[-22.0,62.0],[-22.0,61.0],[-27.0,61.0],[-27.0,63.0],[-28.0,64.0],[-29.0,64.0],[-29.0,63.0],[-31.0,63.0],[-31.0,62.0],[-32.0,62.0],[-32.0,59.0],[-34.0,59.0],[-34.0,60.0],[-35.0,60.0],[-35.0,62.0],[-33.0,62.0],[-33.0,63.0],[-34.0,63.0],[-34.0,64.0],[-35.0,64.0],[-35.0,65.0],[-36.0,65.0],[-36.0,66.0],[-35.400000000000006,66.4],[-35.0,66.33333333333334]]],[[[174.96610169491527,63.96610169491525],[176.0,64.28571428571428],[176.76,64.24],[177.4931506849315,64.5068493150685],[177.72,65.0],[178.0,65.12727272727273],[179.0,65.24137931034483],[179.14,65.0],[178.67441860465118,64.67441860465117],[178.32558139534885,64.67441860465117],[178.22222222222223,64.22222222222223],[178.0279069767442,63.972093023255816],[176.0,63.67213114754098],[174.96610169491527,63.96610169491525]]],[[[-7.636363636363637,66.63636363636364],[-8.0,66.42857142857143],[-9.0,66.66666666666667],[-10.0,66.44444444444444],[-12.5,67.5],[-13.0,68.0],[-13.0,69.0],[-11.0,69.0],[-11.0,70.0],[-10.0,70.0],[-9.0,69.8],[-8.200000000000001,69.0],[-8.166666666666666,68.83333333333334],[-7.666666666666668,68.66666666666667],[-7.0,69.0],[-7.0,68.0],[-7.454545454545455,67.45454545454545],[-7.636363636363637,66.63636363636364]]],[[[-17.0,70.5],[-17.125,71.125],[-17.0,72.0],[-16.0,71.0],[-16.5,70.5],[-17.0,70.5]]],[[[-14.600000000000001,71.60000000000001],[-15.0,71.0],[-15.5,71.5],[-15.5,72.5],[-15.0,72.5],[-14.666666666666668,72.0],[-14.600000000000001,71.60000000000001]]],[[[-12.0,71.5],[-12.5,72.0],[-12.181818181818183,72.18181818181819],[-11.846153846153845,72.15384615384616],[-11.666666666666668,72.0],[-11.714285714285714,71.71428571428571],[-12.0,71.5]]],[[[-8.0,72.0],[-7.4,72.4],[-6.5,72.5],[-6.5,72.0],[-6.800000000000001,71.8],[-8.0,72.0]]]]}}]}