{"type":"FeatureCollection","features":[{"type":"Feature","properties":{"ageMa":360},"geometry":{"type":"MultiPolygon","coordinates":[[[[-65.42857142857142,-51.0],[-66.0,-52.0],[-66.3,-53.7],[-66.5,-54.0],[-66.5,-55.0],[-65.85714285714286,-55.857142857142854],[-65.21052631578948,-57.21052631578947],[-65.0,-58.0],[-64.0,-58.666666666666664],[-61.857142857142854,-58.85714285714286],[-61.16666666666667,-60.0],[-61.647058823529406,-61.35294117647058],[-62.6,-62.4],[-63.6,-63.0],[-64.28571428571428,-63.71428571428571],[-66.0,-64.57142857142857],[-67.3157894736842,-65.68421052631578],[-68.57894736842105,-66.42105263157895],[-71.66666666666667,-68.0],[-73.71428571428571,-69.28571428571428],[-75.22222222222223,-69.77777777777777],[-76.0,-70.4],[-77.26666666666668,-70.73333333333333],[-79.0,-71.4],[-81.14285714285714,-71.85714285714286],[-82.0,-72.2],[-87.14285714285714,-72.85714285714286],[-88.0,-73.2],[-89.0,-73.33333333333333],[-91.0,-73.33333333333333],[-93.0,-73.57142857142857],[-94.00000000000001,-73.83333333333334],[-95.14285714285714,-73.85714285714286],[-96.0,-74.2],[-97.0,-74.2],[-98.0,-73.83333333333334],[-105.0,-73.83333333333334],[-106.0,-73.71428571428572],[-118.92857142857143,-73.92857142857143],[-120.0,-74.0],[-122.0,-74.42857142857143],[-128.0,-75.0],[-131.0,-75.5],[-132.0,-75.42857142857143],[-136.0,-75.84615384615384],[-139.99999999999997,-75.95238095238095],[-141.0,-76.2],[-142.0,-76.2],[-144.3157894736842,-76.68421052631578],[-146.14814814814815,-76.85185185185185],[-152.0,-77.0],[-155.0,-77.5],[-157.0,-78.2],[-163.0,-78.2],[-170.0,-78.625],[-178.0,-78.5],[-180.0,-78.3],[-180.0,-70.71428571428572],[-179.0,-70.33333333333334],[-176.0,-70.28571428571428],[-175.0,-70.0],[-173.0,-70.125],[-171.0,-70.0],[-170.24,-70.24],[-169.73913043478262,-70.26086956521739],[-168.0,-69.91666666666666],[-167.0,-70.0],[-165.78947368421052,-69.78947368421052],[-163.23529411764707,-69.76470588235294],[-162.0,-69.57142857142857],[-159.0,-69.57142857142857],[-156.0,-69.0],[-151.0,-68.75],[-150.13333333333333,-69.13333333333333],[-149.0,-69.28571428571428],[-148.0,-69.16666666666667],[-145.0,-69.28571428571428],[-143.0,-69.5],[-138.0,-69.5],[-137.0,-69.75],[-136.0,-69.8],[-134.0,-69.8],[-133.0,-69.66666666666667],[-129.0,-70.375],[-123.0,-70.2],[-119.25,-70.25],[-117.89743589743591,-70.1025641025641],[-114.0,-70.0],[-112.0,-69.33333333333334],[-111.0,-69.35714285714286],[-109.0,-69.71428571428571],[-103.0,-69.625],[-102.0,-69.16666666666667],[-101.0,-69.33333333333334],[-100.0,-69.0],[-99.0,-69.16666666666667],[-96.0,-68.8],[-94.91304347826087,-68.91304347826087],[-92.18181818181819,-68.81818181818181],[-90.58333333333334,-68.41666666666667],[-90.0,-67.96428571428571],[-88.1025641025641,-67.8974358974359],[-86.35294117647058,-67.6470588235294],[-85.66666666666667,-67.0],[-84.0,-66.66666666666667],[-80.71830985915494,-65.28169014084507],[-76.89795918367346,-63.102040816326536],[-75.5,-62.0],[-74.5,-61.0],[-74.375,-60.625],[-73.88888888888889,-59.99999999999999],[-73.78947368421052,-57.78947368421053],[-73.63157894736841,-57.0],[-72.75862068965517,-55.241379310344826],[-72.30769230769232,-54.69230769230769],[-70.92105263157895,-52.07894736842105],[-70.1010101010101,-50.898989898989896],[-69.0,-48.85],[-68.0,-47.95238095238095],[-67.0,-47.66666666666667],[-65.73913043478261,-47.73913043478261],[-65.5,-48.0],[-65.33333333333334,-49.0],[-65.42857142857142,-51.0]]],[[[15.714285714285712,-19.714285714285715],[14.75,-20.75],[13.0,-21.5],[11.0,-21.5],[10.600000000000001,-21.6],[9.421052631578947,-22.421052631578945],[9.0,-22.57142857142857],[8.625,-23.0],[8.428571428571429,-24.0],[9.0,-27.0],[7.777777777777778,-27.77777777777778],[7.0,-28.0],[6.0,-28.0],[4.142857142857142,-26.857142857142854],[3.3333333333333335,-25.66666666666667],[3.25,-25.0],[3.666666666666667,-22.666666666666668],[4.0,-22.0],[4.181818181818182,-21.18181818181818],[4.625,-20.625],[6.0,-19.5],[7.181818181818182,-19.18181818181818],[7.666666666666668,-18.666666666666668],[10.272727272727272,-17.272727272727273],[12.5,-17.0],[13.0,-16.8],[14.764705882352942,-17.235294117647058],[15.4,-17.6],[15.75,-18.0],[16.0,-19.0],[15.714285714285712,-19.714285714285715]]],[[[-35.0,-20.8],[-35.71428571428571,-21.285714285714285],[-37.30769230769231,-21.692307692307693],[-38.625,-22.375],[-40.15384615384615,-22.846153846153847],[-41.0,-23.25],[-43.22222222222222,-23.22222222222222],[-45.0,-22.75],[-46.0,-22.0],[-46.25,-21.0],[-46.0,-20.0],[-45.0,-19.75],[-42.0,-20.75],[-41.0,-20.6],[-39.88235294117647,-20.11764705882353],[-39.266666666666666,-18.733333333333334],[-37.63636363636364,-17.363636363636363],[-37.0,-17.0],[-36.0,-16.0],[-35.0,-15.5],[-33.0,-15.5],[-32.25,-17.0],[-32.25,-18.0],[-33.0,-20.0],[-35.0,-20.8]]],[[[24.42105263157895,-5.421052631578948],[23.333333333333336,-6.333333333333334],[21.764705882352942,-6.764705882352941],[21.0,-7.2],[20.0,-7.2],[19.166666666666668,-6.833333333333333],[18.714285714285715,-6.285714285714285],[18.6,-6.0],[18.666666666666668,-5.666666666666667],[19.0,-5.0],[19.75,-4.0],[20.25,-3.0],[21.22222222222222,-2.2222222222222223],[22.523809523809522,-0.5238095238095237],[23.625,0.375],[24.0,0.6],[25.0,0.8],[25.8,0.0],[26.0,-0.5],[26.0,-2.0],[25.5,-3.5],[24.42105263157895,-5.421052631578948]]],[[[-29.0,-1.0],[-28.0,-0.5],[-27.333333333333336,-1.0],[-27.25,-2.0],[-28.0,-3.0],[-28.66666666666667,-2.666666666666667],[-29.0,-2.0],[-29.0,-1.0]]],[[[37.095238095238095,1.9047619047619047],[37.0,1.5],[36.81818181818182,1.8181818181818181],[36.75,3.0],[37.0,3.25],[38.0,3.7142857142857144],[38.32258064516129,3.0],[38.0,2.473684210526316],[37.581395348837205,2.4186046511627906],[37.095238095238095,1.9047619047619047]]],[[[32.12,6.0],[32.48,6.5200000000000005],[33.0,6.647058823529411],[33.39285714285714,6.392857142857142],[33.6875,6.0],[33.59183673469388,5.591836734693878],[34.0,5.0],[33.285714285714285,5.285714285714286],[33.0,5.12],[32.12,6.0]]],[[[29.08695652173913,10.91304347826087],[29.0,10.6],[28.789473684210527,10.789473684210526],[28.0,11.0],[29.0,11.052631578947368],[29.08695652173913,10.91304347826087]]],[[[24.294117647058826,13.705882352941178],[24.0,13.285714285714286],[23.000000000000004,13.200000000000001],[22.644444444444446,13.644444444444444],[22.61904761904762,14.0],[22.388059701492537,14.388059701492539],[21.875,14.875],[21.927710843373493,16.072289156626507],[22.42857142857143,16.0],[22.771428571428572,15.771428571428572],[23.000000000000004,15.8],[23.800000000000004,15.0],[23.804878048780488,14.804878048780488],[24.294117647058822,14.0],[24.294117647058826,13.705882352941178]]],[[[14.400000000000002,17.6],[14.0,17.428571428571427],[13.0,17.333333333333336],[12.5,17.5],[11.285714285714285,18.285714285714285],[11.133333333333333,19.0],[11.142857142857142,19.857142857142858],[11.352941176470587,20.64705882352941],[13.0,21.2],[13.2,21.0],[14.0,20.692307692307693],[14.5625,20.0],[15.0,19.125],[15.2,19.0],[14.904761904761905,18.095238095238095],[14.400000000000002,17.6]]],[[[7.163265306122449,50.16326530612245],[10.0,49.26315789473684],[12.555555555555555,49.44444444444444],[14.0,49.76923076923077],[15.0,49.84615384615385],[17.0,49.64705882352941],[19.0,49.41176470588235],[20.75,49.0],[23.186046511627907,48.18604651162791],[24.044444444444444,48.044444444444444],[25.0,48.13333333333333],[25.705882352941174,47.705882352941174],[27.0,47.5],[29.0,46.58620689655173],[30.0,45.93103448275862],[32.45161290322581,44.0],[33.0,43.41379310344827],[33.705882352941174,43.0],[35.53846153846153,41.0],[36.51851851851852,39.51851851851852],[37.74193548387097,38.74193548387097],[40.0,38.125],[41.13333333333333,37.0],[41.14285714285714,36.85714285714286],[40.66666666666667,36.0],[39.0,35.66666666666667],[36.144578313253014,34.855421686746986],[33.37647058823529,33.62352941176471],[31.46153846153846,32.0],[29.81818181818182,31.18181818181818],[29.0,30.5625],[28.550000000000004,30.45],[28.18181818181818,30.0],[27.82608695652174,29.82608695652174],[27.17391304347826,29.82608695652174],[27.0,29.5],[25.8,29.2],[25.5,29.0],[24.5,29.0],[24.333333333333336,29.333333333333336],[24.0,34.0],[23.400000000000002,34.400000000000006],[23.0,35.0],[22.0,35.5],[21.6,35.400000000000006],[21.0,35.0],[20.0,35.0],[19.400000000000002,34.6],[18.6,34.400000000000006],[18.0,34.0],[16.0,34.0],[15.600000000000001,33.4],[14.5,33.0],[14.333333333333334,32.66666666666667],[13.666666666666668,32.333333333333336],[11.833333333333334,32.166666666666664],[11.25,31.75],[10.0,31.333333333333336],[9.0,31.5],[7.7142857142857135,31.285714285714285],[6.0,31.25],[4.4,31.400000000000002],[3.6000000000000005,31.6],[2.3333333333333335,32.333333333333336],[2.0,33.0],[0.5,33.5],[-0.5555555555555556,34.44444444444444],[-2.5,37.0],[-3.0,39.0],[-3.0,41.0],[-2.4615384615384617,42.46153846153847],[-1.5555555555555554,43.55555555555555],[-1.0,44.0],[-0.8333333333333333,44.833333333333336],[0.0,47.0],[-0.4,47.6],[-0.5,48.0],[-1.5714285714285716,48.42857142857143],[-2.333333333333333,49.0],[-3.5,49.5],[-4.0,50.0],[-5.235294117647059,50.76470588235294],[-5.333333333333333,51.0],[-4.612903225806452,51.61290322580645],[-4.4,52.0],[-3.466666666666667,52.46666666666667],[-3.0,53.0],[-2.0,52.90909090909091],[3.0,51.785714285714285],[4.2439024390243905,51.24390243902439],[5.8,50.8],[7.163265306122449,50.16326530612245]]],[[[177.33333333333334,-89.0],[177.73333333333335,-88.73333333333333],[179.0,-88.66666666666666],[179.33333333333334,-89.0],[179.33333333333334,-90.0],[177.33333333333334,-90.0],[177.33333333333334,-89.0]]],[[[172.30769230769232,-69.6923076923077],[176.0,-70.25],[177.23529411764707,-70.23529411764707],[179.0,-70.0],[180.0,-70.71428571428572],[180.0,-78.3],[179.75,-78.25],[179.24242424242425,-77.75757575757575],[179.0,-76.66666666666667],[176.0,-76.66666666666667],[174.0,-76.2],[172.0,-76.2],[170.77777777777777,-75.77777777777777],[168.57142857142858,-75.42857142857143],[167.0,-75.0],[166.0,-75.0],[162.0,-74.2],[160.83333333333334,-74.16666666666666],[160.14285714285714,-73.85714285714286],[157.71428571428572,-73.28571428571428],[156.33333333333334,-72.66666666666667],[155.83333333333334,-72.16666666666667],[155.33333333333334,-71.0],[155.66666666666669,-70.66666666666667],[156.36363636363637,-70.36363636363636],[158.26666666666665,-70.26666666666667],[161.0,-69.8],[164.0,-69.8],[166.0,-69.5],[170.0,-69.5],[172.30769230769232,-69.6923076923077]]],[[[152.6,-56.400000000000006],[154.625,-57.375],[155.33333333333334,-58.0],[156.44444444444446,-58.55555555555556],[157.0,-59.0],[157.0,-60.0],[156.0,-60.333333333333336],[155.0,-60.333333333333336],[150.33333333333334,-59.66666666666667],[149.6470588235294,-59.35294117647058],[149.25,-59.0],[148.19354838709677,-58.80645161290323],[145.33333333333334,-57.00000000000001],[144.75,-56.0],[145.0,-55.800000000000004],[146.0,-55.6],[149.0,-55.44444444444444],[150.26666666666665,-55.733333333333334],[150.66666666666669,-56.0],[152.6,-56.400000000000006]]],[[[-18.0,16.0],[-17.0,15.833333333333334],[-15.5,15.0],[-14.0,14.4],[-11.181818181818182,13.818181818181817],[-10.0,13.75],[-9.0,13.0],[-8.0,13.0],[-7.0,12.75],[-6.0,13.0],[-4.833333333333333,13.833333333333332],[-3.0,14.133333333333333],[-2.0,14.454545454545453],[-1.0,14.428571428571429],[0.0,13.875],[0.7142857142857142,13.714285714285714],[1.3076923076923077,13.307692307692308],[1.7333333333333334,12.733333333333334],[2.6666666666666665,12.0],[3.0,11.0],[4.0,11.0],[6.0,11.666666666666666],[7.0,12.5],[10.0,14.0],[12.0,14.0],[12.714285714285714,13.714285714285714],[14.0,13.5],[15.0,13.0],[15.666666666666668,12.0],[15.5,11.0],[14.714285714285712,10.285714285714285],[13.333333333333336,8.666666666666668],[12.0,8.0],[11.0,7.0],[10.333333333333332,6.0],[10.0,5.0],[10.5,4.0],[10.0,3.0],[10.25,2.0],[11.2,0.0],[11.0,-1.0],[10.5,-2.0],[10.25,-3.0],[10.4,-5.0],[10.8,-6.000000000000001],[11.0,-7.0],[12.333333333333334,-7.666666666666668],[13.307692307692308,-8.692307692307693],[13.5,-10.0],[13.5,-11.0],[13.285714285714285,-11.285714285714285],[11.857142857142858,-11.857142857142858],[11.363636363636363,-12.363636363636363],[9.0,-13.0],[7.0,-14.0],[6.0,-15.0],[5.0,-15.0],[5.0,-16.0],[4.0,-17.0],[4.0,-18.0],[3.0,-18.333333333333336],[2.0,-18.5],[1.0,-19.0],[-1.0,-21.0],[-2.0,-23.0],[-2.666666666666667,-22.666666666666668],[-3.0,-22.666666666666668],[-4.0,-23.0],[-4.222222222222222,-23.77777777777778],[-4.571428571428572,-24.428571428571427],[-5.333333333333334,-25.66666666666667],[-5.666666666666667,-26.0],[-5.75,-27.0],[-5.333333333333334,-28.0],[-5.666666666666667,-29.0],[-5.5,-29.5],[-5.0,-30.0],[-4.0,-30.5],[-3.0,-30.5],[-2.0,-30.333333333333336],[-1.0,-30.0],[0.0,-30.0],[0.6363636363636364,-29.63636363636364],[1.0,-29.6],[2.2222222222222223,-29.77777777777778],[3.6923076923076925,-30.307692307692307],[4.0,-31.0],[4.6923076923076925,-31.30769230769231],[5.0,-32.2],[5.666666666666667,-32.333333333333336],[6.0,-33.0],[6.666666666666667,-33.333333333333336],[7.0,-34.0],[8.0,-34.0],[9.0,-34.5],[9.5,-35.0],[10.461538461538463,-35.53846153846154],[12.0,-36.75],[12.5,-37.0],[13.0,-38.0],[15.0,-39.0],[16.0,-39.0],[16.5,-39.5],[17.181818181818183,-39.81818181818181],[18.0,-40.66666666666667],[19.0,-40.75],[20.0,-41.0],[20.400000000000002,-41.6],[21.0,-42.0],[22.0,-42.0],[22.0,-43.0],[23.0,-43.0],[24.0,-44.0],[26.0,-44.0],[26.5,-44.5],[27.333333333333336,-44.66666666666667],[28.0,-45.0],[29.0,-45.0],[29.6,-44.6],[30.0,-44.5],[30.400000000000002,-44.6],[31.0,-45.0],[32.0,-44.0],[33.66666666666667,-43.66666666666667],[34.400000000000006,-43.400000000000006],[35.0,-43.0],[36.0,-43.0],[36.0,-44.0],[37.0,-44.0],[37.4,-43.400000000000006],[37.5,-43.0],[38.0,-42.666666666666664],[38.4,-42.6],[39.0,-43.0],[39.0,-42.0],[39.6,-41.6],[41.0,-41.0],[42.0,-40.0],[42.6,-39.6],[43.0,-39.5],[43.5,-39.0],[43.0,-38.0],[43.77777777777778,-36.77777777777778],[44.0,-36.666666666666664],[44.400000000000006,-36.6],[45.0,-37.0],[45.0,-35.0],[46.0,-34.0],[47.0,-34.0],[48.0,-32.75],[49.0,-33.333333333333336],[50.0,-32.75],[51.0,-32.8],[52.0,-32.66666666666667],[53.22222222222222,-32.77777777777778],[54.0,-33.0],[58.0,-33.0],[59.0,-33.5],[60.00000000000001,-33.333333333333336],[63.36363636363636,-33.63636363636363],[64.2,-33.8],[65.0,-34.25],[66.0,-34.0],[67.0,-34.0],[68.0,-34.5],[69.0,-34.5],[70.2,-34.8],[71.0,-35.333333333333336],[72.22222222222223,-35.77777777777778],[73.36363636363636,-36.63636363636364],[73.77777777777777,-37.22222222222222],[74.0,-38.0],[74.71428571428571,-38.285714285714285],[76.60000000000001,-39.400000000000006],[78.0,-40.0],[79.0,-40.0],[80.0,-40.66666666666667],[81.0,-40.5],[82.71428571428571,-41.28571428571428],[84.33333333333334,-41.66666666666667],[85.0,-42.0],[85.60000000000001,-41.6],[86.0,-41.5],[86.4,-41.6],[87.0,-42.0],[88.0,-42.0],[88.6,-42.4],[90.0,-42.5],[91.0,-43.0],[92.0,-42.666666666666664],[92.6,-43.400000000000006],[93.0,-43.66666666666667],[93.33333333333334,-43.66666666666667],[94.0,-44.0],[96.0,-44.0],[96.0,-45.0],[97.0,-45.0],[97.66666666666669,-44.66666666666667],[98.28571428571428,-44.71428571428571],[98.5,-45.0],[98.4,-45.4],[98.0,-46.0],[97.0,-46.0],[97.0,-47.0],[98.0,-47.0],[98.5,-46.5],[99.0,-46.5],[101.22222222222223,-45.22222222222222],[102.28571428571428,-44.285714285714285],[103.0,-44.0],[103.44444444444444,-43.44444444444444],[104.55555555555556,-42.55555555555556],[106.0,-42.0],[105.60000000000001,-41.400000000000006],[105.5,-41.0],[106.5,-39.0],[106.0,-38.0],[106.5,-37.0],[106.25,-36.75],[105.8,-35.2],[105.83333333333333,-34.833333333333336],[106.20000000000002,-34.0],[106.20000000000002,-32.0],[106.0,-31.0],[105.4,-29.6],[105.0,-29.0],[105.0,-26.0],[105.55555555555554,-25.555555555555554],[106.44444444444443,-24.444444444444443],[109.0,-23.333333333333336],[111.0,-22.75],[113.0,-22.75],[116.0,-23.4],[117.0,-23.25],[117.25,-23.0],[117.0,-22.0],[114.71428571428572,-20.285714285714285],[114.5,-20.0],[114.39999999999999,-19.0],[114.6470588235294,-18.64705882352941],[115.0,-18.4],[116.19999999999999,-18.2],[118.0,-17.666666666666668],[118.4,-17.0],[118.33333333333334,-16.0],[118.66666666666666,-15.0],[119.33333333333334,-14.333333333333334],[119.7142857142857,-13.714285714285714],[120.33333333333334,-13.333333333333336],[121.0,-12.5],[121.80000000000001,-11.8],[123.4,-11.400000000000002],[124.0,-11.0],[125.0,-10.75],[128.0,-10.75],[129.0,-11.25],[130.0,-12.0],[130.66666666666669,-13.333333333333336],[131.16666666666666,-13.833333333333332],[131.5,-16.0],[133.0,-17.0],[133.4,-18.0],[134.0,-19.0],[134.57142857142858,-19.42857142857143],[135.0,-20.0],[136.0,-20.666666666666668],[138.0,-21.055555555555554],[139.03773584905662,-21.962264150943398],[139.45,-23.0],[139.53846153846155,-24.461538461538463],[140.0,-25.0],[140.1818181818182,-25.81818181818182],[140.55555555555554,-26.444444444444443],[140.77777777777777,-27.22222222222222],[141.375,-27.625],[141.60000000000002,-28.0],[141.7142857142857,-29.285714285714285],[142.0,-30.0],[141.75,-31.0],[141.8,-32.0],[142.33333333333331,-34.0],[142.0,-35.0],[141.55555555555554,-35.55555555555556],[140.2,-36.2],[138.0,-36.5],[136.0,-36.5],[135.0,-37.0],[134.60000000000002,-37.6],[134.0,-38.0],[133.60000000000002,-38.6],[133.33333333333331,-40.0],[131.6923076923077,-41.69230769230769],[131.0,-43.0],[131.0,-44.0],[131.5,-45.0],[131.5,-46.0],[131.0,-47.0],[131.66666666666669,-49.0],[131.75,-50.0],[132.0,-51.0],[132.0,-58.0],[131.6,-58.60000000000001],[131.0,-59.0],[130.60000000000002,-59.6],[130.0,-60.0],[129.0,-61.0],[128.0,-61.33333333333333],[127.0,-62.0],[126.28571428571428,-62.285714285714285],[125.0,-62.33333333333333],[123.0,-63.0],[122.0,-64.0],[121.0,-64.66666666666667],[120.75,-65.0],[120.80000000000001,-66.0],[121.0,-66.5],[121.63636363636363,-67.36363636363636],[122.16666666666666,-67.83333333333333],[123.0,-69.25],[125.0,-70.75],[126.57142857142857,-71.42857142857143],[127.75,-72.25],[129.0,-72.4],[129.4,-72.6],[130.0,-73.0],[130.5,-74.0],[130.0,-74.2],[129.0,-74.0],[128.0,-74.2],[126.0,-73.83333333333334],[123.0,-74.0],[113.0,-73.80000000000001],[111.0,-73.6],[109.0,-72.85714285714286],[108.0,-72.75],[107.5,-73.0],[108.28571428571428,-73.71428571428571],[108.55555555555556,-74.44444444444443],[109.0,-75.0],[110.0,-75.66666666666667],[110.25,-76.0],[110.4,-78.0],[110.3076923076923,-78.30769230769232],[109.0,-79.66666666666667],[105.6923076923077,-80.6923076923077],[104.0,-81.66666666666667],[102.77777777777777,-81.77777777777777],[102.0,-82.0],[98.0,-82.0],[97.0,-81.5],[96.0,-82.0],[95.0,-82.0],[93.0,-83.0],[92.0,-83.0],[90.0,-85.0],[89.4,-84.60000000000001],[89.0,-84.5],[88.6,-84.60000000000001],[88.0,-85.0],[86.36363636363637,-85.36363636363637],[85.0,-85.5],[81.0,-85.75],[78.0,-85.66666666666667],[77.0,-86.0],[73.0,-86.0],[72.4,-86.4],[71.60000000000001,-86.60000000000001],[69.6923076923077,-86.6923076923077],[68.0,-87.0],[67.0,-86.6],[66.0,-86.75],[65.0,-86.66666666666667],[64.0,-87.0],[62.0,-87.0],[61.400000000000006,-87.4],[60.0,-88.0],[59.5,-88.5],[59.33333333333333,-89.0],[59.333333333333336,-90.0],[41.0,-90.0],[41.0,-89.0],[39.6,-88.4],[37.55555555555555,-88.44444444444443],[37.0,-88.0],[36.400000000000006,-88.4],[36.0,-88.5],[35.0,-88.0],[34.25,-88.25],[33.0,-88.33333333333334],[31.0,-88.33333333333334],[30.0,-88.0],[29.400000000000002,-88.4],[29.0,-88.5],[28.0,-88.33333333333334],[25.333333333333336,-88.66666666666667],[25.0,-88.66666666666667],[24.0,-88.33333333333334],[23.0,-89.0],[22.0,-89.0],[21.0,-88.75],[20.0,-88.80000000000001],[19.0,-88.5],[18.0,-88.66666666666667],[17.0,-88.66666666666667],[16.0,-89.0],[8.0,-89.0],[7.0,-88.66666666666667],[6.0,-88.75],[4.0,-88.66666666666667],[3.0,-88.33333333333334],[2.0,-88.5],[1.0,-88.5],[0.0,-88.33333333333334],[-2.0,-88.33333333333334],[-3.0,-88.0],[-4.0,-88.33333333333334],[-11.0,-88.33333333333334],[-12.0,-88.0],[-13.0,-88.0],[-14.0,-87.75],[-15.0,-88.0],[-18.0,-88.0],[-19.0,-87.75],[-20.25,-87.75],[-21.0,-88.0],[-22.0,-88.0],[-23.5,-88.5],[-24.0,-89.0],[-25.0,-88.0],[-25.6,-87.6],[-26.333333333333336,-87.33333333333334],[-27.000000000000004,-86.66666666666667],[-27.4,-86.0],[-27.166666666666668,-84.83333333333334],[-26.0,-84.0],[-25.0,-83.0],[-23.6,-82.4],[-22.42857142857143,-81.57142857142857],[-19.0,-80.0],[-19.0,-78.0],[-19.333333333333336,-77.0],[-20.0,-76.0],[-21.18181818181818,-75.18181818181819],[-22.4,-73.4],[-23.0,-73.0],[-24.0,-73.0],[-25.0,-72.66666666666667],[-28.0,-72.66666666666667],[-29.0,-73.0],[-30.0,-73.0],[-31.0,-73.33333333333333],[-32.0,-73.33333333333333],[-33.0,-73.66666666666667],[-34.285714285714285,-73.71428571428571],[-35.0,-74.0],[-36.0,-73.75],[-37.0,-74.0],[-38.0,-74.0],[-38.66666666666667,-74.33333333333334],[-41.0,-74.5],[-41.400000000000006,-74.4],[-42.0,-74.0],[-44.0,-73.5],[-45.0,-73.33333333333333],[-47.22222222222222,-73.22222222222223],[-48.0,-73.0],[-49.0,-73.0],[-49.6,-72.6],[-50.333333333333336,-72.33333333333334],[-51.00000000000001,-71.66666666666667],[-52.0,-71.33333333333333],[-53.0,-70.0],[-54.0,-69.0],[-54.0,-68.0],[-53.5,-67.5],[-52.18181818181819,-63.81818181818181],[-51.0,-63.0],[-50.0,-63.0],[-49.0,-62.4],[-47.0,-62.0],[-46.0,-61.5],[-45.0,-61.666666666666664],[-44.0,-61.5],[-43.0,-62.0],[-42.0,-61.5],[-40.66666666666667,-61.66666666666667],[-39.0,-61.666666666666664],[-36.0,-61.333333333333336],[-35.0,-61.5],[-34.0,-61.0],[-33.0,-61.333333333333336],[-31.0,-61.0],[-30.0,-60.6],[-29.0,-60.75],[-28.0,-60.400000000000006],[-27.000000000000004,-60.33333333333334],[-26.200000000000003,-59.8],[-25.0,-59.333333333333336],[-24.0,-59.6],[-23.0,-59.5],[-22.0,-59.66666666666667],[-21.0,-59.333333333333336],[-20.0,-59.4],[-19.0,-60.0],[-16.0,-60.5],[-14.0,-61.0],[-13.0,-61.0],[-12.0,-61.5],[-11.0,-61.5],[-10.600000000000001,-61.400000000000006],[-10.0,-61.0],[-9.0,-61.0],[-6.666666666666667,-60.333333333333336],[-5.333333333333333,-59.0],[-4.666666666666667,-57.00000000000001],[-5.0,-56.5],[-5.4,-56.400000000000006],[-7.0,-55.5],[-8.0,-54.66666666666667],[-10.333333333333334,-54.333333333333336],[-11.0,-54.0],[-11.600000000000001,-54.400000000000006],[-12.0,-54.5],[-12.714285714285714,-53.71428571428571],[-13.0,-53.66666666666667],[-14.333333333333334,-53.66666666666667],[-15.0,-54.0],[-15.666666666666668,-53.66666666666667],[-16.285714285714285,-53.71428571428571],[-17.0,-54.0],[-19.0,-54.0],[-19.6,-54.400000000000006],[-20.0,-54.5],[-20.400000000000002,-54.400000000000006],[-21.0,-54.0],[-22.0,-53.75],[-23.0,-54.0],[-24.0,-53.75],[-25.0,-54.0],[-26.0,-54.0],[-28.0,-53.6],[-31.0,-53.75],[-33.0,-53.5],[-34.0,-53.66666666666667],[-35.0,-53.6],[-36.0,-54.5],[-37.0,-54.4],[-38.0,-54.5],[-39.0,-54.333333333333336],[-40.0,-54.4],[-42.0,-54.25],[-44.0,-54.66666666666667],[-45.0,-55.0],[-46.0,-55.0],[-46.77777777777777,-55.22222222222222],[-48.60000000000001,-55.400000000000006],[-50.0,-55.25],[-50.66666666666667,-55.33333333333334],[-51.0,-55.5],[-51.333333333333336,-55.33333333333334],[-52.25,-55.25],[-53.0,-55.0],[-55.0,-55.0],[-55.66666666666667,-54.66666666666667],[-56.6,-54.6],[-58.25,-54.25],[-60.0,-52.5],[-62.0,-51.5],[-62.199999999999996,-51.2],[-62.33333333333333,-50.0],[-62.66666666666667,-49.0],[-62.0,-46.0],[-61.33333333333334,-45.66666666666667],[-61.0,-45.0],[-59.0,-43.0],[-59.1,-42.0],[-58.46153846153846,-41.53846153846154],[-58.0,-40.333333333333336],[-56.84615384615385,-39.15384615384615],[-56.5,-38.5],[-56.0,-38.0],[-55.5,-37.0],[-54.5,-36.0],[-54.0,-35.0],[-53.0,-34.333333333333336],[-52.33333333333334,-33.66666666666667],[-49.285714285714285,-32.71428571428571],[-47.0,-32.25],[-41.0,-32.333333333333336],[-39.0,-32.66666666666667],[-37.71428571428571,-32.71428571428571],[-37.0,-33.0],[-36.0,-32.66666666666667],[-35.0,-32.66666666666667],[-34.0,-32.5],[-33.0,-32.6],[-31.5,-32.0],[-31.0,-31.0],[-30.0,-31.0],[-28.71428571428571,-29.285714285714285],[-28.42857142857143,-28.571428571428573],[-28.0,-28.0],[-27.285714285714285,-27.714285714285715],[-26.75,-27.25],[-26.0,-27.0],[-24.0,-27.0],[-23.0,-26.0],[-22.0,-26.0],[-21.4,-24.0],[-21.5,-22.0],[-21.81818181818182,-20.81818181818182],[-23.0,-19.0],[-23.0,-16.0],[-21.6,-13.4],[-21.0,-13.0],[-20.6,-12.4],[-20.400000000000002,-11.600000000000001],[-20.0,-11.0],[-19.0,-11.0],[-19.0,-10.0],[-20.0,-9.0],[-20.0,-8.0],[-21.0,-8.0],[-21.0,-7.0],[-21.333333333333336,-6.0],[-21.333333333333336,-5.0],[-21.5,-4.0],[-21.4,-3.0],[-20.666666666666668,-1.0],[-19.5,1.0],[-19.0,1.5],[-18.0,3.0],[-16.666666666666668,3.666666666666667],[-16.18181818181818,4.181818181818182],[-15.000000000000002,4.666666666666667],[-14.0,4.75],[-13.666666666666668,5.0],[-13.75,6.0],[-14.600000000000001,6.4],[-15.0,7.0],[-16.0,7.333333333333334],[-16.875,8.125],[-18.42857142857143,8.571428571428573],[-19.0,9.0],[-20.666666666666668,9.333333333333334],[-22.000000000000004,10.166666666666668],[-25.0,10.6],[-26.0,11.0],[-27.0,11.0],[-29.2,11.8],[-30.22222222222222,12.777777777777779],[-30.333333333333336,13.0],[-29.0,13.333333333333332],[-28.61290322580645,13.612903225806452],[-27.0,15.777777777777779],[-25.400000000000002,16.400000000000002],[-25.0,16.666666666666668],[-24.0,16.75],[-23.0,16.5],[-20.0,16.5],[-19.0,16.333333333333332],[-18.0,16.0]]],[[[145.76470588235293,-30.764705882352942],[145.0,-30.909090909090907],[144.33333333333334,-30.666666666666668],[143.55555555555554,-29.444444444444443],[143.42857142857142,-28.999999999999996],[143.73333333333335,-27.733333333333334],[144.0,-27.6],[145.0,-27.571428571428573],[145.5,-28.5],[146.0,-28.916666666666668],[146.05970149253733,-30.059701492537314],[146.0,-30.5],[145.76470588235293,-30.764705882352942]]],[[[102.5,3.0],[102.33333333333334,2.666666666666667],[101.8,2.2],[101.19999999999999,0.8],[100.42857142857144,-0.4285714285714286],[100.0,-0.75],[99.0,-2.0],[98.0,-2.75],[97.5,-3.5],[96.5,-4.5],[95.91304347826087,-4.913043478260869],[95.625,-5.625],[95.25,-6.0],[95.0,-7.0],[95.0,-8.0],[94.5,-9.0],[93.2,-10.0],[91.375,-10.375],[90.33333333333334,-11.0],[89.3125,-11.3125],[88.65517241379311,-11.655172413793103],[88.28571428571429,-12.0],[87.30303030303031,-12.303030303030303],[86.5,-13.0],[85.32258064516128,-13.32258064516129],[84.33333333333334,-14.0],[83.25641025641025,-14.256410256410255],[82.28571428571428,-15.0],[81.32432432432432,-15.324324324324325],[80.33333333333333,-16.0],[79.30769230769232,-16.30769230769231],[78.57142857142856,-17.0],[77.375,-17.375],[77.0,-18.0],[76.17857142857143,-18.17857142857143],[76.0,-18.384615384615383],[75.55555555555556,-18.555555555555554],[75.1111111111111,-19.0],[73.26666666666668,-19.266666666666666],[73.0,-19.4],[72.0,-19.454545454545453],[70.78947368421052,-19.210526315789473],[67.66666666666666,-19.0],[66.4,-18.6],[65.56521739130434,-18.565217391304348],[63.0,-19.0],[62.0,-19.0],[61.0,-19.25],[59.0,-19.375],[56.0,-20.0],[54.11320754716981,-20.11320754716981],[51.5,-20.0],[51.0,-19.85714285714286],[49.77777777777778,-19.0],[49.16666666666667,-17.0],[49.25,-16.0],[49.66666666666667,-15.666666666666668],[50.125,-15.0],[50.75438596491228,-14.75438596491228],[51.5,-14.0],[52.467532467532465,-13.467532467532468],[52.980582524271846,-12.980582524271846],[54.41558441558442,-12.415584415584416],[54.97894736842105,-11.978947368421053],[58.0,-11.0],[59.0,-10.84],[62.0,-10.529411764705882],[64.0,-10.73913043478261],[65.67816091954023,-10.67816091954023],[67.29411764705883,-10.294117647058822],[68.0,-9.93939393939394],[70.0,-9.545454545454547],[72.0,-8.923076923076923],[76.0,-8.735294117647058],[76.57575757575758,-8.575757575757576],[77.26229508196721,-8.262295081967213],[78.36363636363636,-7.363636363636364],[80.0,-5.545454545454545],[80.75,-5.0],[81.6923076923077,-4.6923076923076925],[82.71428571428571,-4.0],[83.69696969696969,-3.696969696969697],[84.66666666666667,-3.0],[86.8048780487805,-1.8048780487804879],[87.83333333333334,-1.0],[88.61290322580645,-0.6129032258064516],[89.12903225806451,-0.12903225806451613],[91.0,0.5909090909090908],[93.0,1.9411764705882353],[93.77272727272728,2.2272727272727275],[94.0,2.5555555555555554],[95.0,3.25],[96.25,3.75],[99.0,5.4],[100.46153846153847,5.538461538461539],[101.375,5.375],[102.35294117647058,4.352941176470588],[102.5,4.0],[102.5,3.0]]],[[[101.71428571428572,8.285714285714285],[102.18181818181819,8.818181818181818],[103.0,9.25],[104.0,9.0],[104.66666666666669,8.0],[104.0,7.0],[102.0,6.75],[101.75,7.0],[101.6,8.0],[101.71428571428572,8.285714285714285]]],[[[44.0,17.636363636363637],[46.0,17.75],[50.0,18.375],[51.21052631578947,18.789473684210527],[51.78947368421053,18.789473684210527],[52.93220338983051,19.06779661016949],[55.0,18.86046511627907],[58.0,19.256410256410255],[59.1875,19.0],[59.2,18.0],[57.84615384615385,16.153846153846153],[57.0,15.25],[55.888888888888886,13.0],[55.46376811594203,12.53623188405797],[53.421052631578945,11.578947368421053],[53.0,11.0],[52.29268292682927,10.707317073170731],[52.0,10.4],[50.0,9.642857142857142],[49.18181818181818,9.0],[47.0,8.095238095238095],[45.84905660377358,7.849056603773585],[45.12244897959184,7.877551020408163],[43.5625,7.4375],[43.0,7.142857142857142],[42.0,7.428571428571429],[41.1875,9.0],[40.0,10.666666666666668],[39.0,11.5],[37.0,12.625],[36.53846153846154,13.538461538461538],[34.666666666666664,16.0],[33.77272727272727,18.227272727272727],[33.400000000000006,20.0],[33.5,21.0],[34.0,21.833333333333336],[34.25,22.0],[35.0,22.1875],[36.12903225806452,22.12903225806452],[37.0,21.9375],[38.904761904761905,20.904761904761905],[42.12121212121212,18.12121212121212],[43.0,17.8],[44.0,17.636363636363637]]],[[[49.0,35.0],[51.2,35.0],[50.15384615384615,34.84615384615385],[50.0,34.714285714285715],[49.0,35.0]]],[[[75.22222222222223,38.0],[75.6,37.0],[75.0,36.526315789473685],[74.10000000000001,37.00000000000001],[74.95348837209302,38.04651162790698],[75.22222222222223,38.0]]],[[[69.53333333333333,37.0],[68.33043478260869,36.6695652173913],[67.0,36.52],[65.6986301369863,36.6986301369863],[64.88888888888889,37.0],[65.57692307692308,37.42307692307692],[65.95454545454545,38.0],[67.0,38.647058823529406],[68.0,38.88],[68.85365853658537,38.853658536585364],[69.46428571428572,38.464285714285715],[69.86666666666667,38.0],[69.53333333333333,37.0]]]]}}]}