{"type":"FeatureCollection","features":[{"type":"Feature","properties":{"ageMa":470},"geometry":{"type":"MultiPolygon","coordinates":[[[[5.5,-86.0],[5.4,-86.4],[5.0,-87.0],[4.6,-86.4],[4.5,-86.0],[4.818181818181818,-85.81818181818181],[5.2,-85.80000000000001],[5.5,-86.0]]],[[[-7.5,-63.0],[-7.285714285714286,-63.285714285714285],[-6.571428571428572,-63.57142857142857],[-5.7,-63.7],[-3.7391304347826084,-63.73913043478261],[3.0,-63.25],[7.0,-63.5],[8.0,-63.714285714285715],[11.0,-63.44444444444444],[13.0,-63.55555555555556],[14.0,-63.66666666666667],[15.0,-64.0],[15.0,-65.0],[13.0,-65.0],[12.5,-65.5],[11.714285714285714,-65.71428571428571],[11.0,-66.5],[10.600000000000001,-66.60000000000001],[9.4,-67.4],[9.0,-68.0],[7.0,-68.0],[6.0,-68.2],[3.25,-68.25],[2.0,-68.66666666666667],[1.0,-68.5],[0.0,-68.5],[-0.33333333333333337,-68.33333333333334],[-1.0,-68.25],[-1.5,-68.5],[-2.0,-69.0],[-3.1333333333333333,-69.13333333333333],[-3.8181818181818183,-68.81818181818181],[-5.0,-69.0],[-6.0,-69.0],[-7.0,-69.4],[-9.0,-69.25],[-10.0,-68.71428571428571],[-12.0,-68.75],[-14.0,-68.0],[-18.0,-67.5],[-20.0,-67.0],[-20.444444444444443,-66.44444444444444],[-21.19047619047619,-66.19047619047619],[-21.6,-65.60000000000001],[-22.0,-65.33333333333333],[-23.0,-65.0],[-23.25,-64.0],[-21.833333333333336,-63.16666666666667],[-21.0,-62.333333333333336],[-20.0,-62.2],[-19.0,-61.857142857142854],[-18.0,-62.0],[-16.0,-61.71428571428571],[-13.0,-61.94444444444445],[-12.375,-62.375],[-9.857142857142858,-62.85714285714286],[-7.5,-63.0]]],[[[-36.166666666666664,-64.0],[-37.32258064516129,-64.6774193548387],[-39.0,-64.83333333333334],[-41.86666666666667,-64.86666666666667],[-43.14285714285714,-64.14285714285714],[-43.25,-64.0],[-43.33333333333333,-63.0],[-42.733333333333334,-62.266666666666666],[-42.0,-61.666666666666664],[-41.0,-61.5],[-38.0,-61.63636363636364],[-36.3,-62.3],[-35.75,-63.0],[-35.8,-63.2],[-36.166666666666664,-64.0]]],[[[-54.0,-57.0],[-53.5,-57.5],[-53.0,-57.66666666666667],[-51.0,-57.699999999999996],[-50.0,-58.54545454545455],[-48.71428571428571,-58.71428571428571],[-47.724137931034484,-59.72413793103448],[-47.63636363636364,-60.0],[-48.266666666666666,-61.733333333333334],[-49.75,-62.25],[-50.25,-62.25],[-52.0,-62.0],[-53.0,-62.0],[-54.36363636363637,-61.36363636363636],[-55.16666666666667,-61.16666666666667],[-56.0,-61.142857142857146],[-56.16666666666667,-61.0],[-56.400000000000006,-60.0],[-56.647058823529406,-59.647058823529406],[-57.4,-59.400000000000006],[-57.800000000000004,-59.0],[-57.77777777777777,-58.77777777777778],[-58.00000000000001,-58.800000000000004],[-59.0,-58.0],[-59.333333333333336,-56.333333333333336],[-60.0,-56.0],[-59.0,-55.800000000000004],[-57.83333333333333,-55.83333333333333],[-57.0,-56.0],[-56.55555555555556,-56.55555555555556],[-56.0,-56.8],[-55.0,-57.0],[-54.0,-57.0]],[[-56.69230769230769,-58.30769230769231],[-56.33333333333333,-58.0],[-56.6,-57.6],[-57.0,-57.5],[-57.266666666666666,-57.733333333333334],[-57.30769230769231,-58.30769230769231],[-56.69230769230769,-58.30769230769231]]],[[[-8.0,-47.0],[-8.25,-46.25],[-8.25,-45.75],[-8.0,-45.0],[-7.6,-46.400000000000006],[-8.0,-47.0]]],[[[14.0,-27.0],[14.100000000000001,-27.900000000000002],[14.600000000000001,-29.0],[15.5,-30.0],[16.0,-31.0],[16.1,-31.9],[16.5,-32.5],[17.0,-32.8],[17.434782608695652,-33.565217391304344],[18.0,-34.0],[18.166666666666668,-34.833333333333336],[18.6,-35.0],[19.05,-35.949999999999996],[19.333333333333336,-36.0],[19.666666666666668,-36.333333333333336],[20.299999999999997,-37.7],[20.75,-38.0],[21.1,-38.9],[21.52941176470588,-39.47058823529412],[23.0,-40.66666666666667],[23.47826086956522,-42.0],[23.0,-42.333333333333336],[21.19047619047619,-42.19047619047619],[19.5,-43.0],[18.210526315789473,-43.21052631578947],[16.857142857142858,-43.85714285714286],[16.0,-45.0],[15.5,-46.0],[15.117647058823529,-46.11764705882353],[14.25,-48.0],[14.0,-48.1],[13.125,-48.125],[11.444444444444443,-48.44444444444444],[8.0,-48.833333333333336],[7.166666666666666,-49.16666666666667],[6.0,-49.4],[5.0,-49.4],[3.3076923076923084,-50.307692307692314],[0.8333333333333333,-50.833333333333336],[0.0,-51.2],[-1.2000000000000002,-51.2],[-3.0,-50.599999999999994],[-4.0,-50.5],[-5.181818181818182,-50.18181818181818],[-7.0,-49.142857142857146],[-7.4,-48.400000000000006],[-8.4,-48.0],[-8.363636363636363,-47.63636363636364],[-8.0,-47.0],[-7.4,-46.6],[-7.0,-46.75],[-6.647058823529411,-46.35294117647059],[-6.5,-46.0],[-6.5,-44.5],[-6.0,-44.0],[-4.6923076923076925,-43.30769230769231],[-4.0,-42.75],[-1.7142857142857142,-42.285714285714285],[0.0,-42.25],[1.0,-42.0],[2.0,-41.5],[2.5,-41.0],[3.444444444444444,-40.44444444444444],[3.6666666666666665,-40.0],[4.0,-39.875],[7.0,-39.6],[8.0,-39.75],[9.4,-39.6],[10.714285714285715,-40.285714285714285],[12.181818181818183,-40.18181818181818],[12.333333333333332,-40.0],[12.5,-38.5],[13.0,-38.0],[11.0,-38.0],[10.333333333333334,-37.66666666666667],[9.666666666666668,-37.66666666666667],[9.0,-38.0],[8.0,-38.0],[7.0,-37.0],[6.0,-37.0],[5.5,-36.5],[5.0,-36.25],[4.0,-36.25],[3.0,-36.0],[2.0,-36.0],[2.0,-35.0],[1.0,-35.0],[0.5,-35.5],[-0.4,-35.400000000000006],[-1.0,-35.0],[-1.6,-35.400000000000006],[-2.0,-35.5],[-3.0,-35.333333333333336],[-4.0,-36.0],[-5.0,-35.5],[-5.75,-34.0],[-5.25,-33.0],[-5.0,-31.0],[-4.333333333333334,-30.666666666666668],[-4.0,-30.0],[-2.6363636363636367,-29.363636363636367],[-1.6,-28.400000000000002],[-1.0,-27.5],[0.0,-27.0],[1.5714285714285716,-26.571428571428573],[2.0,-26.25],[3.0,-26.0],[4.882352941176471,-25.88235294117647],[6.0,-25.625],[7.0,-25.666666666666664],[9.0,-25.0],[11.0,-24.875],[12.0,-24.875],[12.333333333333334,-25.0],[12.555555555555555,-25.444444444444443],[13.0,-25.666666666666664],[13.166666666666668,-26.166666666666664],[13.166666666666668,-26.833333333333336],[14.0,-27.0]]],[[[-50.15384615384615,-86.15384615384616],[-48.0,-86.16666666666667],[-47.0,-86.375],[-46.0,-86.28571428571428],[-42.0,-86.5],[-41.0,-86.4],[-40.0,-86.6],[-39.0,-86.5],[-38.0,-86.66666666666667],[-37.0,-86.4],[-34.71428571428571,-86.71428571428571],[-34.0,-87.0],[-33.0,-87.0],[-32.0,-87.16666666666667],[-27.0,-87.0],[-26.0,-87.16666666666667],[-24.0,-87.25],[-23.0,-87.14285714285715],[-18.0,-87.14285714285715],[-17.0,-87.0],[-13.0,-87.0],[-12.333333333333334,-86.66666666666667],[-10.600000000000001,-86.4],[-10.0,-86.0],[-6.0,-86.0],[-5.4,-86.4],[-4.0,-86.5],[-3.6000000000000005,-86.4],[-3.0,-86.0],[-2.0,-86.33333333333334],[-1.0,-86.0],[0.0,-86.0],[1.25,-85.75],[1.6666666666666665,-86.33333333333334],[2.0,-86.5],[2.5,-86.5],[3.0,-87.0],[4.0,-87.20000000000002],[5.0,-87.0],[6.0,-87.25],[7.333333333333334,-87.33333333333334],[8.0,-87.0],[9.0,-87.0],[10.0,-87.33333333333334],[11.0,-87.33333333333334],[12.0,-87.0],[12.714285714285714,-87.28571428571428],[14.0,-87.5],[16.0,-87.5],[16.400000000000002,-87.6],[17.0,-88.0],[19.0,-88.0],[20.0,-88.25],[22.0,-88.33333333333334],[23.0,-88.33333333333334],[24.0,-88.0],[27.0,-88.0],[27.6,-88.4],[28.0,-88.5],[29.0,-88.5],[30.0,-88.66666666666666],[30.5,-88.5],[31.0,-88.0],[32.0,-88.0],[32.5,-88.5],[33.0,-88.66666666666666],[34.400000000000006,-88.6],[35.0,-89.0],[35.66666666666667,-88.66666666666667],[36.0,-88.66666666666666],[37.22222222222222,-88.22222222222223],[38.0,-87.75],[41.0,-88.0],[41.6,-88.4],[42.0,-88.5],[43.0,-88.5],[44.0,-88.66666666666666],[44.5,-88.5],[45.0,-88.0],[45.0,-87.0],[46.0,-87.0],[46.66666666666667,-87.33333333333334],[47.285714285714285,-87.28571428571428],[48.0,-87.0],[49.0,-88.0],[50.0,-88.0],[51.0,-88.4],[52.0,-88.25],[54.0,-88.25],[55.0,-88.0],[56.0,-88.0],[57.18181818181819,-88.18181818181819],[58.0,-88.0],[60.0,-88.0],[60.0,-87.0],[64.0,-87.0],[64.66666666666667,-87.33333333333334],[65.28571428571428,-87.28571428571428],[66.0,-87.0],[66.77777777777777,-87.22222222222223],[68.0,-87.25],[69.44444444444444,-86.44444444444444],[71.0,-86.0],[72.0,-85.5],[73.0,-85.5],[74.75,-85.25],[76.0,-84.83333333333334],[77.81818181818181,-84.81818181818181],[79.0,-84.5],[80.0,-84.0],[81.0,-83.75],[82.0,-83.66666666666667],[84.0,-83.0],[86.0,-83.0],[87.0,-83.33333333333334],[88.0,-83.0],[89.0,-83.0],[89.4,-82.4],[89.60000000000001,-81.60000000000001],[90.0,-81.0],[89.0,-80.5],[88.6,-80.60000000000001],[88.0,-81.0],[87.6,-80.4],[87.0,-80.0],[87.5,-79.5],[88.0,-78.0],[89.0,-77.66666666666667],[89.5,-77.0],[89.11111111111111,-75.88888888888889],[88.0,-74.0],[87.5,-73.5],[87.26666666666667,-72.73333333333333],[87.0,-72.33333333333334],[86.77777777777777,-72.22222222222223],[86.0,-70.0],[84.66666666666667,-68.0],[84.60000000000001,-67.6],[85.0,-67.0],[84.5,-66.5],[84.5,-65.0],[86.0,-64.5],[87.0,-64.5],[87.28571428571428,-64.28571428571428],[87.4,-63.0],[87.26666666666667,-61.733333333333334],[87.0,-61.0],[87.0,-59.0],[87.33333333333334,-58.33333333333334],[88.0,-58.0],[88.77777777777777,-56.77777777777778],[90.0,-56.0],[90.5,-55.5],[91.0,-55.333333333333336],[91.33333333333334,-55.0],[90.55555555555556,-54.44444444444444],[90.0,-53.5],[89.0,-53.5],[88.77777777777777,-53.22222222222222],[88.81818181818181,-52.81818181818181],[89.0,-52.666666666666664],[90.0,-52.5],[90.53846153846155,-51.53846153846154],[91.0,-51.0],[91.60000000000001,-50.60000000000001],[92.0,-50.0],[93.0,-50.0],[93.75,-50.25],[94.19047619047619,-50.19047619047619],[95.57142857142857,-50.42857142857143],[96.94999999999999,-51.05],[98.625,-51.375],[99.0,-52.0],[101.0,-52.333333333333336],[102.0,-52.25],[103.0,-52.0],[104.0,-52.0],[106.0,-52.714285714285715],[107.21052631578948,-52.78947368421053],[108.71428571428571,-53.28571428571428],[111.0,-53.71428571428571],[113.0,-53.66666666666667],[115.0,-53.0],[116.0,-53.0],[117.0,-52.75],[119.36363636363636,-52.63636363636363],[119.7142857142857,-52.71428571428571],[120.5,-52.0],[121.15384615384616,-51.84615384615385],[122.0,-52.0],[123.0,-51.66666666666667],[124.0,-52.0],[124.60000000000001,-51.6],[125.0,-51.0],[127.0,-51.0],[127.5,-51.5],[127.4,-52.4],[127.0,-53.0],[127.0,-54.0],[127.5,-53.5],[129.0,-53.5],[129.4,-53.400000000000006],[130.0,-53.0],[131.0,-54.0],[132.28571428571428,-54.71428571428571],[133.0,-55.5],[134.75,-56.25],[135.0,-56.5],[136.0,-56.333333333333336],[137.0,-56.5],[138.0,-56.0],[139.0,-56.0],[138.5,-55.5],[138.4,-54.6],[137.5,-53.0],[137.25,-52.75],[134.7142857142857,-52.285714285714285],[133.4,-51.6],[132.5,-51.5],[132.0,-51.0],[131.0,-51.0],[131.0,-50.0],[130.0,-49.5],[129.66666666666669,-49.66666666666667],[129.33333333333334,-50.333333333333336],[129.0,-50.5],[128.5,-50.5],[128.0,-50.0],[127.66666666666669,-49.33333333333334],[127.86666666666667,-48.86666666666667],[128.60000000000002,-48.60000000000001],[129.0,-48.0],[129.66666666666666,-46.0],[131.125,-44.125],[131.68,-42.68],[132.52941176470588,-41.52941176470588],[132.79310344827587,-40.79310344827586],[133.41666666666666,-40.416666666666664],[133.8,-39.8],[134.77777777777777,-38.77777777777778],[136.57142857142858,-37.57142857142858],[137.0,-37.0],[138.375,-36.375],[140.0,-35.4],[141.2,-35.2],[141.8181818181818,-34.81818181818182],[143.0,-34.5],[145.0,-34.4],[146.0,-33.400000000000006],[147.13333333333333,-33.13333333333333],[147.6,-32.6],[150.0,-31.5],[150.22222222222223,-31.22222222222222],[151.0,-31.0],[151.33333333333334,-30.333333333333336],[151.66666666666669,-30.333333333333336],[152.13333333333333,-30.133333333333333],[152.53846153846155,-29.53846153846154],[153.125,-29.125],[153.5,-28.5],[156.5,-27.5],[157.0,-27.0],[157.5,-27.5],[158.33333333333334,-27.666666666666668],[159.60000000000002,-28.400000000000002],[160.4,-28.6],[161.60000000000002,-29.400000000000002],[163.0,-30.0],[164.0,-30.0],[163.60000000000002,-29.400000000000002],[163.60000000000002,-28.6],[164.0,-28.0],[164.0,-27.0],[165.0,-26.0],[165.0,-23.0],[165.60000000000002,-22.6],[166.0,-22.0],[165.5,-21.0],[165.60000000000002,-20.6],[166.0,-20.0],[166.0,-16.0],[163.0,-16.0],[161.0,-18.0],[160.66666666666669,-17.333333333333336],[160.71428571428572,-16.714285714285715],[161.5,-15.0],[161.28571428571428,-13.714285714285714],[161.0,-13.0],[160.0,-12.0],[160.33333333333334,-11.333333333333334],[160.33333333333334,-11.0],[160.0,-10.0],[160.33333333333334,-9.0],[159.66666666666666,-7.0],[160.0,-6.0],[160.0,-5.0],[159.60000000000002,-4.4],[159.0,-2.0],[158.33333333333334,-1.0],[158.28571428571428,-0.7142857142857142],[158.4,2.0],[159.0,5.0],[159.0,6.0],[159.5,7.0],[160.33333333333334,8.0],[161.26666666666665,8.733333333333334],[162.0,11.0],[162.57142857142858,11.428571428571429],[162.91666666666669,12.083333333333332],[163.60000000000002,12.4],[164.0,13.0],[164.71428571428572,13.285714285714285],[165.0,14.0],[165.60000000000002,14.400000000000002],[166.0,15.0],[167.33333333333334,15.666666666666668],[168.0,16.25],[169.0,16.333333333333332],[170.0,16.333333333333332],[171.0,16.0],[171.73333333333335,16.266666666666666],[172.2,16.2],[172.75,15.75],[173.46153846153848,15.461538461538462],[174.0,15.0],[175.0,14.5],[176.0,13.0],[177.0,12.200000000000001],[177.1951219512195,11.195121951219512],[177.5,11.0],[178.0,10.2],[178.125,9.125],[179.0,8.142857142857142],[179.05925925925925,7.059259259259259],[179.28915662650604,6.289156626506024],[179.66666666666669,6.0],[180.0,5.25],[180.0,-90.0],[-180.0,-90.0],[-180.0,5.25],[-177.8888888888889,5.111111111111111],[-176.75,4.25],[-175.0,3.5],[-173.89473684210526,2.1052631578947367],[-173.21052631578948,0.7894736842105263],[-172.73913043478262,0.2608695652173913],[-172.46153846153845,-0.46153846153846156],[-171.52380952380952,-1.5238095238095237],[-170.5,-3.0],[-170.2,-4.2],[-169.83333333333334,-4.833333333333333],[-169.33333333333334,-6.333333333333334],[-168.66666666666669,-7.666666666666668],[-168.33333333333334,-8.0],[-167.75,-9.75],[-167.5,-10.0],[-167.4,-10.4],[-167.0,-11.0],[-167.4,-11.600000000000001],[-167.30769230769232,-12.307692307692308],[-166.0,-13.0],[-165.66666666666666,-14.0],[-166.0,-15.0],[-165.33333333333334,-17.0],[-165.33333333333334,-17.333333333333336],[-165.0,-18.0],[-165.0,-19.0],[-164.0,-20.0],[-163.0,-20.666666666666668],[-162.0,-20.5],[-161.60000000000002,-20.6],[-161.0,-21.0],[-160.60000000000002,-21.6],[-160.5,-22.0],[-160.0,-22.5],[-159.60000000000002,-22.6],[-159.0,-23.0],[-158.0,-23.0],[-158.0,-24.0],[-157.4,-24.400000000000002],[-157.0,-24.5],[-156.66666666666669,-25.333333333333336],[-156.66666666666669,-25.66666666666667],[-156.0,-26.0],[-155.0,-27.0],[-154.60000000000002,-27.6],[-154.0,-28.0],[-153.0,-29.0],[-152.0,-29.4],[-151.3,-30.3],[-149.8181818181818,-30.81818181818182],[-149.0,-31.333333333333336],[-146.8,-31.8],[-145.0,-32.75],[-143.0,-32.75],[-142.75,-33.0],[-142.6,-33.6],[-142.0,-34.0],[-141.44444444444443,-33.55555555555555],[-140.60000000000002,-32.4],[-139.57142857142858,-30.42857142857143],[-139.0,-29.799999999999997],[-138.4848484848485,-28.515151515151516],[-137.875,-28.0],[-137.69230769230768,-27.307692307692307],[-137.33333333333334,-27.0],[-137.25,-26.75],[-136.75,-26.25],[-136.0,-26.166666666666668],[-135.33333333333334,-26.333333333333336],[-134.73333333333335,-26.733333333333334],[-134.35294117647058,-27.352941176470587],[-133.85714285714286,-28.857142857142858],[-133.83333333333334,-30.0],[-132.9090909090909,-30.90909090909091],[-132.66666666666666,-32.0],[-132.2,-33.2],[-131.5,-34.0],[-131.20000000000002,-35.0],[-130.69230769230768,-35.69230769230769],[-130.44444444444446,-36.44444444444444],[-129.28571428571428,-38.0],[-129.0,-39.0],[-127.92,-39.92],[-127.63636363636364,-40.63636363636364],[-126.92307692307693,-40.92307692307693],[-126.60000000000001,-42.0],[-126.0,-42.75],[-125.0,-43.0],[-123.5,-44.5],[-123.2,-45.2],[-122.75,-45.25],[-122.0,-45.0],[-120.5,-46.0],[-120.0,-47.0],[-119.66666666666669,-46.0],[-119.19047619047619,-45.80952380952381],[-118.0,-45.72727272727273],[-116.33333333333334,-46.0],[-116.0,-46.333333333333336],[-115.5,-46.5],[-112.0,-47.0],[-110.0,-47.599999999999994],[-108.0,-48.0],[-107.0,-48.0],[-106.0,-48.33333333333333],[-105.66666666666667,-48.333333333333336],[-105.0,-48.0],[-104.0,-48.0],[-103.0,-48.5],[-101.60000000000001,-48.60000000000001],[-101.0,-49.0],[-100.33333333333334,-48.66666666666667],[-100.0,-48.666666666666664],[-99.00000000000001,-49.333333333333336],[-98.0,-49.5],[-97.71428571428571,-49.71428571428571],[-97.28571428571428,-49.71428571428571],[-96.5,-50.0],[-96.0,-50.5],[-95.0,-51.0],[-92.75,-51.75],[-91.875,-51.875],[-91.42857142857143,-52.42857142857143],[-90.5,-53.0],[-90.0,-54.0],[-89.25,-53.75],[-88.85714285714286,-53.857142857142854],[-88.5,-54.5],[-87.5,-55.0],[-87.0,-56.0],[-86.0,-56.66666666666667],[-85.46153846153847,-57.46153846153847],[-84.0,-58.25],[-83.0,-59.0],[-82.4,-60.0],[-82.0,-61.0],[-82.66666666666666,-62.0],[-82.5,-63.0],[-83.0,-65.0],[-83.6,-64.6],[-84.0,-64.5],[-84.33333333333334,-65.0],[-83.71428571428571,-65.71428571428571],[-83.75,-66.0],[-84.0,-67.0],[-84.66666666666667,-68.0],[-84.5,-69.0],[-84.60000000000001,-69.4],[-85.0,-70.0],[-86.0,-73.0],[-86.60000000000001,-73.4],[-88.0,-74.0],[-89.0,-75.0],[-90.0,-75.0],[-90.60000000000001,-75.4],[-91.36363636363636,-75.63636363636364],[-92.0,-76.0],[-93.0,-77.0],[-94.33333333333334,-77.66666666666667],[-94.71428571428572,-78.28571428571428],[-95.0,-78.5],[-96.0,-78.5],[-96.4,-78.60000000000001],[-97.0,-79.0],[-100.0,-79.0],[-101.0,-80.0],[-101.0,-84.0],[-100.33333333333334,-83.66666666666667],[-99.80000000000001,-83.8],[-98.0,-83.71428571428571],[-96.0,-84.0],[-95.0,-84.0],[-93.5,-84.5],[-92.63636363636364,-84.63636363636363],[-92.0,-85.0],[-91.25,-84.75],[-89.0,-84.66666666666667],[-88.0,-85.0],[-86.0,-85.0],[-85.00000000000001,-85.16666666666667],[-80.0,-85.2],[-78.33333333333334,-85.33333333333334],[-77.0,-85.25],[-76.0,-85.4],[-75.0,-85.25],[-73.0,-85.5],[-67.0,-85.28571428571428],[-64.0,-85.0],[-60.0,-85.0],[-60.0,-84.0],[-58.75,-83.75],[-58.0,-84.0],[-58.0,-85.0],[-54.0,-85.0],[-53.0,-85.5],[-51.5,-85.5],[-51.0,-86.0],[-50.15384615384615,-86.15384615384616]]],[[[-68.5,-33.0],[-68.63636363636364,-33.36363636363636],[-69.0,-33.5],[-69.33333333333334,-33.333333333333336],[-69.5,-33.0],[-69.0,-32.5],[-68.60000000000001,-32.6],[-68.5,-33.0]]],[[[-63.5,-32.5],[-64.0909090909091,-32.90909090909091],[-65.0,-33.0],[-65.60000000000001,-33.4],[-66.0,-33.5],[-66.6923076923077,-32.69230769230769],[-66.875,-32.0],[-66.63636363636364,-31.363636363636363],[-65.91666666666666,-31.083333333333336],[-64.0952380952381,-31.095238095238095],[-63.60000000000001,-31.400000000000002],[-63.400000000000006,-31.400000000000002],[-63.2,-32.0],[-63.5,-32.5]]],[[[-52.5,-31.0],[-52.5,-32.0],[-52.66666666666667,-32.333333333333336],[-53.0,-32.5],[-53.2,-32.8],[-54.0,-33.0],[-56.0,-33.0],[-57.0,-32.800000000000004],[-58.0,-33.0],[-60.0,-33.0],[-61.71428571428571,-32.71428571428571],[-61.71428571428571,-32.285714285714285],[-61.85714285714286,-32.0],[-61.71428571428571,-31.714285714285715],[-61.71428571428571,-31.285714285714285],[-61.28571428571428,-31.285714285714285],[-60.89473684210526,-31.105263157894736],[-56.77777777777778,-30.77777777777778],[-56.38095238095238,-30.619047619047617],[-55.55555555555555,-30.555555555555554],[-54.0,-30.599999999999998],[-52.8,-30.799999999999997],[-52.5,-31.0]]],[[[-141.47058823529412,-20.470588235294116],[-142.15384615384616,-19.153846153846153],[-142.5,-18.0],[-141.0,-16.75],[-140.0,-17.0],[-139.34782608695653,-17.347826086956523],[-138.86666666666667,-18.866666666666667],[-138.92857142857144,-20.071428571428573],[-139.60000000000002,-20.400000000000002],[-141.0,-20.8],[-141.47058823529412,-20.470588235294116]]],[[[-53.0,1.0],[-52.5,0.5],[-51.88235294117648,0.11764705882352944],[-51.421052631578945,-0.42105263157894735],[-50.76470588235294,-0.7647058823529411],[-50.400000000000006,-1.4000000000000001],[-49.85714285714286,-1.8571428571428572],[-49.53846153846154,-2.5384615384615388],[-48.71428571428571,-3.7142857142857144],[-48.33333333333333,-4.0],[-48.21052631578947,-5.210526315789474],[-47.647058823529406,-5.647058823529411],[-47.400000000000006,-6.0],[-47.0,-8.0],[-47.333333333333336,-8.666666666666668],[-47.333333333333336,-10.0],[-47.625,-11.0],[-47.71428571428571,-12.0],[-48.11764705882353,-12.882352941176471],[-48.18181818181819,-13.818181818181817],[-48.44444444444444,-14.555555555555554],[-49.14285714285714,-15.857142857142858],[-49.333333333333336,-17.0],[-50.0,-19.0],[-51.0,-20.0],[-51.5,-21.0],[-51.5,-22.0],[-51.00000000000001,-22.333333333333336],[-50.0,-22.0],[-48.0,-22.0],[-45.22222222222222,-20.77777777777778],[-43.68421052631579,-20.31578947368421],[-43.083333333333336,-19.916666666666668],[-42.0,-19.77777777777778],[-40.29629629629629,-18.703703703703702],[-39.0,-18.4],[-38.0,-17.833333333333332],[-37.0,-18.25],[-36.0,-19.0],[-35.71428571428571,-19.714285714285715],[-35.77777777777778,-21.22222222222222],[-36.25,-21.75],[-36.55555555555556,-22.444444444444443],[-37.25,-22.75],[-37.5,-23.0],[-37.333333333333336,-24.0],[-37.6,-24.400000000000002],[-38.25,-24.75],[-38.5,-26.0],[-39.0,-26.5],[-39.36363636363636,-27.636363636363637],[-40.0,-27.875],[-41.0,-28.0],[-42.0,-28.75],[-42.6,-28.6],[-43.0,-28.0],[-44.0,-28.0],[-44.400000000000006,-28.6],[-44.66666666666667,-29.333333333333336],[-44.6,-29.6],[-44.76470588235294,-30.235294117647058],[-45.3,-30.700000000000003],[-46.5,-31.0],[-47.30769230769231,-31.692307692307693],[-48.0,-31.75],[-48.63636363636364,-31.636363636363637],[-48.900000000000006,-31.000000000000004],[-48.81818181818181,-30.18181818181818],[-48.0,-30.0],[-47.77777777777778,-29.22222222222222],[-47.22222222222222,-29.22222222222222],[-46.5,-29.0],[-46.8,-28.799999999999997],[-49.0,-28.5],[-50.71428571428571,-29.285714285714285],[-52.0,-29.25],[-53.0,-29.5],[-54.0,-29.57142857142857],[-55.0,-29.4],[-56.0,-29.0],[-57.66666666666667,-27.666666666666668],[-59.142857142857146,-27.142857142857142],[-60.647058823529406,-25.647058823529413],[-61.33333333333334,-25.333333333333336],[-62.4,-24.400000000000002],[-62.733333333333334,-23.733333333333334],[-63.266666666666666,-23.266666666666666],[-63.66666666666667,-22.666666666666668],[-64.66666666666667,-22.0],[-64.83333333333333,-20.833333333333336],[-66.36363636363637,-19.363636363636363],[-67.10526315789474,-19.105263157894736],[-67.52941176470588,-18.52941176470588],[-68.0,-18.2],[-69.0,-18.0],[-69.5,-17.5],[-70.0,-17.25],[-71.0,-17.0],[-73.66666666666667,-16.0],[-73.4,-15.600000000000001],[-73.0,-15.333333333333336],[-70.0,-15.2],[-68.0,-15.25],[-67.18181818181819,-14.818181818181817],[-66.4,-14.600000000000001],[-65.5,-13.5],[-65.25,-13.0],[-65.0,-12.0],[-64.5,-11.0],[-64.5,-10.0],[-64.33333333333334,-9.666666666666668],[-64.25,-9.0],[-63.400000000000006,-7.6],[-63.0,-6.0],[-62.5,-5.5],[-62.25,-5.0],[-62.0,-4.0],[-62.0,-3.0],[-62.18181818181818,-1.8181818181818181],[-62.0,-1.0],[-61.5,-0.5],[-61.33333333333333,0.0],[-61.33333333333333,1.0],[-60.333333333333336,2.3333333333333335],[-60.0,2.5],[-59.0,2.6666666666666665],[-58.0,3.25],[-57.0,3.1666666666666665],[-56.0,2.4000000000000004],[-55.66666666666667,2.3333333333333335],[-54.400000000000006,1.6],[-53.625,1.375],[-53.0,1.0]]],[[[-147.26666666666665,-14.733333333333334],[-148.0,-15.2],[-149.0,-15.428571428571429],[-149.31578947368422,-15.315789473684209],[-150.31578947368422,-14.315789473684209],[-150.88888888888889,-13.0],[-150.88888888888889,-12.0],[-150.66666666666669,-11.333333333333334],[-150.4,-11.0],[-150.0,-10.866666666666667],[-148.0,-11.666666666666668],[-147.35897435897436,-12.35897435897436],[-147.0,-13.0],[-146.9090909090909,-14.0],[-147.26666666666665,-14.733333333333334]]],[[[-159.39999999999998,-7.0],[-159.89830508474577,-6.898305084745763],[-160.4090909090909,-6.409090909090908],[-160.7872340425532,-5.787234042553191],[-160.89655172413794,-5.0],[-160.8,-4.2],[-160.0,-3.6153846153846154],[-159.80769230769232,-3.8076923076923075],[-159.0,-4.0],[-158.6271186440678,-4.627118644067797],[-158.15384615384613,-5.0],[-157.5,-6.0],[-158.135593220339,-6.864406779661017],[-158.66666666666669,-7.0],[-159.0,-7.4],[-159.39999999999998,-7.0]]],[[[-167.0,10.85],[-169.0,11.0],[-169.61290322580643,11.387096774193548],[-170.0,11.857142857142858],[-170.2,13.0],[-170.0,13.555555555555557],[-168.99999999999997,13.823529411764707],[-167.6969696969697,13.303030303030303],[-166.60000000000002,12.4],[-166.39999999999998,12.0],[-166.625,11.0],[-167.0,10.85]]],[[[-167.18918918918916,19.0],[-167.16326530612244,18.163265306122447],[-167.6,17.6],[-168.0,17.46153846153846],[-168.42424242424244,17.575757575757578],[-169.7142857142857,18.285714285714285],[-170.0,18.333333333333336],[-170.14545454545453,18.854545454545455],[-171.0,19.0],[-171.0,20.04],[-170.0,20.4375],[-169.4814814814815,20.0],[-169.43333333333334,19.56666666666667],[-169.0,19.1875],[-168.5737704918033,19.57377049180328],[-168.0,19.73170731707317],[-167.18918918918916,19.0]]],[[[-180.0,22.5],[-180.0,24.833333333333336],[-179.70588235294116,24.294117647058826],[-179.375,24.0],[-179.375,23.625],[-178.94444444444446,23.055555555555557],[-178.83333333333334,22.0],[-179.0,21.75],[-179.5,22.0],[-179.66666666666669,22.333333333333336],[-180.0,22.5]]],[[[128.0,-51.0],[127.0,-51.0],[126.60000000000001,-50.400000000000006],[126.66666666666666,-50.0],[127.33333333333334,-49.66666666666667],[128.0,-50.0],[128.0,-51.0]]],[[[33.36538461538461,-44.0],[34.0,-43.53521126760563],[34.55,-44.0],[34.0,-44.48529411764706],[33.36538461538461,-44.0]]],[[[51.32,-25.68],[51.06521739130435,-25.0],[51.98540145985402,-23.985401459854014],[53.0,-23.615384615384613],[53.333333333333336,-23.666666666666668],[53.83333333333333,-24.0],[53.30434782608695,-25.0],[52.71764705882353,-25.71764705882353],[52.0,-25.977272727272727],[51.32,-25.68]]],[[[159.77777777777777,-18.77777777777778],[160.0,-18.5],[160.4,-18.400000000000002],[161.0,-18.0],[161.33333333333334,-18.666666666666668],[161.33333333333334,-19.0],[161.0,-20.0],[160.4,-20.400000000000002],[160.0,-21.0],[159.75,-20.0],[159.77777777777777,-18.77777777777778]]],[[[60.0,-18.2],[59.625,-18.0],[59.55882352941177,-17.0],[60.0,-16.444444444444443],[61.0,-16.083333333333332],[61.55555555555555,-16.444444444444443],[61.81481481481482,-17.0],[61.541666666666664,-17.541666666666664],[61.0,-17.916666666666668],[60.0,-18.2]]],[[[72.0,-0.21739130434782608],[72.42857142857143,-1.0],[72.0,-1.5294117647058822],[71.6043956043956,-1.3956043956043955],[71.18181818181817,-1.0],[71.41666666666667,-0.4166666666666667],[72.0,-0.21739130434782608]]],[[[131.66666666666669,12.0],[132.3157894736842,10.315789473684209],[132.57142857142856,8.0],[133.0,7.0],[133.0,3.0],[132.8,2.0],[133.0,1.0],[132.73333333333335,0.26666666666666666],[132.625,-1.0],[132.25,-2.0],[132.4,-3.0],[132.16666666666669,-4.166666666666667],[131.57142857142858,-4.571428571428572],[131.30769230769232,-5.307692307692308],[130.66666666666669,-5.666666666666667],[130.0,-6.333333333333334],[129.78947368421052,-6.789473684210526],[129.28571428571428,-7.285714285714286],[129.0,-7.4],[128.88235294117646,-7.882352941176471],[128.7,-8.0],[128.46666666666667,-8.466666666666667],[128.0,-8.7],[127.80000000000001,-9.0],[127.625,-9.625],[126.92156862745098,-9.92156862745098],[126.56521739130434,-10.565217391304348],[126.0,-11.0],[125.62962962962962,-11.629629629629628],[125.21052631578947,-13.210526315789474],[124.66666666666669,-13.666666666666668],[124.46153846153847,-14.461538461538462],[124.0,-15.0],[123.4,-14.600000000000001],[123.25,-14.0],[124.0,-10.0],[124.66666666666666,-8.0],[125.21428571428571,-7.0],[125.75,-5.0],[125.92857142857143,-4.928571428571429],[126.33333333333334,-4.0],[126.375,-3.0],[126.52380952380952,-2.5238095238095237],[127.0,-2.0],[127.0,-1.0],[126.7142857142857,-0.2857142857142857],[126.89999999999999,2.0],[126.42857142857142,3.0],[126.14285714285715,4.0],[125.3,8.0],[125.33333333333334,9.0],[124.9090909090909,11.909090909090908],[125.0,14.0],[124.88888888888889,15.11111111111111],[125.6470588235294,16.352941176470587],[126.83333333333333,17.166666666666664],[128.0,17.333333333333332],[129.71428571428572,15.714285714285712],[130.625,14.625],[131.0,13.0],[131.6,12.6],[131.66666666666669,12.0]]],[[[27.0,13.7],[30.11764705882353,13.11764705882353],[34.0,13.0],[34.66666666666667,12.666666666666668],[35.199999999999996,12.0],[34.0,11.333333333333334],[32.17142857142857,10.82857142857143],[31.555555555555557,10.0],[30.413793103448274,9.586206896551724],[29.16949152542373,8.830508474576272],[28.782608695652172,8.217391304347826],[28.586206896551722,7.413793103448276],[28.216216216216218,6.783783783783784],[28.0,6.0],[27.61904761904762,5.3809523809523805],[27.2,5.0],[27.0,4.0],[26.400000000000002,3.6000000000000005],[26.25,3.0],[26.25,2.0],[26.0,1.0],[25.5,0.5],[25.0,0.5],[24.846153846153847,0.8461538461538461],[24.799999999999997,2.0],[25.0,2.333333333333333],[25.444444444444443,2.555555555555556],[25.666666666666664,3.0],[25.8,4.0],[25.714285714285715,4.7142857142857135],[25.5,5.0],[25.0,5.166666666666667],[24.545454545454547,5.545454545454545],[24.000000000000004,6.200000000000001],[23.0,7.0],[21.0,7.75],[20.0,7.666666666666666],[18.22222222222222,8.222222222222221],[17.0,8.25],[16.0,7.833333333333334],[12.6,7.4],[11.857142857142858,7.142857142857142],[11.142857142857142,7.142857142857142],[10.0,6.75],[9.0,6.714285714285714],[8.0,6.5],[4.0,6.5],[2.6842105263157894,6.684210526315789],[2.0,7.0],[1.0,7.0],[0.0,7.5],[-0.33333333333333337,8.0],[-0.5,9.0],[-0.2857142857142857,9.285714285714285],[0.2857142857142857,9.714285714285714],[1.0,10.0],[1.3636363636363635,10.636363636363637],[2.6470588235294117,11.352941176470587],[4.866666666666667,12.133333333333333],[6.0,12.333333333333334],[6.470588235294117,12.52941176470588],[7.0,13.0],[8.705882352941176,13.294117647058822],[10.0,13.888888888888888],[10.933333333333334,14.066666666666666],[12.0,14.75],[13.0,15.0],[14.0,15.545454545454545],[18.066666666666666,15.933333333333334],[21.0,15.857142857142858],[23.0,15.363636363636363],[24.759999999999998,14.760000000000002],[27.0,13.7]]],[[[67.36942675159236,13.630573248407645],[67.0,13.442307692307692],[66.09375,14.0],[66.52845528455285,14.471544715447155],[67.0,14.743589743589743],[67.65909090909092,14.0],[67.36942675159236,13.630573248407645]]],[[[45.63793103448276,15.637931034482758],[45.474999999999994,16.0],[46.0,16.265822784810126],[46.724137931034484,16.0],[46.0,15.34375],[45.63793103448276,15.637931034482758]]],[[[53.80602006688963,17.806020066889634],[53.60810810810811,18.0],[54.0,18.333333333333336],[54.70731707317073,18.0],[54.21090909090909,17.78909090909091],[53.80602006688963,17.806020066889634]]],[[[165.66666666666669,24.333333333333336],[165.0,23.0],[163.44444444444443,20.555555555555554],[162.1818181818182,18.818181818181817],[160.60000000000002,17.4],[160.25,16.75],[159.71428571428572,16.285714285714285],[159.4,15.600000000000001],[158.14285714285714,13.857142857142858],[157.0,13.4],[156.53846153846155,13.538461538461538],[156.22222222222223,14.222222222222221],[156.28571428571428,15.0],[156.69230769230768,16.30769230769231],[157.33333333333334,17.0],[157.8,18.2],[158.33333333333334,19.0],[158.63636363636363,19.363636363636363],[159.26666666666665,19.733333333333334],[159.53846153846155,20.461538461538463],[160.0,21.0],[159.63636363636363,21.636363636363637],[159.66666666666669,22.333333333333336],[160.42857142857144,23.571428571428573],[160.6923076923077,24.30769230769231],[162.0,25.0],[162.25,25.75],[163.0,26.0],[163.0,27.0],[164.0,27.0],[164.4,27.6],[165.71428571428572,28.285714285714285],[166.28571428571428,28.285714285714285],[167.0,28.0],[167.66666666666669,27.000000000000004],[167.5,26.0],[167.0,25.0],[166.28571428571428,25.285714285714285],[165.85714285714286,25.142857142857142],[165.66666666666669,24.333333333333336]]],[[[179.0,24.5],[180.0,24.833333333333336],[180.0,22.5],[179.71428571428572,22.71428571428571],[179.0,22.8],[178.78571428571428,24.0],[179.0,24.5]]],[[[124.4,28.400000000000002],[124.0,27.0],[123.0,27.0],[123.4,27.6],[123.33333333333334,28.0],[124.0,28.666666666666668],[124.4,28.400000000000002]]],[[[124.5,29.0],[124.83333333333334,29.166666666666664],[125.13333333333333,29.133333333333333],[125.13333333333333,28.866666666666667],[124.66666666666669,28.66666666666667],[124.5,29.0]]],[[[157.5,35.0],[157.0,34.75],[156.23529411764707,33.76470588235294],[154.71428571428572,33.285714285714285],[154.0,32.8],[152.0,32.5],[151.0,32.142857142857146],[149.0,32.0],[147.0,32.42857142857143],[145.0,32.57142857142857],[144.0,32.8],[143.3157894736842,33.315789473684205],[141.76470588235293,33.76470588235294],[141.0,34.75],[140.0,35.0],[139.5,35.5],[138.0,36.0],[137.5,36.5],[136.0,37.0],[137.0,37.2],[138.77777777777777,37.22222222222222],[141.42857142857144,37.57142857142858],[143.28571428571428,37.285714285714285],[145.0,37.18181818181818],[153.0,37.06818181818182],[157.66666666666669,36.0],[157.5,35.0]]]]}}]}