{"type":"FeatureCollection","features":[{"type":"Feature","properties":{"ageMa":180},"geometry":{"type":"MultiPolygon","coordinates":[[[[-73.0,15.666666666666668],[-73.0,16.5],[-72.6,16.400000000000002],[-72.73333333333333,15.733333333333333],[-73.0,15.666666666666668]]],[[[-72.59493670886076,17.594936708860757],[-73.0,17.11111111111111],[-73.64539007092199,18.354609929078013],[-74.0,18.462962962962962],[-74.6590909090909,19.0],[-75.0,20.5],[-75.28571428571428,20.714285714285715],[-75.55555555555556,20.555555555555554],[-76.25,20.75],[-76.38709677419354,21.0],[-76.38095238095238,21.38095238095238],[-76.0,21.8],[-75.45714285714286,21.54285714285714],[-75.0,21.2],[-74.95833333333334,21.041666666666668],[-73.97037037037038,21.02962962962963],[-73.82022471910113,20.0],[-73.52845528455285,19.471544715447155],[-72.86363636363636,19.136363636363637],[-72.59493670886076,17.594936708860757]]],[[[-83.25,56.0],[-83.36363636363636,55.36363636363637],[-84.00000000000001,55.1],[-84.25,54.75],[-84.33333333333334,54.333333333333336],[-84.625,54.375],[-86.0,54.0],[-84.51724137931035,53.48275862068965],[-84.3,52.99999999999999],[-84.67441860465117,52.674418604651166],[-84.55244755244756,52.44755244755245],[-84.96629213483146,50.0],[-84.97727272727272,49.0],[-84.81481481481481,48.18518518518518],[-84.13043478260869,48.1304347826087],[-83.93478260869564,48.0],[-83.83333333333334,45.16666666666667],[-82.98473282442748,45.01526717557252],[-82.97619047619047,44.023809523809526],[-81.875,44.0],[-81.3943661971831,43.60563380281691],[-81.0,43.51724137931034],[-80.80132450331126,43.19867549668874],[-80.28571428571429,43.0],[-80.0,42.714285714285715],[-79.81481481481481,41.81481481481482],[-79.9047619047619,40.904761904761905],[-81.03663003663004,40.96336996336996],[-81.2919708029197,41.70802919708029],[-82.03053435114504,41.96946564885496],[-82.22641509433961,42.77358490566038],[-83.03053435114504,42.969465648854964],[-83.02380952380952,43.97619047619048],[-84.00766283524904,43.99233716475096],[-84.130081300813,44.869918699187],[-85.0,45.73684210526316],[-85.02409638554218,47.0],[-85.18518518518519,47.81481481481481],[-86.02666666666666,48.026666666666664],[-86.02666666666666,48.97333333333333],[-86.33333333333333,49.0],[-86.11764705882354,49.11764705882353],[-86.07142857142857,50.0],[-87.0,50.8125],[-87.0,52.66666666666667],[-86.88888888888889,52.99999999999999],[-86.99999999999999,53.05],[-87.18095238095238,54.0],[-87.02272727272728,57.0],[-86.2051282051282,57.205128205128204],[-86.0,57.800000000000004],[-85.0,57.714285714285715],[-84.53488372093024,57.46511627906977],[-84.0,56.81818181818181],[-83.52631578947368,56.473684210526315],[-83.25,56.0]]],[[[-72.4,54.400000000000006],[-72.5,54.0],[-76.5,54.0],[-76.0,54.4],[-74.77777777777777,54.77777777777778],[-74.5,55.0],[-74.6,55.400000000000006],[-75.33333333333334,55.66666666666667],[-77.22222222222223,55.77777777777778],[-78.0,56.0],[-77.0,56.142857142857146],[-73.0,56.0],[-72.0,55.5],[-71.75,55.0],[-72.4,54.400000000000006]]],[[[-79.15384615384616,54.84615384615384],[-79.5,55.0],[-79.0,55.5],[-78.66666666666667,55.33333333333334],[-78.66666666666667,55.0],[-79.15384615384616,54.84615384615384]]],[[[-68.83333333333334,57.83333333333333],[-69.0,57.5],[-70.0,57.5],[-70.28571428571428,57.28571428571428],[-70.25,57.0],[-70.7,56.7],[-72.0,56.2],[-73.0,56.0],[-73.4,56.6],[-73.23529411764706,57.23529411764706],[-73.0,57.5],[-72.0,58.0],[-71.0,58.0],[-71.0,59.0],[-65.75,59.0],[-66.0,58.666666666666664],[-67.4,58.400000000000006],[-68.0,58.0],[-68.83333333333334,57.83333333333333]]],[[[-178.08333333333334,58.91666666666667],[-178.0,59.03370786516854],[-176.625,59.0],[-176.94285714285715,58.94285714285714],[-177.0,58.666666666666664],[-178.0,58.57142857142857],[-178.08333333333334,58.91666666666667]]],[[[-82.44444444444444,58.44444444444444],[-83.5,58.5],[-84.3448275862069,58.6551724137931],[-84.625,59.0],[-84.10526315789473,59.10526315789474],[-83.94736842105263,60.0],[-83.51219512195122,60.512195121951216],[-83.0,60.75],[-82.0,60.66666666666667],[-81.54285714285713,60.457142857142856],[-81.27272727272728,60.0],[-81.33333333333334,59.333333333333336],[-81.65217391304347,58.65217391304348],[-82.44444444444444,58.44444444444444]]],[[[-172.625,60.0],[-173.8730158730159,59.87301587301587],[-174.0,59.71428571428572],[-174.11111111111111,60.0],[-172.9142857142857,60.08571428571428],[-172.625,60.0]]],[[[-172.1914893617021,60.808510638297875],[-172.06818181818184,61.06818181818181],[-170.82539682539684,61.17460317460318],[-170.3888888888889,61.0],[-171.22222222222223,60.77777777777778],[-171.8021978021978,60.80219780219781],[-172.0,60.357142857142854],[-172.1914893617021,60.808510638297875]]],[[[-82.0,61.266666666666666],[-83.0,61.42857142857142],[-83.66666666666667,62.0],[-83.21917808219177,62.21917808219179],[-83.0,63.0],[-83.0,64.0],[-82.22222222222223,63.77777777777778],[-82.0,63.85714285714286],[-81.4,63.60000000000001],[-80.68421052631578,62.315789473684205],[-80.625,62.0],[-80.73913043478261,61.73913043478261],[-81.36363636363636,61.36363636363636],[-82.0,61.266666666666666]]],[[[-97.25,72.75],[-98.0,73.0],[-96.5,73.0],[-96.77777777777777,72.77777777777777],[-97.25,72.75]]],[[[-176.8918918918919,86.10810810810811],[-173.0,86.01149425287356],[-155.0,86.03370786516855],[-154.57142857142856,86.0],[-154.2962962962963,85.7037037037037],[-154.0,85.63636363636364],[-153.33333333333334,86.0],[-151.5,86.0],[-151.0,85.72727272727272],[-150.8,85.2],[-149.91358024691357,85.08641975308642],[-142.96756756756758,85.03243243243243],[-142.57142857142856,85.0],[-142.30769230769232,84.6923076923077],[-141.0,84.42857142857143],[-140.0,84.66666666666667],[-139.0,84.69999999999999],[-138.61111111111111,84.38888888888889],[-138.0,84.25],[-137.88235294117646,84.11764705882354],[-132.0,84.04444444444444],[-131.84615384615384,84.0],[-131.52941176470588,83.47058823529412],[-130.82978723404256,83.17021276595744],[-125.0,83.04444444444445],[-124.74193548387096,82.74193548387098],[-124.65957446808511,82.34042553191489],[-123.84761904761905,82.15238095238095],[-119.0,82.03370786516854],[-118.875,81.875],[-118.95,81.05000000000001],[-115.75,81.0],[-115.5,80.5],[-115.0,80.25],[-114.92,80.08000000000001],[-110.88888888888889,80.0],[-110.77777777777777,79.22222222222223],[-110.22222222222223,79.22222222222223],[-109.97916666666667,79.02083333333334],[-107.76923076923077,79.0],[-107.57142857142858,78.42857142857143],[-107.0,78.16666666666666],[-106.95876288659792,78.04123711340206],[-105.0,78.0],[-104.7906976744186,77.2093023255814],[-103.98245614035088,77.0],[-103.93333333333334,76.06666666666668],[-103.03571428571429,76.03571428571428],[-102.48148148148148,75.51851851851852],[-102.0,75.35],[-101.69565217391305,75.0],[-101.60563380281691,74.60563380281691],[-101.82608695652173,74.17391304347825],[-99.97142857142858,74.0],[-100.0,73.66666666666666],[-101.0,73.75],[-102.0,73.6],[-102.75,73.0],[-102.31578947368419,72.68421052631578],[-99.4,72.6],[-98.60000000000001,72.4],[-98.5,72.0],[-97.22222222222223,71.77777777777777],[-96.75,71.75],[-95.11111111111111,72.11111111111111],[-94.75,72.0],[-94.0,71.4],[-93.6,71.60000000000001],[-93.4,72.0],[-92.8,72.0],[-92.63636363636364,71.36363636363636],[-92.28571428571428,71.28571428571428],[-91.97468354430379,71.02531645569621],[-91.14953271028037,71.14953271028037],[-87.0,71.0],[-86.86138613861385,70.13861386138613],[-84.57142857142857,70.0],[-84.0,69.6923076923077],[-83.8252427184466,69.1747572815534],[-81.2,69.0],[-80.54545454545453,68.45454545454545],[-79.8082191780822,68.1917808219178],[-74.97073170731707,68.02926829268293],[-74.79310344827587,67.79310344827586],[-74.72972972972974,67.27027027027027],[-74.16666666666667,67.0],[-74.83870967741936,66.83870967741936],[-74.96000000000001,66.0],[-75.75438596491227,65.75438596491227],[-76.0,65.22222222222223],[-77.0,65.2],[-78.44444444444444,65.44444444444444],[-79.25,65.25],[-80.0,64.66666666666666],[-81.0,64.4],[-81.5,64.5],[-82.0,65.0],[-83.0,65.0],[-82.75,65.75],[-82.94117647058823,66.05882352941177],[-84.0,66.36363636363636],[-85.0,66.0909090909091],[-85.43478260869564,66.56521739130434],[-86.15151515151516,66.84848484848484],[-88.0343347639485,66.9656652360515],[-88.42222222222222,67.57777777777778],[-89.14545454545454,67.85454545454546],[-90.3529411764706,68.0],[-90.61403508771929,68.3859649122807],[-91.0,68.5],[-91.1788617886179,68.8211382113821],[-92.3076923076923,69.0],[-93.19999999999999,69.8],[-94.04285714285714,69.95714285714286],[-96.0,70.11111111111111],[-96.33333333333333,70.0],[-97.25,70.0],[-98.0,70.33333333333334],[-99.0,70.27777777777777],[-100.0,70.66666666666666],[-101.24000000000001,70.24],[-101.5,70.0],[-101.96739130434783,69.96739130434783],[-110.0,69.74782608695652],[-114.90789473684211,69.90789473684211],[-116.0,69.77380952380953],[-120.0,69.83720930232559],[-120.24778761061947,69.75221238938053],[-120.91304347826087,69.91304347826087],[-121.0,69.4],[-122.125,69.875],[-122.8,69.8],[-123.28571428571428,70.0],[-123.0,71.0],[-122.5,70.5],[-122.0,70.25],[-121.0,70.75],[-120.9047619047619,70.9047619047619],[-120.5,71.0],[-120.4,71.4],[-120.0,71.33333333333333],[-118.0,71.7],[-117.4,72.0],[-117.82857142857142,72.17142857142858],[-119.0,72.3],[-120.25,72.25],[-120.66666666666666,72.0],[-120.60000000000001,71.60000000000001],[-121.0,71.5],[-122.0,72.0],[-123.0,72.0],[-123.71428571428571,71.71428571428571],[-124.0,71.8],[-124.66666666666669,71.66666666666667],[-125.0,71.0],[-125.0,70.0],[-125.95238095238095,69.95238095238095],[-126.47058823529412,69.47058823529412],[-126.57142857142858,69.0],[-127.0,68.96629213483146],[-127.15384615384616,69.15384615384616],[-127.06451612903226,69.93548387096774],[-128.0,70.0],[-128.03508771929825,70.96491228070175],[-128.14285714285714,71.14285714285714],[-128.0,72.0],[-129.0,72.0],[-129.03846153846155,73.96153846153845],[-130.0,74.0],[-130.02083333333334,75.97916666666667],[-130.1818181818182,76.18181818181819],[-130.1818181818182,76.81818181818181],[-130.8181818181818,76.81818181818181],[-131.25,77.0],[-131.5,77.5],[-132.0,77.75],[-132.02197802197801,77.97802197802197],[-136.0,78.0],[-136.0,80.0],[-136.8181818181818,80.18181818181819],[-140.0,80.5],[-141.0,80.33333333333334],[-143.0,80.33333333333334],[-145.0,80.6],[-146.0,80.33333333333334],[-147.0,80.6],[-149.28571428571428,80.71428571428572],[-150.0,81.0],[-150.60000000000002,80.60000000000001],[-152.0,80.0],[-154.0,79.75],[-154.4,79.4],[-154.60000000000002,78.60000000000001],[-155.0,78.33333333333334],[-156.0,78.0],[-156.0,77.0],[-155.4,76.60000000000001],[-155.0,76.0],[-154.97727272727275,75.02272727272727],[-155.9718309859155,74.97183098591549],[-155.86813186813185,74.13186813186813],[-155.95454545454544,73.95454545454545],[-156.85321100917432,73.85321100917432],[-157.0,73.42857142857143],[-159.0,73.38461538461539],[-160.13793103448276,73.13793103448276],[-162.0,73.21052631578948],[-164.33333333333334,73.0],[-165.0,72.71428571428572],[-165.45454545454544,72.0],[-167.91752577319588,71.91752577319588],[-168.0,71.6],[-169.35294117647058,71.35294117647058],[-170.0,71.11111111111111],[-171.0,71.33333333333334],[-172.53846153846155,71.46153846153847],[-173.0,71.75],[-173.07142857142858,71.92857142857143],[-175.9753086419753,71.9753086419753],[-178.875,71.875],[-179.0,71.66666666666667],[-179.44444444444443,71.44444444444444],[-179.66666666666669,71.0],[-180.0,70.98850574712642],[-180.0,85.46666666666667],[-179.6279069767442,85.62790697674419],[-179.42857142857144,86.0],[-179.57894736842104,86.42105263157895],[-180.0,86.57142857142856],[-180.0,90.0],[-178.98850574712642,90.0],[-179.0156555772994,89.01565557729941],[-179.66666666666669,89.0],[-179.4,88.6],[-179.0,88.5],[-178.95505617977528,87.04494382022472],[-177.95454545454544,87.0],[-177.7142857142857,86.28571428571428],[-177.28571428571428,86.28571428571428],[-176.8918918918919,86.10810810810811]]],[[[11.882352941176471,-77.88235294117646],[12.0,-77.66666666666667],[15.0,-77.75],[15.2,-78.0],[12.0,-78.01149425287356],[11.882352941176471,-77.88235294117646]]],[[[5.0,-73.66666666666666],[6.0,-73.83333333333334],[6.025316455696203,-73.9746835443038],[7.0,-74.0],[6.166666666666667,-74.16666666666666],[6.0,-74.5],[5.0,-74.33333333333333],[4.0,-74.0],[5.0,-73.66666666666666]]],[[[-3.0,-70.91666666666666],[-2.8333333333333335,-71.16666666666666],[-3.444444444444444,-71.55555555555554],[-3.6666666666666665,-72.0],[-5.0,-72.0],[-5.022727272727273,-71.02272727272728],[-6.011764705882353,-71.0],[-6.023529411764706,-70.02352941176471],[-7.111111111111111,-70.0],[-5.875,-70.0],[-5.75,-70.25],[-5.75,-70.75],[-5.25,-70.75],[-4.909090909090908,-70.9090909090909],[-3.0,-70.91666666666666]]],[[[47.666666666666664,-64.0],[47.6,-64.4],[48.0,-65.0],[47.0,-65.0],[46.0,-64.0],[46.733333333333334,-63.733333333333334],[47.666666666666664,-64.0]]],[[[44.0,-63.333333333333336],[43.5,-63.0],[43.9,-62.900000000000006],[44.5,-63.0],[44.285714285714285,-63.285714285714285],[44.0,-63.333333333333336]]],[[[-29.75,-53.75],[-29.875,-54.0],[-29.75,-54.25],[-29.75,-54.75],[-29.25,-54.75],[-28.894736842105264,-54.89473684210526],[-28.75,-55.25],[-28.75,-55.75],[-28.5,-56.0],[-28.77777777777778,-56.22222222222223],[-28.77777777777778,-56.77777777777778],[-29.0,-57.111111111111114],[-29.02127659574468,-57.02127659574468],[-29.5,-57.0],[-29.666666666666668,-56.66666666666667],[-30.0,-56.5],[-30.037735849056606,-55.0377358490566],[-31.0,-55.0],[-31.0,-51.0],[-30.5,-51.5],[-30.0,-51.66666666666667],[-29.5,-51.5],[-29.666666666666668,-52.0],[-29.444444444444443,-52.44444444444444],[-29.0,-52.666666666666664],[-28.9672131147541,-53.0327868852459],[-29.25,-53.25],[-29.75,-53.25],[-29.75,-53.75]]],[[[133.0,87.25],[133.33333333333331,87.0],[133.55555555555554,86.55555555555556],[134.0,86.33333333333333],[134.08333333333334,86.08333333333334],[135.0,86.04761904761905],[160.96103896103895,86.03896103896105],[161.86301369863014,86.13698630136986],[161.98340248962654,87.01659751037344],[162.9,87.10000000000001],[175.0,87.02272727272728],[175.5625,86.5625],[179.05714285714288,86.05714285714285],[179.56756756756758,85.56756756756758],[180.0,85.46666666666667],[180.0,70.98850574712642],[179.97674418604652,72.97674418604652],[174.0,72.98823529411764],[172.8653846153846,72.86538461538461],[172.025,72.975],[171.26315789473685,72.73684210526315],[171.0,72.28571428571429],[170.0,72.0],[165.85714285714286,72.14285714285714],[165.83333333333334,72.0],[164.37037037037038,71.62962962962962],[164.05263157894737,71.0],[163.0,71.125],[162.83333333333334,71.0],[162.09615384615384,70.90384615384616],[161.4375,70.5625],[161.21428571428572,70.0],[159.2178217821782,69.78217821782178],[159.0,69.56],[157.64444444444445,69.35555555555555],[157.2,69.0],[153.17543859649123,68.82456140350877],[153.0,68.6875],[151.55555555555554,68.44444444444444],[150.86666666666667,68.13333333333333],[150.0,68.0],[148.0,68.0],[148.0,67.0],[143.0,67.0],[143.0,66.0],[142.28571428571428,66.28571428571428],[142.0,66.2],[141.875,66.0],[140.0,65.92156862745098],[139.39560439560438,65.6043956043956],[139.0506329113924,64.9493670886076],[137.38,64.62],[137.04780876494024,63.95219123505976],[136.0,63.85454545454546],[135.44897959183675,63.55102040816327],[135.05833333333334,62.94166666666667],[134.0,62.91954022988506],[133.32167832167832,62.67832167832168],[133.0,62.04166666666667],[132.875,62.0],[131.0,61.8],[130.36756756756756,61.63243243243244],[129.0657276995305,60.93427230046948],[128.1,60.900000000000006],[127.02714932126696,59.97285067873303],[125.22222222222221,59.77777777777778],[125.02575107296137,58.97424892703863],[124.0,58.92222222222222],[123.38423645320196,58.61576354679803],[123.0,58.20408163265306],[122.41176470588235,58.0],[121.0,57.90410958904109],[120.46632124352331,57.53367875647668],[120.0,56.98837209302326],[118.1764705882353,56.8235294117647],[117.85454545454544,56.14545454545454],[117.63636363636364,56.0],[116.0,55.88461538461538],[115.34965034965035,55.65034965034965],[114.84466019417476,55.15533980582524],[114.07368421052632,54.92631578947368],[111.12612612612612,54.87387387387387],[110.07070707070707,53.92929292929293],[108.17283950617283,53.827160493827165],[105.29166666666666,53.0],[105.52777777777777,52.52777777777777],[106.13725490196079,52.13725490196079],[106.25454545454545,51.25454545454545],[108.0,51.129629629629626],[109.33823529411765,51.66176470588236],[109.91025641025641,52.08974358974359],[111.87610619469027,52.123893805309734],[112.98843930635839,53.01156069364162],[115.70833333333331,53.291666666666664],[116.48484848484848,53.515151515151516],[117.0,53.93333333333333],[119.68181818181819,54.31818181818181],[120.0,54.77777777777778],[120.66666666666666,55.0],[122.96129032258065,55.038709677419355],[123.83132530120483,55.168674698795186],[124.0625,55.9375],[129.85106382978722,56.148936170212764],[130.0,57.0],[133.97368421052633,57.026315789473685],[137.0,57.30434782608695],[138.0,57.26315789473684],[139.35714285714286,57.64285714285714],[140.0,58.01149425287357],[141.0,57.57142857142857],[141.29906542056074,57.29906542056075],[146.00995024875624,57.00995024875622],[146.41666666666669,56.41666666666667],[147.0,56.21212121212121],[149.39999999999998,56.0],[150.0,55.625],[150.12987012987014,55.12987012987013],[152.54545454545456,55.0],[154.15652173913043,54.15652173913043],[162.75,54.0],[162.75,53.0],[162.85714285714286,52.85714285714286],[163.92857142857142,53.07142857142857],[165.0,53.0],[164.52941176470588,52.470588235294116],[164.42857142857144,52.0],[164.14285714285714,51.85714285714286],[164.06060606060606,51.0],[163.22222222222223,50.77777777777778],[162.9,50.0],[161.57142857142856,49.0],[161.625,48.625],[162.0,48.0],[161.0759493670886,47.92405063291139],[161.0,47.57142857142857],[160.33333333333331,47.0],[160.03846153846155,46.96153846153846],[159.44444444444443,46.55555555555555],[159.25,46.0],[158.75,45.75],[158.25,45.75],[158.10000000000002,45.0],[157.10666666666668,44.89333333333333],[157.01626016260164,43.983739837398375],[156.1344537815126,43.865546218487395],[156.0,43.578947368421055],[155.60000000000002,43.400000000000006],[155.26666666666665,43.0],[154.1891891891892,42.81081081081081],[154.01694915254237,41.983050847457626],[153.02666666666667,41.97333333333333],[152.28,41.72],[152.0,40.98823529411764],[151.0,40.94366197183099],[150.0,40.55769230769231],[147.55294117647057,40.44705882352941],[146.92307692307693,40.00000000000001],[146.0,39.87755102040816],[143.0,39.913978494623656],[141.26086956521738,39.73913043478261],[140.27272727272728,39.0],[139.16058394160584,38.839416058394164],[138.52941176470588,38.470588235294116],[138.25,38.0],[137.7090909090909,37.709090909090904],[137.33802816901408,37.66197183098591],[137.37362637362637,37.37362637362637],[137.12142857142857,36.878571428571426],[136.6851851851852,36.68518518518518],[136.3,36.7],[136.26190476190476,36.26190476190476],[136.07638888888889,35.923611111111114],[135.27027027027026,35.729729729729726],[135.06315789473683,34.93684210526316],[134.1818181818182,34.81818181818182],[133.5,34.0],[132.37037037037035,33.629629629629626],[132.11111111111111,32.888888888888886],[131.5205479452055,32.47945205479452],[131.15686274509804,31.84313725490196],[131.03112840466926,30.96887159533074],[130.2736842105263,30.72631578947368],[130.2736842105263,30.273684210526312],[130.10833333333332,29.891666666666666],[129.41666666666669,29.583333333333336],[129.0,28.388888888888893],[128.73076923076923,28.269230769230766],[128.61111111111111,28.000000000000004],[128.18032786885246,27.81967213114754],[128.02962962962962,26.97037037037037],[127.12765957446808,26.872340425531913],[127.12765957446808,26.127659574468083],[127.0,25.88235294117647],[126.75510204081633,25.755102040816325],[126.24489795918367,25.755102040816325],[126.28070175438597,25.280701754385962],[126.0,24.771428571428572],[125.375,24.625],[124.9,23.0],[124.3913043478261,22.608695652173914],[124.09638554216866,21.903614457831324],[123.43478260869564,21.565217391304348],[123.20588235294117,21.0],[123.0,19.857142857142858],[122.0,19.4],[121.0,19.799999999999997],[118.80000000000001,19.0],[118.89473684210526,18.894736842105264],[118.74193548387098,18.258064516129032],[118.96153846153845,17.0],[118.93333333333334,16.066666666666666],[118.75,16.0],[119.57142857142857,15.0],[119.625,14.625],[120.08695652173914,14.08695652173913],[121.0,13.727272727272727],[122.0,14.0],[122.58333333333333,15.0],[123.70833333333333,15.291666666666666],[123.72727272727272,15.727272727272727],[124.0,16.25],[124.58823529411765,16.41176470588235],[125.14285714285715,17.0],[125.42424242424242,17.575757575757578],[125.42424242424241,18.0],[125.38888888888889,18.38888888888889],[124.88505747126436,18.885057471264368],[125.0,19.185185185185187],[126.0,19.214285714285715],[128.0,19.84],[128.51020408163265,18.510204081632654],[129.11111111111111,18.0],[129.26470588235293,17.264705882352942],[130.02083333333331,17.0],[130.1875,16.1875],[131.0,16.0],[131.02272727272728,15.022727272727272],[132.0,14.833333333333332],[132.1290322580645,13.129032258064516],[133.01851851851853,13.018518518518517],[133.02985074626866,12.029850746268657],[134.0,12.0],[134.03225806451613,11.032258064516128],[135.0,11.016393442622952],[135.8974358974359,11.102564102564102],[136.16666666666669,12.0],[136.64646464646464,12.353535353535355],[138.125,12.0],[138.5,11.5],[139.0,11.125],[139.4,11.400000000000002],[139.60000000000002,11.400000000000002],[139.63636363636363,12.0],[139.92307692307693,12.076923076923077],[139.9921875,13.0078125],[140.95348837209303,13.046511627906977],[141.0,14.0],[141.97468354430382,14.025316455696203],[141.9902912621359,15.009708737864077],[142.95121951219514,15.048780487804878],[142.97560975609755,16.0],[143.96774193548384,16.032258064516128],[144.0,17.023809523809526],[144.87234042553192,17.127659574468083],[144.95505617977528,19.04494382022472],[145.1142857142857,19.114285714285714],[145.54545454545453,19.0],[145.6153846153846,18.615384615384613],[146.27272727272725,18.272727272727273],[146.375,18.0],[146.06,17.94],[146.0,17.0],[145.0810810810811,16.91891891891892],[145.0,15.666666666666668],[144.75,15.25],[144.8,15.0],[144.15384615384616,14.846153846153847],[144.00787401574803,13.992125984251969],[143.02325581395348,13.976744186046512],[143.0151515151515,12.984848484848484],[142.02380952380955,12.976190476190476],[142.0235294117647,11.976470588235292],[141.17021276595744,11.829787234042552],[141.0,10.975],[140.05,10.95],[140.0,9.958333333333334],[139.08333333333334,9.916666666666668],[139.00766283524905,7.992337164750958],[138.02298850574712,7.977011494252873],[138.00766283524905,6.992337164750958],[137.02247191011236,6.977528089887641],[137.0,6.5],[136.66666666666669,6.333333333333334],[136.5,6.0],[135.04347826086956,5.956521739130435],[135.0,5.0],[133.0952380952381,4.904761904761904],[133.01030927835052,3.9896907216494846],[131.02739726027397,3.9726027397260273],[131.0,2.988505747126437],[129.875,3.0],[130.0,3.3333333333333335],[130.44444444444446,3.5555555555555554],[130.66666666666666,4.0],[130.28571428571428,4.285714285714286],[129.8181818181818,4.181818181818182],[129.2941176470588,4.294117647058823],[127.75999999999999,4.24],[127.19718309859155,3.802816901408451],[126.0,3.564102564102564],[122.31404958677686,3.6859504132231407],[121.0,3.91],[120.0,3.596774193548387],[118.0,3.511111111111111],[117.0,3.9411764705882355],[116.0,3.9393939393939394],[115.34666666666666,4.346666666666667],[113.80434782608697,4.804347826086957],[113.22535211267606,5.225352112676056],[112.68,5.32],[112.2,5.2],[111.88235294117646,5.882352941176471],[111.9090909090909,7.0],[111.26470588235294,8.264705882352942],[109.71428571428571,9.0],[109.0,9.555555555555555],[108.45614035087719,10.456140350877192],[108.0,10.8125],[107.76666666666667,11.766666666666667],[106.93877551020408,11.938775510204081],[106.7948717948718,12.794871794871796],[105.25,13.0],[105.0,13.5],[104.80000000000001,13.2],[104.85714285714286,13.000000000000002],[104.26086956521739,12.73913043478261],[103.61290322580645,12.612903225806452],[103.3157894736842,12.684210526315788],[103.03703703703704,11.962962962962962],[103.0,11.5],[102.77777777777777,11.777777777777779],[102.0,12.0],[101.0,12.0],[99.69230769230771,12.307692307692308],[99.22222222222223,12.222222222222221],[98.60000000000001,12.4],[98.0,12.0],[98.0,14.0],[96.5,15.0],[96.4,15.4],[96.0,16.0],[95.0,15.0],[95.0,14.0],[95.44444444444444,13.444444444444445],[96.5,11.0],[96.36363636363637,10.636363636363637],[95.33333333333333,10.0],[94.9,10.0],[94.38297872340425,10.382978723404255],[92.92307692307692,10.923076923076923],[89.0,11.0],[88.6,11.600000000000001],[88.0,11.75],[87.33333333333334,11.666666666666668],[87.0,11.5],[86.83333333333334,11.833333333333334],[86.16666666666666,11.833333333333334],[85.96721311475409,11.967213114754099],[83.66666666666667,12.0],[83.33333333333334,12.333333333333334],[83.0,12.461538461538462],[82.7741935483871,12.774193548387096],[81.936,12.936],[80.4,13.0],[80.0,13.200000000000001],[79.84,13.84],[78.0,14.0],[77.83333333333334,14.833333333333334],[76.93055555555556,15.0],[76.79746835443038,15.797468354430379],[75.0,15.988505747126437],[74.77551020408163,16.775510204081634],[73.0,16.81904761904762],[72.4857142857143,17.485714285714284],[72.0,17.747252747252748],[70.82186234817814,17.821862348178136],[70.29032258064517,18.0],[69.71014492753623,18.71014492753623],[69.25423728813558,18.74576271186441],[68.64285714285714,19.0],[68.54838709677419,19.548387096774192],[67.96610169491525,19.966101694915256],[67.33333333333334,20.0],[67.6,20.400000000000002],[68.0,20.666666666666668],[68.28571428571428,21.285714285714285],[68.28571428571428,21.714285714285715],[69.0,22.0],[68.0,23.0],[67.0,23.0],[66.4,23.400000000000002],[65.60000000000001,23.6],[64.4,24.400000000000002],[63.60000000000001,24.6],[63.0,25.0],[62.0,25.0],[62.0,26.0],[63.0,26.25],[66.0,26.333333333333336],[66.5,26.5],[67.0,27.0],[66.33333333333334,28.333333333333336],[66.0,28.5],[65.44444444444444,29.444444444444443],[65.0,29.666666666666668],[63.0,29.88888888888889],[62.75,30.0],[62.5,30.5],[62.0,30.75],[61.647058823529406,30.352941176470587],[60.266666666666666,29.733333333333334],[59.0,29.526315789473685],[58.60869565217392,29.608695652173914],[58.18181818181818,30.0],[58.25,30.25],[58.0,31.0],[57.5,31.5],[57.0,31.666666666666664],[56.76470588235294,31.235294117647058],[56.833333333333336,30.833333333333332],[57.5,30.5],[57.66666666666667,30.000000000000004],[57.256410256410255,28.74358974358974],[56.55555555555556,28.444444444444443],[55.19047619047619,28.19047619047619],[54.0,28.375],[53.75,28.75],[53.565217391304344,29.43478260869565],[54.0,30.0],[53.421052631578945,29.57894736842105],[52.2,30.0],[52.22222222222222,31.22222222222222],[51.5,32.0],[51.400000000000006,32.4],[51.0,33.0],[50.0,34.0],[49.0,34.0],[49.0,35.0],[47.0,35.0],[46.0,36.0],[45.0,36.0],[44.0,37.0],[42.0,37.0],[42.0,38.0],[39.0,38.0],[38.0,39.0],[37.0,39.0],[37.0,40.0],[36.5,39.5],[35.0,39.5],[34.6,39.6],[34.0,40.0],[33.0,40.0],[33.0,41.0],[30.0,41.0],[30.0,40.0],[29.0,40.0],[29.0,39.0],[28.1,38.9],[28.0,38.66666666666667],[27.555555555555554,38.44444444444444],[27.333333333333336,38.0],[22.04878048780488,37.951219512195124],[22.009259259259256,36.99074074074074],[19.9,36.9],[19.5,37.0],[19.333333333333336,37.333333333333336],[19.0,37.5],[18.818181818181817,37.18181818181819],[18.25,36.75],[17.0,36.666666666666664],[16.5,36.5],[16.0,36.0],[15.5,35.0],[15.666666666666668,34.0],[15.53846153846154,33.46153846153846],[15.166666666666668,32.833333333333336],[15.0,32.66666666666667],[14.600000000000001,32.6],[14.0,33.0],[14.0,31.0],[14.400000000000002,30.400000000000002],[14.600000000000001,29.6],[15.0,29.0],[16.0,29.0],[16.666666666666668,29.333333333333336],[17.333333333333336,29.333333333333336],[18.0,29.0],[18.6,29.400000000000002],[19.0,29.5],[19.400000000000002,29.400000000000002],[20.0,29.0],[23.0,29.0],[23.133333333333333,28.133333333333333],[24.0,28.07142857142857],[24.02127659574468,24.02127659574468],[24.2,23.799999999999997],[24.2,23.2],[25.0,23.099999999999998],[25.083333333333336,20.083333333333336],[26.0,20.0],[26.105263157894736,19.105263157894736],[27.0,19.0],[27.0,18.0],[27.22222222222222,17.22222222222222],[27.5,17.0],[27.5,16.0],[27.666666666666668,15.666666666666668],[29.0,15.0],[30.0,14.0],[29.0,13.0],[30.0,12.0],[31.0,12.0],[31.0,11.0],[33.0,9.0],[33.0,8.0],[34.0,7.0],[34.0,6.0],[35.0,5.0],[35.400000000000006,4.4],[36.0,4.0],[36.0,3.0],[37.0,2.0],[37.0,1.0],[38.0,1.0],[38.0,0.0],[39.0,-1.0],[39.0,-2.0],[40.0,-2.0],[40.0,-4.0],[40.333333333333336,-4.666666666666667],[41.0,-5.0],[40.6,-5.6000000000000005],[40.5,-6.0],[40.6,-6.4],[41.5,-8.0],[41.6,-9.4],[42.333333333333336,-10.666666666666668],[43.0,-11.0],[42.18181818181818,-11.181818181818182],[42.04,-13.0],[42.064516129032256,-13.935483870967742],[42.285714285714285,-14.285714285714285],[42.285714285714285,-14.714285714285712],[43.0,-15.0],[43.11111111111111,-17.88888888888889],[43.5,-18.5],[44.0,-18.75],[44.25,-20.75],[44.66666666666667,-21.333333333333336],[45.0,-21.5],[45.2,-22.2],[45.2,-22.799999999999997],[45.5,-23.0],[45.66666666666667,-23.333333333333336],[46.0,-23.5],[46.095238095238095,-23.904761904761905],[46.5,-24.0],[46.66666666666667,-24.333333333333336],[47.0,-24.5],[47.050000000000004,-24.95],[47.5,-25.0],[47.66666666666667,-25.333333333333336],[48.0,-25.5],[48.05263157894737,-25.94736842105263],[48.2,-26.0],[48.333333333333336,-26.333333333333336],[48.333333333333336,-26.666666666666668],[49.0,-27.0],[49.400000000000006,-27.6],[51.0,-28.0],[51.0,-29.0],[58.986666666666665,-28.986666666666665],[59.054054054054056,-29.945945945945947],[66.01063829787233,-29.98936170212766],[66.14285714285714,-30.142857142857146],[66.14285714285714,-30.857142857142854],[66.85714285714286,-30.857142857142854],[67.01980198019801,-30.980198019801982],[71.07142857142857,-31.0],[71.14285714285714,-31.857142857142858],[71.85714285714286,-31.857142857142858],[72.01980198019803,-31.980198019801982],[74.00843881856541,-31.991561181434598],[74.03174603174604,-32.96825396825397],[78.1,-33.0],[78.2,-33.8],[78.8,-33.8],[79.02298850574712,-33.97701149425287],[80.19999999999999,-34.0],[80.4,-34.6],[81.0,-34.8],[81.02325581395348,-34.97674418604651],[84.00836820083683,-34.99163179916318],[84.03076923076924,-35.96923076923077],[88.05882352941177,-36.0],[88.11764705882352,-36.88235294117647],[90.125,-37.0],[90.25,-37.25],[90.25,-37.75],[90.75,-37.75],[91.02222222222223,-37.977777777777774],[94.9607843137255,-37.96078431372549],[95.16666666666666,-37.833333333333336],[95.83333333333334,-37.833333333333336],[96.0,-37.5],[96.4,-37.4],[97.0,-37.0],[97.03508771929825,-37.96491228070175],[99.0078125,-37.9921875],[99.02439024390245,-38.97560975609756],[100.008658008658,-38.99134199134199],[100.06153846153846,-39.93846153846154],[101.33333333333334,-40.0],[102.0,-40.5],[102.04301075268816,-40.956989247311824],[103.00921658986175,-40.99078341013825],[103.18181818181819,-41.81818181818182],[104.01526717557252,-41.98473282442748],[105.0,-42.0],[105.0,-43.0],[105.36363636363637,-44.63636363636364],[106.0,-45.0],[106.0,-46.125],[105.77777777777777,-46.22222222222222],[105.0,-46.0],[105.22222222222223,-46.77777777777777],[105.125,-47.0],[104.77777777777777,-47.22222222222222],[104.0,-47.0],[104.0,-48.0],[103.04166666666666,-48.04166666666667],[103.02127659574468,-49.0],[102.0,-49.0],[101.18181818181819,-49.18181818181818],[101.10000000000001,-50.0],[100.03030303030302,-50.030303030303024],[100.01923076923077,-54.98076923076923],[100.14285714285714,-55.14285714285714],[100.14285714285714,-55.857142857142854],[101.98019801980197,-55.98019801980198],[102.02272727272728,-56.97727272727273],[103.0,-57.0],[103.0,-62.0],[102.05263157894737,-62.05263157894737],[102.0,-63.023809523809526],[101.03921568627452,-63.03921568627451],[100.77777777777777,-63.22222222222222],[100.22222222222223,-63.22222222222222],[100.11111111111111,-64.0],[99.04081632653062,-64.04081632653062],[99.00881057268722,-65.00881057268722],[96.04878048780488,-65.04878048780488],[96.00913242009132,-66.00913242009133],[94.02298850574712,-66.02298850574712],[94.0,-67.01098901098901],[89.07142857142857,-67.07142857142857],[89.07142857142857,-68.92857142857143],[90.5,-69.0],[90.66666666666667,-69.33333333333334],[91.0,-69.5],[91.06060606060606,-69.93939393939394],[92.0909090909091,-70.0],[92.18181818181819,-70.81818181818181],[93.0,-70.9090909090909],[92.97260273972603,-71.02739726027397],[92.02739726027397,-71.02739726027397],[92.0,-72.01149425287356],[81.04166666666667,-72.04166666666667],[81.009009009009,-73.009009009009],[79.02380952380953,-73.02380952380952],[78.83333333333333,-73.16666666666667],[78.16666666666667,-73.16666666666667],[78.08333333333334,-74.0],[76.05714285714286,-74.05714285714286],[76.0,-75.0],[75.60000000000001,-74.4],[75.66666666666667,-74.0],[75.36363636363637,-73.63636363636363],[75.0,-73.6],[74.6,-74.0],[74.42857142857143,-74.42857142857143],[73.68421052631578,-74.68421052631578],[73.5,-75.0],[72.06741573033707,-75.06741573033709],[72.0,-75.21428571428572],[71.43478260869566,-75.43478260869564],[71.0,-76.0],[65.08275862068965,-76.08275862068966],[64.32911392405063,-76.32911392405063],[64.02608695652174,-77.02608695652174],[63.0,-77.14851485148515],[53.056603773584904,-77.0566037735849],[52.68421052631578,-77.3157894736842],[52.315789473684205,-77.3157894736842],[52.37037037037037,-77.62962962962962],[52.21739130434783,-78.0],[50.05555555555556,-78.05555555555556],[49.73913043478261,-78.26086956521739],[49.26086956521739,-78.26086956521739],[49.26086956521739,-78.7391304347826],[49.0,-79.03370786516855],[48.25,-79.0],[47.66666666666667,-78.33333333333334],[47.0,-78.21428571428572],[46.0,-78.26666666666667],[44.66666666666667,-79.0],[29.988636363636363,-79.01136363636364],[29.5,-79.0],[30.0,-78.0],[30.6,-78.4],[31.0,-78.5],[31.400000000000002,-78.4],[32.0,-78.0],[32.90909090909091,-77.9090909090909],[32.76470588235294,-77.23529411764706],[32.85185185185185,-77.0],[32.724137931034484,-76.72413793103448],[32.76,-76.24000000000001],[32.24,-76.24000000000001],[31.942307692307693,-76.0576923076923],[28.400000000000002,-76.0],[28.266666666666666,-75.73333333333333],[28.0,-75.6],[27.0,-75.75],[26.954545454545457,-76.0],[26.0,-76.33870967741936],[25.813333333333333,-76.18666666666667],[25.71232876712329,-75.7123287671233],[25.91891891891892,-75.08108108108108],[22.0,-75.05494505494505],[21.87951807228916,-74.87951807228916],[21.89873417721519,-74.10126582278481],[19.25,-74.0],[19.0,-73.83333333333334],[18.902912621359224,-73.09708737864078],[18.285714285714285,-73.0],[17.526315789473685,-72.47368421052632],[17.0,-72.32],[16.868852459016395,-72.1311475409836],[15.0,-72.03370786516854],[14.763636363636364,-71.23636363636363],[12.166666666666666,-71.0],[11.661016949152541,-70.33898305084745],[10.924812030075188,-70.07518796992481],[9.333333333333334,-70.0],[8.0,-69.66666666666667],[7.0,-69.8235294117647],[6.0,-69.45454545454545],[5.0,-69.57142857142857],[4.777777777777778,-69.22222222222223],[4.0,-68.9],[3.043795620437956,-69.04379562043796],[1.9090909090909092,-69.0],[1.4444444444444444,-68.55555555555556],[1.0,-68.44444444444444],[0.8048780487804879,-68.1951219512195],[-0.1428571428571429,-68.0],[0.25,-67.0],[0.13333333333333336,-66.86666666666667],[-1.5714285714285716,-66.57142857142858],[-2.434782608695652,-65.43478260869564],[-3.0,-65.0],[-3.6842105263157894,-64.68421052631578],[-4.279069767441861,-64.72093023255815],[-4.699999999999999,-65.3],[-5.0,-65.375],[-5.123711340206185,-65.12371134020619],[-6.142857142857142,-65.0],[-6.555555555555555,-64.55555555555554],[-9.0,-64.42857142857143],[-9.16,-64.16],[-11.666666666666666,-64.0],[-11.806451612903226,-63.806451612903224],[-13.0,-63.625],[-14.166666666666666,-63.16666666666667],[-16.0,-63.0],[-16.897435897435898,-63.1025641025641],[-17.0,-63.285714285714285],[-17.833333333333336,-62.833333333333336],[-19.0,-62.800000000000004],[-19.647058823529413,-62.647058823529406],[-20.074074074074076,-62.074074074074076],[-19.759999999999998,-61.24],[-19.303030303030305,-61.3030303030303],[-18.0,-61.07692307692308],[-17.972972972972975,-60.972972972972975],[-19.227272727272727,-60.77272727272728],[-19.833333333333332,-60.83333333333333],[-20.0,-60.400000000000006],[-20.333333333333336,-60.66666666666667],[-20.58823529411765,-60.588235294117645],[-21.25,-60.75],[-21.77777777777778,-61.0],[-22.0,-61.25],[-23.0,-61.0],[-24.37837837837838,-60.378378378378386],[-24.91111111111111,-59.91111111111111],[-25.714285714285715,-59.71428571428571],[-25.962962962962962,-58.96296296296297],[-26.639344262295083,-58.63934426229508],[-26.88888888888889,-57.88888888888889],[-27.630769230769232,-57.63076923076924],[-27.8695652173913,-57.0],[-27.954545454545453,-56.04545454545455],[-27.36842105263158,-55.631578947368425],[-26.68181818181818,-55.68181818181819],[-26.133333333333333,-56.13333333333333],[-25.894736842105264,-56.89473684210526],[-25.055555555555557,-57.05555555555556],[-25.068965517241377,-58.06896551724138],[-24.0,-58.1875],[-23.51851851851852,-58.51851851851852],[-23.0,-59.22222222222223],[-22.84,-59.16],[-22.31111111111111,-59.31111111111112],[-20.53191489361702,-59.468085106382986],[-20.363636363636363,-59.36363636363636],[-20.0,-59.5],[-19.875,-59.125],[-19.25,-59.25],[-18.0,-59.088235294117645],[-17.0,-59.21212121212121],[-14.0,-58.3125],[-10.0,-58.24324324324325],[-9.0,-58.421052631578945],[-8.600000000000001,-58.400000000000006],[-7.5,-58.0],[-8.166666666666666,-57.16666666666667],[-9.0,-57.0],[-9.0,-55.0],[-8.4,-54.6],[-7.8,-54.8],[-6.153846153846153,-54.84615384615384],[-4.647058823529411,-54.35294117647059],[-3.0,-54.25],[-1.7777777777777777,-53.22222222222222],[-1.3333333333333335,-53.0],[1.0,-52.42857142857142],[1.5714285714285714,-53.0],[2.0,-53.230769230769226],[3.0,-53.27272727272727],[4.0,-53.0],[3.375,-52.625],[2.6097560975609757,-52.390243902439025],[2.0,-51.0],[2.206896551724138,-48.79310344827586],[2.16,-48.16],[2.5172413793103448,-47.51724137931035],[3.0,-47.416666666666664],[4.0,-47.705882352941174],[4.428571428571429,-47.0],[3.888888888888889,-46.0],[3.875,-45.0],[3.4444444444444446,-44.0],[3.0,-43.55555555555556],[2.8095238095238093,-43.80952380952381],[2.428571428571429,-44.0],[2.2,-46.2],[2.0,-46.66666666666667],[1.2000000000000002,-47.2],[0.8,-47.2],[0.33333333333333337,-46.66666666666667],[0.0,-46.6],[-0.2222222222222222,-46.77777777777777],[-1.0,-47.0],[-1.5384615384615383,-47.46153846153846],[-3.2,-47.8],[-3.8461538461538463,-48.153846153846146],[-4.153846153846153,-48.153846153846146],[-4.6923076923076925,-47.69230769230769],[-5.0,-47.599999999999994],[-6.0,-47.833333333333336],[-6.625,-48.375],[-7.333333333333334,-48.66666666666667],[-7.666666666666668,-49.33333333333334],[-8.0,-49.6],[-9.0,-49.0],[-10.095238095238095,-49.904761904761905],[-11.0,-51.66666666666667],[-12.0,-51.75],[-12.133333333333333,-51.86666666666667],[-13.0,-52.0],[-14.0,-52.0],[-15.0,-52.33333333333333],[-15.333333333333334,-52.33333333333334],[-16.0,-52.0],[-17.0,-53.0],[-19.0,-53.0],[-19.0,-52.0],[-19.75,-51.75],[-21.0,-52.0],[-21.0,-53.0],[-22.0,-53.0],[-22.0,-55.0],[-24.0,-55.0],[-24.22222222222222,-54.22222222222222],[-24.77777777777778,-54.22222222222222],[-25.166666666666668,-54.0],[-25.0,-53.5],[-24.666666666666668,-53.333333333333336],[-24.0,-52.0],[-24.81818181818182,-51.81818181818182],[-25.133333333333333,-51.86666666666667],[-25.5,-52.5],[-26.0,-52.588235294117645],[-27.0,-52.57142857142857],[-27.22222222222222,-52.22222222222222],[-28.714285714285715,-52.0],[-29.0,-51.6],[-29.5,-51.5],[-29.6,-51.0],[-29.91111111111111,-50.91111111111111],[-30.0,-50.5],[-30.444444444444443,-50.44444444444444],[-30.666666666666668,-50.0],[-31.0,-49.833333333333336],[-31.263157894736842,-49.26315789473685],[-31.185185185185187,-49.0],[-31.541666666666668,-48.541666666666664],[-32.36363636363636,-48.0],[-32.2,-46.8],[-31.92727272727273,-46.07272727272727],[-32.0,-45.66666666666667],[-32.5,-45.0],[-32.61904761904761,-43.61904761904761],[-33.0,-43.0],[-33.21052631578947,-42.21052631578948],[-33.114285714285714,-41.114285714285714],[-33.34146341463414,-38.34146341463414],[-34.01092896174863,-37.01092896174863],[-33.64285714285714,-34.0],[-33.90909090909091,-30.90909090909091],[-34.0,-30.739130434782606],[-34.41379310344828,-30.586206896551722],[-35.0,-31.0],[-34.58620689655173,-30.413793103448274],[-35.0,-29.142857142857142],[-35.01639344262295,-26.016393442622952],[-35.166666666666664,-25.166666666666664],[-36.0,-25.0],[-36.01408450704225,-21.014084507042252],[-36.14925373134328,-20.149253731343283],[-37.00873362445415,-20.008733624454152],[-37.015151515151516,-19.0],[-38.032128514056225,-18.032128514056225],[-38.439834024896264,-17.439834024896264],[-39.58357771260997,-16.58357771260997],[-41.029629629629625,-16.02962962962963],[-41.8099173553719,-14.809917355371901],[-44.02985074626866,-13.029850746268657],[-44.61089494163424,-11.61089494163424],[-46.38260869565218,-9.382608695652175],[-46.95652173913044,-9.0],[-47.25165562913907,-7.251655629139073],[-47.5609756097561,-6.560975609756097],[-48.03791469194313,-6.0379146919431275],[-48.03448275862069,-4.0],[-48.26143790849673,-3.261437908496732],[-48.625,-3.0],[-48.56363636363636,-2.4363636363636365],[-48.34920634920635,-1.6507936507936507],[-48.0,-1.0],[-47.142857142857146,0.0],[-47.0,0.4],[-46.69230769230769,0.6923076923076923],[-46.66666666666667,1.0],[-46.421052631578945,1.4210526315789473],[-46.289855072463766,2.7101449275362315],[-46.45161290322581,3.5483870967741935],[-47.0,3.857142857142857],[-47.19512195121951,3.8048780487804876],[-47.285714285714285,4.0],[-48.0,4.434782608695652],[-48.30769230769231,4.3076923076923075],[-48.32258064516129,3.6774193548387095],[-47.77777777777778,3.2222222222222223],[-47.900000000000006,1.9],[-48.272727272727266,1.727272727272727],[-48.72727272727273,1.727272727272727],[-48.91489361702128,0.9148936170212766],[-48.955555555555556,-0.04444444444444445],[-49.486486486486484,-0.5135135135135136],[-49.6,-2.0],[-49.79746835443038,-2.2025316455696204],[-50.29629629629629,-2.0],[-50.702127659574465,-0.7021276595744681],[-51.0,-0.5],[-51.291666666666664,0.0],[-51.4375,0.4375],[-51.375,0.625],[-51.625,0.625],[-52.0,0.85],[-52.69230769230769,0.6923076923076923],[-53.0,0.0],[-54.0,-0.052631578947368474],[-54.0,2.142857142857143],[-53.58620689655172,2.586206896551724],[-53.57142857142857,3.0],[-53.625,3.375],[-54.0,4.0],[-53.57142857142857,5.0],[-53.66666666666667,6.0],[-54.0,6.75],[-54.1219512195122,8.878048780487806],[-54.55555555555556,9.0],[-54.27272727272727,10.0],[-54.375,10.375],[-54.25,10.75],[-55.0,11.0],[-55.054054054054056,15.945945945945946],[-55.375,16.625],[-56.0,16.9],[-56.025316455696206,18.974683544303797],[-56.15384615384615,19.153846153846153],[-56.15384615384615,19.846153846153847],[-56.8,20.200000000000003],[-57.0,20.5],[-57.04597701149426,21.95402298850575],[-57.86666666666667,22.133333333333333],[-58.0,22.666666666666664],[-58.01449275362319,24.0],[-58.22222222222222,24.77777777777778],[-59.008230452674894,24.991769547325106],[-59.11475409836066,25.885245901639344],[-59.57894736842105,26.421052631578945],[-60.09160305343511,26.908396946564885],[-60.352941176470594,27.0],[-61.020833333333336,27.979166666666668],[-62.08163265306122,28.0],[-62.34146341463415,28.65853658536585],[-63.0,28.97826086956522],[-63.30927835051547,29.690721649484534],[-65.00881057268722,29.991189427312772],[-65.41758241758242,30.582417582417584],[-66.19209039548022,30.807909604519775],[-67.0,30.986842105263158],[-68.0,30.924731182795696],[-69.0,31.083333333333332],[-69.29333333333334,31.706666666666667],[-70.03149606299212,31.968503937007874],[-70.26168224299066,32.73831775700935],[-71.0,32.985915492957744],[-72.00766283524905,32.99233716475096],[-72.22826086956522,33.77173913043478],[-72.61290322580645,34.387096774193544],[-73.0,34.529411764705884],[-73.21262458471762,34.78737541528239],[-73.50595238095238,35.49404761904762],[-74.15615615615616,35.84384384384384],[-74.4778761061947,36.522123893805315],[-75.0,36.75438596491228],[-76.04347826086956,36.95652173913044],[-76.3731343283582,37.62686567164179],[-77.6,38.0],[-77.72549019607844,38.274509803921575],[-78.26027397260273,38.73972602739726],[-78.80701754385964,38.80701754385965],[-79.11340206185568,39.0],[-79.0,40.07692307692308],[-77.99126637554586,40.00873362445415],[-77.58241758241759,39.41758241758242],[-77.0,39.266666666666666],[-75.0,39.165048543689316],[-74.66990291262135,38.66990291262136],[-74.62237762237761,38.37762237762238],[-73.95366795366795,38.04633204633205],[-73.5609756097561,37.4390243902439],[-72.02857142857142,37.02857142857143],[-71.0,36.89473684210527],[-70.73643410852713,36.26356589147287],[-68.99233716475095,36.00766283524904],[-68.84,35.16],[-67.92173913043479,35.07826086956521],[-67.496,34.504],[-66.83941605839416,34.160583941605836],[-65.96812749003985,34.03187250996016],[-65.76237623762376,33.23762376237624],[-64.94017094017094,33.05982905982906],[-64.64556962025317,32.35443037974683],[-63.92964824120603,32.07035175879397],[-63.62025316455697,31.37974683544304],[-63.0,30.9375],[-62.774436090225564,30.225563909774436],[-62.25,30.0],[-62.222222222222214,29.77777777777778],[-62.0,29.73684210526316],[-61.74074074074075,29.25925925925926],[-61.0,29.015873015873016],[-60.1159420289855,29.115942028985508],[-60.00000000000001,30.666666666666668],[-59.75,31.0],[-59.625,32.0],[-59.16393442622951,32.16393442622951],[-58.77142857142857,33.77142857142857],[-58.166666666666664,35.0],[-57.916666666666664,36.08333333333333],[-57.916666666666664,36.91666666666667],[-56.041666666666664,36.95833333333333],[-56.0,36.5],[-55.60000000000001,36.400000000000006],[-55.0,36.0],[-55.0,35.0],[-54.0,35.0],[-54.0,34.0],[-51.0,34.0],[-51.0,36.0],[-50.60000000000001,36.6],[-50.5,37.0],[-51.6,39.400000000000006],[-52.5,41.0],[-52.5,41.5],[-52.0,42.0],[-53.0,42.0],[-54.0,43.0],[-54.0,44.0],[-54.66666666666667,44.333333333333336],[-55.0,45.0],[-55.0,46.0],[-55.400000000000006,46.6],[-56.0,48.0],[-56.0,49.0],[-56.6,49.400000000000006],[-57.4,49.6],[-58.60000000000001,50.400000000000006],[-59.400000000000006,50.60000000000001],[-60.0,51.0],[-61.0,51.0],[-61.400000000000006,51.6],[-61.5,52.0],[-61.28571428571428,52.285714285714285],[-61.2,53.0],[-60.60000000000001,53.60000000000001],[-60.57142857142857,54.0],[-61.0,54.33333333333334],[-61.22222222222223,54.77777777777778],[-61.644444444444446,56.355555555555554],[-62.146341463414636,56.853658536585364],[-62.599999999999994,57.0],[-62.0,58.0],[-61.0,58.54545454545455],[-60.865168539325836,58.13483146067416],[-59.11538461538461,58.11538461538462],[-58.387096774193544,58.387096774193544],[-58.017857142857146,59.017857142857146],[-58.0,60.333333333333336],[-57.55555555555555,60.55555555555555],[-57.333333333333336,61.0],[-57.06451612903226,61.06451612903226],[-57.06666666666666,62.93333333333334],[-57.5,63.0],[-57.66666666666667,63.333333333333336],[-58.0,63.5],[-58.03448275862069,63.96551724137931],[-59.0,64.0],[-59.0,65.02380952380952],[-58.047619047619044,65.04761904761905],[-58.00769230769231,67.00769230769231],[-57.02150537634408,67.0215053763441],[-57.0,67.16666666666667],[-56.66666666666667,67.33333333333334],[-56.333333333333336,67.33333333333334],[-56.333333333333336,67.66666666666667],[-56.16666666666667,68.0],[-55.75,68.25],[-55.25,68.25],[-55.25,68.75],[-55.125,69.0],[-54.025,69.025],[-54.0078125,70.0078125],[-53.02247191011236,70.02247191011236],[-53.00760456273764,71.00760456273764],[-51.06666666666667,71.06666666666666],[-51.0,72.0],[-49.018691588785046,72.01869158878505],[-48.07407407407407,72.07407407407408],[-48.0,72.16666666666666],[-46.945945945945944,72.05405405405405],[-46.81818181818182,71.81818181818181],[-46.81818181818182,71.18181818181819],[-46.18181818181819,71.18181818181819],[-45.75,71.0],[-45.0,70.0],[-46.25,69.0],[-46.769230769230774,68.76923076923077],[-47.230769230769226,68.76923076923077],[-47.54545454545455,69.0],[-48.0,69.83333333333333],[-49.84615384615385,69.84615384615384],[-50.44444444444444,69.44444444444444],[-51.0,68.66666666666667],[-51.5,68.5],[-52.0,68.0],[-54.857142857142854,67.85714285714286],[-55.0,67.5],[-55.33333333333334,67.33333333333334],[-55.5,67.0],[-55.33333333333334,66.66666666666667],[-55.0,66.5],[-54.857142857142854,66.14285714285714],[-54.14285714285714,66.14285714285714],[-53.41666666666667,65.58333333333334],[-52.63636363636363,65.36363636363637],[-52.0,65.3076923076923],[-51.476190476190474,65.47619047619048],[-51.0,65.83333333333333],[-50.0,66.16666666666666],[-49.0,65.875],[-48.5625,65.4375],[-48.416666666666664,65.0],[-49.2,63.2],[-50.0,63.0],[-50.0,62.0],[-49.77777777777778,61.22222222222223],[-49.75,60.25],[-49.33333333333334,59.66666666666667],[-49.0,59.5],[-48.0,59.5],[-47.6,59.6],[-47.0,60.0],[-46.6,60.60000000000001],[-46.5,61.0],[-45.66666666666667,61.66666666666667],[-45.0,63.0],[-44.0,63.5],[-43.60000000000001,63.400000000000006],[-43.0,63.0],[-42.0,64.0],[-41.0,64.0],[-41.0,63.0],[-39.0,63.0],[-38.4,63.400000000000006],[-37.6,63.60000000000001],[-37.0,64.0],[-36.0,64.0],[-35.0,64.5],[-34.0,64.5],[-33.6,64.6],[-33.0,65.0],[-32.0,65.0],[-31.0,66.0],[-29.0,66.0],[-28.400000000000002,66.4],[-28.0,66.5],[-27.6,66.4],[-27.0,66.0],[-26.400000000000002,66.4],[-25.66666666666667,66.66666666666667],[-25.25,67.25],[-24.666666666666668,67.33333333333334],[-24.0,67.0],[-23.0,68.0],[-23.75,68.25],[-25.0,68.4],[-28.999999999999996,68.42857142857142],[-29.25,68.75],[-29.363636363636367,69.36363636363636],[-29.285714285714285,69.71428571428572],[-30.0,69.92857142857143],[-31.0,69.88235294117648],[-31.08695652173913,70.0],[-26.0,70.0],[-25.6,70.60000000000001],[-25.5,71.0],[-25.0,71.04347826086956],[-24.913043478260867,70.08695652173913],[-24.0,70.04347826086956],[-20.0,70.38888888888889],[-19.576923076923077,70.57692307692308],[-19.352941176470587,71.0],[-19.5,72.5],[-20.08695652173913,72.91304347826086],[-20.25,73.75],[-21.0,73.92307692307692],[-21.68181818181818,73.68181818181819],[-23.0,73.54166666666666],[-24.0,73.57142857142857],[-24.275862068965516,73.72413793103448],[-24.551724137931032,75.0],[-24.58823529411765,76.0],[-24.1,77.0],[-22.0,77.10416666666667],[-18.0,77.04444444444445],[-17.659574468085104,76.34042553191489],[-17.0,76.13131313131314],[-10.0,76.14851485148515],[-9.25,76.0],[-9.27027027027027,75.72972972972974],[-8.873015873015873,75.12698412698413],[-8.149253731343283,75.14925373134328],[-7.814814814814815,75.0],[-7.6875,74.6875],[-7.8,74.2],[-7.25,74.25],[-6.863636363636363,74.13636363636364],[-6.489795918367347,73.51020408163265],[-5.6,73.0],[-5.387096774193548,72.61290322580645],[-4.68,72.32],[-4.0,72.29411764705883],[-3.52,72.52],[-3.25,73.0],[-4.583333333333333,74.41666666666667],[-5.373333333333333,74.62666666666667],[-5.933333333333333,75.0],[-5.010752688172043,76.01075268817205],[-1.0,76.01149425287356],[-0.7719298245614035,75.2280701754386],[1.0,75.01149425287356],[1.1621621621621623,74.16216216216216],[2.0,74.01149425287356],[10.5,74.0],[10.142857142857142,72.85714285714286],[10.153846153846153,71.15384615384616],[10.555555555555554,70.55555555555556],[11.2,70.2],[11.5,69.5],[12.181818181818183,69.18181818181819],[13.105263157894736,69.10526315789474],[13.285714285714285,67.28571428571428],[13.5,67.0],[13.5,66.0],[13.0,65.0],[12.0,65.0],[11.5,64.5],[11.25,63.75],[11.2,63.0],[11.0,62.800000000000004],[10.75,63.25],[10.75,63.75],[10.25,63.75],[10.0,63.875],[9.75,63.75],[9.25,63.75],[9.25,63.25],[9.0,62.800000000000004],[6.0,63.0],[6.285714285714285,62.285714285714285],[6.2,62.0],[6.625,61.0],[7.0,60.699999999999996],[8.263157894736842,60.26315789473685],[8.454545454545455,60.0],[8.948717948717949,57.94871794871795],[9.333333333333334,57.66666666666667],[9.666666666666668,57.66666666666667],[9.545454545454547,57.45454545454545],[9.9,56.0],[9.727272727272727,55.0],[10.0,54.0],[10.857142857142858,54.14285714285714],[11.333333333333332,54.0],[11.333333333333332,53.0],[11.0,52.666666666666664],[10.0,52.666666666666664],[9.333333333333334,52.0],[8.833333333333334,51.0],[8.0,50.0],[8.0,49.0],[7.0,49.0],[7.4,48.400000000000006],[7.333333333333333,48.0],[7.25,47.75],[6.7142857142857135,47.285714285714285],[7.0,46.5],[7.8,45.8],[8.0,45.0],[7.800000000000001,44.0],[8.285714285714285,43.71428571428571],[9.0,44.0],[8.636363636363637,43.36363636363636],[9.0,42.6],[9.4,42.6],[10.0,43.0],[10.0,44.0],[12.0,44.0],[12.0,43.0],[14.0,43.0],[14.0,46.0],[13.2,46.2],[12.6,46.6],[12.600000000000001,47.0],[11.55,48.55],[11.0,50.0],[11.222222222222221,51.0],[11.548387096774192,51.45161290322581],[12.0,51.53846153846154],[12.2,51.8],[12.666666666666666,52.0],[12.666666666666668,52.33333333333334],[13.11111111111111,52.99999999999999],[13.4,54.0],[13.5,55.0],[14.0,55.400000000000006],[14.162162162162161,55.83783783783784],[14.214285714285715,56.214285714285715],[14.0,57.0],[14.32,57.68000000000001],[14.266666666666667,58.00000000000001],[14.5,58.5],[15.15,58.85],[15.80952380952381,60.19047619047619],[17.242424242424242,60.75757575757576],[17.629629629629626,61.37037037037037],[18.0,61.55555555555556],[20.0,61.84615384615385],[20.333333333333336,62.0],[20.61904761904762,62.38095238095237],[21.0,62.5],[21.4,62.4],[22.0,62.0],[23.0,62.42857142857143],[24.0,62.33333333333333],[24.5,62.5],[25.0,63.2],[27.0,63.333333333333336],[28.0,63.2],[28.333333333333336,63.66666666666667],[28.400000000000002,65.0],[28.347826086956523,65.34782608695652],[27.77777777777778,65.77777777777779],[27.666666666666664,66.0],[27.666666666666668,66.33333333333334],[28.0,67.0],[27.444444444444443,67.44444444444444],[26.6,68.60000000000001],[26.0,69.0],[26.461538461538463,69.53846153846155],[26.6,70.0],[26.57142857142857,71.0],[26.714285714285715,71.28571428571428],[27.444444444444443,71.55555555555554],[28.0,72.0],[28.833333333333336,71.83333333333334],[30.0,72.0],[30.32,72.67999999999999],[30.266666666666666,73.0],[30.5,73.5],[31.0,73.78571428571428],[31.636363636363637,73.63636363636363],[32.0,73.33333333333333],[32.285714285714285,73.71428571428571],[33.666666666666664,74.0],[33.800000000000004,75.0],[33.6,75.60000000000001],[33.0,75.8],[32.4,75.60000000000001],[32.15384615384615,74.84615384615384],[31.0,74.75],[30.6,75.4],[30.6,75.60000000000001],[30.0,75.8],[27.0,75.8888888888889],[26.22222222222222,75.77777777777777],[26.22222222222222,75.22222222222223],[26.0,74.85714285714285],[24.166666666666668,74.83333333333334],[23.285714285714285,74.71428571428571],[23.0,74.5],[22.75,74.25],[22.6,73.60000000000001],[23.0,73.0],[22.4,73.4],[21.77777777777778,73.22222222222223],[21.4,72.6],[21.0,72.33333333333334],[19.0,72.66666666666667],[18.61904761904762,72.38095238095238],[18.352941176470587,71.6470588235294],[18.0,71.25],[17.0,71.33333333333334],[16.555555555555554,71.55555555555554],[15.692307692307693,71.6923076923077],[15.2,72.0],[15.0,73.0],[14.0,73.5],[13.0,73.5],[12.0,74.0],[12.935483870967742,74.06451612903226],[13.0,75.0],[15.857142857142858,75.14285714285714],[15.928571428571429,76.0],[18.866666666666667,76.13333333333333],[18.933333333333334,77.0],[20.96,77.04],[21.0,78.01123595505618],[23.866666666666667,78.13333333333333],[24.0,78.5],[25.0,78.5],[25.333333333333336,78.66666666666667],[25.5,79.0],[27.913043478260867,79.08695652173913],[27.99019607843137,80.00980392156862],[31.972602739726028,80.02739726027397],[32.25,80.25],[32.75,80.25],[32.75,80.75],[32.875,81.0],[35.904761904761905,81.09523809523809],[35.952380952380956,82.0],[37.977528089887635,82.02247191011236],[38.25,82.25],[38.75,82.25],[38.75,82.75],[38.875,83.0],[39.5,83.0],[39.66666666666667,82.66666666666667],[40.4,82.4],[40.33333333333333,82.0],[41.0,81.71428571428571],[41.23529411764706,81.76470588235294],[41.66666666666667,82.0],[41.5,82.5],[41.0,82.66666666666666],[40.6,82.6],[40.5,83.0],[41.083333333333336,83.08333333333334],[42.0,83.0],[41.95652173913044,84.0],[44.970588235294116,84.02941176470588],[45.22222222222222,84.22222222222223],[45.77777777777778,84.22222222222223],[46.0,85.0],[49.94117647058824,85.05882352941177],[51.0,85.19999999999999],[51.05882352941177,85.05882352941177],[54.0,85.06666666666666],[55.38461538461538,85.38461538461537],[55.800000000000004,85.2],[56.0,86.0],[84.96153846153847,86.03846153846153],[85.0,86.19999999999999],[85.60000000000001,86.4],[85.8,87.0],[100.97142857142858,87.02857142857142],[101.19999999999999,87.19999999999999],[101.8,87.19999999999999],[102.0,87.5],[102.1111111111111,87.11111111111111],[103.92592592592592,87.07407407407408],[104.81818181818181,87.18181818181819],[104.9090909090909,88.0],[131.20000000000002,88.0],[131.4,87.4],[132.0,87.2],[133.0,87.25]],[[13.0,31.0],[12.5,31.5],[12.0,31.666666666666664],[11.733333333333333,31.266666666666666],[11.714285714285714,31.0],[12.461538461538462,30.461538461538463],[12.4,29.6],[11.866666666666667,29.133333333333333],[11.727272727272727,28.727272727272727],[11.777777777777779,28.22222222222222],[11.222222222222221,28.22222222222222],[10.666666666666668,28.0],[10.0,27.0],[9.529411764705882,27.529411764705884],[9.0,27.727272727272727],[8.7,27.700000000000003],[8.25,28.0],[9.0,28.25],[9.327272727272728,28.672727272727272],[9.217391304347826,30.0],[9.0,30.333333333333336],[8.421052631578947,30.421052631578945],[7.818181818181818,30.81818181818182],[7.333333333333334,30.666666666666668],[7.0,30.730769230769234],[6.439024390243902,30.5609756097561],[5.999999999999999,30.18181818181818],[5.692307692307693,30.307692307692307],[5.5,30.0],[5.173913043478262,29.82608695652174],[5.0,29.333333333333336],[3.8666666666666667,29.866666666666667],[3.75,30.0],[3.8181818181818183,30.18181818181818],[5.0,30.333333333333336],[5.3809523809523805,30.619047619047617],[5.307692307692308,31.0],[5.875,33.0],[5.7142857142857135,33.714285714285715],[5.5,34.0],[5.666666666666667,34.333333333333336],[6.0,34.5],[6.333333333333334,34.333333333333336],[6.5,34.0],[6.789473684210526,33.78947368421053],[8.0,33.6],[8.444444444444445,33.55555555555555],[8.8,34.0],[8.714285714285714,34.285714285714285],[9.0,35.0],[8.0,35.0],[7.5,35.5],[6.777777777777779,35.77777777777778],[6.666666666666666,36.0],[6.75,36.25],[8.4,36.6],[9.714285714285714,37.285714285714285],[10.0,38.0],[9.444444444444445,38.44444444444444],[9.0,38.5],[8.0,38.5],[7.000000000000001,38.2],[6.789473684210526,38.78947368421053],[6.846153846153847,39.0],[6.5,40.5],[6.0,40.888888888888886],[5.428571428571429,40.57142857142857],[5.111111111111111,39.888888888888886],[5.0,39.0],[4.666666666666667,39.66666666666667],[4.714285714285714,40.0],[4.434782608695652,40.434782608695656],[4.0,40.625],[3.5238095238095237,40.476190476190474],[3.4000000000000004,39.6],[2.714285714285714,39.28571428571428],[2.7142857142857144,39.0],[2.4761904761904763,38.52380952380952],[2.0,38.285714285714285],[1.5238095238095237,38.52380952380952],[1.2857142857142856,39.0],[1.5,39.5],[2.0,39.833333333333336],[2.2,39.8],[2.2857142857142856,40.285714285714285],[1.0,41.0],[0.7142857142857142,40.285714285714285],[0.0,40.0],[-0.2857142857142857,39.28571428571428],[-1.0,39.0],[-1.2857142857142856,38.285714285714285],[-1.8,38.2],[-2.1,38.0],[-2.2666666666666666,37.266666666666666],[-2.666666666666667,37.0],[-3.2857142857142856,36.285714285714285],[-3.7142857142857144,36.285714285714285],[-4.5,36.0],[-4.444444444444445,35.55555555555556],[-3.7894736842105265,35.78947368421053],[-2.0,35.8],[-0.6842105263157894,35.315789473684205],[-0.5714285714285714,35.0],[-0.2222222222222222,34.77777777777778],[0.36363636363636365,34.63636363636363],[0.7142857142857142,34.71428571428571],[0.8,33.2],[0.5,33.0],[0.33333333333333337,32.66666666666667],[0.0,32.5],[-0.4,32.6],[-0.6666666666666667,33.0],[-1.7,33.3],[-4.0,33.285714285714285],[-4.476190476190476,33.52380952380952],[-4.714285714285714,34.0],[-4.538461538461539,35.46153846153847],[-5.285714285714286,35.71428571428571],[-5.285714285714286,36.0],[-6.158730158730158,36.15873015873016],[-6.454545454545454,36.0],[-6.0,35.0],[-6.166666666666667,33.83333333333333],[-5.7333333333333325,33.266666666666666],[-5.470588235294118,32.52941176470588],[-5.0,32.0],[-5.647058823529411,31.647058823529413],[-6.421052631578947,31.421052631578945],[-6.7142857142857135,30.71428571428571],[-8.0,30.5],[-8.31578947368421,30.315789473684212],[-8.565217391304348,29.565217391304348],[-9.133333333333333,29.133333333333333],[-9.210526315789474,28.210526315789473],[-11.0,28.0],[-11.0,29.0],[-11.5,28.5],[-12.0,28.5],[-13.0,28.0],[-12.363636363636363,27.636363636363637],[-12.0,27.0],[-11.444444444444443,26.555555555555554],[-11.0,26.71428571428571],[-10.444444444444443,26.555555555555554],[-10.0,26.0],[-9.0,25.88888888888889],[-7.0,26.0],[-7.0,27.0],[-6.0,27.0],[-5.4,26.6],[-4.6,26.400000000000002],[-4.0,26.0],[-2.0,26.0],[-1.0,25.75],[0.0,25.833333333333336],[0.6000000000000001,25.6],[1.0,25.0],[4.0,24.77777777777778],[4.6,24.6],[5.333333333333333,24.0],[5.8,23.799999999999997],[7.0,23.666666666666664],[7.421052631578947,23.421052631578945],[7.666666666666667,23.0],[8.0,22.75],[9.0,22.714285714285715],[9.5,22.5],[10.0,22.0],[11.0,21.875],[11.600000000000001,21.6],[12.0,21.0],[13.363636363636363,20.636363636363637],[13.714285714285714,20.714285714285715],[14.0,20.0],[16.0,20.0],[16.0,21.0],[19.0,21.0],[19.0,20.0],[20.0,19.0],[21.0,19.0],[22.0,18.0],[23.0,19.0],[23.0,24.0],[22.0,24.0],[21.0,25.0],[21.0,26.0],[20.0,26.0],[19.0,27.0],[15.0,27.0],[14.600000000000001,27.6],[14.666666666666668,28.0],[14.5,28.5],[13.8,28.799999999999997],[13.777777777777779,30.22222222222222],[14.0,31.0],[13.0,31.0]],[[-12.333333333333334,26.333333333333336],[-12.666666666666666,26.0],[-12.266666666666666,25.733333333333334],[-11.846153846153845,25.846153846153847],[-11.555555555555555,26.444444444444443],[-12.0,27.0],[-12.333333333333334,26.333333333333336]],[[-19.0,72.83333333333334],[-18.2,72.8],[-16.6,72.4],[-16.0,72.0],[-14.0,72.0],[-13.333333333333336,71.66666666666667],[-12.666666666666668,71.66666666666667],[-12.0,72.0],[-12.0,73.0],[-12.882352941176471,73.11764705882354],[-13.0,73.25],[-13.692307692307693,73.30769230769232],[-17.92,73.08],[-19.153846153846153,73.15384615384616],[-19.5,73.0],[-19.5,72.5],[-19.0,72.83333333333334]],[[5.6000000000000005,63.60000000000001],[5.0,64.0],[4.4,63.60000000000001],[4.0,63.0],[4.5,62.5],[5.0,62.33333333333333],[5.5,62.5],[6.0,63.0],[5.6000000000000005,63.60000000000001]],[[46.11764705882353,83.11764705882354],[47.0,83.05882352941175],[47.696969696969695,83.30303030303031],[48.0,83.625],[48.75,84.0],[48.5,84.5],[47.90476190476191,84.9047619047619],[46.0,85.0],[46.11764705882353,83.11764705882354]],[[3.0,62.66666666666667],[2.0,62.66666666666667],[1.6,62.4],[1.5,62.0],[2.0,61.81818181818182],[3.0,61.833333333333336],[3.6666666666666665,62.0],[3.5,62.5],[3.0,62.66666666666667]],[[164.0,73.0],[164.84615384615384,72.84615384615385],[165.14285714285714,72.85714285714286],[165.0,73.125],[164.0,73.0]],[[115.00000000000001,27.142857142857146],[114.8,27.0],[115.0,26.0],[115.25,27.0],[115.00000000000001,27.142857142857146]],[[122.0,24.0],[120.55555555555554,24.444444444444443],[120.4,24.400000000000002],[120.44444444444443,24.555555555555554],[120.0,26.0],[119.81818181818181,24.81818181818182],[119.83333333333333,24.0],[120.47058823529412,23.470588235294116],[121.0,22.0],[121.36363636363636,22.636363636363637],[122.0,23.0],[122.0,24.0]],[[133.44444444444443,8.555555555555555],[133.66666666666666,9.0],[133.0,9.666666666666666],[132.66666666666669,9.333333333333334],[132.75,8.75],[133.0,8.333333333333334],[133.44444444444443,8.555555555555555]],[[135.0,7.0],[135.5,7.5],[135.66666666666669,8.333333333333334],[136.0,8.333333333333334],[136.44444444444443,8.555555555555555],[136.66666666666666,9.0],[135.33333333333334,9.0],[135.33333333333334,8.666666666666668],[135.0,8.666666666666668],[134.55555555555554,8.444444444444445],[134.33333333333334,8.0],[133.15384615384616,7.846153846153847],[133.15384615384616,6.153846153846153],[134.85714285714286,6.142857142857142],[135.0,7.0]],[[9.0,33.5],[8.666666666666668,33.333333333333336],[8.948717948717949,32.94871794871795],[10.105263157894736,32.89473684210527],[10.5,33.0],[10.333333333333334,33.333333333333336],[10.0,33.5],[9.0,33.5]],[[5.307692307692308,-41.0],[5.296296296296296,-40.7037037037037],[5.0,-40.5],[4.826086956521738,-41.0],[4.836734693877551,-41.16326530612245],[5.0,-41.2],[5.307692307692308,-41.0]],[[6.0,-29.833333333333332],[5.925925925925926,-29.925925925925927],[5.666666666666666,-30.000000000000004],[6.051282051282051,-30.05128205128205],[6.0,-29.833333333333332]],[[9.0,-20.333333333333332],[8.0,-21.0],[8.5,-22.0],[8.875,-22.125],[9.0,-22.333333333333336],[9.363636363636363,-21.363636363636363],[9.666666666666666,-21.0],[9.5,-20.5],[9.0,-20.333333333333332]],[[10.666666666666668,-20.666666666666668],[10.5,-21.0],[10.75,-21.25],[11.0,-23.0],[11.25,-22.25],[11.333333333333334,-21.333333333333336],[11.5,-21.0],[11.0,-20.666666666666668],[10.666666666666668,-20.666666666666668]],[[17.083333333333336,-66.91666666666667],[15.872340425531915,-66.87234042553192],[14.8,-67.0],[15.451612903225806,-67.54838709677419],[15.538461538461538,-68.0],[16.0,-68.25],[17.0,-68.42857142857142],[18.0,-68.0],[17.4,-67.6],[17.083333333333336,-66.91666666666667]],[[17.333333333333336,-35.0],[17.285714285714285,-34.71428571428571],[17.0,-34.5],[16.666666666666668,-34.66666666666667],[16.5,-35.0],[17.0,-35.333333333333336],[17.333333333333336,-35.0]],[[18.210526315789473,15.789473684210527],[18.210526315789473,16.210526315789473],[18.0,16.4],[17.666666666666668,16.333333333333336],[17.333333333333332,16.0],[18.0,15.5],[18.210526315789473,15.789473684210527]],[[27.0,-22.923076923076923],[28.0,-22.0],[27.0,-21.0],[26.375,-21.375],[26.294117647058826,-22.0],[27.0,-22.923076923076923]],[[30.275862068965516,-20.724137931034484],[30.35,-22.0],[30.229508196721312,-22.229508196721312],[30.0,-22.411764705882355],[29.0,-22.444444444444443],[28.696969696969695,-22.696969696969695],[28.619047619047617,-23.61904761904762],[27.486486486486488,-24.486486486486488],[26.6,-24.6],[26.285714285714285,-25.0],[26.266666666666666,-25.266666666666666],[26.0,-25.285714285714285],[25.166666666666668,-26.0],[25.30769230769231,-26.30769230769231],[25.0,-26.25],[24.0,-26.64285714285714],[23.444444444444443,-27.0],[23.333333333333336,-27.333333333333336],[23.0,-27.25],[22.2,-28.0],[22.31578947368421,-28.315789473684212],[21.75,-28.75],[21.0,-28.875],[20.23076923076923,-28.76923076923077],[20.0,-28.625],[18.0,-29.0],[18.6,-29.400000000000002],[19.0,-29.5],[19.692307692307693,-30.307692307692307],[20.153846153846153,-30.153846153846153],[20.736842105263158,-30.263157894736842],[21.19607843137255,-30.19607843137255],[21.416666666666664,-29.999999999999996],[21.548387096774192,-29.548387096774192],[22.375,-29.0],[22.629629629629626,-28.62962962962963],[23.0,-28.705882352941178],[23.705882352941174,-28.0],[23.642857142857142,-27.642857142857142],[24.27777777777778,-27.27777777777778],[25.184615384615384,-27.184615384615384],[25.4,-27.0],[25.5609756097561,-26.5609756097561],[26.0,-26.526315789473685],[26.344827586206897,-26.344827586206897],[26.833333333333332,-26.0],[26.818181818181817,-25.81818181818182],[27.0,-25.833333333333336],[27.476190476190474,-25.476190476190474],[28.5,-24.5],[29.0,-24.5],[29.235294117647058,-24.235294117647058],[29.90909090909091,-23.909090909090907],[31.0,-23.944444444444443],[31.77777777777778,-23.77777777777778],[31.692307692307693,-23.307692307692307],[31.854545454545455,-22.854545454545452],[32.53846153846154,-22.53846153846154],[32.72222222222222,-22.0],[32.84210526315789,-21.0],[32.7,-19.7],[32.833333333333336,-19.166666666666668],[32.166666666666664,-19.166666666666668],[31.833333333333332,-19.0],[31.66666666666667,-18.666666666666668],[31.66666666666667,-18.333333333333336],[31.333333333333336,-18.333333333333336],[31.0,-18.166666666666664],[30.285714285714285,-18.285714285714285],[30.0,-19.0],[28.06896551724138,-19.068965517241377],[28.0,-19.5],[27.666666666666668,-19.666666666666668],[27.5,-20.0],[27.846153846153847,-20.153846153846153],[28.0,-20.1],[28.514018691588785,-20.485981308411215],[30.0,-20.5],[30.275862068965516,-20.724137931034484]],[[33.322580645161295,-35.32258064516129],[33.833333333333336,-35.0],[32.629629629629626,-34.629629629629626],[32.285714285714285,-35.0],[33.0,-35.3125],[33.322580645161295,-35.32258064516129]],[[42.4,-38.6],[42.6,-39.0],[43.0,-39.166666666666664],[43.2,-38.8],[43.0,-38.0],[43.71428571428571,-37.71428571428571],[43.92857142857143,-37.0],[43.43333333333334,-36.56666666666666],[43.0,-36.434782608695656],[42.0,-36.833333333333336],[41.53488372093023,-36.46511627906976],[41.27906976744186,-35.72093023255814],[41.0,-35.5],[40.0,-35.411764705882355],[39.61538461538461,-35.61538461538461],[39.41176470588235,-36.0],[39.44444444444444,-36.55555555555556],[39.57142857142857,-37.0],[40.0,-37.375],[41.23529411764706,-37.76470588235294],[41.652173913043484,-38.347826086956516],[42.0,-38.57142857142857],[42.4,-38.6]],[[47.45901639344262,-37.540983606557376],[47.0,-37.391304347826086],[44.519999999999996,-37.52],[44.2,-38.0],[44.56363636363636,-38.43636363636364],[46.0,-39.0625],[47.2,-39.2],[47.80952380952381,-38.80952380952381],[47.93333333333333,-38.0],[47.45901639344262,-37.540983606557376]],[[50.400000000000006,-40.0],[50.0,-39.84615384615385],[49.75,-40.0],[49.839999999999996,-40.16],[50.0,-40.22222222222222],[50.400000000000006,-40.0]],[[52.0,-44.8],[51.833333333333336,-45.0],[52.125,-45.125],[52.2,-45.0],[52.0,-44.8]],[[54.30769230769231,-39.30769230769231],[54.57142857142857,-39.0],[54.457142857142856,-38.54285714285714],[53.74193548387097,-38.74193548387097],[53.529411764705884,-39.0],[53.66666666666667,-39.333333333333336],[54.30769230769231,-39.30769230769231]],[[55.43373493975904,-38.43373493975904],[55.72,-38.0],[55.46153846153847,-37.53846153846155],[55.0,-37.4375],[54.628865979381445,-37.628865979381445],[54.52,-38.480000000000004],[55.0,-38.75],[55.43373493975904,-38.43373493975904]],[[58.14285714285714,-35.85714285714286],[58.0,-35.714285714285715],[57.85185185185185,-35.851851851851855],[57.66666666666667,-36.0],[58.08,-36.08],[58.14285714285714,-35.85714285714286]],[[60.0,-33.869565217391305],[59.91044776119403,-34.08955223880597],[60.09375,-34.09375],[60.2,-34.0],[60.0,-33.869565217391305]],[[87.33333333333334,-68.33333333333334],[87.5,-68.0],[87.25,-67.75],[86.5,-68.0],[86.66666666666667,-68.33333333333334],[87.0,-68.5],[87.33333333333334,-68.33333333333334]],[[-12.0,-59.939393939393945],[-12.166666666666666,-60.0],[-12.0,-60.25],[-11.916666666666666,-60.08333333333333],[-12.0,-59.939393939393945]],[[-5.0,-62.904761904761905],[-5.142857142857143,-63.00000000000001],[-5.0,-63.2],[-4.777777777777778,-63.0],[-5.0,-62.904761904761905]],[[3.0,-62.85714285714286],[2.9444444444444446,-62.94444444444445],[2.978723404255319,-63.02127659574468],[3.0588235294117645,-63.0],[3.0,-62.85714285714286]],[[4.428571428571429,-50.0],[4.0,-49.86363636363636],[3.8421052631578947,-49.99999999999999],[4.0,-50.375],[4.461538461538462,-50.46153846153847],[4.428571428571429,-50.0]],[[-54.15384615384615,19.0],[-54.400000000000006,19.400000000000002],[-54.0,19.4],[-53.900000000000006,20.0],[-54.0,20.214285714285715],[-54.523809523809526,19.523809523809522],[-55.48888888888889,19.488888888888887],[-55.916666666666664,19.0],[-55.857142857142854,18.142857142857142],[-55.25,17.75],[-55.0,17.75],[-54.42857142857143,18.42857142857143],[-54.15384615384615,19.0]],[[-53.9,15.0],[-53.833333333333336,14.166666666666666],[-53.14814814814815,13.851851851851851],[-52.95348837209303,13.953488372093023],[-52.70967741935485,15.000000000000002],[-53.0,15.620689655172413],[-53.467532467532465,15.467532467532466],[-53.9,15.0]],[[-52.0,3.5],[-52.13333333333334,2.8666666666666663],[-52.0,2.6666666666666665],[-51.93939393939394,2.9393939393939394],[-52.0,3.5]],[[-48.99999999999999,6.05128205128205],[-49.08333333333333,6.0],[-49.0,5.666666666666666],[-48.935483870967744,5.935483870967742],[-48.99999999999999,6.05128205128205]],[[-46.0,7.25],[-45.59090909090909,7.59090909090909],[-45.400000000000006,8.0],[-45.4,8.600000000000001],[-45.6,8.600000000000001],[-46.0,8.899999999999999],[-46.35294117647059,8.352941176470587],[-46.607142857142854,7.607142857142857],[-47.0,7.607142857142858],[-47.34343434343434,7.343434343434343],[-47.44736842105263,7.0],[-46.96491228070175,5.964912280701755],[-46.150000000000006,7.0],[-46.25,7.25],[-46.0,7.25]],[[-42.0,-7.833333333333334],[-42.2,-8.0],[-42.0,-8.125],[-41.875,-8.0],[-42.0,-7.833333333333334]],[[-38.57142857142857,11.571428571428571],[-38.41935483870968,12.0],[-38.663551401869164,12.336448598130843],[-39.541666666666664,12.458333333333332],[-40.0,12.647058823529411],[-40.44897959183674,12.448979591836736],[-40.78571428571429,12.0],[-40.625,11.625],[-41.0,11.25],[-41.25,11.25],[-41.5,11.0],[-41.0,10.857142857142858],[-40.416666666666664,11.416666666666668],[-39.72222222222223,11.277777777777779],[-39.0,11.307692307692307],[-38.57142857142857,11.571428571428571]],[[-37.375,17.0],[-37.6551724137931,17.344827586206897],[-38.0,17.454545454545453],[-38.416666666666664,17.0],[-38.270270270270274,16.72972972972973],[-38.0,16.615384615384617],[-37.375,17.0]],[[-32.51724137931035,17.517241379310345],[-32.24324324324324,18.0],[-32.52136752136752,18.47863247863248],[-33.0,18.7],[-35.0,18.805555555555554],[-36.6,18.6],[-36.8,18.0],[-36.6875,17.6875],[-36.75,17.25],[-35.0,16.72222222222222],[-34.25688073394495,17.256880733944953],[-33.0,17.28205128205128],[-32.51724137931035,17.517241379310345]],[[-29.413793103448274,11.586206896551724],[-28.75,11.25],[-28.299999999999997,10.7],[-27.61904761904762,10.619047619047619],[-27.0,11.0],[-27.4,11.600000000000001],[-27.5,13.0],[-27.63888888888889,13.36111111111111],[-28.636363636363633,14.0],[-28.51851851851852,15.0],[-28.333333333333336,15.333333333333334],[-28.215686274509803,16.0],[-28.55056179775281,16.44943820224719],[-29.321678321678323,16.67832167832168],[-29.584699453551913,17.415300546448087],[-30.0,17.745098039215687],[-30.65714285714286,17.65714285714286],[-31.299999999999997,17.3],[-31.428571428571423,17.0],[-31.23076923076923,16.76923076923077],[-30.619999999999997,16.380000000000003],[-29.880597014925375,16.119402985074625],[-29.22222222222222,14.0],[-29.952380952380953,13.0],[-29.75,12.0],[-29.413793103448274,11.586206896551724]],[[-30.333333333333336,47.0],[-30.285714285714285,46.71428571428571],[-30.0,46.5],[-29.5,46.5],[-29.0,46.0],[-29.0,47.0],[-29.6,47.4],[-30.200000000000003,47.2],[-30.333333333333336,47.0]],[[-21.619047619047617,15.38095238095238],[-22.0,15.285714285714286],[-23.0,15.444444444444445],[-23.28235294117647,15.28235294117647],[-23.428571428571427,15.0],[-23.163265306122447,13.836734693877553],[-22.629629629629626,13.37037037037037],[-22.0,13.045454545454547],[-21.166666666666668,13.166666666666668],[-21.076923076923077,14.923076923076923],[-21.619047619047617,15.38095238095238]],[[-20.0,58.333333333333336],[-20.18181818181818,58.0],[-20.0,57.833333333333336],[-19.857142857142858,58.14285714285714],[-20.0,58.333333333333336]],[[-11.0,56.22222222222222],[-11.5,56.0],[-11.0,55.5],[-10.8,55.800000000000004],[-11.0,56.22222222222222]],[[-9.793103448275861,53.79310344827586],[-9.769230769230768,53.99999999999999],[-10.0,54.6],[-10.4,54.400000000000006],[-10.6,54.0],[-10.0,53.66666666666667],[-9.793103448275861,53.79310344827586]],[[-7.888888888888888,61.99999999999999],[-8.105263157894736,62.10526315789473],[-8.5,62.0],[-8.0,61.916666666666664],[-7.888888888888888,61.99999999999999]],[[-6.0,49.08333333333333],[-6.111111111111112,48.88888888888889],[-6.0,48.5],[-5.923076923076923,48.92307692307692],[-6.0,49.08333333333333]],[[3.166666666666667,67.83333333333333],[3.0833333333333335,67.0],[3.166666666666667,66.16666666666667],[4.0,66.08333333333334],[4.833333333333333,66.16666666666667],[4.916666666666666,67.0],[4.0,67.91666666666666],[3.166666666666667,67.83333333333333]],[[9.0,67.0],[8.882352941176471,65.88235294117648],[9.0,65.5],[10.0,65.33333333333333],[10.444444444444443,65.55555555555556],[10.666666666666668,66.0],[9.733333333333334,66.26666666666667],[9.181818181818182,66.18181818181819],[9.0,67.0]],[[11.5,68.5],[10.904761904761905,68.90476190476191],[10.0,68.94117647058823],[9.4,68.60000000000001],[9.36,68.0],[9.522388059701491,67.52238805970148],[10.0,67.38461538461539],[11.0,67.72727272727272],[11.352941176470587,67.6470588235294],[11.75,68.0],[11.5,68.5]],[[12.5,67.0],[12.333333333333334,67.33333333333334],[12.0,67.5],[11.777777777777779,67.22222222222223],[12.0,66.5],[12.333333333333334,66.66666666666667],[12.5,67.0]],[[4.0,47.05128205128205],[3.888888888888889,46.888888888888886],[4.0,46.0],[5.0,47.0],[4.0,47.05128205128205]],[[3.15,46.15],[2.9423076923076925,46.05769230769231],[2.8571428571428568,45.85714285714286],[3.0,45.0],[3.666666666666667,45.333333333333336],[4.0,46.0],[3.15,46.15]],[[3.0,44.0],[3.6000000000000005,43.60000000000001],[4.125,43.875],[4.0,44.5],[3.5,44.5],[3.0,45.0],[3.0,44.0]],[[2.0,44.0],[1.875,42.125],[1.5,42.0],[1.5555555555555554,41.55555555555555],[2.0,41.333333333333336],[2.3333333333333335,41.333333333333336],[2.714285714285714,40.71428571428571],[3.0000000000000004,40.800000000000004],[3.4000000000000004,40.6],[3.0,42.0],[3.4000000000000004,43.400000000000006],[3.0,44.0],[2.0,44.0]],[[33.2,58.8],[33.2,59.0],[33.0,59.1],[32.66666666666667,59.0],[32.71428571428571,58.71428571428571],[33.0,58.5],[33.2,58.8]],[[33.333333333333336,78.0],[33.63636363636363,76.63636363636364],[34.0,76.33333333333333],[34.333333333333336,76.66666666666667],[34.5,78.0],[34.0,78.66666666666667],[33.55555555555555,78.44444444444444],[33.333333333333336,78.0]],[[38.0,72.33333333333334],[38.5,72.5],[38.66666666666667,73.0],[38.4,73.4],[38.0,73.66666666666666],[37.55555555555555,73.44444444444444],[37.33333333333333,73.0],[37.55555555555555,72.55555555555556],[38.0,72.33333333333334]],[[44.0,38.333333333333336],[44.285714285714285,38.71428571428571],[44.266666666666666,39.266666666666666],[44.0,39.666666666666664],[43.55555555555555,39.44444444444444],[43.33333333333333,39.0],[43.55555555555555,38.55555555555556],[44.0,38.333333333333336]],[[50.63636363636363,39.63636363636363],[50.0,39.92857142857143],[49.66666666666667,39.66666666666667],[49.33333333333334,39.66666666666667],[49.47368421052632,39.47368421052632],[49.47368421052632,38.526315789473685],[49.33333333333334,38.333333333333336],[49.66666666666667,38.333333333333336],[50.0,38.07142857142857],[50.529411764705884,38.470588235294116],[50.65,39.0],[50.54838709677419,39.45161290322581],[50.63636363636363,39.63636363636363]],[[57.0,35.0],[57.15384615384615,34.15384615384615],[59.0,34.0],[60.16,34.16],[60.904761904761905,34.095238095238095],[61.0,34.25],[61.3125,36.0],[61.3125,36.3125],[61.0,37.0],[59.333333333333336,37.333333333333336],[58.66666666666667,37.66666666666667],[57.71428571428571,37.71428571428571],[57.0,38.0],[56.833333333333336,38.833333333333336],[56.0,38.90909090909091],[55.71428571428571,38.71428571428571],[55.28571428571428,38.71428571428571],[55.43478260869565,38.434782608695656],[55.33333333333333,38.0],[55.44444444444444,37.44444444444444],[55.83333333333333,36.83333333333333],[56.5,36.5],[56.66666666666667,36.0],[56.63636363636364,35.63636363636364],[57.0,35.0]],[[70.33333333333334,26.666666666666668],[70.5,27.0],[70.33333333333334,27.333333333333336],[70.0,27.5],[69.5,27.0],[69.66666666666667,26.666666666666668],[70.0,26.5],[70.33333333333334,26.666666666666668]],[[5.0,-50.44444444444444],[4.523809523809524,-50.523809523809526],[4.68,-52.32],[6.0,-52.09090909090909],[6.027777777777778,-51.97222222222222],[5.421052631578948,-51.57894736842105],[5.0,-50.44444444444444]],[[7.0,-48.625],[6.571428571428571,-49.0],[7.0,-49.25],[7.23076923076923,-48.99999999999999],[7.0,-48.625]],[[10.0,-57.33333333333334],[10.423076923076923,-57.0],[10.258823529411764,-56.74117647058823],[9.77319587628866,-56.77319587628865],[9.266666666666666,-57.0],[9.702702702702702,-57.29729729729729],[10.0,-57.33333333333334]],[[17.0,-65.0],[18.0,-65.25],[18.6,-65.0],[17.81818181818182,-64.81818181818181],[17.0,-65.0]],[[20.684210526315788,-35.315789473684205],[21.0,-35.391304347826086],[21.305084745762713,-35.30508474576271],[22.5,-34.5],[22.86111111111111,-34.0],[22.76190476190476,-33.76190476190476],[22.823529411764707,-33.1764705882353],[22.0,-33.03125],[20.954545454545453,-33.04545454545455],[20.75,-32.25],[19.714285714285715,-32.0],[19.0,-31.166666666666668],[18.285714285714285,-31.285714285714285],[18.0,-32.0],[18.08,-33.92],[18.625,-34.375],[19.0,-34.42857142857143],[19.315789473684212,-34.315789473684205],[19.5,-34.0],[20.115384615384613,-33.88461538461539],[20.25,-35.0],[20.684210526315788,-35.315789473684205]],[[23.714285714285715,-54.0],[23.0,-53.64285714285714],[22.666666666666668,-54.00000000000001],[22.791666666666668,-54.208333333333336],[23.0,-54.294117647058826],[23.714285714285715,-54.0]],[[26.684210526315788,-32.68421052631579],[27.0,-32.77777777777778],[28.0,-32.1],[28.400000000000002,-32.0],[27.0,-31.22222222222222],[26.533333333333335,-31.533333333333335],[26.192307692307693,-32.0],[26.294117647058822,-32.294117647058826],[26.0,-32.55555555555556],[25.703703703703702,-32.7037037037037],[24.8125,-32.8125],[24.4,-33.0],[24.81818181818182,-33.18181818181818],[26.0,-33.22222222222222],[26.684210526315788,-32.68421052631579]],[[30.352941176470587,-66.35294117647058],[31.0,-65.75],[32.0,-66.0],[31.25,-66.25],[31.333333333333336,-66.66666666666667],[31.22222222222222,-67.0],[32.0,-67.33333333333334],[32.58333333333333,-67.0],[32.61538461538461,-66.61538461538461],[34.0,-66.22222222222223],[34.57142857142857,-66.42857142857143],[35.0,-67.0],[35.285714285714285,-66.28571428571428],[36.0,-66.0],[35.0,-65.5],[34.0,-65.77777777777777],[32.173913043478265,-64.82608695652173],[30.0,-64.45454545454545],[29.0,-64.5],[28.66666666666667,-64.66666666666667],[28.400000000000002,-65.0],[29.0,-66.0],[28.789473684210527,-66.78947368421052],[29.0,-67.33333333333334],[29.307692307692307,-67.3076923076923],[29.285714285714285,-67.0],[29.5,-66.5],[30.352941176470587,-66.35294117647058]],[[34.0,-62.0],[35.0,-62.25],[36.173913043478265,-62.173913043478265],[37.857142857142854,-61.857142857142854],[41.0,-62.0],[41.32,-61.32],[41.25,-61.0],[41.103896103896105,-60.896103896103895],[39.0,-60.30434782608695],[37.0,-60.6],[36.826086956521735,-60.826086956521735],[35.89473684210526,-60.89473684210526],[34.0,-60.473684210526315],[33.75308641975309,-60.75308641975309],[32.151515151515156,-60.848484848484844],[32.0,-60.64285714285714],[31.0,-60.34615384615385],[30.630434782608695,-60.63043478260869],[29.076923076923077,-61.0],[29.529411764705884,-61.470588235294116],[31.114285714285714,-61.885714285714286],[31.65853658536585,-62.34146341463415],[32.0,-62.4375],[33.0,-62.090909090909086],[34.0,-62.0]],[[40.55555555555556,-62.55555555555555],[40.5,-63.0],[41.41666666666667,-63.583333333333336],[41.57575757575758,-64.42424242424242],[42.0,-64.58333333333334],[43.0,-64.25],[43.400000000000006,-64.4],[43.66666666666667,-64.33333333333334],[43.81818181818182,-65.18181818181819],[44.400000000000006,-65.60000000000001],[44.53846153846154,-66.46153846153847],[45.23529411764706,-66.76470588235294],[45.333333333333336,-67.33333333333334],[45.0,-68.0],[46.0,-68.0],[46.0,-69.0],[46.63636363636364,-68.63636363636364],[47.0,-68.71428571428571],[47.588235294117645,-68.0],[47.476190476190474,-67.52380952380952],[47.0,-67.0],[47.285714285714285,-66.28571428571428],[48.22222222222222,-66.22222222222223],[49.0,-66.0],[48.400000000000006,-65.60000000000001],[48.0,-65.0],[48.5,-64.0],[49.09090909090909,-63.90909090909091],[50.0,-64.0],[50.0,-65.0],[50.66666666666667,-65.33333333333334],[51.0,-66.0],[51.71428571428571,-65.71428571428571],[52.18181818181819,-65.81818181818181],[53.0,-65.77777777777777],[54.0,-65.55555555555556],[55.11111111111111,-65.0],[54.72,-64.28],[54.72,-64.0],[54.25174825174825,-63.74825174825175],[53.71875,-63.71875],[53.13157894736842,-63.868421052631575],[52.142857142857146,-63.85714285714286],[51.72727272727273,-63.72727272727272],[51.0,-64.0],[50.578947368421055,-63.421052631578945],[50.63636363636364,-63.0],[50.0,-62.3],[48.71428571428571,-62.285714285714285],[48.1304347826087,-61.869565217391305],[42.80769230769231,-61.80769230769231],[42.166666666666664,-62.0],[42.22222222222223,-62.222222222222214],[42.0,-63.0],[41.6,-62.4],[41.0,-62.0],[40.55555555555556,-62.55555555555555]],[[31.32,-34.32],[32.0,-34.0],[30.71428571428571,-33.714285714285715],[30.555555555555554,-34.0],[31.0,-34.26666666666667],[31.32,-34.32]],[[47.0,-42.45],[47.36,-42.0],[47.0,-41.64],[46.760000000000005,-41.76],[46.66666666666667,-42.0],[46.74647887323944,-42.25352112676056],[47.0,-42.45]],[[-53.0,11.666666666666666],[-52.88235294117647,12.0],[-53.0,12.18181818181818],[-53.25,12.25],[-53.8,12.0],[-53.36363636363637,11.636363636363637],[-53.0,11.666666666666666]],[[-32.0,13.72972972972973],[-33.47272727272727,13.472727272727273],[-34.0,13.0],[-33.77142857142857,12.228571428571428],[-33.0,12.10344827586207],[-31.102564102564102,12.102564102564102],[-30.444444444444443,12.444444444444445],[-30.099999999999998,13.0],[-30.672727272727272,13.327272727272728],[-32.0,13.72972972972973]],[[-26.0,46.0],[-25.400000000000002,45.6],[-24.0,46.0],[-24.0,48.0],[-25.0,48.25],[-25.461538461538463,48.53846153846154],[-25.733333333333334,49.266666666666666],[-27.0,49.5],[-27.5,49.0],[-27.363636363636363,48.63636363636364],[-26.571428571428573,48.42857142857143],[-26.0,47.5],[-25.66666666666667,47.333333333333336],[-25.5,47.0],[-25.6,46.6],[-26.0,46.0]],[[-20.652173913043477,8.652173913043478],[-20.384615384615387,9.0],[-20.291666666666668,10.0],[-20.514285714285716,10.485714285714286],[-21.185185185185187,10.814814814814815],[-21.51851851851852,11.481481481481481],[-22.0,11.65],[-22.433333333333334,11.433333333333334],[-22.77777777777778,10.777777777777779],[-23.280701754385962,10.280701754385964],[-23.4,10.0],[-23.30188679245283,9.69811320754717],[-23.0,9.5],[-22.0,9.307692307692308],[-21.333333333333336,8.666666666666668],[-21.0,8.529411764705882],[-20.652173913043477,8.652173913043478]],[[-19.565217391304348,18.565217391304348],[-19.89189189189189,17.891891891891895],[-20.727272727272727,17.0],[-20.727272727272727,16.727272727272727],[-21.307692307692307,15.692307692307693],[-21.0,15.333333333333334],[-20.0,15.4],[-19.692307692307693,15.307692307692307],[-19.0,13.5],[-18.666666666666668,16.0],[-18.0,17.666666666666668],[-17.799999999999997,17.799999999999997],[-17.2,19.200000000000003],[-16.53846153846154,19.53846153846154],[-16.333333333333332,20.0],[-16.913043478260867,22.086956521739133],[-17.555555555555557,22.444444444444443],[-17.80952380952381,23.19047619047619],[-18.0,23.18181818181818],[-18.133333333333333,23.0],[-18.333333333333336,20.0],[-18.52941176470588,19.52941176470588],[-19.114285714285714,19.114285714285714],[-19.565217391304348,18.565217391304348]],[[38.0,66.0],[38.0,65.0],[39.0,65.0],[40.6,65.4],[40.800000000000004,66.0],[40.6,66.60000000000001],[40.0,66.8],[39.0,66.75],[38.0,66.0]],[[39.333333333333336,67.66666666666667],[39.5,68.0],[39.400000000000006,68.4],[39.0,69.0],[38.6,68.4],[38.5,68.0],[39.0,67.5],[39.333333333333336,67.66666666666667]],[[7.0,-56.0],[6.333333333333334,-55.66666666666667],[6.0,-55.33333333333333],[5.666666666666666,-56.0],[5.7894736842105265,-56.210526315789465],[6.0,-56.333333333333336],[7.0,-56.0]],[[12.23076923076923,-60.769230769230774],[12.0,-60.400000000000006],[11.0,-60.166666666666664],[10.222222222222221,-60.22222222222222],[9.600000000000001,-60.60000000000001],[9.333333333333334,-61.0],[11.0,-61.5],[12.0,-61.5],[12.352941176470587,-61.35294117647058],[12.600000000000001,-61.0],[12.23076923076923,-60.769230769230774]],[[23.0,-60.975],[22.82608695652174,-61.82608695652174],[22.6,-62.0],[23.0,-62.333333333333336],[24.0,-62.0],[23.25,-61.75],[23.166666666666664,-61.16666666666667],[23.0,-60.975]],[[30.153846153846153,-67.84615384615384],[29.692307692307693,-67.6923076923077],[29.66666666666667,-68.0],[30.133333333333333,-68.0],[30.153846153846153,-67.84615384615384]],[[43.0,-67.0],[44.0,-67.33333333333334],[44.285714285714285,-67.28571428571428],[44.400000000000006,-66.60000000000001],[43.0,-67.0]],[[47.368421052631575,-55.0],[47.0,-54.78125],[46.65,-55.0],[47.0,-55.31818181818181],[47.233333333333334,-55.233333333333334],[47.368421052631575,-55.0]],[[-53.73913043478261,10.26086956521739],[-53.88461538461539,10.0],[-53.44660194174757,9.553398058252428],[-52.6198347107438,9.619834710743802],[-52.52083333333333,10.0],[-53.0,10.741935483870968],[-53.372093023255815,10.627906976744185],[-53.86666666666666,10.866666666666667],[-53.73913043478261,10.26086956521739]],[[-26.0,9.535714285714285],[-25.643835616438356,9.643835616438356],[-25.38095238095238,10.0],[-25.657894736842106,10.342105263157894],[-26.0,10.481481481481481],[-26.41935483870968,10.419354838709678],[-26.59090909090909,10.0],[-26.317073170731707,9.682926829268293],[-26.0,9.535714285714285]],[[-24.0,-49.833333333333336],[-24.200000000000003,-50.0],[-24.0,-50.142857142857146],[-23.857142857142858,-50.0],[-24.0,-49.833333333333336]],[[44.0,-75.625],[44.27777777777778,-75.27777777777777],[44.29411764705882,-75.0],[44.270270270270274,-74.72972972972974],[44.0,-74.375],[43.629629629629626,-74.62962962962962],[43.375,-75.0],[43.583333333333336,-75.41666666666667],[44.0,-75.625]]],[[[106.33333333333333,7.0],[105.0,7.0],[104.91666666666666,7.916666666666667],[102.95,8.0],[103.0,10.0],[104.03076923076922,10.03076923076923],[104.08,9.08],[104.92,9.08],[105.1,8.9],[105.1,8.1],[106.0,8.05],[106.08333333333334,7.083333333333334],[106.33333333333333,7.0]]],[[[-65.0,11.157894736842106],[-64.8051948051948,10.805194805194805],[-65.0,10.571428571428573],[-66.0,10.622641509433961],[-67.375,11.0],[-68.0,11.555555555555555],[-68.130081300813,11.869918699186993],[-68.66666666666667,12.0],[-68.18604651162791,12.186046511627907],[-67.0,12.25531914893617],[-66.84262295081967,12.157377049180328],[-66.60975609756098,11.609756097560977],[-66.76470588235294,11.235294117647058],[-66.37383177570094,11.373831775700934],[-66.0,11.206185567010309],[-65.0,11.157894736842106]]],[[[-9.0,26.5],[-9.333333333333334,26.666666666666668],[-9.25,27.25],[-9.0,27.333333333333336],[-8.0,27.0],[-8.5,26.5],[-9.0,26.5]]],[[[9.333333333333334,49.0],[9.0,48.666666666666664],[8.714285714285714,48.71428571428571],[8.0,49.0],[8.777777777777779,49.22222222222223],[9.153846153846153,49.15384615384615],[9.333333333333334,49.0]]],[[[176.25806451612902,57.25806451612903],[176.82608695652175,57.17391304347826],[176.82608695652175,57.82608695652174],[176.98009950248755,58.01990049751244],[179.01149425287355,58.0],[178.04166666666666,57.958333333333336],[178.0,56.97727272727273],[175.0,56.97674418604651],[173.45333333333335,56.54666666666667],[173.04291845493563,55.957081545064376],[172.18260869565216,55.81739130434782],[170.81632653061223,55.816326530612244],[170.03030303030303,55.96969696969697],[170.00806451612902,54.99193548387097],[169.0625,54.9375],[169.0,54.4],[168.69230769230768,54.30769230769231],[168.6,54.0],[167.0,53.93333333333333],[167.0,54.090909090909086],[167.6470588235294,54.35294117647059],[167.9090909090909,55.0],[168.9504132231405,55.049586776859506],[169.1764705882353,55.1764705882353],[169.9230769230769,55.07692307692308],[169.9230769230769,55.92307692307693],[170.03125,56.03125],[170.8125,56.1875],[170.96899224806202,57.031007751937985],[172.67619047619047,57.323809523809516],[173.40860215053763,57.59139784946236],[173.97969543147207,58.02030456852792],[175.20689655172413,58.0],[175.34285714285716,57.65714285714286],[175.21052631578948,57.21052631578947],[175.7037037037037,57.29629629629629],[176.0,57.14814814814815],[176.25806451612902,57.25806451612903]]],[[[180.0,86.57142857142857],[179.78181818181818,86.78181818181818],[179.98850574712645,89.0],[179.4090368608799,89.40903686087991],[179.25787106446776,90.0],[180.0,90.0],[180.0,86.57142857142857]]]]}}]}