{"type":"FeatureCollection","features":[{"type":"Feature","properties":{"ageMa":340},"geometry":{"type":"MultiPolygon","coordinates":[[[[-61.5,-36.0],[-61.42857142857142,-37.0],[-62.0,-38.333333333333336],[-62.222222222222214,-39.77777777777777],[-62.52,-40.48],[-63.0,-41.0],[-63.375,-42.625],[-63.625,-43.375],[-64.0,-44.0],[-64.4,-47.0],[-64.14285714285714,-47.14285714285714],[-63.0,-47.25],[-62.470588235294116,-47.470588235294116],[-62.05882352941176,-48.05882352941177],[-62.0,-49.0],[-62.146341463414636,-49.85365853658537],[-62.47619047619047,-50.523809523809526],[-63.07692307692308,-51.0],[-63.347826086956516,-51.65217391304348],[-64.0,-52.0],[-64.28571428571428,-52.71428571428571],[-64.75,-53.0],[-65.75,-54.0],[-66.52941176470588,-55.470588235294116],[-67.36363636363636,-56.63636363636364],[-68.0,-57.0],[-69.0,-58.0],[-69.75,-59.25],[-70.75,-60.0],[-72.0,-61.25],[-74.33333333333334,-63.00000000000001],[-76.22222222222223,-63.77777777777778],[-78.88235294117646,-65.11764705882354],[-81.25,-65.25],[-82.0,-65.0],[-83.0,-65.0],[-83.55555555555554,-66.44444444444444],[-84.0,-67.0],[-88.0,-68.6],[-89.15384615384616,-68.84615384615384],[-90.60000000000001,-69.4],[-92.26666666666668,-69.73333333333332],[-95.0,-70.80000000000001],[-96.0,-71.0],[-97.46153846153847,-71.53846153846153],[-100.0,-72.0],[-103.60000000000001,-73.4],[-106.0,-73.83333333333334],[-107.0,-74.2],[-110.0,-74.83333333333333],[-112.0,-75.4],[-118.0,-76.66666666666667],[-119.0,-76.71428571428571],[-120.81818181818181,-77.18181818181819],[-122.0,-77.33333333333333],[-123.25,-77.75],[-125.0,-77.875],[-127.0,-78.4],[-131.0,-79.0],[-132.63636363636363,-79.36363636363636],[-136.0,-79.83333333333334],[-138.0,-79.875],[-138.8,-80.2],[-139.63636363636363,-80.36363636363636],[-141.0,-80.4],[-144.0,-80.85714285714286],[-147.0,-81.0],[-149.0,-81.5],[-151.0,-81.6],[-154.0,-82.0],[-155.0,-82.0],[-156.55555555555554,-82.44444444444444],[-158.0,-82.5],[-159.25,-82.75],[-162.0,-82.80000000000001],[-163.0,-83.0],[-163.7142857142857,-83.28571428571428],[-165.0,-83.33333333333333],[-167.0,-83.75],[-169.0,-83.75],[-173.0,-83.33333333333333],[-180.0,-83.4],[-180.0,-72.6],[-179.0,-73.0],[-177.0,-73.33333333333334],[-175.0,-73.33333333333334],[-174.0,-73.5],[-169.0,-73.5],[-168.0,-73.6],[-163.0,-73.5],[-162.0,-73.28571428571429],[-155.875,-73.125],[-153.0,-72.6],[-151.0,-72.5],[-150.0,-72.28571428571429],[-147.0,-72.28571428571429],[-141.0,-71.55555555555556],[-140.0,-71.63636363636364],[-136.77777777777777,-71.22222222222221],[-136.0,-71.0],[-132.0,-70.57142857142857],[-131.0,-70.28571428571428],[-130.0,-70.28571428571428],[-128.0,-70.0],[-127.0,-69.66666666666667],[-123.0,-69.0],[-119.66666666666669,-68.0],[-117.34782608695653,-67.65217391304347],[-115.66666666666667,-67.0],[-114.22857142857143,-66.77142857142857],[-112.33333333333333,-66.0],[-110.28571428571428,-65.71428571428571],[-108.77777777777777,-65.22222222222223],[-106.0,-64.77272727272728],[-104.16666666666667,-64.0],[-99.49056603773585,-62.509433962264154],[-98.375,-62.0],[-90.36170212765957,-59.63829787234043],[-89.0,-59.0],[-87.41935483870968,-58.58064516129033],[-86.125,-58.0],[-84.33333333333334,-57.66666666666667],[-83.66666666666667,-57.333333333333336],[-83.33333333333333,-57.0],[-82.33962264150944,-56.660377358490564],[-81.55555555555556,-56.0],[-81.1098901098901,-55.89010989010989],[-77.75,-54.0],[-73.16666666666667,-51.83333333333333],[-72.09375,-50.90625],[-71.53333333333333,-50.0],[-71.24242424242425,-49.75757575757576],[-70.9298245614035,-49.07017543859649],[-70.11940298507463,-47.88059701492537],[-69.87234042553192,-47.12765957446808],[-69.19607843137254,-45.803921568627445],[-68.65,-43.0],[-67.5,-40.0],[-67.0,-38.0],[-66.0,-35.94117647058824],[-65.0,-34.26666666666667],[-64.0,-34.0],[-63.10810810810811,-34.10810810810811],[-62.444444444444436,-34.44444444444444],[-61.5,-36.0]]],[[[-15.0,26.75],[-14.0,26.5],[-12.0,26.5],[-11.0,26.25],[-10.0,25.75],[-7.833333333333334,25.166666666666664],[-6.166666666666667,23.833333333333336],[-4.0,22.666666666666668],[-3.0,22.333333333333336],[-1.0,21.0],[-0.25,21.25],[1.0,21.25],[2.0,21.42857142857143],[3.7073170731707314,22.29268292682927],[5.0,22.666666666666668],[6.0,22.647058823529413],[6.488888888888889,22.488888888888887],[7.2,22.0],[7.333333333333333,21.0],[7.0,20.0],[6.888888888888888,19.0],[7.0,18.0],[7.666666666666667,17.0],[8.0,16.0],[9.0,15.666666666666668],[10.0,15.0],[11.0,15.0],[12.0,14.5],[14.0,14.25],[16.0,13.333333333333332],[16.333333333333332,13.0],[16.666666666666668,12.0],[16.5,11.0],[16.333333333333332,8.0],[16.714285714285715,5.7142857142857135],[17.0,5.0],[17.0,3.0],[17.285714285714285,2.2857142857142856],[17.333333333333332,1.0],[18.0,0.0],[18.0,-2.0],[17.0,-2.75],[16.0,-3.25],[13.833333333333332,-2.166666666666667],[12.666666666666668,-1.3333333333333333],[12.0,-0.6666666666666667],[11.285714285714285,-1.2857142857142856],[10.636363636363637,-2.6363636363636367],[7.0,-4.666666666666667],[5.0,-5.285714285714286],[4.0,-5.333333333333333],[1.3333333333333333,-6.333333333333334],[-1.0,-7.0],[-1.3076923076923077,-7.692307692307693],[-2.1052631578947367,-8.894736842105264],[-3.0,-10.0],[-3.1176470588235294,-10.88235294117647],[-3.8333333333333335,-13.0],[-3.833333333333333,-14.166666666666666],[-4.4,-16.0],[-4.0,-16.666666666666664],[-3.5,-17.0],[-1.75,-17.0],[-0.8333333333333334,-16.0],[0.0,-13.0],[0.2857142857142857,-12.285714285714285],[1.1052631578947367,-11.105263157894736],[2.0,-10.5],[2.2105263157894735,-10.210526315789473],[3.4615384615384617,-9.461538461538462],[6.000000000000001,-8.200000000000001],[8.0,-7.666666666666666],[9.0,-7.6],[11.0,-7.200000000000001],[14.0,-6.222222222222222],[15.38095238095238,-5.3809523809523805],[16.0,-5.23076923076923],[17.0,-5.352941176470588],[18.24,-5.76],[20.285714285714285,-6.7142857142857135],[21.0,-7.200000000000001],[22.0,-9.0],[21.25,-10.0],[20.064516129032256,-11.064516129032258],[19.333333333333336,-12.0],[18.454545454545453,-12.454545454545453],[18.0,-13.0],[17.266666666666666,-13.266666666666666],[17.0,-14.0],[16.363636363636363,-14.363636363636363],[15.333333333333334,-16.0],[14.18181818181818,-17.181818181818183],[14.0,-17.333333333333332],[12.0,-17.75],[11.181818181818182,-18.181818181818183],[10.0,-18.5],[9.0,-19.25],[6.7142857142857135,-19.714285714285715],[5.636363636363637,-20.636363636363637],[4.363636363636363,-21.363636363636363],[2.6666666666666665,-22.0],[1.5,-23.0],[1.0,-24.0],[1.4,-26.0],[2.875,-28.125],[3.75,-29.0],[5.0,-31.0],[6.181818181818182,-31.81818181818182],[7.166666666666666,-32.833333333333336],[9.0,-35.5],[12.0,-38.333333333333336],[13.0,-39.666666666666664],[16.166666666666668,-42.83333333333333],[17.0,-44.0],[17.692307692307693,-44.30769230769231],[19.0,-45.25],[20.0,-45.5],[21.0,-46.0],[22.0,-46.75],[22.81818181818182,-47.18181818181819],[24.0,-47.5],[25.0,-48.0],[29.0,-48.0],[29.363636363636367,-46.36363636363637],[29.5,-45.0],[29.307692307692307,-42.69230769230769],[29.0,-41.0],[27.333333333333336,-36.0],[27.5,-35.0],[27.714285714285715,-34.71428571428571],[28.0,-34.6],[29.0,-35.0],[31.0,-37.4],[32.0,-37.8],[33.0,-37.75],[33.333333333333336,-37.333333333333336],[34.0,-36.0],[35.0,-33.0],[35.2,-32.0],[35.85714285714286,-30.857142857142854],[37.0,-30.0],[39.8,-29.2],[41.00000000000001,-29.166666666666668],[42.375,-29.625],[44.0,-30.4],[44.875,-31.125],[46.15384615384615,-31.846153846153847],[47.666666666666664,-33.0],[49.0,-33.75],[50.0,-34.0],[53.00000000000001,-35.2],[56.66666666666667,-38.0],[58.16666666666667,-38.833333333333336],[59.76470588235294,-40.23529411764706],[61.153846153846146,-40.84615384615385],[62.375,-41.625],[63.00000000000001,-42.2],[65.44444444444444,-43.55555555555555],[67.73333333333333,-45.266666666666666],[69.16666666666667,-45.83333333333333],[72.0,-47.75],[74.28571428571428,-48.71428571428571],[75.83333333333333,-50.166666666666664],[77.0,-50.66666666666667],[78.44444444444444,-51.55555555555556],[80.71428571428572,-52.285714285714285],[82.0,-52.5],[83.0,-53.0],[84.0,-53.2],[86.0,-54.0],[88.4,-54.6],[89.85714285714286,-55.14285714285714],[91.0,-55.400000000000006],[93.0,-55.5],[95.0,-56.0],[96.0,-56.0],[98.0,-56.333333333333336],[99.0,-56.2],[100.0,-55.75],[101.0,-55.666666666666664],[101.30769230769232,-55.30769230769231],[101.5,-55.0],[102.20000000000002,-52.0],[102.83333333333333,-50.833333333333336],[104.0,-49.666666666666664],[104.71428571428571,-48.71428571428571],[105.66666666666666,-48.0],[106.16666666666666,-47.16666666666667],[106.0,-46.5],[105.66666666666666,-46.0],[104.73333333333333,-45.266666666666666],[104.4,-44.0],[104.5,-43.0],[105.73333333333333,-41.733333333333334],[107.69230769230771,-40.69230769230769],[109.26666666666667,-40.266666666666666],[111.0,-39.6],[114.0,-39.6],[116.0,-39.75],[118.0,-40.400000000000006],[120.0,-40.5],[120.28571428571428,-40.285714285714285],[120.33333333333334,-40.0],[119.63636363636363,-39.36363636363636],[119.5,-39.0],[118.57894736842104,-38.421052631578945],[118.0,-37.6],[117.66666666666667,-37.333333333333336],[117.30000000000001,-36.7],[117.0,-36.0],[117.20000000000002,-35.0],[118.22222222222223,-34.22222222222222],[119.0,-34.11111111111111],[121.35294117647058,-34.35294117647059],[122.23529411764707,-34.23529411764706],[122.5,-34.0],[122.6,-33.0],[122.20000000000002,-32.0],[122.20000000000002,-31.0],[122.71428571428571,-29.714285714285715],[124.60000000000001,-27.6],[125.625,-26.625],[126.83333333333333,-25.833333333333336],[127.53846153846155,-25.53846153846154],[128.0,-25.4],[130.0,-25.4],[131.0,-25.6],[132.0,-26.0],[133.15384615384616,-26.846153846153847],[135.15384615384613,-28.846153846153847],[136.875,-31.125],[138.26666666666665,-31.733333333333334],[138.5,-32.0],[139.7037037037037,-32.2962962962963],[140.3,-32.7],[140.5,-33.0],[141.4848484848485,-33.515151515151516],[142.0,-34.18181818181818],[142.6,-34.400000000000006],[143.25,-35.0],[144.35294117647058,-35.647058823529406],[145.0,-36.2],[146.0,-36.75],[148.0,-37.4],[149.0,-38.0],[149.5,-39.0],[149.83333333333334,-41.00000000000001],[150.0,-41.333333333333336],[152.33333333333334,-44.0],[154.26666666666668,-44.733333333333334],[155.0,-45.400000000000006],[155.4,-45.6],[156.4,-46.6],[157.0,-48.0],[156.85714285714286,-48.857142857142854],[156.88235294117646,-50.11764705882353],[157.75,-52.0],[159.375,-53.625],[159.75,-54.25],[161.40000000000003,-55.60000000000001],[163.75,-58.0],[164.66666666666669,-60.00000000000001],[166.0,-61.0],[167.4,-61.6],[168.53846153846155,-62.46153846153846],[169.75,-64.0],[169.875,-65.125],[171.8,-67.0],[172.57142857142858,-67.42857142857143],[173.0,-68.0],[173.73333333333335,-68.26666666666667],[175.5,-69.5],[176.0,-70.0],[179.15384615384616,-71.84615384615384],[180.0,-72.6],[180.0,-83.4],[172.0,-83.28571428571428],[168.88235294117646,-83.11764705882354],[164.0,-82.57142857142856],[161.0,-82.5],[156.0,-81.83333333333334],[155.0,-81.57142857142857],[151.0,-81.0],[148.0,-80.19999999999999],[146.8181818181818,-80.18181818181819],[146.0,-80.0],[145.0,-80.0],[143.30769230769232,-80.3076923076923],[140.0,-80.5],[138.0,-80.83333333333333],[137.0,-81.16666666666666],[133.0,-82.0],[132.6,-82.6],[132.0,-83.0],[135.0,-83.5],[136.0,-83.5],[138.0,-83.875],[141.0,-84.0],[144.0,-84.5],[148.0,-84.6],[152.0,-85.33333333333334],[154.0,-85.6],[155.0,-85.6],[156.16666666666669,-85.83333333333333],[157.0,-86.16666666666667],[158.00000000000003,-86.16666666666667],[161.0,-86.5],[168.0,-86.5],[170.1818181818182,-86.81818181818181],[173.0,-86.83333333333333],[176.00000000000003,-87.16666666666667],[180.0,-87.16666666666666],[180.0,-90.0],[-180.0,-90.0],[-180.0,-87.16666666666667],[-163.0,-87.16666666666667],[-161.0,-87.33333333333334],[-156.0,-87.33333333333334],[-155.00000000000003,-87.16666666666667],[-149.0,-87.16666666666667],[-148.0,-87.0],[-145.0,-87.0],[-144.0,-86.80000000000001],[-141.0,-86.80000000000001],[-140.0,-86.6],[-134.0,-86.5],[-130.8181818181818,-86.18181818181819],[-126.0,-86.16666666666667],[-123.0,-85.8],[-122.0,-85.8],[-121.0,-85.6],[-115.0,-85.5],[-114.0,-85.66666666666666],[-110.0,-85.66666666666666],[-108.60000000000001,-85.4],[-108.0,-85.0],[-107.0,-84.75],[-105.28571428571428,-84.71428571428571],[-104.0,-84.5],[-103.0,-85.0],[-102.0,-85.0],[-100.60000000000001,-84.4],[-100.0,-84.0],[-99.4,-84.4],[-99.0,-84.5],[-98.66666666666667,-84.33333333333334],[-98.5,-84.0],[-98.0,-83.75],[-97.0,-83.66666666666667],[-96.0,-84.0],[-95.28571428571428,-83.71428571428571],[-92.6,-83.4],[-92.0,-83.0],[-91.0,-83.0],[-91.0,-84.0],[-90.0,-84.0],[-90.0,-83.0],[-88.6,-82.4],[-88.0,-82.0],[-86.0,-82.0],[-85.4,-81.60000000000001],[-85.0,-81.5],[-84.5,-81.5],[-84.0,-82.0],[-84.0,-83.0],[-83.0,-83.0],[-83.0,-81.0],[-82.0,-81.0],[-80.0,-80.0],[-79.0,-80.0],[-78.0,-79.66666666666666],[-77.0,-79.5],[-76.0,-79.5],[-73.0,-78.25],[-71.57142857142858,-77.42857142857143],[-70.0,-77.0],[-69.46153846153847,-76.53846153846153],[-68.75757575757575,-76.24242424242425],[-67.33333333333333,-76.0],[-66.52941176470588,-75.47058823529412],[-64.75,-75.0],[-64.46153846153847,-74.53846153846155],[-63.84615384615385,-74.15384615384615],[-63.0,-74.0],[-62.66666666666667,-73.33333333333334],[-61.400000000000006,-72.6],[-60.60000000000001,-72.4],[-60.0,-72.0],[-57.0,-72.0],[-55.66666666666667,-71.33333333333334],[-52.0,-70.5],[-51.69230769230769,-70.3076923076923],[-49.5,-70.0],[-48.53846153846154,-69.46153846153847],[-46.0,-69.0],[-45.333333333333336,-68.66666666666667],[-44.53846153846154,-68.46153846153847],[-42.0,-68.0],[-40.0,-67.2],[-39.400000000000006,-66.60000000000001],[-38.5,-66.0],[-38.833333333333336,-64.83333333333333],[-40.0,-64.0],[-40.36363636363637,-63.36363636363636],[-40.6,-62.6],[-41.5,-61.0],[-41.66666666666667,-60.00000000000001],[-41.5,-59.0],[-41.6,-58.60000000000001],[-42.0,-58.0],[-43.0,-57.0],[-45.0,-57.0],[-45.71428571428571,-56.71428571428571],[-47.0,-56.5],[-49.0,-56.5],[-52.0,-57.0],[-53.0,-57.0],[-54.400000000000006,-56.400000000000006],[-54.857142857142854,-55.857142857142854],[-56.0,-55.0],[-56.42857142857143,-54.42857142857143],[-57.0,-53.0],[-57.25,-52.0],[-57.4,-50.0],[-56.5,-48.0],[-56.0,-47.333333333333336],[-54.0,-46.5],[-52.71428571428571,-46.71428571428571],[-52.0,-47.0],[-51.0,-47.0],[-50.0,-47.25],[-48.0,-47.25],[-46.0,-47.66666666666667],[-43.0,-47.5],[-42.0,-47.75],[-40.0,-47.5],[-39.0,-47.5],[-36.0,-47.75],[-35.0,-47.5],[-33.5,-48.0],[-32.0,-49.0],[-31.5,-49.5],[-30.833333333333332,-49.83333333333333],[-30.666666666666664,-50.0],[-30.22222222222222,-51.22222222222223],[-29.333333333333336,-52.33333333333334],[-28.6,-52.6],[-27.0,-53.66666666666667],[-26.0,-54.0],[-25.0,-54.0],[-24.333333333333336,-53.66666666666667],[-23.0,-53.5],[-22.0,-53.0],[-21.53846153846154,-52.46153846153847],[-21.0,-52.16666666666667],[-20.0,-52.0],[-19.0,-52.0],[-17.0,-51.0],[-16.77777777777778,-49.77777777777778],[-17.0,-49.0],[-17.666666666666668,-48.0],[-19.0,-47.0],[-20.0,-46.66666666666667],[-21.0,-45.66666666666667],[-23.0,-45.0],[-24.5,-44.0],[-25.0,-43.5],[-27.0,-43.25],[-27.5,-43.0],[-28.0,-42.5],[-29.0,-42.333333333333336],[-29.8,-41.8],[-32.0,-41.0],[-33.0,-40.5],[-36.0,-40.25],[-36.8,-39.8],[-38.0,-39.5],[-39.0,-39.5],[-40.0,-39.333333333333336],[-42.0,-38.66666666666667],[-43.0,-38.66666666666667],[-45.0,-38.333333333333336],[-46.0,-38.5],[-47.0,-38.5],[-48.0,-38.333333333333336],[-49.0,-38.0],[-50.0,-38.0],[-51.0,-38.25],[-52.0,-38.0],[-54.0,-38.0],[-55.0,-37.75],[-57.0,-37.6],[-58.0,-37.33333333333333],[-58.25,-37.0],[-58.75,-35.0],[-59.25,-34.0],[-59.25,-33.0],[-59.0,-32.0],[-59.0,-31.0],[-59.25,-30.0],[-59.25,-29.0],[-59.0,-28.0],[-59.33333333333333,-27.0],[-60.0,-26.0],[-60.18181818181818,-25.18181818181818],[-60.400000000000006,-25.0],[-60.857142857142854,-23.857142857142854],[-61.733333333333334,-22.733333333333334],[-62.266666666666666,-22.266666666666666],[-64.75,-19.0],[-64.66666666666667,-18.0],[-64.0,-17.0],[-63.0,-16.666666666666664],[-60.0,-16.75],[-59.0,-17.25],[-57.0,-17.666666666666668],[-53.0,-17.6],[-51.00000000000001,-17.333333333333336],[-46.0,-17.5],[-44.0,-18.0],[-43.0,-18.0],[-42.0,-18.4],[-41.0,-19.0],[-39.56521739130435,-19.565217391304348],[-39.0,-20.0],[-36.0,-20.22222222222222],[-34.15384615384615,-20.153846153846153],[-33.0,-20.0],[-31.0,-19.166666666666668],[-29.0,-19.090909090909093],[-27.0,-18.555555555555557],[-24.0,-18.0],[-22.5,-17.0],[-22.363636363636363,-16.636363636363637],[-21.714285714285715,-16.0],[-21.75,-15.0],[-21.857142857142858,-14.857142857142858],[-24.0,-14.333333333333332],[-25.0,-14.5],[-25.400000000000002,-14.400000000000002],[-26.0,-14.0],[-24.666666666666668,-13.333333333333336],[-24.5,-13.0],[-24.333333333333336,-12.0],[-27.0,-8.0],[-27.5,-7.0],[-28.285714285714285,-6.285714285714285],[-29.0,-6.0],[-30.0,-6.0],[-30.6,-6.4],[-31.0,-7.0],[-31.6,-6.6000000000000005],[-32.0,-6.5],[-33.0,-6.5],[-34.0,-6.0],[-34.0,-5.0],[-33.6,-4.4],[-33.5,-4.0],[-32.71428571428571,-3.2857142857142856],[-31.666666666666668,-2.0],[-30.333333333333336,-1.0],[-29.66666666666667,0.0],[-28.818181818181817,0.8181818181818181],[-28.0,2.0],[-26.5,5.0],[-25.833333333333336,5.833333333333334],[-24.666666666666668,8.0],[-24.30769230769231,9.307692307692308],[-23.333333333333332,11.0],[-23.25,12.0],[-22.75,13.0],[-22.461538461538463,14.461538461538462],[-21.75,16.0],[-21.363636363636363,17.363636363636363],[-20.5,18.0],[-20.0,19.0],[-21.5,20.0],[-22.636363636363637,21.363636363636363],[-23.71428571428571,22.285714285714285],[-25.166666666666664,22.833333333333332],[-25.6,23.400000000000002],[-25.8,24.000000000000004],[-25.6,24.6],[-25.166666666666664,25.166666666666664],[-23.81818181818182,25.81818181818182],[-20.6,26.400000000000002],[-19.0,26.4],[-17.0,26.66666666666667],[-16.0,26.6],[-15.0,26.75]]],[[[-38.333333333333336,-11.0],[-38.36363636363636,-11.636363636363637],[-38.400000000000006,-12.0],[-38.647058823529406,-12.352941176470587],[-39.0,-12.600000000000001],[-40.375,-12.375],[-42.266666666666666,-11.266666666666666],[-43.35294117647059,-10.352941176470587],[-43.599999999999994,-10.0],[-43.75,-9.0],[-43.0,-8.4],[-42.0,-8.333333333333334],[-40.71428571428571,-8.714285714285714],[-39.5,-9.5],[-38.529411764705884,-10.529411764705882],[-38.333333333333336,-11.0]]],[[[30.285714285714285,-0.7142857142857142],[30.42857142857143,-1.0],[30.5,-2.0],[29.90909090909091,-2.909090909090909],[29.400000000000002,-3.4000000000000004],[28.75,-3.75],[27.0,-3.8947368421052633],[25.764705882352942,-3.764705882352941],[24.000000000000004,-4.8],[23.000000000000004,-4.8],[22.0,-4.4],[21.6,-4.0],[21.5,-3.0],[22.0,-2.0],[22.5,-1.5],[23.71428571428571,-0.7142857142857142],[25.0,-0.5],[26.09090909090909,-0.09090909090909088],[29.0,0.0],[29.75,-0.25],[30.285714285714285,-0.7142857142857142]]],[[[35.78048780487805,12.000000000000002],[35.785714285714285,11.214285714285715],[35.46875,10.53125],[35.0,10.0625],[34.07142857142857,10.071428571428571],[33.315789473684205,10.315789473684209],[32.375,12.0],[32.85714285714286,13.0],[34.0,13.541666666666668],[35.0,13.428571428571427],[35.44444444444444,13.0],[35.625,12.625],[35.78048780487805,12.000000000000002]]],[[[31.333333333333336,16.666666666666668],[31.272727272727273,16.0],[31.0,15.625],[30.0,15.25],[29.363636363636367,15.363636363636363],[28.652173913043477,15.652173913043478],[28.16216216216216,16.16216216216216],[28.0,16.75],[27.8,17.0],[27.888888888888886,18.0],[28.42857142857143,18.571428571428573],[29.0,18.849999999999998],[30.423529411764708,18.423529411764704],[30.89473684210526,17.894736842105264],[31.238805970149254,17.238805970149254],[31.333333333333336,16.666666666666668]]],[[[22.625,21.375],[21.81818181818182,21.18181818181818],[20.363636363636363,21.363636363636363],[19.285714285714285,22.285714285714285],[19.0625,23.0],[19.068965517241377,23.931034482758623],[19.347826086956523,24.65217391304348],[21.0,25.333333333333332],[22.729729729729733,24.729729729729733],[23.5,24.0],[23.857142857142858,23.0],[23.6,22.4],[22.625,21.375]]],[[[11.0,57.125],[11.714285714285714,56.71428571428571],[14.682539682539682,55.68253968253968],[15.935483870967742,54.935483870967744],[17.058252427184467,54.05825242718447],[19.16470588235294,53.16470588235294],[23.0,52.88],[27.0,52.96551724137932],[29.0,52.875],[30.735849056603776,52.73584905660377],[35.1,52.0],[36.18518518518518,51.18518518518519],[36.833333333333336,51.0],[37.375,50.375],[38.125,50.0],[39.0,49.22222222222223],[39.5,48.5],[40.0,48.14285714285714],[40.4390243902439,47.43902439024391],[41.0,47.0],[41.34375,46.34375],[42.36144578313253,45.36144578313253],[42.9375,45.0],[43.400000000000006,44.400000000000006],[44.05882352941177,44.0],[46.43478260869565,41.434782608695656],[48.2,40.0],[48.714285714285715,39.0],[48.333333333333336,38.0],[47.0,37.230769230769226],[45.4,36.6],[44.0,35.785714285714285],[41.0,34.631578947368425],[38.0,33.0625],[36.0,31.733333333333334],[35.0,31.388888888888893],[34.6,31.400000000000002],[34.18181818181818,31.18181818181818],[33.5,31.5],[33.0,32.0],[33.375,32.625],[33.75,34.0],[33.5,34.5],[33.0,34.75],[27.0,34.6],[26.0,34.8],[24.0,34.8],[23.0,35.0],[22.0,35.0],[19.0,35.599999999999994],[18.0,36.0],[16.0,36.5],[14.0,36.8],[12.833333333333332,36.83333333333333],[10.625,37.625],[8.846153846153847,38.84615384615385],[7.571428571428571,40.57142857142857],[6.800000000000001,42.0],[6.6000000000000005,43.0],[6.833333333333333,44.16666666666667],[8.0,47.0],[7.6,48.0],[6.0,49.4],[2.6470588235294117,51.64705882352941],[2.4000000000000004,52.0],[2.5,53.0],[4.0,54.5],[4.333333333333334,55.0],[4.4,57.0],[5.0,57.3],[8.0,58.0],[10.0,57.57142857142857],[10.296296296296294,57.29629629629629],[11.0,57.125]]],[[[161.75,-46.0],[161.40000000000003,-46.400000000000006],[161.0,-46.6],[160.0,-46.5],[158.5,-46.0],[157.33333333333334,-45.0],[158.0,-44.6],[159.0,-44.66666666666667],[160.33333333333331,-45.0],[161.0,-45.400000000000006],[161.24,-45.760000000000005],[161.75,-46.0]]],[[[96.66666666666667,-19.0],[96.75,-20.0],[96.20689655172413,-20.20689655172414],[95.25,-20.25],[93.92307692307692,-20.0],[93.56521739130434,-19.434782608695652],[92.5,-19.0],[92.375,-18.625],[91.80000000000001,-18.0],[92.0,-17.75],[93.0,-17.5],[94.15384615384616,-17.846153846153847],[94.75,-18.25],[96.28571428571428,-18.714285714285715],[96.66666666666667,-19.0]]],[[[85.16666666666667,-2.0],[85.0,-3.0],[85.0,-4.0],[85.51724137931035,-4.482758620689656],[86.0,-4.636363636363637],[92.26666666666668,-5.266666666666667],[94.78947368421052,-5.210526315789474],[96.0,-5.333333333333334],[98.11764705882354,-5.117647058823529],[104.83333333333334,-5.166666666666666],[107.0,-5.5],[108.0,-6.0],[108.75,-7.0],[109.0,-8.0],[108.69230769230771,-8.692307692307693],[108.23529411764706,-9.235294117647058],[106.0,-10.0],[103.0,-10.8],[101.13333333333334,-11.133333333333333],[96.0,-11.571428571428571],[95.0,-11.833333333333334],[91.84615384615385,-11.846153846153845],[88.0,-12.75],[86.0,-12.100000000000001],[85.0,-11.5],[84.76470588235294,-11.235294117647058],[84.2,-11.0],[84.14285714285714,-10.000000000000002],[83.9090909090909,-9.090909090909092],[83.0,-8.384615384615385],[81.44444444444444,-8.444444444444445],[79.5,-9.0],[75.0,-9.357142857142858],[72.66666666666667,-10.0],[70.26666666666667,-10.266666666666666],[68.66666666666667,-11.0],[67.0,-11.5],[66.0,-11.625],[65.0,-11.454545454545455],[63.6,-11.0],[63.0,-10.5],[62.457142857142856,-9.542857142857143],[61.833333333333336,-9.0],[61.56521739130435,-8.434782608695652],[61.0,-8.0],[60.315789473684205,-6.684210526315789],[59.470588235294116,-5.529411764705882],[59.0,-5.0],[58.22222222222222,-4.777777777777778],[56.78947368421052,-4.7894736842105265],[55.5,-5.0],[56.0,-6.0],[57.111111111111114,-6.888888888888889],[57.599999999999994,-8.0],[57.4,-8.4],[57.0,-8.75],[56.0,-9.0],[53.0,-8.571428571428571],[52.0,-8.25],[48.0,-7.666666666666667],[46.73913043478261,-7.260869565217392],[44.5,-7.0],[43.629629629629626,-6.37037037037037],[42.8,-6.0],[42.5,-5.0],[43.25,-4.0],[43.71428571428571,-3.7142857142857144],[44.0,-3.25],[44.5,-3.0],[47.5,-2.0],[49.0,-1.7142857142857144],[50.333333333333336,-1.0],[54.0,-0.1],[55.03508771929824,-0.03508771929824561],[57.0,-0.1794871794871795],[57.68421052631578,-0.3157894736842105],[59.375,-1.0],[59.74358974358974,-1.2564102564102564],[62.28070175438596,-1.719298245614035],[63.0,-1.8148148148148149],[66.0,-1.5098039215686274],[69.0,-1.7419354838709677],[70.55555555555556,-2.0],[72.0,-2.6153846153846154],[73.41666666666667,-2.416666666666667],[74.0,-2.166666666666667],[75.0,-2.5],[76.0,-2.5],[76.33333333333334,-2.0],[76.76470588235294,-1.7647058823529411],[79.71428571428571,-0.7142857142857142],[80.75,0.0],[83.0,0.6],[84.0,0.33333333333333337],[85.0,-0.75],[85.16666666666667,-2.0]]],[[[41.903225806451616,2.0],[41.0,1.2432432432432434],[39.80281690140845,0.8028169014084507],[38.74358974358974,0.7435897435897436],[37.833333333333336,1.0],[38.4375,1.5625],[38.58333333333333,2.0],[39.0,2.178571428571429],[39.81967213114754,3.180327868852459],[41.0,3.542857142857143],[42.29268292682927,3.2926829268292686],[42.46153846153846,3.0],[42.184615384615384,2.815384615384615],[41.903225806451616,2.0]]],[[[37.25,4.75],[37.0,4.375],[36.0,5.285714285714286],[35.5625,7.0],[35.77777777777778,8.0],[36.40740740740741,8.592592592592593],[37.0,8.827586206896552],[38.0,8.241379310344827],[38.42307692307692,7.0],[38.0,5.384615384615385],[37.25,4.75]]],[[[47.5,26.5],[46.66666666666667,26.0],[46.42857142857143,25.571428571428573],[45.833333333333336,25.0],[45.81818181818182,24.81818181818182],[46.28571428571428,24.285714285714285],[46.6,24.400000000000002],[47.0,24.333333333333336],[48.0,24.727272727272727],[48.705882352941174,25.294117647058822],[50.57142857142858,26.42857142857143],[51.0,27.0],[52.0,27.666666666666668],[53.0,27.428571428571427],[53.375,27.0],[53.83333333333333,26.0],[54.787234042553195,22.78723404255319],[55.12765957446808,20.872340425531917],[55.18181818181819,19.818181818181817],[55.0,16.5],[54.888888888888886,16.0],[54.46666666666667,15.0],[54.24561403508772,14.75438596491228],[54.0,14.0],[53.0,12.789473684210527],[52.0,11.823529411764707],[51.4375,11.5625],[51.0,11.0],[50.0,10.818181818181818],[47.0,10.866666666666667],[46.0,11.222222222222221],[44.13888888888889,12.13888888888889],[42.6,13.0],[41.81395348837209,13.813953488372093],[41.00000000000001,14.200000000000001],[38.0,15.125],[35.74074074074075,16.74074074074074],[35.0,17.5],[34.26666666666667,18.0],[33.736842105263165,18.736842105263158],[33.0,19.333333333333336],[32.0,19.857142857142858],[30.210526315789473,21.210526315789473],[28.75,22.0],[27.75,23.0],[28.0,23.200000000000003],[28.625,23.375],[30.0,23.4],[31.34782608695652,23.652173913043477],[32.0,24.0],[32.86363636363636,24.136363636363633],[33.583333333333336,24.416666666666668],[34.25,25.0],[36.0,25.285714285714285],[37.75,26.0],[38.74358974358974,26.256410256410255],[39.411764705882355,26.58823529411765],[39.875,27.0],[40.76744186046511,27.232558139534884],[41.42857142857143,27.571428571428573],[42.68627450980392,28.313725490196077],[43.54545454545455,29.0],[45.90625,30.09375],[49.0,31.0],[50.0,31.083333333333332],[50.83333333333333,30.0],[50.33333333333333,29.0],[49.51111111111111,28.48888888888889],[47.5,26.5]],[[43.10526315789473,23.89473684210526],[43.5,24.0],[43.0,24.125],[42.5,24.0],[43.10526315789473,23.89473684210526]]],[[[80.0,39.4],[82.0,39.66666666666667],[82.68421052631578,40.315789473684205],[83.0,40.42857142857143],[83.22857142857143,40.77142857142857],[84.5,41.0],[85.90243902439025,40.90243902439024],[86.54545454545455,40.54545454545455],[87.16666666666666,40.0],[86.71428571428572,39.0],[85.83333333333333,38.166666666666664],[84.0,37.666666666666664],[82.0,37.6],[79.0,37.857142857142854],[75.82857142857142,37.17142857142857],[73.10714285714286,36.89285714285714],[72.0,36.905660377358494],[71.03389830508475,37.03389830508474],[68.5,38.0],[70.0,39.0],[70.76470588235294,39.23529411764706],[71.35087719298245,39.64912280701754],[74.0,40.785714285714285],[76.0,41.25],[77.0,41.285714285714285],[78.0,41.0],[79.0,39.66666666666667],[80.0,39.4]]]]}}]}