{"type":"FeatureCollection","features":[{"type":"Feature","properties":{"ageMa":190},"geometry":{"type":"MultiPolygon","coordinates":[[[[-53.857142857142854,1.1428571428571428],[-53.55555555555555,0.5555555555555556],[-54.00000000000001,0.3333333333333333],[-54.02209944751381,0.9779005524861879],[-53.857142857142854,1.1428571428571428]]],[[[-67.83333333333334,5.0],[-67.31914893617021,5.319148936170214],[-66.82035928143712,5.179640718562874],[-66.0,5.1683168316831685],[-65.56410256410257,5.0],[-65.66990291262135,4.6699029126213585],[-66.0,4.37037037037037],[-67.0,4.464285714285714],[-67.2127659574468,4.787234042553191],[-67.83333333333334,5.0]]],[[[-69.57142857142857,6.0],[-69.15384615384616,6.153846153846153],[-68.9344262295082,6.065573770491803],[-68.12676056338029,6.126760563380282],[-67.859375,6.0],[-67.74285714285713,5.742857142857142],[-68.0,5.25],[-68.38297872340425,5.617021276595745],[-69.0650406504065,5.934959349593496],[-69.57142857142857,6.0]]],[[[-72.0,10.0],[-72.0,9.0],[-73.0,9.0],[-73.125,10.0],[-73.84615384615384,11.0],[-73.60000000000001,11.400000000000002],[-74.0,11.074074074074074],[-74.78125,12.0],[-74.7741935483871,12.225806451612904],[-75.125,13.0],[-75.0,14.0],[-74.37837837837839,13.621621621621623],[-74.0,13.681818181818183],[-73.68421052631578,12.684210526315788],[-73.49230769230769,11.507692307692308],[-73.0,11.255813953488373],[-72.78,11.0],[-72.68571428571428,10.685714285714285],[-72.88235294117646,10.117647058823529],[-72.0,10.0]]],[[[-81.37704918032786,37.62295081967213],[-82.18604651162791,38.0],[-82.30188679245283,38.301886792452834],[-82.2439024390244,38.75609756097561],[-83.02739726027397,39.02739726027397],[-83.0,40.0],[-82.04494382022473,40.04494382022472],[-81.8936170212766,39.1063829787234],[-81.1063829787234,39.1063829787234],[-79.904,38.096],[-79.77391304347826,36.77391304347826],[-80.0,36.51851851851852],[-80.20967741935485,36.79032258064516],[-81.02564102564102,36.97435897435898],[-81.37704918032786,37.62295081967213]]],[[[-62.599999999999994,44.0],[-62.800000000000004,45.0],[-62.55555555555555,46.44444444444444],[-63.0,47.0],[-61.0,47.0],[-61.0,45.0],[-60.400000000000006,44.6],[-60.25,44.0],[-60.5,43.5],[-61.0,43.0],[-62.4,43.60000000000001],[-62.599999999999994,44.0]]],[[[-84.17777777777778,48.82222222222222],[-84.0,48.55555555555556],[-83.88235294117648,48.11764705882353],[-83.90625,47.0],[-84.65161290322581,46.651612903225804],[-84.96629213483146,46.0],[-84.88,44.12],[-84.0,44.0],[-83.97435897435896,42.0],[-83.77358490566039,41.22641509433962],[-83.1081081081081,41.10810810810811],[-82.91752577319588,40.91752577319588],[-83.0,40.0],[-83.97260273972603,39.97260273972603],[-84.20338983050848,40.79661016949153],[-84.54545454545453,41.0],[-84.55555555555554,41.44444444444444],[-85.0,41.90909090909091],[-85.05217391304348,42.94782608695652],[-85.35294117647058,43.647058823529406],[-86.03846153846153,44.0],[-86.04651162790698,45.95348837209303],[-87.0,46.69230769230769],[-87.04395604395604,48.0],[-86.42857142857144,48.42857142857143],[-86.0,48.94736842105264],[-85.8,49.0],[-85.84615384615385,49.15384615384615],[-86.0,49.16666666666667],[-86.36666666666667,50.63333333333334],[-86.57894736842105,51.0],[-86.34920634920636,51.34920634920635],[-86.0,52.5],[-85.07692307692308,53.07692307692308],[-85.0,53.42857142857143],[-83.69696969696969,52.303030303030305],[-83.5,52.0],[-83.5,51.0],[-84.20689655172414,50.206896551724135],[-84.75,50.0],[-84.5,49.0],[-84.17777777777778,48.82222222222222]]],[[[-73.25,49.0],[-74.93939393939394,48.93939393939394],[-76.0,49.0],[-75.0,49.66666666666667],[-74.0,49.6],[-73.57142857142858,49.42857142857143],[-73.25,49.0]]],[[[-83.0,54.233333333333334],[-83.60869565217392,54.391304347826086],[-84.13333333333333,54.86666666666667],[-84.0,55.300000000000004],[-83.69565217391305,55.69565217391305],[-83.0,55.958333333333336],[-82.10000000000001,55.900000000000006],[-81.4,55.60000000000001],[-81.14285714285714,55.0],[-81.44444444444444,54.44444444444444],[-82.19999999999999,54.2],[-83.0,54.233333333333334]]],[[[-82.0,58.888888888888886],[-81.16666666666667,58.83333333333333],[-80.65217391304348,58.347826086956516],[-80.6,58.0],[-80.71428571428572,57.71428571428571],[-81.25806451612902,57.25806451612903],[-82.0,57.05882352941177],[-82.62962962962962,57.37037037037037],[-82.84210526315789,57.99999999999999],[-82.0,58.888888888888886]]],[[[-57.0,61.0],[-57.0,59.0],[-58.0,59.0],[-58.0,61.0],[-57.0,61.0]]],[[[-97.97619047619047,72.0],[-97.71875,71.28125],[-96.92307692307693,71.0],[-96.75,70.25],[-96.22222222222223,70.0],[-95.84313725490196,69.15686274509804],[-94.66666666666666,69.0],[-95.35294117647058,68.35294117647058],[-95.5,68.0],[-95.28571428571428,67.71428571428571],[-94.0,67.77777777777779],[-93.0,67.46153846153845],[-92.57575757575758,67.57575757575758],[-92.36363636363637,68.0],[-91.963133640553,68.036866359447],[-91.8048780487805,67.8048780487805],[-91.87878787878789,67.12121212121212],[-90.0,67.0],[-89.4,66.60000000000001],[-89.0,66.5],[-88.77777777777777,66.22222222222223],[-87.93333333333334,66.06666666666666],[-84.98113207547169,66.01886792452831],[-84.63265306122449,65.36734693877551],[-83.87692307692308,65.12307692307692],[-82.0,65.0],[-81.6734693877551,64.3265306122449],[-80.900826446281,64.09917355371901],[-77.95454545454545,64.0],[-77.75,63.25],[-77.3125,63.3125],[-76.8901098901099,63.10989010989011],[-76.14141414141415,63.141414141414145],[-75.58823529411765,63.0],[-75.81818181818181,62.0],[-76.0,61.69230769230769],[-76.66666666666667,61.66666666666667],[-77.0,61.333333333333336],[-77.4,61.400000000000006],[-78.0,61.0],[-79.0,61.0],[-80.33333333333334,60.333333333333336],[-81.0,60.2],[-81.33333333333334,60.333333333333336],[-81.75,60.25],[-81.75,60.75],[-81.93939393939394,61.06060606060606],[-83.0,61.5],[-84.0,61.57142857142857],[-84.06315789473683,61.93684210526315],[-85.0,62.0625],[-85.5,62.5],[-86.21476510067114,62.785234899328856],[-87.33333333333334,63.0],[-87.59090909090908,63.40909090909091],[-88.15384615384616,63.84615384615385],[-89.04,64.0],[-89.21052631578948,64.78947368421052],[-89.77049180327869,64.77049180327869],[-90.4375,65.0],[-90.60869565217392,65.3913043478261],[-91.0,65.64285714285714],[-91.11111111111111,65.88888888888889],[-92.0,66.0],[-92.71428571428571,66.28571428571428],[-93.0,66.25],[-93.36363636363636,66.63636363636364],[-93.56923076923077,66.56923076923077],[-95.08536585365854,66.91463414634146],[-98.0,67.0],[-98.54716981132076,67.45283018867924],[-99.26086956521739,67.73913043478261],[-100.11023622047244,67.88976377952756],[-105.18181818181819,68.0],[-106.0,68.36],[-106.28828828828829,68.71171171171171],[-106.88888888888887,69.0],[-106.72222222222221,70.0],[-106.4126984126984,70.4126984126984],[-106.16981132075472,71.16981132075472],[-105.5844155844156,71.58441558441558],[-105.44827586206897,72.0],[-105.19548872180451,72.19548872180451],[-103.59139784946237,72.59139784946237],[-103.0,73.12765957446808],[-101.0,73.03225806451613],[-99.16666666666667,73.16666666666667],[-99.0,73.33333333333333],[-98.60000000000001,73.4],[-98.0,73.0],[-97.97619047619047,72.0]]],[[[-112.36363636363637,69.63636363636364],[-113.0,69.86666666666667],[-114.0,70.0],[-111.24137931034483,70.24137931034483],[-109.81333333333333,70.18666666666667],[-109.62162162162161,70.0],[-109.67441860465117,69.67441860465117],[-111.60000000000001,69.6],[-112.0,68.98863636363636],[-112.36363636363637,69.63636363636364]]],[[[-125.83333333333333,70.0],[-119.0,70.29508196721312],[-115.625,70.0],[-119.0,69.7],[-121.0,69.87692307692308],[-123.0,69.81481481481481],[-125.83333333333333,70.0]]],[[[-161.0,73.10000000000001],[-163.0,73.36363636363636],[-170.25396825396825,72.74603174603175],[-170.89743589743588,72.8974358974359],[-171.1904761904762,72.80952380952381],[-172.0,72.88888888888889],[-172.6,73.4],[-173.375,73.625],[-173.6,74.0],[-173.42857142857144,74.42857142857143],[-172.8,74.8],[-172.85185185185185,75.14814814814815],[-173.0,75.25],[-174.5,75.0],[-174.75,74.75],[-175.5,74.5],[-177.0,74.33333333333334],[-177.66666666666666,74.0],[-178.0,73.66666666666666],[-178.6923076923077,74.3076923076923],[-179.0,75.0],[-180.0,75.14285714285714],[-180.0,84.0],[-179.0,84.0],[-179.0,85.0],[-178.16666666666666,85.16666666666667],[-178.0,86.0],[-178.1818181818182,86.81818181818181],[-179.0,86.89999999999999],[-179.6,86.60000000000001],[-180.0,86.0],[-180.0,88.0],[-179.85185185185185,87.14814814814815],[-179.0,87.02272727272728],[-177.0,87.0],[-177.0,86.0],[-176.125,86.125],[-175.0,86.0],[-165.5,86.0],[-165.5,85.0],[-165.33333333333334,84.66666666666667],[-165.0,84.5],[-164.6,84.60000000000001],[-164.0,85.0],[-153.97752808988764,85.02247191011236],[-153.0,85.0],[-152.0,84.5],[-151.77777777777777,84.22222222222223],[-147.04494382022472,84.04494382022472],[-139.66666666666666,84.0],[-139.28571428571428,83.71428571428571],[-139.0,83.66666666666667],[-138.68,83.32],[-137.86206896551724,83.13793103448276],[-131.0,83.0],[-130.64285714285714,82.35714285714286],[-129.83333333333331,82.16666666666667],[-128.8918918918919,82.10810810810811],[-127.0,82.3170731707317],[-126.0,82.16],[-122.85454545454544,82.14545454545456],[-122.0,82.0],[-121.60000000000001,81.4],[-120.78125,81.21875],[-116.0,81.15384615384615],[-115.0,81.0],[-114.64285714285714,80.35714285714286],[-114.0,80.21739130434783],[-109.94594594594595,80.05405405405406],[-109.75,79.75],[-110.0,79.0],[-109.19999999999999,79.2],[-108.0,79.0],[-105.5,79.0],[-105.5,78.0],[-107.0,78.0],[-107.71428571428571,77.71428571428571],[-107.83333333333333,77.0],[-109.95652173913044,76.95652173913044],[-110.0,76.66666666666666],[-110.44444444444443,76.44444444444444],[-110.66666666666667,76.0],[-111.04761904761905,76.04761904761905],[-111.04761904761905,76.95238095238096],[-113.96078431372548,76.96078431372548],[-114.18181818181819,76.81818181818181],[-114.81818181818183,76.81818181818181],[-114.81818181818183,76.18181818181819],[-114.97701149425288,75.97701149425286],[-123.0,76.0],[-122.52380952380952,75.47619047619047],[-122.54545454545453,75.0],[-123.0,74.86111111111111],[-124.0,75.0],[-125.94444444444446,74.94444444444444],[-126.0,74.0],[-127.0,74.0],[-127.0,73.0],[-127.7142857142857,72.71428571428571],[-127.63636363636364,72.36363636363636],[-127.81818181818181,71.81818181818181],[-128.0,71.41176470588235],[-128.28571428571428,71.28571428571428],[-128.46666666666667,71.0],[-128.54285714285714,70.54285714285714],[-129.0,70.11111111111111],[-130.0,70.0],[-131.0,70.0],[-131.04761904761904,70.95238095238095],[-131.76470588235296,71.23529411764706],[-132.0,71.5],[-132.05714285714285,72.0],[-132.0,72.4],[-131.7,73.0],[-130.64999999999998,73.35],[-130.33333333333334,73.33333333333334],[-130.06896551724137,74.0],[-130.1290322580645,74.87096774193549],[-131.0,75.0],[-131.5121951219512,75.48780487804878],[-132.17543859649123,75.82456140350877],[-134.0,75.85365853658536],[-134.68,75.68],[-135.0,74.92105263157895],[-137.75280898876406,74.75280898876406],[-142.0,74.86842105263158],[-142.29411764705884,75.0],[-142.51999999999998,75.48],[-143.17021276595744,75.82978723404256],[-147.0,75.8974358974359],[-150.0,75.65217391304348],[-151.0,75.8108108108108],[-151.64444444444445,75.64444444444445],[-152.0,74.95348837209302],[-155.0,75.0],[-154.8181818181818,74.18181818181819],[-154.92424242424244,73.92424242424242],[-156.0,74.0],[-156.83333333333331,73.83333333333333],[-157.0,73.0],[-158.25,73.0],[-160.0,73.35294117647058],[-161.0,73.10000000000001]],[[-171.66666666666669,83.66666666666667],[-171.5,84.0],[-171.66666666666669,84.33333333333334],[-172.0,84.5],[-172.33333333333334,84.33333333333334],[-172.5,84.0],[-172.33333333333334,83.66666666666667],[-172.0,83.5],[-171.66666666666669,83.66666666666667]]],[[[-179.0,90.0],[-179.0,89.0],[-180.0,89.0],[-180.0,90.0],[-179.0,90.0]]],[[[-4.0,-56.0],[-4.4,-55.400000000000006],[-4.5,-55.0],[-4.4,-54.6],[-3.75,-54.75],[-3.5,-55.0],[-3.5,-55.5],[-4.0,-56.0]]],[[[-3.5,25.5],[-4.333333333333334,25.333333333333336],[-5.692307692307693,25.30769230769231],[-7.0,25.4],[-7.428571428571429,25.571428571428573],[-7.75,26.0],[-7.315789473684211,26.31578947368421],[-4.733333333333333,26.733333333333334],[-4.0,27.0],[-3.0,27.0],[-3.0,26.0],[-3.5,25.5]]],[[[1.9375,27.0625],[2.0,27.5],[2.2857142857142856,27.285714285714285],[2.333333333333333,27.0],[2.0,26.833333333333332],[1.9375,27.0625]]],[[[5.333333333333334,46.0],[5.333333333333334,46.333333333333336],[4.666666666666667,46.66666666666667],[4.4,47.4],[3.75,47.25],[3.5,47.0],[3.4000000000000004,46.6],[3.0,46.0],[3.6000000000000005,45.6],[3.6923076923076925,43.69230769230769],[4.0,43.33333333333333],[4.285714285714286,43.28571428571428],[4.75,42.75],[5.0,42.0],[7.0,42.0],[7.0,41.0],[8.0,41.0],[8.0,40.0],[9.0,40.0],[9.0,38.0],[7.0,38.0],[6.333333333333334,37.66666666666667],[5.666666666666667,37.66666666666667],[5.0,38.0],[4.0,38.0],[3.0,38.25],[2.5,38.5],[2.25,39.0],[2.5,39.5],[3.166666666666667,39.83333333333333],[3.1818181818181817,40.18181818181818],[1.7142857142857142,40.285714285714285],[1.3333333333333333,39.66666666666667],[0.7142857142857142,39.28571428571428],[0.25,38.75],[-0.4,38.4],[-0.5384615384615385,37.53846153846155],[-1.0,37.25],[-1.3333333333333333,37.333333333333336],[-2.0,37.0],[-2.0,39.0],[-1.7777777777777777,39.77777777777777],[-2.0,41.0],[-1.0,41.0],[-0.18181818181818182,40.81818181818182],[0.0,40.66666666666667],[0.33333333333333337,40.66666666666667],[1.0,41.0],[0.18181818181818182,41.18181818181818],[-0.5,41.5],[-0.7777777777777778,42.22222222222223],[-0.8333333333333334,43.0],[-0.6666666666666667,45.0],[0.3333333333333333,46.0],[0.5555555555555556,46.44444444444444],[1.2000000000000002,46.8],[1.4000000000000001,47.4],[1.0,48.0],[1.6,47.6],[2.2222222222222223,47.77777777777778],[2.6,48.400000000000006],[3.0,48.66666666666667],[4.0,48.66666666666667],[4.5,48.5],[4.666666666666667,48.0],[4.6,47.6],[5.0,47.5],[6.6000000000000005,46.6],[7.0,46.0],[6.444444444444445,45.55555555555556],[5.6000000000000005,45.6],[5.333333333333334,46.0]]],[[[-30.0,43.0],[-31.0,44.0],[-31.0,45.0],[-30.0,45.0],[-29.5,44.0],[-29.6,43.60000000000001],[-30.0,43.0]]],[[[9.0,43.5],[8.666666666666668,43.66666666666667],[8.5,44.0],[8.666666666666668,44.333333333333336],[9.0,44.5],[9.5,44.5],[10.0,44.0],[9.5,43.5],[9.0,43.5]]],[[[-51.5,59.5],[-52.0,59.0],[-55.0,59.0],[-55.0,61.0],[-54.0,61.0],[-53.28571428571428,61.28571428571428],[-52.63636363636363,61.63636363636363],[-52.0,62.33333333333333],[-51.5,62.5],[-51.0,62.599999999999994],[-50.0,62.285714285714285],[-49.6,62.0],[-50.46153846153847,61.46153846153847],[-50.68421052631578,60.68421052631579],[-51.0,60.25],[-51.18181818181818,60.18181818181818],[-51.5,59.5]]],[[[0.6666666666666667,63.00000000000001],[0.0,62.333333333333336],[-0.4,62.4],[-1.0,62.0],[-1.0,63.0],[-0.4,63.400000000000006],[0.33333333333333337,63.333333333333336],[0.6666666666666667,63.00000000000001]]],[[[-2.2222222222222223,67.22222222222223],[-1.75,67.25],[-1.0,67.0],[-0.4444444444444444,66.55555555555556],[1.0,66.6],[1.4000000000000001,66.4],[1.6,66.0],[1.4285714285714286,65.57142857142857],[1.0,65.25],[-0.25,65.25],[-0.6666666666666666,65.0],[-1.2222222222222223,64.22222222222223],[-1.6923076923076925,64.3076923076923],[-2.8181818181818183,64.18181818181819],[-4.0,64.5],[-4.5,64.5],[-5.0,65.0],[-5.0,64.0],[-7.0,64.0],[-7.6,64.4],[-8.5,64.5],[-9.0,65.0],[-9.0,66.0],[-7.0,67.0],[-6.5,68.0],[-6.0,68.33333333333333],[-5.222222222222221,69.22222222222223],[-5.0,69.33333333333334],[-4.833333333333333,69.16666666666667],[-4.428571428571429,68.57142857142857],[-4.266666666666667,67.73333333333333],[-4.0,67.33333333333333],[-3.5,67.0],[-2.9130434782608696,66.91304347826087],[-2.5,67.0],[-2.2222222222222223,67.22222222222223]]],[[[-49.239999999999995,65.75999999999999],[-49.5,66.0],[-49.6,66.4],[-50.0,67.0],[-50.0,68.0],[-49.0,68.0],[-47.0,67.33333333333333],[-46.66666666666667,67.0],[-47.0,66.5],[-48.0,66.33333333333334],[-48.25,66.0],[-48.769230769230774,65.76923076923077],[-49.239999999999995,65.75999999999999]]],[[[0.6666666666666667,68.0],[0.36363636363636365,67.63636363636364],[-0.4,67.6],[-0.6666666666666667,68.0],[-0.47058823529411764,68.47058823529412],[0.0,68.80000000000001],[0.47058823529411764,68.47058823529412],[0.6666666666666667,68.0]]],[[[-20.0,74.15789473684211],[-19.27906976744186,74.27906976744185],[-19.0,75.02272727272727],[-15.127659574468085,75.12765957446808],[-14.25,75.25],[-14.029411764705882,76.02941176470588],[-12.931623931623932,76.06837606837607],[-12.483870967741936,75.51612903225806],[-11.454545454545453,75.0],[-11.53846153846154,74.53846153846155],[-12.0,74.0],[-11.333333333333334,71.66666666666667],[-11.0,71.33333333333333],[-10.75,70.75],[-10.75,70.25],[-10.0,70.0],[-10.0,69.0],[-12.0,69.0],[-12.0,68.0],[-16.0,68.0],[-16.0,69.0],[-17.0,69.0],[-17.0,66.0],[-27.0,66.0],[-27.6,66.4],[-28.0,66.5],[-30.0,66.5],[-31.0,66.0],[-32.30769230769231,66.6923076923077],[-32.4,67.0],[-32.15384615384615,67.15384615384616],[-31.0,67.5],[-29.0,67.2],[-28.285714285714285,67.28571428571428],[-26.30769230769231,68.3076923076923],[-26.080000000000002,69.08],[-25.444444444444443,69.44444444444444],[-25.0,70.33333333333333],[-24.6,70.60000000000001],[-24.000000000000004,70.80000000000001],[-23.0,70.66666666666667],[-22.0,71.0],[-24.75,71.25],[-25.75,72.0],[-28.444444444444443,73.55555555555554],[-29.0,74.0],[-20.0,74.15789473684211]],[[-21.0,70.5],[-19.6,70.4],[-19.285714285714285,69.71428571428572],[-18.666666666666668,69.66666666666667],[-18.0,70.0],[-17.5,71.0],[-18.0,71.25],[-19.0,71.0],[-20.0,71.2],[-21.0,71.2],[-22.0,71.0],[-21.0,70.5]],[[-24.2,69.2],[-24.333333333333332,69.0],[-24.2,68.8],[-24.0,68.75],[-23.666666666666664,69.0],[-24.2,69.2]]],[[[-7.0,72.125],[-6.0,72.18181818181819],[-5.555555555555555,72.44444444444444],[-5.0,72.0],[-5.5,71.0],[-6.0,70.66666666666666],[-6.199999999999999,70.80000000000001],[-6.538461538461538,71.46153846153847],[-7.25,72.0],[-7.0,72.125]]],[[[6.5,72.5],[6.0,72.5],[5.666666666666667,72.66666666666667],[5.666666666666667,73.33333333333334],[6.0,73.33333333333333],[6.153846153846153,73.15384615384616],[7.0,73.0],[6.5,72.5]]],[[[5.333333333333333,74.0],[5.333333333333334,73.66666666666667],[4.6,73.60000000000001],[4.0,74.0],[5.333333333333333,74.0]]],[[[-3.0,74.16666666666667],[-3.2,74.0],[-2.7777777777777777,73.77777777777777],[-2.2222222222222223,73.77777777777777],[-2.0,73.0],[-2.1818181818181817,72.18181818181819],[-3.0,71.75],[-4.0,72.0],[-5.0,72.0],[-5.4799999999999995,72.52],[-5.4,73.0],[-5.533333333333333,74.0],[-5.725490196078432,74.27450980392157],[-6.363636363636363,74.63636363636363],[-6.727272727272727,75.0],[-6.636363636363637,75.63636363636364],[-6.0,76.0],[-3.0,76.0],[-2.5,75.5],[-2.0,75.35294117647058],[-1.8333333333333333,75.16666666666667],[-1.0,75.0],[-1.0,74.0],[-1.7777777777777777,74.22222222222223],[-3.0,74.16666666666667]]],[[[37.0,-75.04347826086956],[36.0,-75.0],[38.13333333333333,-74.86666666666666],[38.5,-75.0],[37.0,-75.04347826086956]]],[[[30.71428571428571,-74.71428571428571],[31.22222222222222,-74.77777777777777],[31.5,-75.0],[30.0,-75.0],[30.71428571428571,-74.71428571428571]]],[[[10.666666666666668,-72.0],[10.714285714285715,-71.71428571428571],[11.0,-71.5],[11.181818181818182,-71.81818181818181],[11.5,-72.0],[10.666666666666668,-72.0]]],[[[-10.5,63.5],[-10.0,64.0],[-9.0,64.0],[-7.7142857142857135,63.71428571428571],[-7.0,64.0],[-7.0,63.0],[-4.0,63.0],[-3.5,62.5],[-3.5,62.0],[-3.25,61.75],[-2.0,62.0],[-1.0,62.0],[-0.25,61.75],[0.0,61.5],[0.19999999999999996,61.0],[1.4516129032258063,60.4516129032258],[1.9285714285714286,59.92857142857143],[3.0,60.0],[4.095238095238095,59.09523809523809],[4.6,57.6],[5.199999999999999,57.0],[5.0,56.0],[5.4,55.0],[4.888888888888889,54.111111111111114],[4.833333333333333,53.166666666666664],[4.5,52.0],[4.0,51.33333333333334],[3.625,50.375],[2.9215686274509802,50.07843137254902],[2.8095238095238093,49.80952380952381],[2.8823529411764706,49.11764705882353],[2.1904761904761907,49.19047619047619],[1.943661971830986,49.056338028169016],[1.84,48.839999999999996],[1.9047619047619047,48.0952380952381],[1.0,48.0],[0.9259259259259259,47.074074074074076],[-0.023255813953488358,47.02325581395348],[-0.09999999999999998,46.1],[-0.7857142857142857,46.214285714285715],[-1.065217391304348,46.06521739130435],[-1.0588235294117647,45.05882352941176],[-1.5,44.5],[-2.0,44.333333333333336],[-2.111111111111111,43.99999999999999],[-2.125,41.875],[-2.0,41.0],[-2.3333333333333335,39.66666666666667],[-2.0,39.0],[-3.0,39.0],[-3.0,37.0],[-2.0,37.0],[-2.0,36.0],[-1.0,35.0],[-1.0,34.0],[0.0,33.0],[-0.4,32.4],[-0.5,32.0],[-1.0,31.5],[-1.5,31.5],[-2.0,32.0],[-2.6,32.4],[-3.0,32.5],[-3.25,32.25],[-3.3333333333333335,31.66666666666667],[-3.0,31.0],[-4.0,30.5],[-5.7142857142857135,31.285714285714285],[-6.333333333333334,31.333333333333336],[-7.0,31.0],[-8.0,31.0],[-8.0,30.0],[-9.0,30.0],[-8.600000000000001,29.400000000000002],[-8.666666666666668,29.0],[-9.421052631578947,28.421052631578945],[-10.133333333333333,28.133333333333333],[-11.0,27.5],[-12.0,27.0],[-13.0,27.0],[-13.8,26.0],[-14.600000000000001,25.6],[-14.857142857142858,24.857142857142858],[-15.0,24.88888888888889],[-15.457142857142857,24.457142857142856],[-15.714285714285712,23.71428571428571],[-16.0,23.764705882352942],[-16.53846153846154,23.53846153846154],[-17.545454545454547,22.0],[-17.333333333333336,21.666666666666668],[-17.0,21.53846153846154],[-16.636363636363637,21.636363636363637],[-15.479999999999999,22.479999999999997],[-15.277777777777779,23.0],[-15.3125,23.3125],[-14.589743589743591,23.589743589743588],[-14.333333333333334,24.333333333333336],[-12.0,24.625],[-10.0,24.5],[-8.0,24.857142857142858],[-6.16,24.84],[-5.0,24.666666666666668],[-3.2222222222222223,24.77777777777778],[-3.0,24.666666666666668],[-2.0,24.833333333333336],[-1.0,24.666666666666668],[-0.5555555555555556,24.444444444444443],[-0.13793103448275862,23.862068965517242],[1.352941176470588,23.64705882352941],[1.7777777777777777,23.77777777777778],[2.5,23.0],[4.0,22.5],[5.0,22.5],[5.5,22.0],[5.866666666666666,21.866666666666667],[7.181818181818182,21.81818181818182],[8.0,22.0],[8.600000000000001,21.6],[9.375,21.375],[10.0,21.0],[10.916666666666668,19.916666666666668],[12.0,19.77777777777778],[12.378378378378379,19.37837837837838],[12.7,19.0],[12.684210526315788,18.684210526315788],[13.32,17.32],[14.0,16.833333333333336],[14.647058823529411,15.64705882352941],[15.0,15.4],[15.555555555555554,15.444444444444443],[16.0,15.666666666666668],[17.0,15.5],[17.25,16.0],[17.823529411764707,16.176470588235293],[19.0,16.0],[19.27906976744186,15.279069767441861],[20.065217391304348,15.065217391304348],[20.37837837837838,14.378378378378379],[22.071428571428573,14.0],[22.4,13.4],[24.8,12.8],[25.0,12.0],[26.0,12.0],[26.400000000000002,12.6],[27.0,13.0],[27.75,12.75],[30.0,12.5],[30.666666666666668,12.0],[31.0,11.0],[31.714285714285715,11.285714285714285],[32.18181818181818,11.181818181818182],[32.6,10.600000000000001],[33.142857142857146,10.142857142857142],[33.333333333333336,9.333333333333334],[34.0,9.0],[34.0,7.0],[35.0,7.0],[35.0,6.0],[36.0,5.0],[36.5,3.5],[37.0,3.0],[37.25,2.0],[37.33333333333333,1.0],[37.6,0.6000000000000001],[38.14285714285714,0.14285714285714285],[38.6,-2.0],[38.5,-3.0],[38.66666666666667,-4.0],[38.5,-5.0],[38.71428571428571,-6.285714285714285],[39.5,-8.0],[39.71428571428571,-8.285714285714285],[40.333333333333336,-8.666666666666668],[40.5,-9.0],[40.5,-10.0],[40.333333333333336,-10.333333333333334],[39.75,-10.75],[39.5,-11.5],[38.0,-12.0],[38.6,-12.4],[39.2,-12.2],[40.15384615384615,-12.153846153846153],[40.5,-12.0],[40.66666666666667,-11.666666666666668],[41.0,-11.5],[42.0,-11.5],[43.0,-11.333333333333334],[43.400000000000006,-11.400000000000002],[44.0,-11.0],[44.0,-12.0],[45.0,-12.5],[45.272727272727266,-13.272727272727273],[45.272727272727266,-13.727272727272727],[45.7,-14.3],[46.0,-14.428571428571427],[46.46153846153847,-15.53846153846154],[47.0,-15.9],[47.22222222222222,-16.77777777777778],[47.61538461538461,-17.384615384615383],[48.0,-17.625],[48.44444444444444,-18.555555555555554],[49.0,-18.8],[49.107142857142854,-19.0],[49.125,-19.875],[49.33333333333333,-20.0],[49.0,-20.5],[48.60000000000001,-20.6],[48.0,-21.0],[48.0,-22.0],[48.66666666666667,-23.333333333333336],[49.0,-23.5],[50.0,-23.0],[50.60000000000001,-23.400000000000002],[51.0,-24.0],[51.0,-26.0],[54.0,-26.0],[54.0,-25.0],[53.0,-25.0],[53.0,-24.0],[52.0,-24.0],[52.0,-23.0],[53.0,-22.8],[54.0,-23.0],[54.83333333333333,-22.833333333333332],[55.33333333333333,-23.0],[55.55555555555555,-23.444444444444443],[56.75,-24.25],[57.6,-24.400000000000002],[59.0,-24.25],[60.0,-25.0],[61.0,-25.166666666666668],[61.6,-25.400000000000002],[62.0,-26.0],[63.5,-26.5],[63.75,-27.0],[64.0,-27.166666666666664],[65.33333333333334,-27.000000000000004],[65.55555555555556,-26.555555555555554],[66.0,-26.333333333333336],[68.0,-26.333333333333336],[68.36363636363636,-26.636363636363637],[69.0,-26.75],[69.05797101449275,-26.942028985507246],[71.0,-27.0],[71.0,-28.0],[71.66666666666667,-27.666666666666668],[72.0,-27.75],[72.07407407407408,-27.925925925925924],[72.66666666666667,-28.0],[73.0,-28.333333333333336],[74.0,-28.0],[74.77777777777777,-29.22222222222222],[75.0,-29.333333333333336],[75.25,-29.25],[75.33333333333334,-29.0],[75.91836734693877,-28.918367346938773],[78.125,-29.0],[78.4,-29.6],[79.0,-29.777777777777775],[79.0701754385965,-29.92982456140351],[81.5,-30.0],[81.66666666666667,-30.333333333333336],[82.0,-30.5],[82.08695652173913,-30.91304347826087],[84.5,-31.0],[84.63636363636363,-31.363636363636363],[85.0,-31.5],[85.14814814814815,-31.85185185185185],[86.02702702702703,-31.972972972972972],[88.5,-32.0],[89.0,-32.25],[89.06666666666666,-32.93333333333334],[91.0,-33.0],[91.0,-34.0],[91.52380952380952,-34.476190476190474],[92.0,-34.625],[94.0,-34.5],[94.36363636363637,-34.36363636363636],[94.66666666666666,-34.0],[94.44444444444444,-33.55555555555555],[94.0,-33.2],[93.0,-33.0],[95.9327731092437,-32.9327731092437],[96.2051282051282,-32.794871794871796],[96.76744186046511,-32.76744186046511],[96.82857142857142,-32.17142857142857],[97.0,-31.930232558139537],[98.08000000000001,-32.0],[98.36363636363637,-32.63636363636364],[99.0,-32.79310344827586],[99.4864864864865,-33.513513513513516],[100.6923076923077,-34.0],[101.24000000000001,-34.76],[101.83050847457628,-34.83050847457627],[102.11111111111111,-35.0],[102.30769230769232,-35.69230769230769],[102.70833333333333,-35.70833333333333],[103.06698564593302,-35.933014354066984],[103.2,-36.2],[103.18181818181819,-36.81818181818182],[103.81818181818183,-36.81818181818182],[104.04819277108433,-36.95180722891566],[104.10204081632652,-37.89795918367347],[104.45454545454545,-38.0],[104.73333333333333,-39.266666666666666],[105.0,-39.666666666666664],[105.08695652173913,-40.086956521739125],[105.0,-41.0],[105.25,-42.0],[105.04255319148936,-42.04255319148936],[105.0,-43.15384615384616],[104.47619047619047,-43.47619047619047],[104.21428571428571,-44.0],[103.68421052631578,-44.315789473684205],[103.34782608695653,-44.34782608695652],[103.34782608695653,-44.65217391304348],[103.0,-45.16],[102.35714285714286,-45.357142857142854],[102.00000000000001,-46.66666666666667],[101.66666666666669,-47.0],[101.15686274509804,-47.15686274509804],[101.04109589041096,-50.041095890410965],[101.14545454545456,-52.85454545454546],[102.0,-52.91228070175438],[102.10526315789474,-53.10526315789474],[102.08791208791209,-53.91208791208791],[103.02264150943397,-53.97735849056603],[103.06593406593407,-54.934065934065934],[103.5,-55.0],[103.0,-55.75],[102.66666666666667,-56.0],[103.0,-56.25],[103.12765957446808,-56.87234042553192],[103.04195804195804,-58.04195804195805],[102.13333333333334,-58.13333333333333],[102.04379562043796,-59.043795620437955],[101.09756097560975,-59.09756097560976],[101.16326530612244,-59.83673469387755],[101.02409638554217,-61.02409638554217],[100.09523809523809,-61.095238095238095],[99.66666666666667,-61.33333333333334],[99.2,-61.2],[99.28571428571428,-61.71428571428571],[99.03738317757009,-62.03738317757009],[97.04545454545453,-62.04545454545455],[97.0,-63.013888888888886],[94.04761904761905,-63.04761904761905],[94.0,-64.02222222222223],[91.06666666666668,-64.06666666666666],[91.0,-65.01639344262296],[88.03773584905662,-65.0377358490566],[87.75,-65.25],[87.25,-65.25],[87.25,-65.75],[87.125,-66.0],[85.05555555555556,-66.05555555555556],[85.01587301587301,-67.01587301587301],[83.04545454545455,-67.04545454545455],[83.01492537313433,-68.01492537313433],[81.11111111111111,-68.11111111111111],[81.0144927536232,-70.01449275362319],[79.04651162790698,-70.04651162790698],[79.0,-71.02222222222223],[78.0,-71.0],[77.33333333333334,-71.33333333333334],[77.0,-72.0],[75.07692307692308,-72.07692307692308],[75.0,-73.02247191011236],[70.03174603174604,-73.03174603174604],[69.14634146341464,-73.14634146341464],[68.3913043478261,-73.3913043478261],[68.0,-74.06666666666666],[66.76699029126213,-74.23300970873787],[63.66942148760331,-74.3305785123967],[61.0,-74.14285714285714],[57.07272727272727,-74.07272727272728],[56.733333333333334,-74.26666666666667],[56.266666666666666,-74.26666666666667],[56.38709677419355,-74.61290322580645],[56.111111111111114,-75.11111111111111],[51.07692307692308,-75.07692307692308],[50.18518518518518,-75.18518518518519],[49.51111111111111,-75.5111111111111],[49.02020202020202,-76.02020202020202],[48.0,-76.02380952380952],[46.971428571428575,-76.0],[46.8,-75.2],[40.599999999999994,-75.0],[40.800000000000004,-74.0],[40.0,-73.6923076923077],[39.0,-73.6],[37.88235294117647,-73.11764705882354],[33.0,-73.0],[32.0,-72.66666666666667],[31.75,-72.25],[31.0,-72.15384615384615],[28.0,-72.19607843137254],[27.0,-72.0],[26.675675675675677,-71.32432432432432],[24.88135593220339,-71.11864406779661],[24.433962264150946,-70.56603773584905],[24.0,-70.41025641025641],[21.849056603773587,-70.15094339622641],[21.347826086956523,-69.65217391304348],[20.62222222222222,-69.37777777777778],[18.0,-69.07142857142857],[14.5,-69.0],[12.0,-68.48484848484848],[8.0,-68.26923076923077],[6.6000000000000005,-68.0],[6.0,-67.625],[5.7142857142857135,-67.28571428571428],[5.0,-67.0],[4.434782608695652,-66.56521739130434],[3.68,-66.32],[3.1,-65.9],[2.0,-65.76470588235294],[1.0588235294117647,-66.05882352941177],[0.0,-65.61538461538461],[-3.1728395061728394,-65.17283950617283],[-5.75,-65.0],[-6.727272727272727,-64.72727272727272],[-8.0,-64.6],[-9.0,-64.66666666666667],[-10.0,-64.42857142857143],[-11.0,-64.75],[-12.0,-64.6],[-12.16,-64.84],[-13.0,-65.0],[-14.27027027027027,-64.27027027027027],[-14.5,-64.0],[-14.714285714285715,-63.0],[-14.878787878787879,-62.878787878787875],[-16.0,-62.69230769230769],[-17.0,-62.75],[-17.636363636363637,-62.63636363636363],[-18.0,-62.33333333333333],[-18.210526315789473,-62.78947368421052],[-19.0,-63.0],[-20.0,-62.875],[-20.61904761904762,-62.61904761904761],[-21.0,-62.0],[-21.666666666666668,-61.66666666666667],[-22.0,-61.5625],[-23.0,-61.66666666666667],[-24.392857142857142,-60.39285714285714],[-24.723076923076924,-59.72307692307693],[-24.766666666666666,-58.766666666666666],[-25.0,-58.53333333333333],[-25.457142857142856,-58.457142857142856],[-25.8,-58.00000000000001],[-25.0,-57.11111111111111],[-24.5,-57.5],[-24.136363636363633,-58.13636363636363],[-23.10810810810811,-58.10810810810811],[-23.0,-59.0],[-22.232558139534884,-59.23255813953489],[-21.57142857142857,-60.0],[-21.22222222222222,-60.22222222222222],[-20.0,-60.28571428571429],[-19.115384615384617,-61.11538461538461],[-18.0,-61.900000000000006],[-16.0,-61.400000000000006],[-13.0,-60.407407407407405],[-8.0,-60.06666666666666],[-7.363636363636364,-59.63636363636364],[-7.0,-59.54545454545455],[-3.375,-59.625],[-2.6,-59.400000000000006],[-2.0,-59.0],[1.0,-59.0],[1.0,-58.0],[-1.0,-58.0],[-1.0,-57.0],[-3.0,-57.0],[-3.0,-56.0],[-2.3333333333333335,-55.66666666666667],[-2.0,-55.666666666666664],[-0.8,-55.2],[-0.75,-55.0],[-0.8571428571428572,-54.857142857142854],[-1.5,-54.5],[-2.0,-53.75],[-4.3076923076923075,-53.69230769230769],[-4.666666666666666,-54.0],[-4.6,-54.400000000000006],[-5.0,-54.5],[-6.6000000000000005,-53.60000000000001],[-7.0,-53.5],[-11.0,-53.5],[-12.285714285714285,-53.71428571428571],[-13.0,-54.0],[-14.0,-54.0],[-15.0,-53.5],[-15.5,-53.5],[-16.0,-53.0],[-17.0,-53.0],[-17.684210526315788,-52.68421052631578],[-18.0,-52.699999999999996],[-18.428571428571427,-53.0],[-18.52941176470588,-53.470588235294116],[-19.0,-53.800000000000004],[-20.0,-54.0],[-19.22222222222222,-54.22222222222222],[-17.0,-54.111111111111114],[-16.5,-54.5],[-16.46666666666667,-55.0],[-16.627906976744185,-55.372093023255815],[-17.0,-55.61538461538462],[-17.37037037037037,-55.629629629629626],[-18.88888888888889,-56.111111111111114],[-21.0,-56.0],[-21.666666666666668,-55.66666666666667],[-22.0,-55.66666666666667],[-22.5,-55.0],[-22.235294117647058,-54.76470588235294],[-22.0,-54.75],[-21.647058823529413,-54.35294117647059],[-21.65714285714286,-53.65714285714286],[-22.0,-53.25],[-23.0,-53.25],[-23.586206896551722,-54.41379310344828],[-25.0,-54.72727272727273],[-25.363636363636363,-54.36363636363637],[-26.375,-54.0],[-27.0,-53.28571428571429],[-27.25,-53.25],[-27.73913043478261,-52.73913043478261],[-28.52,-51.519999999999996],[-29.22222222222222,-51.22222222222223],[-29.46666666666667,-50.0],[-30.150000000000002,-49.15],[-30.3,-48.3],[-31.0,-48.0],[-30.81818181818182,-47.18181818181819],[-30.866666666666667,-46.13333333333334],[-31.11111111111111,-45.111111111111114],[-31.72222222222222,-44.72222222222223],[-32.03703703703704,-43.03703703703704],[-32.523809523809526,-42.0],[-32.786407766990294,-40.786407766990294],[-33.10752688172043,-40.10752688172043],[-33.43859649122807,-37.0],[-34.07179487179487,-35.07179487179487],[-34.349514563106794,-32.349514563106794],[-35.0,-31.105263157894736],[-35.53448275862069,-27.0],[-36.33532934131736,-24.33532934131736],[-36.64779874213837,-23.647798742138367],[-37.0,-23.263157894736842],[-37.327683615819204,-22.327683615819208],[-38.0,-21.723404255319146],[-38.69444444444444,-20.694444444444443],[-39.2568093385214,-20.2568093385214],[-39.654545454545456,-19.654545454545456],[-40.730232558139534,-18.730232558139534],[-43.0,-17.0],[-43.86666666666667,-15.866666666666667],[-44.81967213114754,-15.0],[-46.84905660377359,-12.0],[-47.18410041841004,-11.184100418410042],[-47.289855072463766,-10.28985507246377],[-47.476190476190474,-10.0],[-47.22222222222222,-7.0],[-47.674418604651166,-6.674418604651163],[-48.0,-6.674418604651162],[-49.45454545454545,-6.0],[-49.716981132075475,-4.716981132075472],[-50.42307692307693,-4.423076923076923],[-50.95652173913043,-4.0],[-52.0,-2.4000000000000004],[-52.42857142857143,-2.5714285714285716],[-53.0,-3.3333333333333335],[-53.23529411764706,-1.2352941176470589],[-53.5,-0.5],[-53.888888888888886,0.0],[-53.48484848484849,0.48484848484848486],[-53.0,0.4444444444444444],[-52.710144927536234,0.7101449275362319],[-52.705882352941174,1.0],[-53.0,1.5882352941176472],[-53.291666666666664,1.7083333333333333],[-53.542857142857144,3.0],[-53.55813953488372,4.0],[-53.9009900990099,5.099009900990099],[-54.31818181818181,5.681818181818182],[-54.77777777777778,6.0],[-55.0,6.5],[-55.27272727272727,10.0],[-55.25581395348837,12.0],[-55.45454545454545,13.545454545454545],[-55.73584905660377,14.264150943396226],[-56.0,14.538461538461538],[-56.375,15.625],[-56.6875,15.6875],[-57.04651162790698,15.953488372093023],[-57.19148936170213,17.0],[-58.068669527897,17.931330472103003],[-58.21978021978022,18.78021978021978],[-58.84782608695652,20.0],[-59.07575757575758,21.0],[-59.40983606557377,21.59016393442623],[-60.079295154185026,21.920704845814978],[-60.48484848484849,22.515151515151516],[-61.0,22.88135593220339],[-62.00000000000001,23.071428571428573],[-62.34437086092715,23.655629139072843],[-63.464285714285715,24.0],[-64.20833333333333,24.791666666666664],[-65.02631578947368,24.973684210526315],[-65.3030303030303,25.696969696969695],[-66.0,25.88235294117647],[-66.49180327868852,26.508196721311474],[-67.0,26.711538461538463],[-69.01913875598086,26.980861244019138],[-69.50793650793652,27.49206349206349],[-70.0,27.645833333333336],[-70.3953488372093,28.0],[-70.60902255639097,28.39097744360902],[-72.07920792079207,28.92079207920792],[-72.57541899441341,29.42458100558659],[-73.0,29.622950819672134],[-73.54330708661418,30.456692913385826],[-74.17391304347825,30.826086956521742],[-74.5478927203065,31.452107279693486],[-75.54166666666667,32.0],[-75.70860927152319,32.29139072847682],[-76.29508196721311,32.704918032786885],[-77.04964539007092,32.95035460992908],[-77.31654676258994,33.68345323741008],[-78.05668016194332,33.94331983805668],[-78.36363636363636,34.63636363636363],[-79.0,35.0],[-78.37894736842105,35.37894736842105],[-76.4074074074074,35.0],[-76.23157894736842,34.76842105263158],[-75.59663865546219,34.403361344537814],[-74.62962962962962,34.0],[-73.76470588235294,33.23529411764706],[-73.0,32.806451612903224],[-71.80530973451327,32.19469026548673],[-70.63636363636364,32.0],[-69.86407766990291,31.135922330097088],[-68.94174757281553,31.058252427184467],[-68.52380952380953,30.476190476190474],[-67.87234042553192,30.127659574468083],[-67.10000000000001,30.0],[-66.82300884955752,29.176991150442475],[-65.98484848484848,29.015151515151516],[-65.84126984126985,28.158730158730158],[-65.0,27.560000000000002],[-64.59183673469389,26.408163265306126],[-64.0,26.148936170212767],[-62.11111111111111,26.0],[-61.61038961038961,25.389610389610393],[-61.0,25.155555555555555],[-60.0,25.13888888888889],[-59.504,25.503999999999998],[-59.225,26.0],[-58.85714285714286,27.857142857142858],[-58.16666666666667,28.166666666666664],[-58.25,28.75],[-58.044444444444444,29.044444444444444],[-58.0,29.66666666666667],[-57.833333333333336,30.0],[-57.92857142857142,30.07142857142857],[-57.95454545454546,31.000000000000004],[-57.84615384615385,31.846153846153847],[-57.0,32.0],[-55.0,32.0],[-55.0,31.0],[-54.0,31.0],[-54.0,30.0],[-52.0,30.0],[-51.6,30.6],[-51.5,31.0],[-51.6,31.400000000000002],[-52.0,32.0],[-52.0,34.0],[-53.0,34.0],[-53.0,35.0],[-53.66666666666667,36.0],[-53.5,37.0],[-53.60000000000001,37.4],[-54.0,38.0],[-54.0,39.0],[-56.0,39.0],[-56.0,40.0],[-57.0,40.0],[-57.0,42.0],[-58.0,43.0],[-58.0,47.0],[-59.0,47.0],[-59.0,48.0],[-60.0,48.0],[-60.400000000000006,48.60000000000001],[-60.25,49.25],[-60.400000000000006,49.6],[-60.400000000000006,50.60000000000001],[-60.66666666666667,51.00000000000001],[-61.99999999999999,51.11111111111111],[-63.338461538461544,51.66153846153847],[-64.0,52.63636363636364],[-65.0,52.92307692307693],[-65.0909090909091,53.0],[-65.0,53.2],[-64.0,54.0],[-61.11382113821138,54.11382113821138],[-60.68888888888889,54.31111111111111],[-60.31111111111111,54.31111111111111],[-60.0,55.0],[-58.09090909090909,55.090909090909086],[-58.0,57.0],[-57.0,57.0],[-57.0,56.0],[-56.0,55.0],[-53.0,55.0],[-52.0,54.66666666666667],[-51.0,55.0],[-50.5,55.5],[-50.33333333333333,56.0],[-49.57142857142857,56.57142857142857],[-49.4,57.0],[-49.33333333333334,58.33333333333334],[-48.77777777777778,58.77777777777778],[-48.400000000000006,59.400000000000006],[-47.6,59.6],[-47.0,60.0],[-45.0,60.0],[-44.333333333333336,60.333333333333336],[-43.5,60.5],[-43.0,61.0],[-42.0,61.33333333333333],[-41.0,61.0],[-39.0,61.0],[-38.6,61.6],[-38.0,62.0],[-37.0,62.0],[-36.400000000000006,61.6],[-36.0,61.5],[-35.66666666666667,61.66666666666667],[-35.400000000000006,62.4],[-35.0,63.0],[-34.6,62.4],[-34.0,62.0],[-33.0,61.0],[-33.5,60.5],[-35.0,60.5],[-35.400000000000006,60.400000000000006],[-36.0,60.0],[-35.400000000000006,59.6],[-34.6,59.400000000000006],[-34.0,59.0],[-33.0,59.0],[-33.0,60.0],[-32.0,60.0],[-31.5,61.5],[-30.0,62.0],[-29.0,62.0],[-28.285714285714285,61.71428571428571],[-27.0,61.75],[-26.0,62.0],[-25.0,61.0],[-24.5,61.5],[-24.22222222222222,62.222222222222214],[-23.0,62.66666666666667],[-22.0,62.66666666666667],[-21.333333333333336,63.0],[-21.5,63.5],[-22.0,64.0],[-22.0,65.0],[-17.0,65.0],[-17.0,66.0],[-13.0,66.0],[-13.0,67.0],[-11.0,67.0],[-11.0,65.0],[-12.0,65.0],[-12.0,64.0],[-14.0,64.0],[-14.0,63.0],[-10.925925925925926,62.925925925925924],[-10.5,63.0],[-10.5,63.5]],[[37.66666666666667,-12.666666666666668],[37.333333333333336,-12.666666666666668],[36.84615384615385,-12.846153846153847],[36.75,-13.0],[36.6,-13.4],[37.0,-14.0],[37.4,-13.4],[38.0,-13.25],[38.25,-13.0],[38.4,-12.6],[38.0,-12.0],[37.66666666666667,-12.666666666666668]],[[36.400000000000006,-13.600000000000001],[35.84615384615385,-13.846153846153847],[35.77777777777778,-14.222222222222221],[37.0,-14.0],[36.400000000000006,-13.600000000000001]],[[54.0,-27.0],[55.0,-27.0],[55.0,-26.0],[54.0,-26.0],[54.0,-27.0]],[[-14.222222222222221,62.222222222222214],[-14.0,61.75],[-13.75,62.25],[-14.0,63.0],[-14.222222222222221,62.222222222222214]],[[2.0,-60.0],[3.0,-60.0],[3.0,-59.0],[2.0,-59.0],[2.0,-60.0]],[[-19.0,63.0],[-16.8,62.8],[-16.5,63.0],[-16.666666666666668,63.333333333333336],[-17.4,63.60000000000001],[-18.0,64.0],[-19.0,63.0]],[[-15.0,44.16666666666667],[-15.133333333333333,44.13333333333333],[-15.333333333333336,44.0],[-15.0,43.833333333333336],[-14.916666666666666,43.99999999999999],[-15.0,44.16666666666667]],[[6.0,-43.875],[5.666666666666666,-44.0],[5.75,-44.25],[6.285714285714285,-44.71428571428571],[6.2,-45.0],[6.578947368421051,-45.421052631578945],[7.0,-45.57142857142857],[7.112676056338028,-44.88732394366197],[7.0,-44.2],[6.7142857142857135,-44.285714285714285],[6.5,-44.0],[6.0,-43.875]],[[11.833333333333334,-22.166666666666668],[11.833333333333334,-22.833333333333332],[12.0,-23.5],[12.25,-23.0],[12.333333333333332,-22.0],[12.0,-21.5],[11.600000000000001,-21.4],[11.5,-21.0],[11.25,-20.75],[10.666666666666668,-20.666666666666668],[10.0,-21.0],[9.4,-20.6],[9.0,-20.5],[8.75,-21.0],[8.666666666666668,-22.0],[9.0,-22.285714285714285],[9.4,-22.4],[9.666666666666668,-22.333333333333336],[10.0,-23.0],[10.153846153846153,-22.153846153846153],[11.0,-22.0],[11.833333333333334,-22.166666666666668]],[[29.142857142857142,-18.0],[29.555555555555554,-18.444444444444443],[30.0,-18.545454545454547],[31.0,-18.333333333333336],[31.425531914893618,-18.574468085106382],[31.526315789473685,-19.0],[31.370370370370367,-20.37037037037037],[30.666666666666668,-21.0],[30.6,-21.6],[30.0,-21.857142857142858],[29.93103448275862,-22.06896551724138],[32.125,-22.125],[32.5,-22.0],[33.0,-21.5],[33.529411764705884,-20.52941176470588],[33.77777777777778,-19.0],[33.64285714285714,-18.0],[33.84615384615385,-17.0],[33.714285714285715,-16.714285714285715],[34.0,-16.0],[33.333333333333336,-16.333333333333336],[33.0,-16.214285714285715],[32.0,-16.555555555555557],[31.0,-16.666666666666668],[30.258064516129032,-17.258064516129032],[29.6,-17.4],[29.333333333333336,-17.333333333333336],[29.333333333333336,-17.666666666666668],[29.142857142857142,-18.0]],[[42.0,-34.33333333333333],[41.0,-34.4],[40.66666666666667,-34.66666666666667],[40.53846153846154,-35.0],[40.61290322580645,-35.38709677419355],[41.0,-35.66666666666667],[42.35294117647059,-35.647058823529406],[43.0,-36.333333333333336],[43.333333333333336,-36.333333333333336],[43.5,-35.0],[43.0,-34.875],[42.0,-34.33333333333333]],[[47.0,-31.0],[48.0,-31.0],[48.0,-30.0],[47.0,-30.0],[47.0,-31.0]],[[54.32,-61.32],[54.57142857142857,-61.0],[54.5,-60.0],[53.75,-60.0],[53.33333333333333,-61.0],[54.0,-61.36363636363637],[54.32,-61.32]],[[56.421052631578945,-36.421052631578945],[56.85714285714286,-36.0],[56.406779661016955,-35.59322033898305],[55.69620253164557,-35.69620253164557],[55.47826086956522,-36.0],[55.56363636363636,-36.43636363636364],[56.0,-36.6],[56.421052631578945,-36.421052631578945]],[[57.25,-34.75],[57.00000000000001,-34.66666666666667],[56.82456140350877,-34.82456140350877],[56.67741935483871,-35.32258064516129],[57.0,-35.714285714285715],[57.294117647058826,-35.0],[57.25,-34.75]],[[59.0,-32.66666666666667],[58.78947368421053,-33.0],[58.80952380952381,-33.19047619047619],[59.0,-33.25],[59.333333333333336,-33.0],[59.0,-32.66666666666667]],[[93.75,-44.0],[94.0,-44.333333333333336],[95.0,-44.0],[94.0,-43.800000000000004],[93.75,-44.0]],[[-51.0,4.363636363636363],[-51.17391304347826,4.0],[-51.0,3.7837837837837838],[-50.82222222222222,3.822222222222222],[-50.77142857142857,4.0],[-51.0,4.363636363636363]],[[-49.09090909090909,2.0],[-48.89473684210526,1.8947368421052633],[-48.84615384615385,2.0],[-49.0,2.090909090909091],[-49.09090909090909,2.0]],[[-40.55555555555556,8.444444444444445],[-40.0,8.23076923076923],[-39.63636363636363,8.636363636363637],[-39.5,9.0],[-39.70149253731343,9.298507462686567],[-40.0,9.434782608695652],[-40.37037037037037,9.37037037037037],[-40.71428571428571,9.0],[-40.55555555555556,8.444444444444445]],[[-32.0,41.0],[-31.6,41.6],[-31.0,42.0],[-30.0,43.0],[-29.0,42.0],[-28.444444444444443,42.44444444444444],[-27.6,42.6],[-27.285714285714285,43.28571428571428],[-26.666666666666668,43.66666666666667],[-26.66666666666667,44.0],[-26.444444444444443,44.444444444444436],[-25.666666666666668,45.0],[-25.6,45.4],[-26.333333333333336,45.66666666666667],[-26.714285714285715,46.28571428571428],[-27.18181818181818,46.18181818181819],[-27.75,45.75],[-28.25,45.75],[-29.0,46.0],[-29.53846153846154,46.46153846153847],[-30.0,46.6],[-30.5,46.5],[-32.0,46.0],[-32.71428571428571,44.71428571428571],[-33.44444444444444,44.444444444444436],[-33.714285714285715,43.71428571428571],[-34.0,43.5],[-34.2,43.0],[-34.0,42.5],[-33.6,42.4],[-33.0,42.0],[-32.0,41.0]],[[-26.5,59.0],[-27.0,59.5],[-27.4,59.400000000000006],[-27.5,59.0],[-27.285714285714285,58.71428571428571],[-26.8,58.8],[-26.5,59.0]],[[-25.714285714285715,49.285714285714285],[-26.0,49.25],[-26.166666666666668,49.0],[-26.0,48.75],[-25.714285714285715,48.71428571428571],[-25.0,49.0],[-25.714285714285715,49.285714285714285]],[[-24.6,48.400000000000006],[-24.400000000000002,47.6],[-24.0,47.0],[-23.6,47.6],[-23.5,48.0],[-23.5,49.0],[-23.75,49.25],[-24.333333333333336,49.33333333333334],[-25.0,49.0],[-24.6,48.400000000000006]],[[-25.400000000000002,46.400000000000006],[-25.5,46.0],[-25.400000000000002,45.6],[-25.0,45.66666666666667],[-24.0,45.5],[-23.6,46.0],[-23.6,46.400000000000006],[-24.0,47.0],[-25.400000000000002,46.400000000000006]],[[-22.142857142857142,57.0],[-22.000000000000004,56.83333333333333],[-21.0,57.0],[-22.000000000000004,57.166666666666664],[-22.142857142857142,57.0]],[[-23.764705882352942,12.764705882352942],[-24.3943661971831,12.3943661971831],[-24.560000000000002,12.0],[-24.482758620689655,11.517241379310345],[-23.555555555555557,10.444444444444443],[-23.0,10.421052631578949],[-22.560000000000002,10.56],[-22.266666666666666,11.0],[-22.0,13.0],[-21.23076923076923,13.23076923076923],[-21.0,13.600000000000001],[-20.714285714285715,13.714285714285714],[-20.266666666666666,14.266666666666666],[-20.11764705882353,15.117647058823529],[-19.6,15.600000000000001],[-19.5,16.0],[-20.0,17.0],[-20.5,16.5],[-21.258064516129032,16.258064516129032],[-21.870967741935484,14.870967741935484],[-22.5,14.5],[-22.714285714285715,14.0],[-22.70731707317073,13.707317073170731],[-23.34782608695652,13.347826086956522],[-23.764705882352942,12.764705882352942]],[[-18.589743589743588,20.410256410256412],[-19.0,20.666666666666668],[-19.727272727272727,20.0],[-19.666666666666668,19.333333333333336],[-19.333333333333336,19.0],[-19.5,18.0],[-19.285714285714285,17.714285714285715],[-18.833333333333332,17.833333333333336],[-18.875,19.0],[-18.384615384615383,20.0],[-18.589743589743588,20.410256410256412]],[[6.111111111111111,-47.0],[6.333333333333334,-47.333333333333336],[6.0,-48.0],[6.545454545454546,-47.54545454545455],[7.0,-47.61538461538461],[7.3478260869565215,-47.347826086956516],[7.444444444444445,-47.0],[7.0,-46.272727272727266],[6.461538461538462,-46.46153846153847],[6.111111111111111,-47.0]],[[10.0,-56.230769230769226],[11.0,-56.45454545454545],[11.454545454545453,-56.0],[11.0,-55.61538461538462],[10.0,-55.72727272727273],[9.57142857142857,-56.0],[10.0,-56.230769230769226]],[[10.625,-49.0],[11.0,-49.42857142857143],[11.206896551724139,-49.20689655172414],[11.75,-49.0],[11.214285714285715,-48.78571428571429],[11.000000000000002,-47.92307692307692],[10.666666666666668,-48.0],[10.625,-49.0]],[[16.11764705882353,-52.117647058823536],[16.333333333333336,-52.0],[16.0,-51.75],[15.0,-52.0],[16.11764705882353,-52.117647058823536]],[[20.0,-29.66666666666667],[19.913043478260867,-30.086956521739133],[20.0,-31.0],[20.333333333333336,-30.333333333333336],[20.25,-29.75],[20.0,-29.66666666666667]],[[20.200000000000003,-31.8],[20.0,-33.0],[20.0,-34.0],[19.444444444444443,-33.55555555555555],[19.0,-33.6],[18.375,-34.375],[18.0,-34.6],[16.666666666666668,-35.0],[16.333333333333332,-36.0],[16.833333333333332,-36.16666666666667],[18.0,-36.125],[19.0,-36.45454545454545],[19.357142857142858,-36.35714285714286],[19.727272727272727,-35.72727272727273],[20.400000000000002,-35.400000000000006],[20.625,-35.0],[20.571428571428573,-34.57142857142857],[21.0,-34.0],[22.0,-34.6],[22.148148148148145,-34.85185185185185],[23.0,-35.15384615384615],[24.333333333333336,-34.333333333333336],[24.44,-34.0],[24.3728813559322,-33.62711864406779],[24.0,-33.388888888888886],[22.842105263157894,-33.15789473684211],[22.52941176470588,-32.470588235294116],[21.862068965517242,-32.13793103448276],[21.0,-31.0],[20.0,-31.0],[20.200000000000003,-31.8]],[[20.8,-21.0],[21.0,-21.5],[22.0,-23.0],[23.0,-22.0],[23.352941176470587,-21.352941176470587],[23.57894736842105,-20.57894736842105],[24.181818181818183,-20.18181818181818],[25.0,-20.0],[26.0,-20.0],[26.0,-19.0],[26.400000000000002,-18.400000000000002],[26.0,-17.0],[25.6,-17.6],[25.400000000000002,-18.400000000000002],[25.0,-18.5],[24.0,-18.0],[22.0,-18.0],[21.0,-18.5],[20.81818181818182,-18.818181818181817],[20.77777777777778,-19.77777777777778],[20.666666666666668,-20.0],[20.8,-21.0]],[[27.714285714285715,-21.0],[28.0,-21.666666666666668],[28.285714285714285,-21.0],[28.333333333333336,-20.0],[28.0,-19.0],[27.555555555555554,-19.555555555555554],[27.714285714285715,-21.0]],[[35.22222222222222,-14.777777777777779],[34.888888888888886,-14.888888888888888],[34.857142857142854,-15.142857142857142],[35.13333333333333,-15.133333333333333],[35.25,-15.0],[35.22222222222222,-14.777777777777779]],[[36.239999999999995,-59.760000000000005],[37.0,-60.166666666666664],[40.0,-60.125],[41.0,-60.375],[41.47619047619047,-60.52380952380952],[41.833333333333336,-61.0],[42.0,-61.5],[43.0,-61.400000000000006],[43.400000000000006,-61.6],[43.90909090909091,-62.09090909090909],[46.0,-62.0],[45.6,-62.6],[45.66666666666667,-63.00000000000001],[45.888888888888886,-63.111111111111114],[46.0,-63.5],[46.400000000000006,-63.60000000000001],[47.0,-64.0],[47.4,-63.400000000000006],[48.5,-63.0],[49.0,-62.5],[49.2,-62.8],[49.66666666666667,-62.66666666666667],[50.0,-62.75],[50.48648648648649,-62.48648648648649],[50.64285714285714,-62.0],[50.45,-61.550000000000004],[50.0,-61.25],[49.7,-61.3],[49.25,-61.0],[49.5,-60.5],[51.0,-60.28571428571429],[52.0,-60.0],[50.0,-59.77777777777777],[49.0,-60.0],[48.66666666666667,-60.66666666666667],[48.45454545454545,-60.54545454545455],[45.09090909090909,-60.90909090909091],[44.51515151515152,-60.48484848484849],[44.25641025641025,-59.74358974358974],[44.0,-59.375],[43.7,-59.3],[43.66666666666667,-59.0],[43.272727272727266,-58.72727272727272],[42.6,-58.60000000000001],[42.333333333333336,-58.66666666666667],[42.0,-58.4],[41.55555555555555,-58.44444444444444],[41.0,-58.0],[41.0,-59.0],[35.21818181818182,-58.78181818181818],[34.0,-59.0],[34.400000000000006,-59.6],[35.0,-59.75],[36.239999999999995,-59.760000000000005]],[[44.66666666666667,-35.66666666666667],[44.0,-36.66666666666667],[43.66666666666667,-36.66666666666667],[43.66666666666667,-37.0],[45.17142857142857,-37.17142857142857],[45.46153846153846,-36.46153846153846],[46.0,-36.0],[45.0,-35.66666666666667],[44.66666666666667,-35.66666666666667]],[[47.0,-37.0],[48.0,-37.25],[49.44444444444444,-37.44444444444444],[50.0,-37.0],[48.18181818181819,-35.81818181818182],[47.0,-35.46666666666667],[46.58974358974359,-35.58974358974359],[46.0,-36.0],[47.0,-37.0]],[[49.66666666666667,-37.66666666666667],[50.0,-38.16666666666667],[50.333333333333336,-38.0],[50.166666666666664,-37.833333333333336],[50.0,-37.0],[49.66666666666667,-37.66666666666667]],[[-36.0,13.846153846153847],[-35.42622950819673,14.426229508196723],[-34.0,14.36111111111111],[-33.505376344086024,14.505376344086022],[-32.94117647058823,15.0],[-33.52577319587628,15.47422680412371],[-34.0,15.605263157894736],[-35.0,15.617647058823529],[-35.46666666666667,15.466666666666667],[-35.95454545454545,15.0],[-35.84615384615385,14.846153846153847],[-36.333333333333336,14.333333333333334],[-37.25,14.25],[-38.0,14.4],[-39.0,14.0],[-38.333333333333336,13.666666666666668],[-37.0,13.88235294117647],[-36.0,13.846153846153847]],[[-30.53846153846154,13.538461538461538],[-31.0,14.299999999999999],[-32.06666666666666,14.066666666666666],[-32.03703703703704,13.962962962962964],[-31.166666666666664,13.833333333333332],[-30.53846153846154,13.538461538461538]],[[-28.565217391304344,8.565217391304348],[-28.071428571428573,10.071428571428571],[-28.0,11.0],[-28.476190476190474,11.523809523809524],[-29.133333333333333,11.866666666666667],[-29.272727272727273,13.0],[-29.612903225806452,13.387096774193548],[-30.0,13.533333333333333],[-30.49484536082474,13.494845360824742],[-30.774193548387096,13.0],[-30.411764705882355,11.0],[-31.692307692307693,10.0],[-31.5,9.5],[-30.296296296296294,8.703703703703702],[-29.0,8.333333333333334],[-28.565217391304344,8.565217391304348]],[[-27.714285714285715,58.28571428571428],[-28.0,58.5],[-28.285714285714285,58.28571428571428],[-28.333333333333336,58.0],[-28.18181818181818,57.81818181818181],[-27.857142857142858,57.85714285714286],[-27.714285714285715,58.28571428571428]],[[-24.000000000000004,8.200000000000001],[-24.15,8.0],[-24.0,7.769230769230768],[-23.666666666666664,8.0],[-23.806451612903224,8.193548387096774],[-24.000000000000004,8.200000000000001]],[[-23.28571428571429,-51.0],[-23.0,-51.25],[-22.5,-51.0],[-23.0,-50.77777777777777],[-23.28571428571429,-51.0]],[[5.0,-53.0],[6.0,-53.0],[6.352941176470588,-52.35294117647059],[6.0,-51.66666666666667],[5.666666666666667,-51.66666666666667],[5.25,-52.0],[5.333333333333334,-52.33333333333334],[5.0,-53.0]],[[6.857142857142857,-53.142857142857146],[7.666666666666666,-53.0],[6.6923076923076925,-52.69230769230769],[6.0,-53.0],[6.857142857142857,-53.142857142857146]],[[8.875,-52.125],[9.0,-52.2],[9.2,-52.0],[9.0,-51.92857142857143],[8.875,-52.125]],[[14.333333333333334,-60.333333333333336],[14.400000000000002,-60.60000000000001],[14.285714285714285,-61.0],[14.583333333333334,-61.416666666666664],[15.0,-61.55555555555556],[15.454545454545453,-61.0],[15.5,-60.5],[16.0,-60.142857142857146],[16.11764705882353,-59.882352941176464],[16.0,-59.8],[15.0,-60.0],[14.333333333333334,-60.333333333333336]],[[18.6,-66.0],[19.0,-66.33333333333334],[19.5,-66.0],[19.0,-65.89473684210526],[18.6,-66.0]],[[19.6,-54.0],[20.0,-54.33333333333334],[21.3,-54.3],[22.11111111111111,-54.111111111111114],[22.111111111111107,-54.0],[20.0,-53.5],[19.666666666666668,-53.66666666666667],[19.6,-54.0]],[[24.57142857142857,-55.0],[24.258064516129032,-54.74193548387097],[23.75,-54.75],[23.200000000000003,-55.0],[24.0,-55.333333333333336],[24.296296296296294,-55.29629629629629],[24.57142857142857,-55.0]],[[27.555555555555554,-60.55555555555555],[27.333333333333336,-61.0],[28.25,-61.25],[29.285714285714285,-61.28571428571428],[31.0,-60.0],[29.0,-59.82608695652174],[27.583333333333332,-59.99999999999999],[27.555555555555554,-60.55555555555555]],[[39.0,-64.0],[38.4,-63.60000000000001],[38.25,-62.75],[37.0,-62.33333333333333],[35.0,-62.4],[33.78947368421053,-62.78947368421052],[33.6,-63.0],[34.285714285714285,-63.71428571428571],[34.61904761904762,-64.38095238095238],[35.421052631578945,-64.57894736842104],[36.0,-65.0],[37.0,-64.0],[37.77777777777777,-64.22222222222223],[39.0,-64.0]],[[48.14285714285714,-71.85714285714286],[48.0,-71.66666666666667],[47.69230769230769,-71.6923076923077],[47.5,-72.0],[48.00000000000001,-72.2],[48.14814814814815,-72.14814814814815],[48.14285714285714,-71.85714285714286]],[[48.875,-40.0],[49.0,-40.142857142857146],[49.16666666666667,-40.0],[49.0,-39.8],[48.875,-40.0]],[[-33.0,10.625],[-34.26470588235294,10.264705882352942],[-34.5,10.0],[-34.45,9.55],[-34.0,9.181818181818182],[-33.0,9.117647058823529],[-32.733333333333334,9.266666666666666],[-32.266666666666666,9.266666666666666],[-32.34782608695652,9.652173913043478],[-32.21052631578947,10.0],[-32.57746478873239,10.422535211267606],[-33.0,10.625]],[[22.25,-65.75],[20.666666666666668,-66.0],[22.333333333333336,-66.66666666666667],[22.384615384615387,-67.0],[23.0,-67.42105263157895],[23.421052631578945,-67.0],[23.000000000000004,-65.80000000000001],[22.25,-65.75]],[[22.444444444444443,-64.0],[23.0,-64.38461538461539],[24.0,-64.0],[23.0,-63.61538461538462],[22.444444444444443,-64.0]]],[[[139.42857142857144,18.42857142857143],[139.33333333333331,18.0],[139.06451612903226,17.935483870967744],[139.0079051383399,16.992094861660078],[138.06521739130434,16.934782608695652],[138.0,16.0],[137.15,15.85],[137.0,15.0],[136.0,15.0],[135.68421052631578,15.684210526315788],[135.76923076923077,16.0],[135.94285714285715,16.057142857142857],[135.99221789883268,17.007782101167315],[136.93258426966293,17.06741573033708],[137.0,17.75],[137.33333333333334,18.0],[137.9310344827586,18.06896551724138],[138.0,19.0],[138.96774193548387,19.032258064516128],[139.0,20.0],[139.8918918918919,20.10810810810811],[139.8918918918919,20.89189189189189],[140.0,21.05128205128205],[140.9,21.1],[141.0,22.11111111111111],[141.16666666666666,22.0],[141.1818181818182,21.0],[141.05797101449275,20.942028985507246],[141.0,20.0],[140.15384615384616,19.846153846153847],[140.0,19.0],[139.33333333333334,18.666666666666668],[139.42857142857144,18.42857142857143]]],[[[78.0,21.0],[85.0,21.0],[85.125,20.125],[85.03636363636363,19.963636363636365],[84.14925373134328,19.850746268656717],[83.45454545454545,19.545454545454547],[83.0576923076923,18.942307692307693],[81.18181818181819,18.818181818181817],[81.0,18.6],[78.87096774193549,18.870967741935484],[73.01538461538462,18.984615384615385],[70.80451127819549,19.804511278195488],[67.93777777777778,19.937777777777775],[67.5609756097561,20.5609756097561],[66.83177570093457,20.83177570093458],[64.94618834080718,20.946188340807172],[64.76,21.240000000000002],[65.0,22.0],[65.0,23.0],[67.0,23.0],[67.0,24.0],[70.0,24.0],[70.0,23.0],[71.0,23.0],[71.0,22.0],[73.0,22.0],[73.0,21.0],[77.0,21.0],[77.0,20.0],[78.0,20.0],[78.0,21.0]]],[[[84.0,27.0],[86.0,27.0],[86.0,25.0],[84.0,25.0],[84.0,27.0]]],[[[55.5,27.0],[56.0,27.5],[57.0,27.0],[56.400000000000006,26.6],[56.0,26.5],[55.5,27.0]]],[[[53.5,31.5],[53.5,30.0],[52.0,29.285714285714285],[50.57142857142858,29.42857142857143],[50.0,28.8],[49.875,28.875],[49.81818181818181,29.18181818181818],[50.0,30.0],[49.2,31.0],[49.285714285714285,31.285714285714285],[49.0,32.0],[52.0,32.0],[51.55555555555556,31.444444444444443],[51.6,31.0],[51.77777777777778,30.77777777777778],[52.285714285714285,30.71428571428571],[52.5,31.0],[52.5,31.5],[53.0,32.0],[53.5,31.5]]],[[[41.72972972972973,36.729729729729726],[42.0,37.256410256410255],[43.0,37.0],[43.0,36.0],[42.0,36.0],[41.72972972972973,36.729729729729726]]],[[[65.0,28.0],[64.5,28.5],[64.5,29.5],[65.0,30.0],[62.0,30.0],[62.0,32.0],[63.0,32.0],[63.0,34.0],[65.0909090909091,34.09090909090909],[65.58823529411765,33.588235294117645],[66.31884057971014,33.31884057971014],[68.0,33.125],[73.0,33.0],[73.0,32.0],[75.0,32.0],[75.0,33.0],[78.0,33.0],[78.0,34.0],[80.0,34.0],[80.71428571428572,34.285714285714285],[81.0,34.2],[82.0,34.6],[83.0,34.55555555555556],[84.12121212121212,34.121212121212125],[87.0,34.0],[88.0,33.5],[88.07142857142858,33.07142857142857],[91.0,33.0],[91.77777777777777,32.77777777777778],[92.0,32.5],[92.04255319148936,32.04255319148936],[94.0,32.0],[94.04347826086956,31.043478260869563],[95.02702702702703,31.0],[95.05263157894737,30.052631578947366],[96.83333333333333,29.833333333333336],[97.0,29.0],[97.73333333333333,28.733333333333334],[97.9,27.900000000000002],[99.0,27.0],[99.12765957446808,26.127659574468083],[100.0,26.0],[100.6530612244898,24.653061224489797],[101.0,24.46875],[101.48387096774195,24.483870967741936],[102.0,23.833333333333332],[102.15384615384616,24.153846153846153],[102.0,24.5],[101.66666666666667,24.666666666666668],[101.96,25.04],[102.0,27.0],[101.0,27.0],[100.9090909090909,28.09090909090909],[101.0,29.0],[100.0,29.0],[100.0,30.0],[99.0,31.0],[98.75,31.75],[98.0,31.857142857142858],[97.92,32.92],[97.00000000000001,33.142857142857146],[96.85542168674698,33.855421686746986],[96.42553191489361,34.42553191489362],[95.74193548387098,34.74193548387097],[94.57142857142858,35.0],[93.62637362637363,35.62637362637363],[92.21428571428571,36.0],[91.5909090909091,36.590909090909086],[90.4,37.0],[89.61290322580643,37.61290322580645],[88.85185185185185,37.85185185185185],[88.46428571428572,38.464285714285715],[88.0,38.72222222222222],[87.0,38.839999999999996],[86.49425287356323,39.49425287356322],[86.0,39.78181818181818],[85.0,39.95652173913043],[75.9493670886076,39.949367088607595],[75.0,39.77358490566038],[73.0,38.81132075471698],[70.0,38.50909090909091],[69.6241610738255,38.375838926174495],[69.12587412587412,37.87412587412587],[68.0,37.84444444444444],[67.41975308641975,37.58024691358025],[67.0,36.97777777777778],[60.0,37.0],[58.9047619047619,36.904761904761905],[58.0,37.15384615384615],[53.88235294117647,37.11764705882353],[53.75,37.0],[53.75,36.75],[54.00000000000001,36.66666666666667],[54.125,36.875],[54.75,36.75],[55.16216216216216,36.83783783783784],[56.71428571428571,36.714285714285715],[57.0,36.333333333333336],[57.99999999999999,35.888888888888886],[58.31999999999999,35.32],[60.0,35.0],[60.0,34.0],[59.0,34.0],[59.0,33.0],[58.0,33.0],[58.0,32.0],[57.6,31.400000000000002],[56.68421052631579,31.315789473684212],[56.0,30.714285714285715],[55.0,31.0],[55.0,33.0],[56.0,33.0],[56.0,34.0],[54.0,34.0],[54.0,35.0],[53.0,35.0],[53.0,36.0],[52.25,37.0],[52.75,38.0],[52.08571428571429,38.08571428571429],[50.0,38.0],[49.644444444444446,38.644444444444446],[49.0,39.0],[47.900000000000006,38.9],[47.29787234042553,39.29787234042553],[46.526881720430104,39.526881720430104],[44.69230769230769,39.69230769230769],[43.57142857142857,40.0],[43.24242424242424,40.24242424242424],[42.0,40.69230769230769],[41.22222222222222,40.77777777777778],[40.0,40.81818181818182],[39.400000000000006,40.6],[39.01960784313725,39.98039215686274],[34.103448275862064,39.89655172413793],[33.66666666666667,39.66666666666667],[33.285714285714285,39.71428571428571],[33.0,39.0],[31.0,39.0],[30.400000000000002,38.6],[29.6,38.4],[29.0,38.0],[27.5,38.0],[27.333333333333336,38.333333333333336],[27.0,38.5],[26.6,38.4],[26.0,38.0],[25.0,39.0],[25.0,40.0],[24.0,40.0],[24.0,38.0],[19.0,38.0],[19.0,37.0],[18.0,37.0],[17.0,36.333333333333336],[16.0,36.333333333333336],[15.470588235294118,35.529411764705884],[15.0,35.2],[14.0,35.0],[13.0,34.333333333333336],[12.75,34.0],[12.555555555555555,32.44444444444444],[11.931034482758621,32.06896551724138],[11.5,32.0],[11.600000000000001,31.6],[12.0,31.0],[12.0,30.0],[11.0,30.0],[10.833333333333334,30.833333333333332],[9.0,31.0],[8.600000000000001,31.6],[8.0,32.0],[7.7894736842105265,31.210526315789473],[8.0,30.5],[8.266666666666666,30.266666666666666],[8.428571428571429,29.0],[9.35,28.35],[9.38888888888889,28.0],[9.264150943396228,27.735849056603772],[8.0,27.285714285714285],[7.68,27.32],[7.173913043478261,26.826086956521742],[7.0,26.81818181818182],[6.800000000000001,27.2],[6.875,27.875],[6.0,28.0],[6.222222222222222,28.77777777777778],[5.999999999999999,29.18181818181818],[5.0,29.4375],[4.0,29.352941176470587],[3.5,29.5],[3.0,30.599999999999998],[2.0,30.57142857142857],[1.8909090909090909,31.10909090909091],[2.0,31.428571428571427],[2.380952380952381,31.61904761904762],[2.7333333333333334,32.266666666666666],[2.8709677419354835,33.12903225806451],[3.0,33.285714285714285],[3.2105263157894735,33.21052631578947],[3.2857142857142856,33.0],[3.6774193548387095,32.67741935483871],[5.925925925925926,32.925925925925924],[6.153846153846153,32.84615384615385],[6.5,33.0],[6.333333333333334,33.333333333333336],[5.75,33.75],[5.0,34.0],[4.6,34.6],[3.8461538461538463,34.84615384615385],[3.6666666666666665,35.0],[3.75,35.25],[4.0,35.5],[5.0,35.5],[5.333333333333334,35.66666666666667],[5.333333333333334,36.0],[5.6000000000000005,36.400000000000006],[7.0,36.5],[8.0,37.0],[10.0,37.0],[9.666666666666668,36.333333333333336],[9.818181818181818,35.81818181818182],[10.0,35.75],[12.25,35.75],[13.0,36.0],[13.25,36.75],[14.0,37.0],[13.0,37.25],[12.0,37.16666666666667],[11.285714285714285,37.285714285714285],[11.0,38.0],[11.25,39.0],[11.142857142857142,40.00000000000001],[11.25,40.25],[11.0,41.0],[11.75,40.75],[13.0,41.0],[14.0,41.0],[14.0,42.0],[12.0,42.0],[12.0,43.0],[11.0,43.0],[11.0,44.0],[10.0,44.0],[10.0,46.0],[9.2,46.2],[8.0,46.0],[7.0,46.0],[7.285714285714286,46.71428571428571],[7.200000000000001,47.0],[6.666666666666667,47.333333333333336],[6.0,47.0],[6.428571428571429,47.57142857142857],[6.333333333333333,48.0],[6.0,48.5],[5.538461538461539,48.53846153846154],[5.0,49.0],[5.25,50.0],[6.0,50.75],[6.266666666666667,51.733333333333334],[7.0,52.25],[7.375,53.0],[7.434782608695651,55.43478260869565],[7.285714285714286,55.71428571428571],[7.5,56.0],[7.333333333333334,57.333333333333336],[7.571428571428571,59.0],[7.684210526315789,59.315789473684205],[8.0,59.5],[8.619047619047619,60.38095238095238],[9.5,61.0],[9.68421052631579,61.315789473684205],[10.333333333333334,61.66666666666667],[12.666666666666666,62.0],[13.0,62.25],[14.0,62.57142857142857],[14.444444444444443,62.444444444444436],[15.0,61.900000000000006],[15.5,62.0],[15.666666666666668,63.0],[15.846153846153847,63.15384615384615],[18.0,63.333333333333336],[18.470588235294116,63.529411764705884],[19.0,64.0],[18.57894736842105,64.57894736842104],[18.333333333333336,65.33333333333334],[17.5,66.0],[17.5,67.0],[16.529411764705884,67.52941176470588],[16.142857142857142,68.14285714285714],[15.25,69.0],[15.0,70.0],[12.0,71.0],[11.0,70.75],[9.166666666666668,71.16666666666666],[8.0,71.6],[7.0,72.0],[7.0,73.0],[8.857142857142858,74.0],[9.924528301886792,74.0754716981132],[10.333333333333334,74.33333333333334],[10.666666666666668,74.33333333333334],[10.666666666666668,74.66666666666667],[10.833333333333334,75.0],[12.918367346938776,75.08163265306123],[13.0,75.5],[13.333333333333336,75.66666666666667],[13.5,76.0],[15.948717948717949,76.05128205128204],[16.0,76.5],[16.333333333333336,76.66666666666667],[16.5,77.0],[18.919999999999998,77.08],[18.862068965517242,77.86206896551724],[18.96551724137931,78.0344827586207],[20.916666666666664,78.08333333333333],[21.0,78.4],[21.5,78.5],[22.0,79.0],[24.81818181818182,79.18181818181819],[24.85,79.85000000000001],[25.0,80.06818181818183],[27.86206896551724,80.13793103448276],[28.476190476190474,80.52380952380952],[28.76923076923077,81.0],[31.848484848484848,81.15151515151516],[32.5,81.5],[32.75,82.0],[33.0,82.0909090909091],[34.6,82.0],[35.0,81.66666666666667],[35.266666666666666,81.73333333333333],[35.5,82.0],[37.083333333333336,82.08333333333334],[38.0,82.0],[39.0,82.57142857142856],[41.25,82.75],[42.0,83.0],[43.0,83.0],[43.52173913043478,82.52173913043478],[44.0,82.38888888888889],[44.51724137931034,82.48275862068967],[46.0,83.0],[46.400000000000006,83.6],[48.0,84.0],[51.0,84.0],[51.0,85.0],[53.0,85.0],[53.0,84.0],[59.0,84.0],[59.0,85.0],[76.0,85.0],[76.0,84.0],[86.0,84.0],[86.0,85.0],[88.0,85.0],[88.0,86.0],[93.0,86.0],[93.0,87.0],[101.0,87.0],[101.0,86.0],[108.0,86.0],[108.0,85.0],[111.0,85.0],[111.0,86.0],[115.0,86.0],[115.0,85.0],[119.0,85.0],[119.0,84.0],[120.0,84.0],[120.0,83.0],[137.0,83.0],[137.0,82.0],[147.0,82.0],[147.0,83.0],[145.0,83.0],[145.0,87.0],[146.0,87.0],[146.6,86.60000000000001],[147.5,86.5],[148.0,86.0],[148.0,87.0],[149.0,87.0],[150.5,85.5],[150.5,85.0],[150.71428571428572,84.71428571428571],[151.0,84.66666666666667],[151.5,85.0],[151.5,85.5],[152.6,86.4],[153.0,87.0],[156.0,87.0],[156.6,86.60000000000001],[157.4,86.4],[157.6,85.60000000000001],[158.0,85.0],[159.0,86.0],[161.0,86.0],[161.0,87.0],[162.5,87.0],[162.4,86.60000000000001],[162.0,86.0],[163.0,85.5],[163.4,85.60000000000001],[164.0,86.0],[164.0,87.0],[176.5,87.0],[176.60000000000002,86.60000000000001],[177.0,86.0],[179.0,86.08333333333333],[179.2,86.2],[180.0,86.0],[180.0,75.14285714285715],[178.84615384615384,75.15384615384616],[178.5,75.0],[178.0,74.5],[177.0,74.6],[176.0,74.22222222222223],[174.0,74.15384615384615],[173.33333333333334,74.0],[173.09523809523807,73.9047619047619],[173.0,73.5],[172.77777777777777,73.22222222222223],[172.0,73.0],[171.0,73.2],[168.88235294117646,73.11764705882354],[165.5,72.5],[164.76,72.24],[164.57142857142856,72.0],[162.02777777777777,71.97222222222223],[160.0,71.56],[159.68115942028984,71.68115942028984],[158.0,71.8],[156.30379746835445,71.69620253164557],[154.6140350877193,71.3859649122807],[154.0,71.0],[153.0,71.0909090909091],[152.0628272251309,70.93717277486911],[147.22580645161293,70.7741935483871],[145.0,70.0],[141.10738255033556,69.89261744966443],[139.0,69.61538461538461],[138.5492957746479,69.45070422535211],[138.05357142857144,68.94642857142857],[136.42990654205607,68.57009345794393],[136.06324110671937,67.93675889328064],[135.1641791044776,67.83582089552239],[134.53284671532847,67.46715328467154],[134.09442060085837,66.90557939914163],[133.19117647058823,66.80882352941177],[131.73684210526318,66.0],[130.27745664739882,65.72254335260115],[129.55974842767296,65.44025157232704],[129.0186046511628,64.98139534883721],[128.16091954022988,64.83908045977012],[127.45378151260503,64.54621848739495],[127.0,64.15625],[123.64835164835164,63.35164835164835],[123.0,62.75438596491228],[121.0,62.51020408163265],[120.0,61.671875],[119.0,61.71186440677966],[117.73972602739727,61.26027397260275],[117.0,60.703125],[115.5909090909091,60.40909090909091],[115.0096618357488,59.990338164251206],[113.0,59.66666666666667],[111.70588235294119,59.294117647058826],[111.03960396039604,58.960396039603964],[110.0,58.8170731707317],[109.0,58.40217391304348],[106.29007633587787,57.709923664122144],[106.0,57.44117647058823],[104.66666666666669,57.00000000000001],[103.81818181818183,56.18181818181818],[103.26666666666667,56.266666666666666],[102.6,56.0],[103.0,55.75],[104.0,55.75],[105.13333333333334,55.13333333333333],[106.0,55.18181818181818],[108.0,55.800000000000004],[110.7943925233645,56.20560747663551],[111.0,56.42307692307692],[112.66666666666666,57.0],[118.69230769230771,57.30769230769231],[119.40579710144928,57.59420289855073],[120.0,58.04347826086956],[123.0,58.18867924528302],[126.0,58.57142857142857],[127.0,59.16901408450704],[129.63934426229508,59.36065573770492],[130.0,59.733333333333334],[130.5,60.0],[135.90243902439025,60.09756097560975],[140.0,60.800000000000004],[141.0,60.66666666666667],[142.25581395348837,60.25581395348837],[145.5,60.0],[146.0,59.83333333333333],[146.33333333333334,59.333333333333336],[147.08823529411765,59.088235294117645],[149.0,59.0],[150.05940594059405,58.05940594059406],[152.0909090909091,58.0],[152.52380952380952,57.52380952380952],[153.15384615384616,57.15384615384615],[161.33333333333334,57.0],[161.14285714285714,56.0],[161.33333333333334,55.66666666666667],[161.33333333333334,55.33333333333334],[161.60000000000002,55.400000000000006],[162.0,55.25],[162.6,55.400000000000006],[163.0,56.0],[163.44444444444443,55.44444444444444],[163.5,55.0],[163.14814814814815,54.85185185185185],[163.0,54.0],[162.1142857142857,53.885714285714286],[161.55555555555554,53.444444444444436],[161.2962962962963,52.7037037037037],[160.74193548387098,52.25806451612904],[160.7,51.3],[160.57142857142856,51.0],[160.09090909090907,50.90909090909091],[160.0,50.5],[159.33333333333334,50.0],[159.0408163265306,49.95918367346939],[159.0,49.666666666666664],[158.57894736842104,49.421052631578945],[158.33333333333334,49.0],[158.0373831775701,48.96261682242991],[157.5121951219512,48.48780487804878],[157.16666666666669,48.0],[156.0845070422535,47.91549295774647],[156.01626016260164,46.983739837398375],[155.11320754716982,46.886792452830186],[155.0,46.333333333333336],[154.39999999999998,46.0],[153.2121212121212,45.78787878787879],[153.0,45.0],[152.02797202797203,44.972027972027966],[151.23076923076923,44.769230769230774],[151.0,44.18181818181818],[150.71428571428572,44.0],[148.0,43.68055555555556],[145.2391304347826,43.76086956521739],[143.35087719298244,43.64912280701754],[142.66197183098592,43.33802816901408],[142.5,43.0],[140.25174825174827,42.74825174825175],[139.49122807017545,42.50877192982456],[139.0365296803653,41.9634703196347],[138.1294964028777,41.8705035971223],[137.4255319148936,41.57446808510639],[137.0,40.84782608695652],[136.6888888888889,40.68888888888889],[136.31111111111113,40.68888888888889],[136.3265306122449,40.326530612244895],[136.17021276595744,40.0],[135.73333333333335,39.733333333333334],[135.325,39.675],[135.2941176470588,39.294117647058826],[135.07692307692307,38.92307692307692],[134.25,38.75],[134.06315789473683,37.93684210526316],[133.81443298969072,37.81443298969072],[133.1980198019802,37.801980198019805],[133.04982206405694,36.95017793594306],[132.19417475728156,36.80582524271845],[132.0431654676259,35.9568345323741],[131.19298245614036,35.807017543859644],[131.0,35.0],[130.22608695652173,34.77391304347826],[130.0,33.92],[129.28070175438594,33.719298245614034],[129.29508196721312,33.295081967213115],[129.0,32.66666666666667],[128.60869565217394,32.391304347826086],[128.45454545454544,32.0],[128.1851851851852,31.814814814814817],[128.0,31.444444444444443],[127.67123287671231,31.32876712328767],[127.45454545454545,31.0],[127.16,30.84],[127.0236220472441,29.976377952755904],[126.18390804597702,29.816091954022987],[126.05454545454546,28.945454545454545],[125.72727272727272,28.727272727272727],[125.33333333333334,28.66666666666667],[125.29166666666666,28.291666666666664],[125.0,27.75862068965517],[124.51648351648352,27.483516483516485],[124.0,26.625],[123.57746478873239,26.422535211267608],[123.0,25.222222222222225],[122.84615384615384,25.153846153846153],[122.80000000000001,24.000000000000004],[122.57894736842104,23.421052631578945],[122.10526315789473,22.894736842105264],[121.42105263157895,22.57894736842105],[121.0,21.75],[120.66666666666667,21.666666666666668],[120.25,21.75],[120.0,21.5],[119.75,21.75],[119.0,22.0],[118.5,22.5],[118.66666666666666,24.0],[118.6,25.0],[119.35294117647058,25.647058823529413],[119.7142857142857,26.285714285714285],[120.4,26.6],[120.66666666666666,27.0],[120.5,27.5],[120.0,27.8],[119.0,27.555555555555557],[117.64705882352942,27.647058823529413],[117.0,28.5],[116.81818181818181,27.818181818181817],[117.375,26.0],[117.33333333333334,24.0],[117.66666666666667,23.0],[117.5,22.5],[116.0,22.0],[115.66666666666669,21.333333333333336],[115.66666666666667,21.0],[116.0,20.0],[115.69230769230771,18.692307692307693],[115.71428571428571,17.714285714285715],[116.5,17.5],[117.0,17.0],[118.0,17.0],[118.58333333333333,16.583333333333332],[119.0,16.545454545454543],[119.33333333333334,16.666666666666668],[119.84615384615385,17.153846153846153],[120.62962962962962,17.37037037037037],[120.91836734693877,18.081632653061224],[121.42553191489361,18.574468085106382],[121.72727272727272,19.272727272727273],[122.29268292682929,19.707317073170735],[123.17241379310344,20.82758620689655],[123.33333333333334,21.333333333333336],[123.22222222222223,21.77777777777778],[123.77777777777777,21.77777777777778],[124.0,21.904761904761905],[124.52212389380531,21.52212389380531],[125.0,21.357142857142858],[125.26315789473684,21.0],[125.36111111111111,20.36111111111111],[126.0,19.5],[126.13043478260869,19.130434782608695],[126.54054054054055,18.54054054054054],[127.099173553719,18.09917355371901],[127.16,17.16],[127.37037037037037,16.37037037037037],[128.0,16.09090909090909],[128.24489795918367,15.244897959183673],[129.0,15.054054054054054],[130.0,15.0],[131.91044776119404,15.08955223880597],[132.03030303030303,16.0],[132.62573099415204,16.374269005847953],[133.0,16.405063291139243],[134.0909090909091,16.0],[134.26666666666665,15.266666666666666],[135.0,15.0],[135.0,14.0],[134.4,14.400000000000002],[134.0,14.333333333333334],[133.77777777777777,13.777777777777779],[134.0,13.0],[132.08333333333331,13.083333333333334],[130.0,13.0],[129.4,12.6],[129.0,12.666666666666666],[128.6,12.0],[128.63636363636363,11.636363636363637],[129.0,11.0],[128.5,10.5],[128.0,10.5],[127.85185185185185,10.148148148148149],[127.78947368421052,9.789473684210527],[128.0,9.0],[126.0,9.0],[124.57142857142857,8.0],[124.08421052631579,7.91578947368421],[123.0,7.299999999999999],[122.68421052631578,7.315789473684211],[122.11111111111111,7.111111111111111],[121.0,7.818181818181818],[120.0,7.476190476190476],[119.0,7.705882352941177],[118.0,7.25],[116.4090909090909,7.409090909090908],[115.64285714285714,7.642857142857143],[115.0,8.222222222222221],[114.0,8.0],[113.0,8.15],[112.0,8.6],[111.57446808510639,8.574468085106384],[111.18181818181819,8.818181818181818],[110.71428571428571,8.714285714285714],[110.5,9.0],[109.12903225806451,9.129032258064516],[108.58333333333333,10.0],[108.6875,10.3125],[109.22222222222223,11.0],[108.66666666666666,12.0],[108.34042553191489,12.340425531914894],[107.0,13.0],[106.0,13.714285714285714],[105.64285714285714,14.642857142857142],[105.0,15.0],[104.4848484848485,16.484848484848484],[103.79310344827586,16.79310344827586],[103.0,16.875],[102.4,16.6],[102.13333333333334,15.866666666666667],[101.84615384615384,15.846153846153847],[101.44444444444443,16.444444444444443],[101.0,16.615384615384613],[100.61538461538461,16.615384615384613],[100.2,16.8],[99.0,16.666666666666664],[98.95652173913044,16.956521739130434],[98.0,17.0],[97.65625,17.65625],[96.94957983193278,17.949579831932773],[96.61702127659575,18.617021276595743],[95.1,19.0],[94.86666666666666,19.866666666666667],[94.2,20.0],[94.0,21.0],[94.0,23.0],[95.0,23.0],[95.0,24.0],[94.0,24.0],[94.0,26.0],[92.0,26.0],[92.0,27.0],[88.0,27.0],[88.0,28.0],[86.0,28.0],[86.0,29.0],[85.0,29.0],[85.0,30.0],[84.0,30.0],[84.0,29.0],[78.0,29.0],[78.0,26.0],[76.0,26.0],[76.0,29.0],[69.0,29.0],[69.0,30.0],[66.0,30.0],[66.0,28.0],[65.0,28.0]],[[7.0,32.5],[6.846153846153846,32.15384615384615],[6.909090909090908,32.0],[7.133333333333333,31.866666666666667],[8.0,32.0],[7.0,32.5]],[[48.5,43.0],[48.5,43.5],[49.0,44.0],[51.0,44.0],[51.77777777777778,43.77777777777778],[52.2,43.8],[52.333333333333336,44.0],[52.0,44.5],[51.5,44.5],[51.0,45.0],[51.0,46.0],[54.0,46.0],[54.0,48.0],[52.0,48.0],[52.0,49.0],[51.0,49.0],[51.0,50.0],[48.0,50.0],[48.0,49.0],[47.0,49.0],[47.0,48.0],[45.0,48.0],[45.0,47.0],[46.0,47.0],[46.0,45.0],[48.0,45.0],[48.0,44.0],[47.4,43.60000000000001],[47.0,43.5],[46.6,43.60000000000001],[46.0,44.0],[45.6,43.400000000000006],[45.0,43.0],[45.66666666666667,42.66666666666667],[48.0,42.75],[48.5,43.0]],[[168.0,84.66666666666667],[168.5,85.0],[168.5,85.5],[169.0,86.0],[168.0,86.0],[167.0,86.0],[167.5,85.5],[167.5,85.0],[167.71428571428572,84.71428571428571],[168.0,84.66666666666667]],[[172.0,84.66666666666667],[172.5,85.0],[172.33333333333334,85.33333333333334],[172.0,85.5],[171.5,85.5],[171.0,86.0],[170.0,86.0],[170.0,85.0],[171.0,85.0],[172.0,84.66666666666667]],[[155.0,86.0],[154.4,86.4],[154.0,86.5],[153.60000000000002,86.4],[153.5,86.0],[153.66666666666669,85.66666666666667],[154.0,85.5],[154.4,85.60000000000001],[155.0,86.0]],[[156.0,85.5],[155.60000000000002,85.4],[155.5,85.0],[156.0,84.5],[156.5,85.0],[156.33333333333334,85.33333333333334],[156.0,85.5]],[[166.33333333333331,80.0],[166.99999999999997,79.88888888888889],[169.0,80.0],[168.33333333333334,80.33333333333334],[168.0,81.0],[166.0,81.0],[166.40000000000003,80.4],[166.33333333333331,80.0]],[[169.78947368421052,79.78947368421052],[170.0,79.0],[170.60000000000002,79.4],[171.0,80.0],[169.73333333333335,80.26666666666667],[169.0,80.0],[169.78947368421052,79.78947368421052]],[[171.60000000000002,79.6],[172.0,79.5],[172.33333333333334,79.66666666666667],[172.5,80.0],[172.0,80.125],[171.0,80.0],[171.60000000000002,79.6]],[[175.5,86.0],[175.33333333333334,86.33333333333334],[175.0,86.5],[174.66666666666669,86.33333333333334],[174.5,86.0],[174.66666666666669,85.66666666666667],[175.0,85.5],[175.4,85.60000000000001],[175.5,86.0]],[[128.5,46.5],[128.0,46.5],[127.7142857142857,46.28571428571428],[126.81818181818181,46.18181818181819],[126.5,46.0],[127.0,45.5],[127.33333333333334,45.66666666666667],[128.25,45.75],[129.0,46.0],[129.0,47.0],[128.5,46.5]],[[105.5,19.5],[105.0,19.875],[104.60000000000001,19.6],[104.8,20.0],[104.71428571428571,20.714285714285715],[104.5,21.0],[104.15384615384616,21.153846153846153],[104.0,22.0],[103.42105263157893,22.421052631578945],[103.0,22.4],[102.72413793103448,22.275862068965516],[102.6,22.0],[103.0,21.333333333333336],[103.36363636363637,21.363636363636363],[103.66666666666667,21.0],[103.71428571428571,20.714285714285715],[103.57894736842104,20.42105263157895],[103.73333333333332,19.733333333333334],[104.48648648648648,19.486486486486488],[104.65853658536585,18.65853658536585],[105.42424242424242,18.575757575757578],[105.77777777777777,19.0],[105.5,19.5]],[[18.275862068965516,71.72413793103448],[20.0,71.875],[20.25,72.25],[20.333333333333336,72.66666666666667],[21.333333333333336,73.0],[21.333333333333336,73.33333333333334],[21.0,74.0],[21.6,74.4],[22.0,75.0],[22.0,76.0],[20.0,76.0],[20.0,75.0],[19.0,74.0],[18.0,74.0],[18.0,73.0],[17.25,72.75],[17.0,72.5],[16.0,73.0],[15.0,73.0],[15.0,72.0],[15.777777777777779,71.77777777777777],[17.0,71.92857142857143],[18.275862068965516,71.72413793103448]],[[25.529411764705884,68.52941176470588],[26.0,68.33333333333333],[27.0,68.4],[28.5,68.0],[28.333333333333336,67.66666666666667],[28.25,66.75],[28.0,66.5],[27.5,66.5],[27.0,67.0],[27.0,66.0],[27.666666666666668,65.66666666666667],[28.0,65.0],[27.5,64.5],[26.75,64.25],[26.5,64.0],[27.285714285714285,63.285714285714285],[27.666666666666668,62.66666666666667],[28.285714285714285,62.714285714285715],[29.0,63.0],[28.66666666666667,63.66666666666667],[28.66666666666667,64.33333333333334],[29.22222222222222,64.77777777777777],[29.400000000000002,65.60000000000001],[30.0,66.0],[32.0,66.0],[32.333333333333336,66.66666666666667],[32.285714285714285,67.28571428571428],[32.0,68.0],[34.0,69.0],[34.0,70.0],[33.285714285714285,70.28571428571428],[32.0,70.5],[31.0,70.33333333333334],[30.400000000000002,70.4],[29.6,70.60000000000001],[29.0,71.0],[28.400000000000002,70.60000000000001],[28.0,70.5],[25.6,71.60000000000001],[25.0,72.0],[21.999999999999996,71.11111111111111],[21.999999999999996,70.88888888888889],[22.733333333333334,70.73333333333333],[23.307692307692307,70.3076923076923],[23.5,70.0],[24.476190476190474,69.47619047619048],[25.529411764705884,68.52941176470588]],[[27.333333333333336,77.33333333333334],[27.0,77.5],[26.666666666666668,77.33333333333334],[26.5,77.0],[26.75,76.75],[27.25,76.75],[27.333333333333336,77.0],[27.333333333333336,77.33333333333334]],[[43.22222222222222,71.22222222222221],[42.66666666666667,71.33333333333334],[42.0,71.0],[42.0,70.0],[42.5,70.5],[43.0,70.5],[43.28571428571428,70.71428571428571],[43.22222222222222,71.22222222222221]],[[46.0,67.0],[46.0,68.0],[45.0,68.0],[45.0,67.0],[46.0,67.0]],[[46.0,66.0],[47.0,66.0],[47.0,67.0],[46.0,67.0],[46.0,66.0]],[[48.0,69.5],[47.6,69.4],[47.5,69.0],[47.75,68.75],[48.2,68.8],[48.33333333333333,69.0],[48.0,69.5]],[[49.5,66.0],[50.0,65.66666666666667],[50.5,66.0],[49.75,66.25],[49.5,66.0]],[[60.0,65.5],[59.6,65.4],[59.0,65.0],[59.6,64.6],[60.0,64.5],[60.333333333333336,64.66666666666667],[60.5,65.0],[60.333333333333336,65.33333333333334],[60.0,65.5]],[[118.0,12.5],[120.25,12.75],[121.08000000000001,13.08],[121.91999999999999,13.08],[122.73333333333332,13.266666666666666],[124.0,14.0],[123.28571428571428,14.285714285714285],[122.71428571428571,14.285714285714285],[120.0,14.814814814814815],[117.0,15.0],[116.4,15.4],[115.0,15.375],[114.72727272727272,15.272727272727272],[114.5,15.0],[113.4,14.600000000000001],[113.0909090909091,14.0],[113.53488372093022,13.534883720930232],[114.27272727272727,13.272727272727273],[115.0909090909091,13.09090909090909],[117.0,13.0],[117.57142857142858,12.571428571428573],[118.0,12.5]],[[25.200000000000003,60.2],[25.0,60.2],[24.75,60.0],[24.6,59.6],[25.0,59.0],[25.400000000000002,59.6],[25.333333333333336,60.00000000000001],[25.200000000000003,60.2]],[[24.400000000000002,59.400000000000006],[24.0,59.25],[23.0,59.25],[22.5,59.0],[23.0,58.66666666666667],[24.0,58.5],[25.0,59.0],[24.400000000000002,59.400000000000006]]],[[[173.07142857142856,59.0],[169.5438596491228,58.5438596491228],[169.22222222222223,58.77777777777778],[169.41379310344828,58.41379310344828],[169.19354838709677,58.0],[168.88349514563106,57.883495145631066],[168.06593406593404,57.934065934065934],[168.0,57.72727272727273],[167.71428571428572,57.71428571428571],[167.7,58.0],[168.8125,58.1875],[168.990990990991,59.00900900900901],[169.82432432432432,59.17567567567568],[170.51612903225805,59.48387096774194],[171.20000000000002,60.0],[173.0,60.116883116883116],[173.98484848484847,60.015151515151516],[175.0,60.10714285714286],[177.0,60.0],[174.8235294117647,59.82352941176471],[174.04166666666669,59.958333333333336],[173.47368421052633,59.526315789473685],[173.07142857142856,59.0]]],[[[140.0,87.0],[142.0,87.0],[142.0,86.0],[140.0,86.0],[140.0,87.0]]],[[[180.0,87.0],[180.0,86.0],[179.63636363636365,86.63636363636364],[179.87878787878788,87.12121212121212],[180.0,88.0],[180.0,87.0]]],[[[180.0,89.0],[179.57627118644066,89.57627118644068],[179.46236559139786,90.0],[180.0,90.0],[180.0,89.0]]]]}}]}