{"type":"FeatureCollection","features":[{"type":"Feature","properties":{"ageMa":310},"geometry":{"type":"MultiPolygon","coordinates":[[[[-63.0,-79.0],[-63.0,-78.0],[-61.0,-78.0],[-61.0,-79.0],[-61.6,-79.4],[-62.5,-79.5],[-63.0,-79.0]]],[[[-7.6,31.6],[-8.0,31.0],[-8.5,30.0],[-8.5,29.0],[-8.0,28.0],[-6.5,27.5],[-6.0,27.0],[-5.333333333333334,26.666666666666668],[-5.0,26.0],[-4.4,25.6],[-4.0,25.0],[-2.0,25.0],[-1.4000000000000001,25.400000000000002],[-1.0,25.5],[0.0,25.5],[1.0,25.666666666666668],[2.0,26.0],[2.6,26.400000000000002],[4.0,27.0],[4.0,28.0],[6.0,28.0],[6.285714285714285,28.71428571428571],[7.0,29.0],[8.0,29.0],[9.0,28.833333333333336],[9.4,28.400000000000002],[10.0,27.0],[10.6,26.0],[11.0,23.0],[11.600000000000001,22.6],[12.0,21.5],[13.0,22.0],[14.0,23.0],[15.0,23.0],[17.0,23.5],[21.0,23.333333333333332],[21.714285714285715,22.71428571428571],[25.0,21.0],[26.0,20.0],[26.0,19.0],[25.400000000000002,17.6],[25.0,17.0],[25.0,15.0],[25.400000000000002,14.400000000000002],[25.5,14.0],[25.5,13.5],[25.0,13.0],[26.0,13.0],[26.5,12.5],[27.22222222222222,12.222222222222221],[28.0,11.666666666666666],[29.0,11.5],[30.0,11.5],[31.285714285714285,11.714285714285714],[32.0,12.0],[33.0,12.0],[33.0,9.0],[32.0,9.0],[31.66666666666667,8.333333333333334],[31.0,8.0],[30.666666666666668,7.333333333333334],[30.0,7.0],[30.6,6.6000000000000005],[31.0,6.5],[31.400000000000002,6.6000000000000005],[32.0,7.0],[33.0,7.0],[33.6,7.4],[36.15384615384615,7.846153846153847],[37.0,8.333333333333334],[38.0,8.0],[39.0,8.0],[39.75,7.75],[40.25,7.25],[40.33333333333333,7.0],[40.5,6.0],[40.375,5.625],[39.89473684210527,5.105263157894737],[39.57142857142858,4.428571428571429],[39.0,4.0],[38.63636363636363,3.3636363636363633],[38.0,2.8571428571428568],[35.0,1.6153846153846154],[33.285714285714285,0.7142857142857142],[25.12,-1.12],[23.84,-1.84],[22.71428571428571,-2.714285714285714],[21.192307692307693,-4.1923076923076925],[20.344827586206897,-5.344827586206897],[19.75,-7.0],[19.42857142857143,-10.0],[19.0,-12.0],[17.77777777777778,-13.777777777777779],[17.0,-14.5],[16.333333333333332,-16.0],[15.666666666666668,-17.0],[15.000000000000002,-17.666666666666668],[13.600000000000001,-18.6],[13.333333333333332,-19.0],[13.0,-20.0],[12.0,-20.0],[11.400000000000002,-19.6],[11.0,-19.5],[10.0,-20.0],[9.5,-21.0],[9.5,-23.0],[10.0,-24.0],[10.0,-28.0],[8.0,-28.0],[7.6,-28.6],[7.5,-29.0],[8.0,-30.0],[9.0,-30.0],[9.0,-31.0],[11.0,-31.0],[11.0,-32.0],[12.0,-32.0],[12.0,-33.0],[13.0,-33.0],[13.0,-34.0],[14.0,-34.0],[14.0,-37.0],[14.600000000000001,-37.4],[15.0,-37.5],[15.4,-37.4],[16.0,-37.0],[16.0,-35.0],[15.0,-35.0],[15.0,-34.0],[15.4,-33.4],[15.5,-32.5],[16.0,-32.0],[16.0,-30.0],[17.0,-29.0],[18.0,-28.5],[18.400000000000002,-28.6],[19.0,-29.0],[22.0,-29.0],[22.4,-29.6],[23.0,-30.0],[24.0,-30.0],[24.0,-31.0],[25.0,-31.0],[25.6,-31.400000000000002],[26.0,-32.0],[31.0,-32.0],[31.6,-31.6],[32.333333333333336,-31.333333333333336],[32.71428571428571,-30.71428571428571],[34.0,-30.0],[36.0,-30.0],[36.400000000000006,-29.400000000000002],[36.5,-29.0],[37.0,-28.666666666666664],[38.71428571428571,-28.71428571428571],[40.0,-29.0],[41.0,-29.666666666666668],[41.11764705882353,-29.88235294117647],[42.0,-30.333333333333336],[42.22222222222223,-30.77777777777778],[42.66666666666667,-31.0],[43.23529411764706,-31.764705882352942],[44.0,-32.25],[44.68421052631579,-33.315789473684205],[45.0,-33.5],[46.68421052631579,-35.315789473684205],[47.599999999999994,-36.0],[49.23529411764706,-37.76470588235294],[50.0,-38.0],[50.46153846153847,-38.53846153846154],[51.333333333333336,-39.0],[52.0,-39.666666666666664],[52.529411764705884,-40.470588235294116],[53.0,-40.800000000000004],[53.55555555555555,-41.44444444444444],[54.5,-42.0],[54.69230769230769,-42.30769230769231],[55.266666666666666,-42.733333333333334],[55.81818181818181,-42.81818181818182],[56.125,-43.0],[56.375,-43.625],[56.75,-44.0],[57.41666666666667,-44.583333333333336],[58.2,-45.0],[59.0,-45.800000000000004],[59.42857142857144,-46.57142857142858],[60.0,-47.0],[60.28571428571428,-47.71428571428571],[61.0,-48.0],[61.25,-48.75],[61.66666666666667,-49.0],[62.125,-49.875],[62.63636363636363,-50.36363636363636],[63.0,-50.5],[63.21052631578947,-50.78947368421053],[63.66666666666667,-51.00000000000001],[64.28571428571428,-51.71428571428571],[65.25,-52.0],[65.60000000000001,-52.4],[66.66666666666667,-53.0],[67.375,-53.625],[69.5,-54.0],[73.0,-55.5],[75.0,-55.75],[76.0,-56.0],[76.60000000000001,-56.400000000000006],[77.4,-56.6],[80.0,-56.66666666666667],[81.0,-56.5],[82.0,-56.5],[85.0,-56.0],[91.0,-56.0],[94.0,-55.5],[96.0,-55.5],[97.28571428571428,-55.28571428571428],[98.0,-55.0],[99.0,-55.0],[100.0,-54.66666666666667],[101.0,-54.0],[103.0,-53.333333333333336],[103.83333333333334,-52.83333333333333],[105.29629629629629,-52.29629629629629],[107.0,-51.88888888888889],[109.0,-51.142857142857146],[113.15384615384616,-50.84615384615385],[117.0,-51.0],[118.0,-51.5],[120.0,-51.5],[121.0,-52.0],[121.75,-51.75],[122.22222222222223,-51.77777777777778],[123.00000000000001,-52.333333333333336],[124.60000000000001,-52.4],[125.4,-52.6],[126.0,-53.0],[127.0,-53.0],[126.5,-52.5],[126.5,-52.0],[126.33333333333334,-51.66666666666667],[125.66666666666667,-51.333333333333336],[125.5,-51.0],[123.53846153846153,-50.46153846153847],[123.0,-50.0],[122.21052631578948,-49.78947368421053],[120.52380952380952,-48.476190476190474],[119.78947368421052,-47.21052631578948],[119.71428571428572,-47.0],[119.80952380952381,-46.80952380952381],[120.18181818181819,-46.18181818181819],[121.0,-45.81818181818182],[122.0,-45.599999999999994],[124.66666666666669,-45.66666666666667],[125.0,-45.5],[125.22222222222221,-45.22222222222222],[125.33333333333334,-44.0],[125.0,-43.0],[126.0,-41.0],[127.5,-40.0],[129.5,-39.0],[130.60000000000002,-38.6],[131.5,-38.0],[133.0,-37.25],[134.0,-37.0],[136.0,-37.0],[139.55555555555554,-38.44444444444444],[142.16666666666666,-39.83333333333333],[143.66666666666669,-41.0],[146.55555555555557,-42.44444444444444],[147.0,-43.0],[147.77777777777777,-43.22222222222222],[148.66666666666669,-44.0],[149.73333333333335,-44.266666666666666],[150.33333333333334,-45.0],[150.89473684210526,-45.10526315789474],[151.52380952380952,-45.476190476190474],[152.0,-46.0],[152.75,-46.25],[153.66666666666669,-47.0],[154.64285714285714,-47.35714285714286],[155.66666666666669,-48.0],[156.62962962962962,-48.37037037037037],[157.0,-48.714285714285715],[158.62962962962962,-49.37037037037037],[162.0,-51.55555555555556],[165.0,-53.0],[165.75,-53.25],[167.0,-54.0],[168.0,-54.42857142857142],[169.0,-55.25],[170.0,-55.666666666666664],[171.28571428571428,-56.71428571428571],[172.0,-57.0],[172.0,-58.0],[173.0,-59.0],[173.0,-60.0],[173.60000000000002,-60.400000000000006],[174.4,-61.6],[175.0,-62.0],[175.0,-63.0],[174.66666666666669,-64.0],[174.77777777777777,-65.22222222222223],[175.0,-66.0],[175.0,-68.0],[174.75,-69.25],[175.0,-70.0],[176.0,-70.0],[176.0,-69.0],[176.60000000000002,-68.60000000000001],[177.0,-68.5],[178.0,-69.0],[178.60000000000002,-70.4],[179.0,-71.0],[179.05194805194805,-74.94805194805195],[179.35294117647058,-77.0],[180.0,-78.66666666666667],[180.0,-85.25],[179.5,-85.5],[179.0,-86.33333333333333],[178.0,-86.0],[176.0,-86.0],[176.0,-85.0],[173.0,-85.0],[172.0,-84.66666666666667],[171.0,-85.0],[170.0,-84.66666666666667],[169.0,-85.5],[168.0,-85.5],[167.6,-85.4],[167.0,-85.0],[166.0,-85.0],[165.4,-85.4],[165.0,-85.5],[162.0,-85.5],[161.60000000000002,-85.60000000000001],[161.0,-86.0],[160.33333333333334,-85.66666666666667],[160.0,-85.66666666666667],[159.0,-86.0],[158.5,-86.5],[157.66666666666669,-86.66666666666667],[157.0,-87.0],[156.0,-88.0],[152.0,-88.0],[151.33333333333334,-88.33333333333334],[151.0,-88.25],[150.0,-88.33333333333334],[149.60000000000002,-88.6],[149.33333333333334,-89.0],[149.33333333333334,-90.0],[147.5,-90.0],[147.5,-89.0],[147.0,-88.80000000000001],[146.0,-89.0],[146.0,-90.0],[143.33333333333334,-90.0],[143.33333333333334,-89.0],[143.0,-88.80000000000001],[142.5,-89.0],[142.5,-90.0],[131.5,-90.0],[131.5,-89.0],[131.25,-88.75],[130.0,-88.33333333333334],[129.5,-88.5],[129.0,-89.0],[128.0,-89.0],[127.5,-88.5],[127.0,-88.33333333333334],[126.0,-88.33333333333334],[125.0,-89.0],[124.28571428571428,-88.71428571428571],[123.0,-88.5],[121.60000000000001,-88.6],[121.0,-89.0],[120.0,-89.0],[119.44444444444443,-88.55555555555554],[119.0,-88.5],[117.6,-88.6],[117.0,-89.0],[116.0,-89.0],[115.4,-88.6],[115.0,-88.5],[113.60000000000001,-88.6],[113.0,-89.0],[112.28571428571428,-88.71428571428571],[111.0,-88.5],[109.60000000000001,-88.6],[109.0,-89.0],[108.28571428571428,-88.71428571428571],[107.0,-88.5],[105.63636363636364,-88.63636363636363],[105.0,-89.0],[104.28571428571428,-88.71428571428571],[103.0,-88.5],[101.60000000000001,-88.6],[101.0,-89.0],[100.0,-88.66666666666667],[98.0,-88.66666666666667],[97.5,-89.0],[97.5,-90.0],[95.0,-90.0],[95.0,-89.0],[94.0,-89.0],[94.0,-90.0],[92.0,-90.0],[92.0,-89.0],[90.0,-89.0],[90.0,-90.0],[87.0,-90.0],[87.0,-89.0],[86.0,-89.0],[86.0,-90.0],[82.5,-90.0],[82.5,-89.0],[82.00000000000001,-88.80000000000001],[81.5,-89.0],[81.5,-90.0],[62.5,-90.0],[62.5,-89.0],[62.333333333333336,-88.66666666666667],[62.0,-88.5],[61.5,-88.5],[61.0,-88.0],[55.0,-88.0],[55.0,-90.0],[42.5,-90.0],[42.5,-89.0],[42.4,-88.6],[42.0,-88.0],[40.0,-88.0],[40.0,-87.0],[37.0,-87.0],[37.0,-88.0],[31.0,-88.0],[30.400000000000002,-87.6],[30.0,-87.5],[21.0,-87.5],[20.6,-87.4],[20.0,-87.0],[19.400000000000002,-87.4],[19.0,-87.5],[18.6,-87.4],[18.0,-87.0],[15.0,-87.0],[15.0,-88.0],[12.0,-88.0],[11.0,-89.0],[11.0,-90.0],[9.0,-90.0],[9.0,-89.0],[7.0,-89.0],[7.0,-90.0],[5.0,-90.0],[5.0,-89.0],[4.4,-88.6],[4.0,-88.5],[3.6000000000000005,-88.6],[3.0,-89.0],[2.4,-88.6],[2.0,-88.5],[0.0,-88.5],[-0.4,-88.6],[-1.0,-89.0],[-1.3333333333333333,-88.33333333333334],[-2.0,-88.0],[-4.0,-88.0],[-4.7142857142857135,-87.71428571428572],[-6.4,-87.4],[-7.0,-87.0],[-9.0,-87.0],[-10.0,-86.0],[-11.0,-86.0],[-12.0,-85.0],[-19.0,-85.0],[-20.0,-84.66666666666667],[-22.0,-84.66666666666667],[-23.0,-84.5],[-24.0,-84.5],[-24.400000000000002,-84.4],[-25.0,-84.0],[-26.0,-84.0],[-26.6,-84.4],[-27.0,-84.5],[-29.0,-84.5],[-29.400000000000002,-84.60000000000001],[-30.0,-85.0],[-30.6,-84.60000000000001],[-31.0,-84.5],[-31.333333333333336,-84.66666666666667],[-31.66666666666667,-85.33333333333334],[-32.0,-85.5],[-33.4,-85.4],[-34.0,-85.0],[-41.0,-85.0],[-42.0,-84.66666666666667],[-44.6,-84.60000000000001],[-45.333333333333336,-84.33333333333334],[-45.71428571428571,-83.71428571428571],[-46.0,-83.5],[-48.0,-83.5],[-48.400000000000006,-83.4],[-49.6,-82.6],[-51.0,-82.0],[-52.0,-81.0],[-53.0,-81.0],[-53.0,-80.0],[-54.0,-79.0],[-57.0,-78.0],[-58.0,-78.0],[-58.5,-77.5],[-58.66666666666667,-74.0],[-58.0,-73.0],[-57.75,-72.25],[-56.0,-70.33333333333334],[-53.66666666666667,-67.0],[-53.470588235294116,-66.52941176470588],[-52.57142857142857,-65.42857142857143],[-52.0,-65.0],[-51.69230769230769,-64.3076923076923],[-51.16666666666667,-63.83333333333333],[-49.0,-62.2],[-48.421052631578945,-61.57894736842105],[-47.33333333333333,-61.0],[-46.625,-60.375],[-45.5,-60.0],[-44.7,-59.3],[-43.800000000000004,-59.0],[-43.400000000000006,-58.60000000000001],[-42.0,-58.0],[-40.285714285714285,-56.71428571428571],[-38.66666666666667,-56.0],[-37.64705882352941,-55.35294117647058],[-36.66666666666667,-55.0],[-35.66666666666667,-54.00000000000001],[-35.66666666666667,-53.66666666666667],[-36.0,-53.0],[-36.0,-52.0],[-35.66666666666667,-51.00000000000001],[-36.5,-50.0],[-36.6,-48.60000000000001],[-37.5,-47.0],[-37.75,-44.75],[-38.0,-44.5],[-39.0,-44.333333333333336],[-40.44444444444444,-44.55555555555555],[-41.0,-45.0],[-42.0,-45.5],[-43.5,-47.0],[-44.0,-48.0],[-44.63636363636364,-48.36363636363636],[-45.71428571428571,-49.285714285714285],[-48.0,-50.0],[-48.66666666666667,-50.333333333333336],[-51.0,-51.0],[-51.5,-52.0],[-52.44444444444444,-52.55555555555555],[-52.666666666666664,-53.0],[-52.866666666666674,-53.13333333333334],[-54.0,-53.25],[-54.5,-53.5],[-54.75,-54.0],[-55.0,-54.166666666666664],[-56.18181818181818,-54.18181818181818],[-57.75,-53.75],[-58.2,-53.8],[-59.285714285714285,-54.71428571428571],[-60.0,-55.0],[-61.0,-55.66666666666667],[-62.0,-56.0],[-63.2,-56.8],[-63.69230769230769,-57.30769230769231],[-64.36363636363637,-57.63636363636364],[-64.84615384615384,-58.15384615384615],[-66.26666666666667,-58.733333333333334],[-66.73333333333333,-59.266666666666666],[-67.4,-59.6],[-69.15384615384616,-60.84615384615384],[-70.0,-61.66666666666667],[-71.33333333333334,-62.66666666666667],[-72.0,-63.0],[-73.0,-64.33333333333333],[-73.5,-64.5],[-75.66666666666667,-66.33333333333334],[-76.66666666666666,-67.0],[-77.33333333333334,-67.66666666666667],[-78.0,-68.0],[-78.44444444444444,-68.55555555555556],[-79.5,-69.0],[-80.22222222222223,-69.77777777777777],[-81.0,-70.0],[-83.0,-72.0],[-85.0,-73.0],[-85.5,-73.5],[-86.0,-73.75],[-87.0,-73.75],[-87.83333333333334,-74.16666666666666],[-89.0,-74.5],[-90.0,-74.5],[-91.0,-74.8],[-91.69230769230771,-75.30769230769232],[-94.0,-76.0],[-94.625,-76.375],[-97.0,-76.875],[-98.0,-77.4],[-100.15384615384615,-77.84615384615384],[-101.0,-78.33333333333334],[-102.0,-78.5],[-102.33333333333334,-78.66666666666667],[-105.0,-79.0],[-105.60000000000001,-79.4],[-107.0,-79.5],[-107.25,-79.75],[-108.0,-80.0],[-111.0,-80.0],[-111.0,-81.0],[-113.0,-81.0],[-113.60000000000001,-81.4],[-114.4,-81.60000000000001],[-115.0,-82.0],[-115.60000000000001,-81.60000000000001],[-116.4,-81.4],[-117.0,-81.0],[-119.00000000000001,-80.85714285714286],[-120.0,-81.0],[-121.0,-80.71428571428572],[-124.0,-81.0],[-126.25,-81.75],[-129.0,-82.0],[-131.28571428571428,-82.71428571428571],[-133.8181818181818,-82.81818181818181],[-135.0,-83.0],[-138.0,-83.0],[-140.28571428571428,-83.71428571428571],[-143.8181818181818,-83.81818181818181],[-145.0,-84.0],[-147.0,-84.0],[-147.6,-84.4],[-148.0,-84.5],[-149.0,-84.5],[-151.0,-84.75],[-153.0,-84.71428571428572],[-154.0,-85.0],[-159.0,-85.0],[-160.55555555555554,-85.44444444444444],[-163.0,-85.6],[-166.0,-85.6],[-168.0,-85.4],[-171.0,-85.5],[-172.0,-85.4],[-175.0,-85.75],[-179.0,-85.5],[-180.0,-85.25],[-180.0,-78.66666666666667],[-177.80327868852459,-79.80327868852459],[-177.0,-80.38888888888889],[-172.0,-80.0],[-166.0,-80.33333333333334],[-158.0,-80.33333333333334],[-157.0,-80.5],[-155.63636363636363,-80.36363636363636],[-154.0,-80.0],[-153.0,-80.0],[-152.0,-79.83333333333334],[-146.22222222222223,-79.77777777777777],[-145.0,-79.33333333333334],[-144.0,-79.5],[-142.71428571428572,-79.28571428571428],[-141.0,-79.25],[-139.84615384615384,-78.84615384615385],[-138.0,-78.8],[-137.0,-79.0],[-135.0,-79.0],[-133.0,-78.75],[-132.0,-78.5],[-131.0,-78.5],[-130.0,-78.33333333333334],[-128.1818181818182,-77.81818181818181],[-127.0,-77.8],[-124.80000000000001,-77.19999999999999],[-124.0,-77.16666666666667],[-122.44444444444444,-76.55555555555556],[-121.0,-76.25],[-120.0,-75.6],[-117.5,-75.0],[-116.5,-74.5],[-114.30769230769232,-73.6923076923077],[-113.0,-73.33333333333334],[-111.0,-73.0],[-109.57142857142857,-72.42857142857143],[-107.5,-72.0],[-101.75,-70.0],[-101.35294117647058,-69.6470588235294],[-100.0,-69.0],[-99.42105263157895,-68.57894736842105],[-96.0,-67.0],[-95.57142857142857,-66.42857142857143],[-94.0,-65.8],[-93.61904761904762,-65.38095238095238],[-92.44444444444443,-64.55555555555554],[-90.0,-63.25],[-88.80952380952381,-62.19047619047619],[-88.0,-61.857142857142854],[-82.4,-58.0],[-79.63636363636364,-55.36363636363637],[-79.0,-55.0],[-78.54545454545455,-54.45454545454545],[-77.85714285714286,-54.00000000000001],[-77.47999999999999,-53.519999999999996],[-76.0,-52.28571428571429],[-75.4516129032258,-51.54838709677419],[-74.38461538461537,-50.61538461538461],[-73.0,-49.714285714285715],[-72.64285714285714,-49.35714285714286],[-71.94736842105263,-49.05263157894737],[-71.38888888888889,-48.61111111111111],[-70.67741935483872,-48.32258064516129],[-69.46666666666667,-47.53333333333334],[-69.0,-47.0],[-68.4,-46.6],[-68.0,-46.0],[-67.34782608695652,-45.65217391304348],[-66.94736842105264,-45.0],[-66.37113402061856,-44.628865979381445],[-66.0,-44.142857142857146],[-65.26262626262627,-43.737373737373744],[-64.55,-43.0],[-63.60000000000001,-42.4],[-63.32142857142857,-42.0],[-62.50476190476191,-41.4952380952381],[-62.0,-40.919999999999995],[-61.375,-40.625],[-61.0,-40.0],[-60.378378378378386,-39.62162162162163],[-59.66666666666667,-38.333333333333336],[-59.581395348837205,-37.0],[-59.0,-34.85],[-58.42307692307692,-33.57692307692308],[-57.878787878787875,-31.12121212121212],[-57.674418604651166,-24.674418604651166],[-57.27777777777777,-22.0],[-57.0,-21.375],[-56.0,-20.833333333333332],[-55.21052631578948,-21.210526315789473],[-54.71428571428571,-21.714285714285715],[-54.315789473684205,-22.31578947368421],[-54.08695652173913,-23.08695652173913],[-54.07692307692308,-25.0],[-54.30769230769231,-29.0],[-54.75,-30.0],[-55.0,-31.0],[-55.333333333333336,-34.0],[-55.333333333333336,-35.0],[-55.272727272727266,-35.27272727272727],[-55.0,-35.5],[-53.66666666666667,-35.66666666666667],[-53.11111111111111,-36.111111111111114],[-52.800000000000004,-37.0],[-52.75,-38.0],[-53.0,-38.333333333333336],[-53.42857142857143,-39.57142857142858],[-54.0,-40.0],[-54.333333333333336,-40.66666666666667],[-54.75,-41.0],[-55.13333333333333,-41.86666666666667],[-55.333333333333336,-42.0],[-55.5,-43.0],[-55.66666666666667,-43.333333333333336],[-56.0,-43.5],[-57.0,-43.5],[-57.33333333333334,-44.0],[-57.0,-45.0],[-54.0,-45.0],[-53.0,-44.0],[-52.0,-44.0],[-52.0,-43.0],[-50.0,-43.0],[-49.5,-42.0],[-48.66666666666667,-41.0],[-48.333333333333336,-38.0],[-48.333333333333336,-36.0],[-47.285714285714285,-34.71428571428571],[-46.0,-34.0],[-42.0,-34.0],[-41.0,-34.5],[-40.0,-34.5],[-39.0,-34.333333333333336],[-38.0,-34.5],[-37.0,-34.333333333333336],[-36.0,-34.333333333333336],[-35.0,-34.0],[-34.0,-34.5],[-33.0,-34.5],[-32.0,-34.666666666666664],[-30.22222222222222,-35.22222222222222],[-29.75,-35.25],[-29.0,-35.0],[-28.0,-35.333333333333336],[-27.0,-36.0],[-26.5,-36.5],[-26.0,-38.0],[-25.400000000000002,-38.4],[-25.0,-38.5],[-24.333333333333336,-39.333333333333336],[-24.0,-39.5],[-23.0,-39.5],[-22.25,-40.25],[-22.0,-40.333333333333336],[-20.0,-39.75],[-19.0,-39.75],[-18.11764705882353,-40.11764705882353],[-17.266666666666666,-40.266666666666666],[-16.571428571428573,-40.57142857142857],[-16.0,-41.5],[-15.666666666666668,-41.66666666666667],[-15.333333333333334,-42.333333333333336],[-15.0,-43.5],[-14.0,-43.0],[-13.285714285714285,-43.28571428571428],[-12.0,-43.5],[-11.5,-43.0],[-11.0,-42.0],[-11.25,-41.0],[-11.75,-40.0],[-12.0,-39.75],[-13.333333333333336,-39.66666666666667],[-14.0,-40.0],[-14.5,-39.5],[-14.5,-38.0],[-14.714285714285712,-36.714285714285715],[-15.0,-36.0],[-15.0,-35.0],[-15.714285714285712,-34.71428571428571],[-17.6,-33.6],[-18.400000000000002,-33.4],[-19.5,-32.5],[-20.333333333333332,-32.0],[-21.166666666666668,-31.166666666666664],[-22.363636363636363,-30.363636363636367],[-25.5,-29.0],[-26.0,-28.5],[-27.0,-28.0],[-29.0,-28.0],[-29.6,-27.6],[-30.400000000000002,-27.4],[-31.0,-27.0],[-33.0,-27.0],[-34.0,-26.5],[-35.0,-26.5],[-36.285714285714285,-26.285714285714285],[-37.0,-26.0],[-38.0,-26.0],[-40.0,-25.0],[-41.0,-25.0],[-42.0,-24.666666666666668],[-44.0,-24.666666666666668],[-46.28571428571428,-24.285714285714285],[-47.0,-24.0],[-48.0,-24.333333333333336],[-49.0,-24.0],[-50.0,-24.0],[-50.60000000000001,-23.6],[-51.0,-23.0],[-52.4,-20.400000000000002],[-52.6,-19.6],[-53.0,-19.0],[-52.6,-18.400000000000002],[-52.4,-17.6],[-52.0,-17.0],[-52.4,-16.400000000000002],[-52.5,-16.0],[-51.5,-14.0],[-50.71428571428571,-13.285714285714285],[-50.0,-13.0],[-49.77777777777778,-12.222222222222221],[-49.33333333333334,-11.666666666666668],[-49.0,-11.5],[-48.0,-10.0],[-46.0,-9.5],[-45.0,-9.5],[-44.333333333333336,-8.666666666666668],[-43.0,-7.833333333333334],[-41.8,-7.8],[-40.15384615384615,-8.153846153846153],[-40.0,-8.333333333333334],[-38.75,-8.75],[-38.5,-9.0],[-37.266666666666666,-9.266666666666666],[-36.733333333333334,-9.266666666666666],[-36.0,-9.0],[-35.0,-9.285714285714285],[-33.0,-9.142857142857144],[-32.5,-9.0],[-32.0,-8.666666666666668],[-31.77777777777778,-8.222222222222221],[-31.0,-7.5],[-29.66666666666667,-7.0],[-29.400000000000002,-6.6000000000000005],[-29.0,-6.333333333333333],[-28.0,-7.0],[-27.235294117647058,-7.235294117647059],[-26.714285714285715,-7.7142857142857135],[-26.0,-8.75],[-25.77777777777778,-8.777777777777779],[-25.0,-9.333333333333334],[-22.77777777777778,-9.222222222222221],[-22.307692307692307,-9.307692307692308],[-20.0,-9.0],[-19.6,-8.4],[-19.0,-8.0],[-18.0,-8.0],[-18.0,-7.0],[-21.0,-7.0],[-21.0,-6.0],[-22.0,-6.0],[-23.400000000000002,-5.4],[-24.0,-5.0],[-25.0,-3.0],[-26.0,-3.0],[-26.0,-2.0],[-27.0,-2.0],[-27.6,-1.6],[-28.5,-1.5],[-29.0,-1.0],[-29.0,-4.0],[-29.666666666666668,-4.333333333333334],[-30.285714285714285,-4.285714285714286],[-31.0,-4.0],[-32.0,-4.0],[-33.0,-4.333333333333334],[-34.0,-5.0],[-35.53846153846154,-6.461538461538462],[-37.0,-7.0],[-39.0,-7.0],[-39.83333333333333,-6.833333333333333],[-40.46153846153847,-6.461538461538462],[-41.53846153846154,-5.538461538461539],[-42.4,-3.4000000000000004],[-42.81818181818182,-2.8181818181818183],[-44.0,-2.0],[-46.0,-1.0],[-46.0,0.0],[-44.0,2.0],[-42.0,3.0],[-41.0,3.0],[-40.0,3.666666666666667],[-39.0,4.0],[-38.46153846153847,4.461538461538462],[-36.89473684210526,4.894736842105264],[-36.42857142857143,5.428571428571429],[-35.5,6.0],[-35.0,7.0],[-33.0,7.0],[-32.0,6.0],[-31.22222222222222,4.777777777777778],[-31.0,4.0],[-30.6,3.4000000000000004],[-30.0,1.75],[-29.333333333333336,1.6666666666666665],[-29.0,1.5],[-28.25,2.25],[-27.555555555555554,2.555555555555556],[-27.0,3.0],[-27.5,4.0],[-27.333333333333336,5.0],[-28.0,6.0],[-29.0,7.0],[-29.0,8.0],[-29.400000000000002,8.600000000000001],[-29.5,9.0],[-29.0,9.5],[-28.75,10.0],[-29.0,11.0],[-29.0,13.0],[-29.400000000000002,13.600000000000001],[-30.0,15.0],[-31.0,15.0],[-31.0,20.0],[-30.0,20.0],[-30.0,21.0],[-29.666666666666668,21.666666666666668],[-29.666666666666668,22.333333333333336],[-30.0,23.0],[-30.0,24.0],[-29.0,24.5],[-28.0,25.666666666666668],[-27.666666666666668,25.66666666666667],[-27.0,26.0],[-26.0,29.0],[-25.0,29.5],[-23.71428571428571,29.714285714285715],[-23.0,30.0],[-22.0,30.0],[-21.4,30.400000000000002],[-21.0,31.0],[-20.0,31.0],[-19.6,31.6],[-19.0,32.0],[-16.0,32.5],[-15.666666666666668,32.66666666666667],[-15.5,33.0],[-14.400000000000002,33.4],[-14.0,34.0],[-13.0,34.5],[-12.0,34.66666666666667],[-9.714285714285714,34.71428571428571],[-8.0,35.333333333333336],[-7.0,35.0],[-6.0,35.0],[-6.0,33.0],[-7.0,32.0],[-7.6,31.6]],[[174.0,-73.0],[175.0,-73.0],[175.0,-71.0],[174.0,-71.0],[174.0,-73.0]]],[[[22.0,-15.0],[21.0,-15.444444444444445],[20.652173913043477,-15.347826086956522],[20.099999999999998,-14.899999999999999],[19.6,-14.0],[19.692307692307693,-13.692307692307693],[20.210526315789473,-13.210526315789474],[21.0,-13.0],[21.68,-13.32],[22.22222222222222,-14.0],[22.0,-15.0]]],[[[52.440000000000005,10.56],[52.10526315789474,9.894736842105264],[49.27272727272727,8.0],[48.8695652173913,7.869565217391305],[47.0,8.0],[47.333333333333336,8.666666666666668],[47.333333333333336,9.0],[48.0,9.5],[48.71428571428571,10.285714285714285],[49.0,10.4],[49.2,10.8],[50.067796610169495,10.932203389830509],[50.46153846153847,11.53846153846154],[51.214285714285715,11.785714285714285],[53.0,12.0],[53.42857142857143,11.428571428571429],[53.375,11.0],[52.440000000000005,10.56]]],[[[38.13333333333333,63.13333333333333],[40.0,62.75],[40.315789473684205,62.315789473684205],[41.25,62.0],[42.230769230769226,61.23076923076923],[43.199999999999996,61.0],[44.26086956521739,60.26086956521739],[46.0,60.03448275862069],[46.470588235294116,59.470588235294116],[47.18181818181819,59.18181818181819],[48.5,59.0],[49.42424242424242,58.42424242424243],[51.0,58.0],[51.5,57.5],[52.15,57.150000000000006],[53.0,57.0],[54.125,56.125],[55.0,55.75],[56.0,55.07692307692308],[57.61111111111111,53.611111111111114],[59.9,50.900000000000006],[60.95652173913044,48.95652173913044],[61.542857142857144,47.542857142857144],[61.94444444444444,45.0],[61.849999999999994,44.0],[62.0,43.0],[61.727272727272734,41.0],[62.0,40.0],[64.25,39.0],[64.53846153846155,38.53846153846154],[65.0,38.5],[65.6,38.0],[65.24000000000001,37.760000000000005],[64.625,37.625],[64.0,38.0],[64.0,37.0],[64.41860465116278,36.41860465116279],[64.65384615384616,35.65384615384615],[65.125,35.0],[64.6,29.400000000000002],[64.33333333333333,28.0],[64.0,27.0],[64.47058823529412,26.470588235294116],[65.0,25.333333333333332],[66.2,24.0],[66.0,23.0],[66.33333333333334,22.333333333333336],[67.0,22.0],[69.0,22.75],[70.28571428571428,22.285714285714285],[72.5,22.0],[74.0,21.305555555555557],[75.1875,21.0],[76.3956043956044,20.395604395604394],[78.0,20.0],[80.07142857142857,19.07142857142857],[83.0,18.818181818181817],[84.3132530120482,18.313253012048193],[86.0,18.018867924528305],[86.5,17.5],[87.72727272727272,17.0],[88.44444444444443,16.444444444444443],[89.13698630136986,16.136986301369863],[90.0,16.0],[90.65714285714286,15.657142857142857],[92.2258064516129,15.225806451612904],[94.75,15.0],[97.0,14.428571428571429],[98.5,15.0],[101.0,15.066666666666666],[101.16666666666667,15.0],[101.0,14.0],[100.52941176470588,13.470588235294116],[100.33333333333333,13.0],[99.0,11.75],[97.44444444444443,10.555555555555554],[97.0,10.0],[93.0,10.0],[92.4,9.600000000000001],[92.0,9.5],[91.60000000000001,9.600000000000001],[91.0,10.0],[90.0,10.25],[83.0,10.5],[82.6,10.600000000000001],[82.0,11.0],[80.0,11.0],[78.0,13.0],[78.0,14.0],[77.5,14.5],[77.33333333333334,15.000000000000002],[76.5,16.0],[74.26666666666667,16.266666666666666],[72.63636363636363,16.636363636363637],[72.0,17.0],[71.0,17.0],[71.0,16.0],[71.5,15.0],[71.5,14.0],[71.0,13.0],[68.0,13.0],[67.0,13.25],[65.82608695652173,13.826086956521738],[65.0,14.0],[64.73333333333333,14.733333333333334],[63.88235294117647,15.882352941176471],[63.647058823529406,16.647058823529413],[63.4,18.0],[63.69230769230769,19.307692307692307],[64.0,20.0],[63.32,20.32],[62.69230769230769,20.0],[62.47368421052632,19.52631578947369],[61.42857142857143,19.0],[60.800000000000004,18.2],[60.20689655172414,17.79310344827586],[58.73913043478261,16.26086956521739],[58.0,16.0],[56.333333333333336,15.666666666666668],[56.0,15.5],[53.0,16.142857142857142],[51.0,16.0],[50.55555555555555,15.444444444444443],[50.25,14.75],[49.0,13.5],[48.9047619047619,13.095238095238095],[48.42857142857143,12.571428571428573],[48.0,12.399999999999999],[47.45454545454545,11.545454545454547],[46.77777777777777,11.222222222222221],[45.18181818181819,11.181818181818182],[44.55555555555555,12.555555555555555],[44.25,14.0],[44.75,16.25],[45.15384615384615,16.846153846153847],[48.0,16.88888888888889],[48.33333333333333,17.0],[48.333333333333336,17.333333333333336],[48.0,18.0],[47.0,18.5],[46.71428571428571,18.285714285714285],[46.00000000000001,18.2],[45.77777777777778,17.77777777777778],[45.77777777777778,17.22222222222222],[45.22222222222222,17.22222222222222],[44.91304347826087,17.08695652173913],[43.166666666666664,17.166666666666664],[42.53846153846154,17.538461538461537],[42.18181818181818,18.181818181818183],[42.090909090909086,20.0],[42.22222222222223,20.77777777777778],[42.57142857142857,21.42857142857143],[43.2,22.0],[43.0,22.200000000000003],[42.0,22.5],[41.0,22.0],[40.0,22.0],[38.583333333333336,22.583333333333332],[38.0,23.4],[37.66666666666667,23.666666666666668],[37.333333333333336,24.333333333333336],[37.0,26.0],[35.44444444444444,26.444444444444443],[34.8,26.8],[34.0,28.0],[32.0,28.25],[31.461538461538463,28.461538461538463],[31.0,29.0],[30.142857142857146,29.142857142857146],[29.523809523809522,29.523809523809522],[29.0,30.125],[28.266666666666666,30.266666666666666],[27.571428571428573,30.571428571428573],[27.0,31.0],[25.0,32.0],[24.400000000000002,32.4],[24.0,33.0],[24.0,34.0],[24.6,34.400000000000006],[25.0,35.0],[26.0,35.333333333333336],[27.0,35.333333333333336],[28.0,35.5],[30.0,35.0],[31.0,35.0],[31.77777777777778,34.77777777777778],[33.0,34.33333333333333],[33.857142857142854,33.857142857142854],[35.42857142857143,33.42857142857143],[36.0,33.0],[38.77777777777778,32.77777777777778],[39.6,32.6],[40.0,32.333333333333336],[41.333333333333336,32.333333333333336],[42.0,32.0],[43.0,32.0],[43.0,33.0],[41.0,34.0],[41.0,35.0],[41.6,35.400000000000006],[42.333333333333336,35.66666666666667],[42.5,36.0],[42.333333333333336,36.333333333333336],[41.71428571428571,36.714285714285715],[41.400000000000006,37.4],[41.0,37.666666666666664],[40.0,38.0],[39.0,38.0],[38.0,37.666666666666664],[35.0,37.666666666666664],[34.0,38.0],[33.0,38.0],[32.0,38.5],[31.0,38.66666666666667],[30.0,39.0],[29.0,39.0],[28.0,39.5],[27.0,39.666666666666664],[26.0,40.5],[24.0,41.5],[23.5,42.0],[23.0,43.0],[21.5,44.0],[20.0,45.5],[19.0,46.0],[18.6,46.6],[18.0,47.0],[17.666666666666668,47.66666666666667],[17.0,48.0],[16.714285714285715,48.71428571428571],[15.666666666666668,50.0],[16.0,51.0],[17.0,52.0],[19.0,52.0],[20.0,52.5],[20.5,53.0],[20.77777777777778,54.22222222222222],[21.5,55.0],[21.5,56.0],[20.285714285714285,57.28571428571428],[18.400000000000002,58.400000000000006],[17.692307692307693,58.69230769230769],[17.5,59.0],[18.0,60.0],[19.0,60.25],[21.0,60.333333333333336],[21.5,60.5],[22.0,61.0],[23.0,61.0],[24.5,61.5],[25.0,62.0],[27.0,62.599999999999994],[27.5,63.0],[29.400000000000002,63.60000000000001],[31.090909090909093,63.90909090909091],[36.0,63.77777777777778],[37.0,63.66666666666667],[38.13333333333333,63.13333333333333]]],[[[20.0,42.0],[20.6,41.6],[21.0,41.0],[21.53846153846154,40.53846153846154],[22.0,39.66666666666667],[22.333333333333336,39.333333333333336],[22.5,39.0],[22.5,38.0],[22.285714285714285,37.71428571428571],[21.666666666666668,37.333333333333336],[20.0,37.285714285714285],[18.6,37.6],[18.0,38.0],[17.0,38.0],[16.285714285714285,38.285714285714285],[15.666666666666668,38.333333333333336],[13.0,37.0],[12.0,37.5],[11.0,37.5],[10.75,37.75],[10.5,39.0],[11.0,40.0],[12.0,40.0],[12.4,40.6],[13.0,41.0],[12.6,41.6],[12.5,42.0],[13.0,43.0],[14.0,43.66666666666667],[15.0,44.0],[18.22222222222222,43.22222222222222],[19.571428571428573,42.57142857142857],[20.0,42.0]]],[[[108.0,-16.0],[107.46153846153847,-15.53846153846154],[106.5,-15.0],[106.33333333333334,-14.0],[106.5,-13.5],[107.6,-12.6],[108.0,-12.5],[108.4,-12.6],[109.0,-13.0],[110.0,-13.0],[110.33333333333334,-14.0],[110.33333333333334,-15.0],[109.71428571428571,-15.714285714285712],[108.0,-16.0]]],[[[95.4,-12.6],[95.57142857142857,-14.428571428571429],[96.0,-15.0],[95.33333333333334,-15.333333333333334],[95.0,-15.4],[94.0,-15.142857142857142],[93.0,-14.5],[92.5,-14.0],[91.625,-12.0],[91.625,-11.0],[92.0,-10.25],[93.0,-9.75],[94.44444444444444,-10.555555555555554],[94.8,-11.0],[95.0,-12.0],[95.4,-12.6]]],[[[100.42857142857144,1.4285714285714286],[101.0,1.0],[101.24489795918367,0.24489795918367346],[101.5,0.0],[102.35714285714286,-1.6428571428571428],[103.0,-2.3333333333333335],[103.18604651162791,-2.813953488372093],[104.33333333333334,-4.0],[105.0,-5.0],[105.26666666666667,-5.7333333333333325],[106.0,-7.0],[106.0,-9.0],[105.0,-9.0],[104.0,-10.0],[102.0,-10.0],[100.0,-8.0],[99.60000000000001,-7.4],[99.0,-7.0],[98.66666666666667,-6.333333333333334],[98.0,-6.0],[97.66666666666669,-5.333333333333334],[97.0,-5.0],[96.5,-4.0],[95.66666666666667,-3.3333333333333335],[94.60000000000001,-1.4000000000000001],[94.5,-1.0],[94.5,0.0],[94.60000000000001,0.4],[95.0,1.0],[95.0,2.0],[94.75,2.75],[94.77777777777777,3.2222222222222223],[95.5,4.5],[96.83333333333333,5.166666666666666],[97.16666666666666,5.166666666666666],[98.0,4.833333333333334],[98.94117647058823,3.9411764705882355],[100.42857142857144,1.4285714285714286]]],[[[75.0,39.333333333333336],[75.28571428571428,39.28571428571428],[75.5,39.0],[75.33333333333334,38.66666666666667],[75.25,38.0],[74.875,37.875],[74.0,37.75],[72.85714285714286,37.857142857142854],[72.0,38.0],[71.33333333333334,38.333333333333336],[70.71428571428571,38.285714285714285],[70.0,38.0],[69.0,38.0],[69.0,39.0],[72.95121951219512,39.048780487804876],[74.33333333333334,39.333333333333336],[74.75,39.25],[75.0,39.333333333333336]]],[[[99.32786885245902,46.32786885245902],[102.34782608695652,46.652173913043484],[104.11320754716982,47.11320754716981],[106.0,47.31818181818181],[107.04347826086958,47.0],[107.15384615384615,46.0],[107.0,45.599999999999994],[106.0,45.333333333333336],[105.0,44.8],[104.63636363636363,44.36363636363637],[104.0,44.0],[103.57894736842104,43.421052631578945],[102.33333333333334,43.0],[101.66666666666667,42.333333333333336],[100.91304347826087,42.08695652173913],[100.0,42.0],[99.36363636363636,41.63636363636364],[98.0,41.57142857142857],[96.0,41.75],[93.0,41.333333333333336],[92.0,41.0],[91.0,40.5],[90.75,40.25],[90.0,40.0],[89.44444444444444,39.55555555555555],[88.15384615384616,38.84615384615385],[86.5,38.5],[86.0,38.42857142857142],[85.0,38.8],[84.0,38.8],[82.83333333333333,39.16666666666667],[82.16666666666667,39.16666666666667],[81.53846153846155,39.53846153846155],[80.5,40.5],[79.77777777777777,40.77777777777778],[79.66666666666666,41.0],[80.28571428571428,41.28571428571428],[80.71428571428572,41.28571428571428],[81.0,42.0],[82.0,42.0],[83.08695652173913,42.91304347826087],[83.86666666666666,43.13333333333333],[84.9,44.0],[87.0,45.0],[87.87755102040816,45.12244897959184],[90.0,45.800000000000004],[91.0,46.0],[92.0,46.0],[93.0,46.5],[94.0,46.5],[95.0,47.0],[95.82857142857142,47.17142857142857],[97.42857142857142,47.0],[97.71428571428571,46.71428571428571],[98.38888888888889,46.388888888888886],[99.32786885245902,46.32786885245902]]]]}}]}