{"type":"FeatureCollection","features":[{"type":"Feature","properties":{"ageMa":500},"geometry":{"type":"MultiPolygon","coordinates":[[[[-75.5,-48.0],[-75.15384615384616,-49.0],[-76.26506024096386,-49.26506024096385],[-80.75,-49.0],[-80.27272727272727,-48.72727272727273],[-80.16666666666667,-48.0],[-78.91752577319588,-47.91752577319588],[-78.2,-48.00000000000001],[-78.0,-48.2],[-77.66666666666667,-48.0],[-76.08928571428571,-47.91071428571429],[-75.5,-48.0]]],[[[-88.54545454545453,-44.0],[-88.0,-43.85365853658537],[-87.25,-44.0],[-87.0,-45.0],[-88.0,-45.66666666666667],[-89.0,-45.38461538461539],[-89.1388888888889,-45.0],[-89.0,-44.5],[-88.54545454545453,-44.0]]],[[[-101.6,-42.0],[-101.84,-41.84],[-102.05263157894737,-41.0],[-100.81012658227849,-40.81012658227848],[-100.0,-41.0],[-100.26666666666667,-41.733333333333334],[-100.57142857142857,-42.0],[-100.95121951219512,-42.04878048780488],[-101.6,-42.0]]],[[[-110.4,-32.0],[-110.0,-31.0],[-109.9578947368421,-32.04210526315789],[-110.0,-32.333333333333336],[-110.4,-32.0]]],[[[-110.94827586206897,-28.0],[-111.0,-29.333333333333336],[-111.33333333333334,-29.0],[-111.60000000000001,-28.0],[-111.24,-27.759999999999998],[-110.94827586206897,-28.0]]],[[[-95.84615384615384,-29.846153846153847],[-95.81818181818181,-30.18181818181818],[-96.0,-31.0],[-96.57142857142858,-31.42857142857143],[-97.0,-31.45],[-97.42857142857142,-31.0],[-97.57894736842104,-30.57894736842105],[-98.0,-30.25],[-98.23076923076923,-29.0],[-98.23684210526316,-28.0],[-98.0,-27.142857142857146],[-97.56321839080461,-26.436781609195403],[-97.27659574468085,-24.0],[-97.0,-22.9],[-96.0,-23.0],[-95.57142857142857,-25.0],[-95.57142857142857,-26.0],[-96.05128205128206,-26.94871794871795],[-96.22222222222223,-29.0],[-95.84615384615384,-29.846153846153847]]],[[[-112.0,-27.77777777777778],[-112.46666666666667,-27.46666666666667],[-112.77777777777777,-26.77777777777778],[-113.34782608695653,-26.347826086956523],[-113.5,-26.0],[-113.33333333333334,-25.0],[-112.94285714285715,-25.0],[-112.77777777777777,-25.77777777777778],[-112.29166666666666,-25.708333333333332],[-111.89230769230768,-26.0],[-111.84946236559139,-26.849462365591396],[-111.65853658536585,-27.34146341463414],[-112.0,-27.77777777777778]]],[[[-131.0,-24.0],[-131.42857142857144,-24.57142857142857],[-132.0,-25.0],[-133.0,-24.833333333333336],[-134.13333333333333,-24.133333333333333],[-134.63636363636363,-22.636363636363637],[-135.0,-22.0],[-134.15384615384616,-20.846153846153847],[-132.8181818181818,-20.81818181818182],[-132.0,-21.0],[-131.4,-21.4],[-131.0,-22.0],[-130.9,-23.0],[-131.0,-24.0]]],[[[-97.66666666666669,-20.333333333333336],[-98.0,-20.444444444444443],[-98.18604651162791,-20.186046511627907],[-98.7872340425532,-20.212765957446805],[-99.35714285714286,-20.0],[-99.53846153846155,-19.53846153846154],[-100.0,-19.4375],[-100.20289855072464,-19.202898550724637],[-101.0,-18.928571428571427],[-101.39393939393939,-18.0],[-101.37037037037035,-17.37037037037037],[-101.5,-17.0],[-101.33333333333334,-16.666666666666668],[-101.0,-16.375],[-100.58333333333333,-16.583333333333332],[-99.63636363636363,-17.636363636363637],[-99.0,-19.0],[-97.63636363636363,-19.636363636363637],[-97.42857142857142,-20.0],[-97.66666666666669,-20.333333333333336]]],[[[-140.0,-16.857142857142858],[-141.0,-16.6],[-141.31578947368422,-16.31578947368421],[-141.68421052631578,-15.684210526315788],[-141.88888888888889,-14.999999999999998],[-141.625,-14.375],[-141.0,-14.0],[-140.10526315789474,-13.894736842105264],[-139.0,-14.444444444444445],[-138.7826086956522,-14.782608695652174],[-138.375,-15.0],[-138.5,-16.0],[-138.73333333333335,-16.266666666666666],[-140.0,-16.857142857142858]]],[[[-108.0,-13.4],[-107.4,-14.0],[-107.8,-14.200000000000001],[-109.42857142857143,-14.0],[-109.4,-13.600000000000001],[-109.0,-13.0],[-108.0,-13.4]]],[[[-97.14285714285714,-10.142857142857142],[-98.3157894736842,-9.31578947368421],[-98.5,-9.0],[-98.66666666666669,-8.0],[-98.38095238095237,-7.619047619047619],[-98.0,-7.428571428571429],[-97.0,-7.428571428571429],[-95.15384615384616,-8.153846153846153],[-94.6,-9.0],[-95.73333333333332,-10.266666666666666],[-96.0,-10.4],[-97.14285714285714,-10.142857142857142]]],[[[-146.42857142857144,-8.0],[-146.65217391304347,-8.347826086956522],[-147.0,-8.5],[-147.25,-8.25],[-148.0,-8.0],[-148.8181818181818,-6.999999999999999],[-149.3,-6.0],[-149.13333333333333,-4.866666666666667],[-149.0,-4.8],[-148.92000000000002,-4.92],[-148.0,-5.09090909090909],[-147.6551724137931,-5.655172413793103],[-147.0,-6.0],[-146.76666666666668,-6.766666666666667],[-146.53333333333336,-7.0],[-146.42857142857144,-8.0]]],[[[-155.72727272727272,3.2727272727272725],[-155.85714285714286,3.857142857142857],[-155.75,4.0],[-155.0,4.125],[-154.72727272727275,4.0],[-154.0,3.0],[-154.375,2.375],[-155.0,2.2666666666666666],[-155.28947368421052,2.7105263157894735],[-155.78571428571428,3.0],[-155.72727272727272,3.2727272727272725]]],[[[-154.0,10.285714285714286],[-154.32786885245903,10.672131147540984],[-155.0,11.142857142857142],[-155.19230769230768,13.0],[-155.0,13.625],[-154.0,13.818181818181817],[-153.0,13.428571428571427],[-152.14285714285717,12.0],[-152.0,11.0],[-153.0,10.125],[-154.0,10.285714285714286]]],[[[-152.27586206896552,17.724137931034484],[-152.58620689655174,18.413793103448278],[-152.73333333333335,19.0],[-152.48888888888888,19.488888888888887],[-152.0,20.027027027027025],[-151.3684210526316,19.63157894736842],[-151.0,19.611111111111114],[-150.26666666666668,19.0],[-149.95454545454544,18.0],[-150.0,17.8],[-151.0,17.125],[-151.76,17.240000000000002],[-152.27586206896552,17.724137931034484]]],[[[-173.75,25.0],[-173.3157894736842,24.684210526315788],[-172.84615384615384,24.153846153846153],[-172.25,23.0],[-173.0,22.0],[-174.0,22.4],[-175.0,22.25],[-176.25,22.75],[-178.0,23.0],[-179.0,23.0],[-180.0,23.5],[-180.0,30.333333333333336],[-179.66666666666669,30.0],[-179.2,28.799999999999997],[-177.0,27.0],[-176.36363636363637,26.636363636363637],[-176.0,26.0],[-175.0,26.0],[-174.28571428571428,25.714285714285715],[-173.75,25.0]]],[[[-158.0,26.333333333333336],[-157.8181818181818,26.0],[-157.86666666666667,25.866666666666667],[-158.91666666666666,25.916666666666668],[-159.61904761904762,26.38095238095238],[-160.0,26.390243902439025],[-160.83333333333334,27.0],[-161.24,27.759999999999998],[-161.6315789473684,28.0],[-161.48,28.48],[-161.0,28.666666666666668],[-160.0,28.42857142857143],[-159.16666666666666,28.0],[-158.75675675675677,27.243243243243242],[-158.30769230769232,27.0],[-158.32,26.68],[-158.0,26.333333333333336]]],[[[38.95454545454545,-50.0],[40.0,-49.333333333333336],[41.30769230769231,-50.0],[41.266666666666666,-50.266666666666666],[40.80952380952381,-50.80952380952381],[40.0,-51.04545454545455],[38.95454545454545,-50.0]]],[[[-11.0,-38.6],[-9.833333333333332,-38.833333333333336],[-8.0,-39.5],[-6.333333333333334,-40.333333333333336],[-3.2857142857142856,-41.28571428571428],[-1.0,-41.5],[0.0,-41.8],[1.0,-41.8],[2.0,-42.2],[3.0000000000000004,-42.2],[4.0,-42.6],[5.0,-42.6],[5.625,-44.0],[6.2,-46.0],[5.833333333333333,-47.00000000000001],[6.0,-48.0],[6.0,-49.0],[5.142857142857143,-52.142857142857146],[5.0,-54.0],[4.75,-54.75],[4.4,-57.0],[3.6,-58.0],[3.1818181818181817,-58.18181818181818],[2.0,-59.25],[1.0,-59.75],[-1.0,-60.25],[-2.0,-60.66666666666667],[-3.7142857142857144,-60.71428571428571],[-5.0,-61.0],[-9.0,-61.0],[-13.0,-60.400000000000006],[-14.0,-60.0],[-14.777777777777779,-60.22222222222222],[-16.0,-60.333333333333336],[-17.0,-60.71428571428571],[-18.0,-60.57142857142857],[-21.0,-60.66666666666667],[-24.181818181818183,-60.18181818181818],[-27.307692307692307,-59.307692307692314],[-29.375,-58.375],[-31.27272727272727,-57.272727272727266],[-32.25,-57.0],[-33.25,-56.25],[-33.66666666666667,-55.66666666666667],[-34.25,-55.25],[-34.8,-54.0],[-34.33333333333333,-52.0],[-32.285714285714285,-50.71428571428571],[-30.75,-50.25],[-30.0,-49.75],[-29.363636363636367,-49.63636363636363],[-28.0,-49.5],[-25.75,-49.75],[-25.0,-50.0],[-23.0,-49.4],[-22.333333333333336,-49.0],[-22.0,-48.5],[-20.5,-47.0],[-20.333333333333332,-46.0],[-20.666666666666668,-45.66666666666667],[-21.0,-45.0],[-21.636363636363637,-44.63636363636364],[-22.333333333333336,-44.0],[-22.6,-43.0],[-22.25,-42.0],[-20.81818181818182,-41.18181818181818],[-20.363636363636363,-40.63636363636364],[-20.0,-39.75],[-19.0,-39.0],[-16.0,-38.5],[-15.0,-39.0],[-14.0,-39.0],[-13.0,-38.5],[-11.0,-38.6]]],[[[-63.388888888888886,-49.0],[-64.0,-49.234042553191486],[-65.27118644067797,-49.271186440677965],[-66.11111111111111,-49.0],[-65.52380952380952,-48.476190476190474],[-65.375,-48.0],[-64.0,-47.3],[-63.272727272727266,-47.272727272727266],[-62.54545454545454,-47.54545454545455],[-62.230769230769226,-48.0],[-62.75,-48.25],[-63.388888888888886,-49.0]]],[[[-170.0,16.0],[-169.4,15.600000000000001],[-169.0,15.0],[-168.66666666666666,14.0],[-167.66666666666669,13.0],[-166.625,12.375],[-165.6923076923077,11.307692307692308],[-164.33333333333334,8.666666666666668],[-163.42857142857144,7.571428571428571],[-162.86666666666667,7.133333333333333],[-162.46153846153845,6.538461538461538],[-162.0,6.25],[-160.63636363636363,4.363636363636363],[-160.0,4.222222222222222],[-159.8181818181818,3.1818181818181817],[-159.57142857142856,3.0],[-159.38095238095238,2.6190476190476186],[-159.0,2.428571428571429],[-158.6923076923077,1.3076923076923077],[-158.0,0.75],[-157.86363636363637,0.13636363636363635],[-157.7,0.0],[-157.5,-3.0],[-157.4,-3.4000000000000004],[-157.0,-4.0],[-157.0,-5.0],[-156.5,-7.0],[-155.5,-9.0],[-155.0,-11.0],[-154.6,-12.0],[-154.6,-13.0],[-153.0,-17.0],[-151.5,-20.0],[-151.0,-22.0],[-150.5,-23.0],[-150.28571428571428,-24.285714285714285],[-149.83333333333334,-24.833333333333332],[-149.22222222222223,-26.22222222222222],[-148.42857142857144,-27.42857142857143],[-148.0,-28.0],[-146.85714285714286,-28.857142857142858],[-146.33333333333334,-30.000000000000004],[-145.66666666666666,-31.0],[-143.8181818181818,-32.81818181818182],[-143.0,-34.0],[-141.8,-34.8],[-141.30769230769232,-35.30769230769231],[-140.0,-36.0],[-139.0,-36.0],[-138.22222222222223,-35.77777777777778],[-137.8181818181818,-35.81818181818182],[-137.0,-36.333333333333336],[-136.4,-35.6],[-136.0,-35.5],[-134.68421052631578,-34.315789473684205],[-134.0,-34.1],[-133.68,-33.32],[-133.0,-32.5],[-132.7391304347826,-31.26086956521739],[-132.45454545454544,-30.545454545454547],[-131.8,-30.0],[-131.0,-29.0],[-130.0,-29.5],[-129.57142857142856,-30.0],[-129.0,-30.4],[-128.05555555555554,-32.0],[-127.75999999999999,-33.76],[-127.91666666666667,-35.0],[-128.5,-36.0],[-128.66666666666669,-37.0],[-128.5,-38.0],[-126.33333333333334,-41.333333333333336],[-126.0,-42.0],[-125.88235294117646,-42.88235294117647],[-125.25,-44.0],[-125.28571428571428,-45.71428571428571],[-125.66666666666667,-47.333333333333336],[-126.0,-48.0],[-126.0,-49.0],[-125.0,-49.666666666666664],[-124.0,-50.0],[-123.46153846153847,-50.46153846153847],[-121.60000000000001,-51.6],[-118.0,-52.400000000000006],[-114.0,-52.833333333333336],[-113.0,-53.333333333333336],[-112.0,-53.333333333333336],[-111.0,-53.66666666666667],[-109.0,-53.75],[-106.0,-54.4],[-105.0,-54.5],[-103.66666666666669,-54.333333333333336],[-103.0,-54.0],[-102.4,-54.400000000000006],[-102.0,-54.5],[-101.0,-54.5],[-100.66666666666669,-54.66666666666667],[-100.0,-54.75],[-99.0,-54.66666666666667],[-98.0,-55.0],[-96.0,-55.0],[-95.60000000000001,-55.60000000000001],[-95.0,-56.0],[-94.0,-56.25],[-93.0,-56.333333333333336],[-91.0,-57.0],[-89.60000000000001,-57.6],[-88.33333333333334,-58.33333333333334],[-88.0,-59.0],[-87.0,-60.0],[-86.4,-60.400000000000006],[-85.0,-61.0],[-84.0,-62.0],[-83.33333333333334,-61.66666666666667],[-83.0,-61.666666666666664],[-81.875,-61.875],[-81.125,-61.875],[-80.0,-62.333333333333336],[-78.0,-62.57142857142857],[-73.86666666666667,-61.86666666666666],[-73.0,-62.2],[-72.0,-62.2],[-71.0,-63.0],[-70.0,-63.0],[-69.66666666666667,-64.0],[-69.0,-65.0],[-68.5,-67.0],[-68.0,-68.0],[-67.75,-69.0],[-68.0,-70.0],[-69.0,-70.0],[-69.0,-71.0],[-68.0,-71.0],[-67.4,-70.60000000000001],[-67.0,-70.66666666666666],[-66.46153846153847,-71.46153846153847],[-65.75,-72.0],[-65.66666666666667,-72.33333333333334],[-66.0,-73.0],[-65.0,-73.0],[-63.83333333333333,-73.83333333333333],[-63.0,-74.66666666666667],[-62.18181818181818,-75.18181818181819],[-61.0,-76.25],[-59.81818181818181,-76.81818181818181],[-59.25,-77.25],[-57.0,-78.0],[-56.400000000000006,-78.4],[-52.35294117647059,-80.35294117647058],[-51.0,-80.8],[-48.0,-81.4],[-45.0,-81.6],[-43.833333333333336,-81.83333333333334],[-43.14285714285714,-82.14285714285714],[-42.0,-82.33333333333334],[-41.0,-82.33333333333334],[-37.0,-82.8],[-35.81818181818182,-82.81818181818181],[-35.0,-83.0],[-34.0,-83.0],[-31.0,-83.75],[-29.0,-84.0],[-28.0,-84.0],[-27.0,-83.75],[-25.0,-84.28571428571428],[-20.53846153846154,-84.53846153846153],[-18.0,-85.0],[-15.0,-85.0],[-14.0,-84.8],[-11.866666666666667,-85.13333333333333],[-10.000000000000002,-85.14285714285714],[-9.0,-85.0],[-7.818181818181818,-85.18181818181819],[-6.0,-85.16666666666667],[-4.0,-85.33333333333334],[-3.0,-85.25],[-1.6666666666666665,-85.66666666666667],[-1.0,-85.75],[1.6842105263157894,-85.68421052631578],[4.121212121212121,-85.87878787878788],[19.0,-86.0],[20.000000000000004,-86.14285714285715],[23.0,-86.14285714285715],[24.0,-86.0],[30.0,-86.0],[31.11111111111111,-85.88888888888889],[39.0,-86.0],[43.84615384615385,-85.84615384615385],[45.0,-85.66666666666666],[47.0,-85.8],[49.0,-85.375],[50.0,-85.5],[51.0,-85.8],[52.0,-85.57142857142857],[54.6,-85.4],[60.0,-85.28571428571428],[61.0,-85.16666666666667],[64.0,-85.2],[65.0,-85.0],[66.0,-85.0],[67.0,-84.75],[69.0,-84.75],[71.0,-84.5],[72.0,-84.75],[77.0,-84.5],[79.0,-84.85714285714285],[81.0,-84.4],[83.0,-84.5],[84.0,-84.75],[86.0,-84.83333333333334],[87.0,-84.5],[90.71428571428571,-84.28571428571428],[92.0,-84.0],[93.0,-84.0],[96.4,-83.4],[99.00000000000001,-83.33333333333334],[100.0,-82.8],[102.25,-82.75],[104.0,-82.4],[105.0,-82.57142857142857],[106.0,-82.5],[107.36363636363637,-82.63636363636363],[108.0,-83.0],[109.0,-82.66666666666666],[111.0,-83.0],[112.0,-83.0],[112.81818181818181,-82.81818181818181],[116.0,-82.57142857142857],[117.00000000000001,-82.33333333333334],[118.0,-82.33333333333334],[119.0,-82.0],[122.0,-82.0],[122.0,-81.0],[120.81818181818181,-80.18181818181819],[120.0,-79.0],[117.0,-77.0],[116.0,-76.66666666666667],[114.33333333333334,-75.66666666666667],[114.0,-75.0],[113.0,-75.0],[111.0,-74.25],[110.46153846153847,-73.53846153846155],[109.83333333333334,-73.16666666666667],[108.75,-72.0],[107.66666666666667,-71.33333333333334],[107.4,-71.0],[106.5,-69.0],[105.5,-68.0],[105.22222222222223,-66.77777777777777],[104.75,-66.0],[103.35294117647058,-64.6470588235294],[102.75,-64.25],[102.09523809523809,-62.904761904761905],[102.0,-62.0],[100.55555555555556,-60.0],[99.57142857142857,-58.0],[99.66666666666667,-57.66666666666667],[100.33333333333334,-57.00000000000001],[100.80000000000001,-54.0],[100.57142857142857,-53.0],[101.0,-52.666666666666664],[101.27272727272727,-52.0],[103.0,-50.3],[104.5,-50.0],[105.33333333333334,-49.33333333333334],[105.5,-49.0],[105.0,-48.0],[105.0,-45.0],[104.75,-44.0],[105.37037037037035,-42.37037037037037],[106.03846153846155,-42.03846153846154],[106.84848484848484,-41.848484848484844],[108.0,-41.714285714285715],[109.0,-41.760000000000005],[111.875,-42.125],[112.0,-42.333333333333336],[113.0,-42.5],[113.85714285714286,-43.14285714285714],[115.0,-43.599999999999994],[117.81818181818181,-44.18181818181819],[120.2,-44.2],[124.0,-44.6],[126.0,-44.4],[127.0,-43.75],[128.0,-43.75],[129.0,-43.5],[130.63636363636363,-42.63636363636364],[131.5,-42.0],[135.0,-40.5],[136.42857142857144,-39.42857142857143],[137.0,-38.66666666666667],[138.0,-38.0],[138.0,-37.0],[138.44444444444443,-36.44444444444444],[138.5,-36.0],[139.0,-35.0],[140.0,-33.666666666666664],[140.60000000000002,-32.6],[141.63636363636363,-31.636363636363637],[142.0,-31.5],[142.71428571428572,-30.71428571428571],[143.53846153846155,-30.53846153846154],[145.0,-30.5],[147.0,-29.666666666666668],[147.36363636363637,-29.363636363636367],[148.66666666666666,-29.0],[149.0,-28.75],[150.0,-28.8],[151.0,-28.6],[152.0,-28.6],[153.0,-28.8],[153.77777777777777,-28.77777777777778],[156.5,-28.5],[157.0,-29.0],[157.0,-28.0],[157.6,-27.6],[158.0,-27.0],[159.0,-27.0],[161.83333333333334,-25.833333333333336],[163.375,-25.375],[164.0,-25.0],[164.33333333333334,-24.333333333333336],[165.0,-24.0],[165.33333333333334,-23.333333333333336],[166.0,-23.0],[166.33333333333334,-22.0],[167.0,-21.0],[167.5,-20.5],[168.0,-19.5],[169.0,-19.0],[169.22222222222223,-18.22222222222222],[170.0,-17.0],[170.25,-16.0],[170.5,-15.5],[171.0,-15.0],[171.0,-14.0],[171.40000000000003,-13.4],[171.66666666666669,-12.666666666666668],[171.75,-12.0],[172.2,-11.0],[172.33333333333334,-9.0],[172.0,-8.0],[171.60000000000002,-6.0],[171.75,-5.0],[171.25,-4.0],[171.33333333333334,-2.666666666666667],[171.0,-2.0],[170.5,0.0],[170.0,1.0],[169.75,2.0],[170.0,3.0],[170.0,4.0],[169.79999999999998,5.0],[170.66666666666669,6.0],[170.66666666666669,6.333333333333334],[171.0,7.0],[170.7142857142857,7.7142857142857135],[170.75,8.0],[171.33333333333334,9.0],[171.60000000000002,10.4],[172.0,11.0],[172.66666666666669,11.333333333333334],[173.0,12.0],[173.66666666666669,12.333333333333334],[174.0,13.0],[176.0,14.25],[176.42857142857144,14.571428571428571],[176.85714285714286,15.142857142857142],[178.1176470588235,15.882352941176471],[178.57894736842104,16.421052631578945],[179.2051282051282,16.794871794871796],[180.0,17.875],[180.0,-90.0],[-180.0,-90.0],[-180.0,17.875],[-179.0,18.75],[-178.0,19.0],[-177.0,19.0],[-176.0,18.6],[-173.0,18.0],[-172.0,17.5],[-171.0,17.333333333333332],[-170.5,17.0],[-170.0,16.0]]],[[[60.0,-31.454545454545453],[60.71428571428571,-31.0],[61.0,-30.955555555555556],[61.18181818181819,-31.0],[62.0,-32.0],[61.625,-32.625],[61.0,-33.0],[60.0,-32.75],[59.73913043478261,-32.0],[60.0,-31.454545454545453]]],[[[67.0,-22.90625],[67.25,-23.0],[67.55555555555556,-24.0],[67.0,-24.555555555555557],[66.0,-24.0],[66.4,-23.0],[67.0,-22.90625]]],[[[-61.5,-4.0],[-61.125,-5.125],[-60.0,-6.0],[-59.0,-7.5],[-58.333333333333336,-9.0],[-57.66666666666667,-11.0],[-58.2,-13.0],[-58.0,-14.0],[-58.2,-16.0],[-59.25,-18.0],[-60.400000000000006,-19.6],[-61.35294117647058,-20.64705882352941],[-62.0,-21.666666666666668],[-62.307692307692314,-22.692307692307693],[-63.0,-24.0],[-63.75,-25.0],[-64.0,-26.0],[-63.33333333333334,-27.000000000000004],[-63.0,-27.166666666666664],[-62.0,-27.333333333333336],[-60.0,-27.166666666666664],[-57.0,-26.666666666666668],[-54.0,-26.75],[-53.0,-27.0],[-52.53846153846155,-27.53846153846154],[-52.400000000000006,-28.0],[-52.5,-29.0],[-53.18181818181819,-29.81818181818182],[-54.0,-30.25],[-56.75,-32.25],[-58.0,-32.6],[-58.733333333333334,-33.266666666666666],[-62.0,-34.6],[-66.0,-34.833333333333336],[-67.0,-34.6],[-68.0,-34.6],[-69.0,-34.25],[-70.0,-34.25],[-71.0,-33.75],[-73.0,-33.5],[-73.36363636363636,-33.36363636363636],[-74.0,-32.800000000000004],[-75.0,-33.0],[-76.0,-32.0],[-76.33333333333334,-31.333333333333336],[-79.0,-30.0],[-79.66666666666667,-28.66666666666667],[-80.25,-28.0],[-81.0,-27.25],[-82.0,-27.0],[-82.33333333333334,-26.0],[-82.66666666666667,-23.0],[-82.66666666666667,-22.0],[-82.375,-21.0],[-81.6,-20.0],[-81.0,-18.5],[-80.5,-18.0],[-81.33333333333334,-17.333333333333336],[-82.0,-17.25],[-83.0,-17.333333333333332],[-84.0,-16.8],[-85.53846153846155,-16.53846153846154],[-87.0,-16.0],[-88.0,-15.8],[-89.26666666666667,-15.266666666666666],[-89.78947368421052,-14.789473684210526],[-90.5,-14.5],[-91.0,-14.0],[-91.66666666666667,-13.666666666666668],[-92.33333333333333,-12.0],[-92.0,-11.0],[-91.44444444444444,-10.555555555555554],[-90.15384615384616,-9.846153846153847],[-89.0,-9.6],[-86.0,-10.2],[-85.0,-10.2],[-83.625,-10.625],[-82.0,-11.4],[-81.0,-11.6],[-80.0,-12.0],[-78.0,-12.5],[-77.0,-12.5],[-76.75,-12.0],[-77.0,-11.0],[-76.16666666666667,-9.833333333333332],[-75.0,-9.0],[-74.2,-9.2],[-73.8,-9.2],[-73.5,-9.0],[-73.66666666666667,-8.0],[-73.44444444444444,-7.555555555555555],[-70.53846153846155,-4.461538461538462],[-68.875,-3.125],[-68.0,-2.25],[-66.46153846153847,-1.5384615384615383],[-65.0,-1.4],[-64.57142857142858,-1.5714285714285716],[-64.0,-2.0],[-63.0,-2.0],[-62.53846153846154,-2.5384615384615388],[-61.5,-4.0]]],[[[74.0,-3.7857142857142856],[74.46153846153847,-4.0],[74.0,-4.6],[73.625,-4.0],[74.0,-3.7857142857142856]]],[[[15.235294117647058,3.235294117647059],[16.8,3.0000000000000004],[18.352941176470587,2.3529411764705883],[20.753846153846155,2.246153846153846],[22.0,2.0],[22.699999999999996,1.0],[21.153846153846153,0.0],[20.692307692307693,-0.6923076923076923],[19.25,-2.0],[18.733333333333334,-2.7333333333333334],[18.0,-3.25],[17.714285714285715,-3.7142857142857144],[17.0,-4.2],[16.0,-4.4],[15.210526315789473,-3.7894736842105265],[14.75,-3.0],[15.0,-2.0],[15.0,-1.0],[14.153846153846153,-0.8461538461538461],[14.0,-0.6666666666666667],[12.0,0.0],[11.0,0.1],[9.0,-0.6],[7.75,-0.75],[6.0,-2.0],[5.1,-3.1],[4.0,-3.666666666666667],[2.0,-4.333333333333334],[1.25,-5.25],[1.0,-5.333333333333333],[-1.0,-5.333333333333333],[-2.0,-5.0],[-3.1818181818181817,-5.181818181818182],[-6.4,-4.4],[-6.714285714285714,-4.0],[-7.555555555555555,-3.5555555555555554],[-8.8,-1.8],[-9.4,-1.4000000000000001],[-9.75,-1.0],[-9.75,0.0],[-9.0,0.5],[-6.32,1.3199999999999998],[-3.851851851851852,1.8518518518518519],[-3.0,1.875],[-2.140845070422535,2.140845070422535],[1.1923076923076923,3.8076923076923075],[2.772151898734177,4.227848101265822],[4.666666666666666,5.0],[7.387096774193548,5.387096774193548],[10.0,5.0],[11.35135135135135,4.351351351351351],[13.142857142857142,4.0],[15.235294117647058,3.235294117647059]]],[[[72.0,7.0],[73.0,6.800000000000001],[73.80000000000001,6.000000000000001],[73.33333333333333,5.0],[73.0,4.894736842105264],[72.0,5.0],[71.45,6.0],[72.0,7.0]]],[[[144.07692307692307,17.076923076923077],[145.0,14.666666666666668],[145.31578947368422,13.315789473684209],[145.625,12.625],[145.77777777777777,11.0],[145.64705882352942,10.352941176470587],[145.33333333333334,9.666666666666668],[144.6,9.0],[144.33333333333334,8.0],[143.71428571428572,7.285714285714286],[143.33333333333334,5.666666666666667],[143.0,5.0],[142.0,4.5],[141.0,3.333333333333333],[140.4,2.0],[140.2,1.0],[139.66666666666669,0.0],[138.59322033898306,-1.593220338983051],[137.42857142857142,-3.0],[137.35294117647058,-3.352941176470588],[135.75,-5.0],[135.0,-6.5],[134.75,-6.25],[134.39999999999998,-5.0],[134.7037037037037,-3.7037037037037033],[134.72222222222223,-3.0],[134.5,-2.0],[135.20338983050848,-0.2033898305084746],[135.625,0.375],[136.0,1.2],[136.33333333333334,1.6666666666666665],[136.9,2.1],[137.33333333333334,4.0],[137.20000000000002,5.0],[137.5,7.0],[137.5,9.0],[137.66666666666669,11.0],[136.66666666666666,16.0],[136.77777777777777,19.0],[137.0,20.0],[137.13333333333333,21.866666666666667],[137.7,23.3],[138.22222222222223,23.77777777777778],[139.25,24.0],[139.66666666666669,24.333333333333336],[140.0,24.42857142857143],[140.88571428571427,23.885714285714286],[141.86206896551724,22.862068965517242],[142.625,21.625],[143.0,20.0],[143.89473684210526,17.894736842105264],[144.07692307692307,17.076923076923077]]],[[[63.0,11.0],[64.0,11.375],[64.75,11.0],[65.10526315789474,10.0],[65.0,9.75],[64.0,9.466666666666667],[63.111111111111114,10.0],[63.0,11.0]]],[[[53.14285714285714,11.0],[52.0,10.541666666666668],[51.21428571428571,11.0],[52.0,11.478260869565219],[53.14285714285714,11.0]]],[[[174.0,22.0],[173.83333333333334,21.166666666666668],[173.5,20.5],[172.875,20.0],[172.15384615384616,18.846153846153847],[171.16666666666669,17.833333333333336],[170.0,17.25],[169.5,17.5],[169.0,18.0],[169.53846153846155,20.461538461538463],[170.2,21.799999999999997],[172.0,24.0],[172.33333333333334,25.0],[172.5,26.0],[173.0,26.66666666666667],[174.0,27.0],[174.66666666666669,26.0],[174.6,25.400000000000002],[174.75,24.0],[174.66666666666669,23.0],[174.46153846153848,22.53846153846154],[174.0,22.0]]],[[[177.86206896551724,24.86206896551724],[177.78947368421052,26.789473684210527],[177.5,28.0],[177.85714285714283,29.142857142857146],[178.75,30.25],[179.0,30.4],[180.0,30.333333333333336],[180.0,29.0],[180.0,23.5],[179.0,23.6],[178.0,24.6],[177.86206896551724,24.86206896551724]]],[[[134.875,35.0],[134.83333333333331,36.0],[135.0,36.5],[135.78947368421052,37.21052631578947],[136.0,37.33333333333333],[137.0,37.42857142857143],[137.31578947368422,37.315789473684205],[137.77777777777777,36.77777777777778],[138.0,36.0],[137.6,35.400000000000006],[136.0,34.57142857142857],[135.0,34.8],[134.875,35.0]]],[[[168.125,41.0],[169.2,40.2],[170.0,40.0],[170.33333333333334,39.333333333333336],[170.75,39.0],[170.33333333333334,38.0],[170.15384615384616,37.84615384615385],[169.0,37.333333333333336],[168.0,37.42857142857143],[167.0,36.6],[165.16666666666669,35.833333333333336],[164.0,35.599999999999994],[163.66666666666669,35.333333333333336],[163.0,35.111111111111114],[161.0,35.111111111111114],[158.0,35.5],[157.0,36.0],[156.0,37.666666666666664],[155.5,38.0],[155.33333333333334,39.0],[155.1818181818182,39.18181818181818],[154.0,39.333333333333336],[153.36363636363637,40.36363636363637],[153.0,42.0],[153.22222222222223,42.77777777777778],[153.5,43.0],[154.6470588235294,43.35294117647059],[160.66666666666669,43.0],[162.0,42.4],[164.07272727272726,42.07272727272728],[165.5,42.0],[167.17241379310343,41.17241379310345],[168.125,41.0]]]]}}]}