{"type":"FeatureCollection","features":[{"type":"Feature","properties":{"ageMa":300},"geometry":{"type":"MultiPolygon","coordinates":[[[[-51.285714285714285,-22.0],[-51.5,-23.0],[-51.76923076923077,-26.0],[-52.55555555555556,-28.0],[-53.0,-30.0],[-52.666666666666664,-32.0],[-52.5,-32.5],[-52.0,-32.8],[-51.0,-32.8],[-50.18181818181818,-33.18181818181818],[-49.666666666666664,-34.0],[-49.84615384615385,-35.15384615384615],[-50.44444444444444,-36.55555555555556],[-51.0,-37.0],[-51.32,-37.68],[-51.8,-38.0],[-52.272727272727266,-38.72727272727273],[-53.0,-39.0],[-53.400000000000006,-39.6],[-54.0,-40.0],[-55.25,-42.0],[-55.333333333333336,-47.0],[-55.5,-48.0],[-55.5,-49.5],[-56.400000000000006,-50.60000000000001],[-57.0,-51.0],[-63.0,-57.0],[-64.25,-58.75],[-65.6923076923077,-61.30769230769231],[-66.2,-61.8],[-67.83333333333333,-64.16666666666667],[-70.83333333333333,-67.16666666666667],[-72.55555555555556,-68.44444444444444],[-75.0,-71.0],[-76.81818181818181,-72.18181818181819],[-78.0,-72.66666666666667],[-80.71428571428572,-74.28571428571428],[-82.33333333333334,-75.0],[-83.81818181818181,-77.18181818181819],[-85.0,-78.0],[-88.0,-79.0],[-89.0,-79.25],[-90.0,-79.33333333333334],[-92.0,-80.0],[-93.0,-80.0],[-94.63636363636364,-80.36363636363636],[-97.0,-80.66666666666667],[-98.0,-80.66666666666667],[-99.0,-81.0],[-101.0,-81.0],[-101.77777777777777,-81.22222222222223],[-104.0,-81.5],[-105.28571428571428,-81.28571428571428],[-106.0,-81.0],[-108.0,-81.0],[-108.0,-80.0],[-110.0,-80.0],[-110.0,-79.0],[-108.60000000000001,-78.4],[-105.0,-76.0],[-104.6923076923077,-75.30769230769232],[-103.60000000000001,-74.4],[-103.0,-74.14285714285714],[-102.38095238095238,-73.61904761904762],[-100.45454545454545,-72.54545454545455],[-94.33333333333334,-70.0],[-92.8,-69.2],[-89.5,-67.0],[-88.68421052631578,-66.3157894736842],[-88.0,-66.0],[-86.45454545454545,-64.54545454545455],[-85.6,-64.0],[-82.52380952380952,-61.476190476190474],[-79.4,-58.60000000000001],[-77.33333333333333,-57.0],[-71.0,-49.857142857142854],[-69.80487804878048,-48.195121951219505],[-68.74358974358974,-47.256410256410255],[-67.0,-46.0],[-65.61111111111111,-45.38888888888889],[-65.0,-44.72727272727273],[-64.52941176470588,-44.470588235294116],[-64.0,-43.66666666666667],[-63.52,-43.48],[-63.333333333333336,-43.0],[-62.6923076923077,-42.30769230769231],[-62.69230769230769,-42.0],[-62.36734693877551,-41.63265306122449],[-62.17857142857142,-41.0],[-60.53703703703704,-39.46296296296296],[-60.193548387096776,-39.0],[-59.43298969072165,-38.56701030927835],[-59.0,-38.125],[-58.24657534246575,-37.75342465753425],[-58.0,-37.25],[-57.30508474576271,-36.69491525423729],[-57.0,-35.8235294117647],[-56.58823529411764,-35.411764705882355],[-56.045112781954884,-32.95488721804511],[-55.0,-30.5],[-54.66666666666667,-30.000000000000004],[-54.612903225806456,-28.387096774193544],[-54.83050847457628,-26.83050847457627],[-54.848484848484844,-22.848484848484848],[-54.60493827160494,-20.395061728395063],[-54.38636363636363,-19.613636363636363],[-54.0,-18.875],[-53.0,-18.416666666666664],[-52.54838709677419,-18.548387096774196],[-51.69230769230769,-19.692307692307693],[-51.285714285714285,-22.0]],[[-61.66666666666667,-43.333333333333336],[-62.333333333333336,-43.66666666666667],[-63.18181818181819,-44.81818181818182],[-63.14285714285714,-45.142857142857146],[-63.0,-45.25],[-61.857142857142854,-45.142857142857146],[-61.36363636363636,-44.63636363636364],[-60.69230769230769,-44.30769230769231],[-60.22222222222222,-43.77777777777778],[-59.0,-43.0],[-58.5,-42.0],[-58.63636363636364,-41.63636363636364],[-59.0,-41.6],[-59.173913043478265,-41.826086956521735],[-59.66666666666667,-42.0],[-59.71428571428571,-42.285714285714285],[-60.0,-42.333333333333336],[-60.30769230769231,-42.69230769230769],[-60.69230769230769,-42.69230769230769],[-61.5,-43.0],[-61.66666666666667,-43.333333333333336]]],[[[-3.0,36.0],[-3.75,34.75],[-5.5,34.0],[-6.4,33.4],[-7.000000000000001,33.2],[-8.0,33.400000000000006],[-8.333333333333334,33.333333333333336],[-8.666666666666668,33.0],[-8.5,32.0],[-8.222222222222221,31.77777777777778],[-8.0,31.0],[-7.0,30.666666666666668],[-5.363636363636363,29.63636363636364],[-4.0,29.0],[-2.0,27.5],[-1.0,27.0],[0.0,27.0],[0.6363636363636364,27.363636363636363],[2.0,27.800000000000004],[4.0,28.0],[6.0,29.0],[7.0,29.25],[8.0,29.333333333333336],[9.0,29.0],[10.0,29.0],[10.600000000000001,28.6],[12.0,28.0],[12.5,27.0],[12.8,26.0],[14.0,24.0],[15.0,24.0],[15.333333333333334,24.666666666666668],[16.857142857142858,26.142857142857146],[18.0,26.4],[19.0,26.8],[20.444444444444443,26.555555555555554],[22.0,26.5],[23.18181818181818,26.181818181818183],[25.0,25.0],[25.25,24.0],[25.0,23.0],[25.6,21.6],[26.0,21.0],[26.0,17.0],[26.5,15.5],[27.4,14.400000000000002],[28.0,14.0],[29.0,14.0],[29.714285714285715,14.285714285714285],[32.0,14.5],[34.0,15.0],[35.0,15.4],[36.0,15.25],[36.5,15.0],[37.33333333333333,14.0],[37.5,13.0],[37.4,12.6],[37.0,12.0],[37.6,11.600000000000001],[38.4,11.400000000000002],[41.0,11.333333333333332],[42.0,11.0],[43.25,10.0],[43.400000000000006,9.0],[42.66666666666667,7.333333333333334],[42.0,6.800000000000001],[41.66666666666667,6.333333333333334],[41.0,6.0],[40.55555555555556,5.444444444444444],[39.9622641509434,5.037735849056604],[37.0,4.0],[36.464646464646464,3.5353535353535355],[35.78260869565217,3.217391304347826],[32.520833333333336,2.479166666666667],[29.888888888888886,2.111111111111111],[26.6,1.4000000000000001],[25.855421686746986,1.144578313253012],[24.6,0.4],[22.546666666666667,-1.5466666666666666],[21.727272727272727,-3.0],[21.384615384615383,-4.0],[21.0,-6.0],[20.6,-7.0],[20.285714285714285,-9.285714285714285],[20.0,-10.0],[19.0,-10.666666666666668],[18.0,-12.0],[17.692307692307693,-12.692307692307693],[17.4,-14.0],[16.75,-15.0],[16.352941176470587,-15.352941176470587],[15.0,-15.8],[13.0,-15.75],[12.0,-16.0],[11.444444444444443,-16.444444444444443],[10.25,-18.0],[9.833333333333332,-18.833333333333332],[9.777777777777779,-19.22222222222222],[9.75,-20.25],[10.0,-21.0],[10.0,-23.0],[9.0,-23.0],[8.0,-24.0],[7.6,-24.6],[7.333333333333333,-26.0],[8.4,-27.6],[8.636363636363637,-28.363636363636363],[9.0,-29.0],[10.0,-30.0],[11.400000000000002,-30.6],[12.0,-31.0],[13.0,-31.0],[14.0,-32.0],[14.0,-37.0],[13.600000000000001,-37.6],[13.5,-38.0],[13.600000000000001,-38.4],[14.0,-39.0],[14.0,-40.0],[13.0,-41.0],[13.0,-42.0],[14.0,-42.0],[16.0,-40.0],[16.0,-37.0],[17.0,-37.0],[17.0,-36.0],[17.4,-35.400000000000006],[17.5,-35.0],[17.5,-34.0],[16.6,-32.4],[16.5,-31.0],[17.4,-29.400000000000002],[18.0,-29.0],[18.0,-28.0],[19.0,-27.0],[20.0,-27.0],[20.714285714285715,-27.285714285714285],[22.0,-27.5],[23.6,-28.400000000000002],[24.0,-29.0],[24.714285714285715,-29.285714285714285],[25.81818181818182,-30.18181818181818],[30.0,-31.666666666666664],[33.0,-31.5],[33.4,-31.400000000000002],[34.0,-31.0],[36.0,-31.0],[36.0,-30.0],[37.0,-30.0],[37.0,-29.0],[38.0,-29.0],[38.0,-28.0],[39.0,-28.0],[39.5,-28.5],[40.0,-28.666666666666664],[40.66666666666667,-29.333333333333336],[41.66666666666667,-30.000000000000004],[42.25,-30.75],[43.0,-31.333333333333336],[43.22222222222222,-31.77777777777778],[44.0,-32.333333333333336],[44.142857142857146,-32.85714285714286],[44.565217391304344,-33.43478260869565],[45.0,-33.714285714285715],[45.5,-34.5],[46.0,-34.8],[46.421052631578945,-35.57894736842105],[47.09090909090909,-36.0],[47.4,-36.6],[48.0,-36.90909090909091],[48.44444444444444,-37.55555555555555],[49.2,-38.0],[51.0,-39.8],[51.5,-40.5],[52.0,-40.857142857142854],[52.470588235294116,-41.52941176470588],[54.333333333333336,-43.0],[55.55555555555555,-44.444444444444436],[56.400000000000006,-45.0],[57.166666666666664,-46.0],[57.38095238095238,-46.61904761904761],[57.800000000000004,-47.0],[58.5,-48.5],[59.0,-49.0],[59.22222222222222,-49.77777777777778],[59.5,-50.0],[60.095238095238095,-50.904761904761905],[61.0,-51.5],[61.16666666666667,-51.83333333333333],[62.0,-52.25],[62.3,-52.7],[63.142857142857146,-53.0],[63.400000000000006,-53.60000000000001],[64.0,-53.85714285714286],[64.52380952380952,-54.476190476190474],[65.21052631578948,-54.78947368421053],[66.5,-55.0],[67.33333333333334,-55.66666666666667],[69.36363636363636,-56.63636363636364],[71.0,-57.0],[72.0,-57.0],[74.19047619047619,-57.80952380952381],[76.0,-57.92857142857143],[83.17142857142858,-57.82857142857143],[86.0,-58.0],[87.0,-58.25],[89.0,-58.25],[90.0,-58.0],[97.0,-58.0],[98.55555555555556,-57.55555555555555],[99.00000000000001,-57.33333333333334],[99.25,-57.0],[100.38095238095238,-56.38095238095238],[104.0,-55.0],[108.0,-54.0625],[110.14814814814815,-53.85185185185185],[114.0,-54.0],[115.0,-54.33333333333334],[116.60000000000001,-54.400000000000006],[118.0,-54.66666666666667],[121.0,-54.75],[125.0,-56.0],[125.4,-56.6],[126.0,-57.0],[127.0,-57.0],[127.5,-56.0],[127.5,-55.0],[127.0,-54.0],[125.30769230769232,-53.69230769230769],[123.81818181818181,-53.18181818181819],[123.66666666666666,-53.0],[122.35294117647058,-52.647058823529406],[121.75,-52.0],[121.19354838709677,-51.806451612903224],[120.60000000000001,-51.400000000000006],[120.16666666666667,-50.833333333333336],[119.88888888888889,-50.0],[120.33333333333334,-49.33333333333334],[120.71428571428572,-49.0],[121.7560975609756,-48.756097560975604],[123.33333333333334,-48.66666666666667],[124.23529411764704,-48.76470588235294],[125.0,-49.0],[126.0,-49.0],[126.25,-48.0],[125.83333333333334,-47.16666666666667],[125.80000000000001,-46.0],[126.81818181818181,-44.81818181818182],[127.4,-44.400000000000006],[127.81818181818181,-43.81818181818182],[129.0,-43.0],[130.66666666666669,-42.66666666666667],[131.4,-42.4],[132.6,-41.6],[133.0,-41.0],[134.0,-40.75],[136.0,-40.5],[137.71428571428572,-41.28571428571428],[139.0,-41.5],[140.0,-41.75],[141.0,-42.2],[143.0,-42.6],[144.0,-43.400000000000006],[145.0,-44.0],[145.76470588235293,-44.23529411764706],[146.4,-44.6],[146.75,-45.0],[147.7142857142857,-45.285714285714285],[148.66666666666669,-46.0],[149.66666666666669,-46.333333333333336],[150.5,-47.0],[151.52941176470588,-47.470588235294116],[152.0,-48.0],[152.75,-48.25],[153.83333333333334,-49.0],[154.64999999999998,-49.349999999999994],[159.0,-51.909090909090914],[160.4390243902439,-52.5609756097561],[164.75,-55.0],[172.0,-58.0],[172.86666666666667,-58.13333333333333],[174.0,-58.6],[175.0,-58.75],[175.66666666666669,-59.0],[176.5,-60.0],[176.60000000000002,-60.400000000000006],[177.5,-62.0],[177.0,-63.0],[177.28571428571428,-63.71428571428571],[177.28571428571428,-64.28571428571428],[176.40000000000003,-66.4],[176.0,-67.0],[175.4,-67.4],[174.0,-68.0],[173.60000000000002,-68.60000000000001],[172.4,-69.4],[171.0,-69.66666666666667],[170.5,-70.0],[171.0,-71.0],[174.0,-71.0],[175.0,-72.0],[175.0,-75.0],[175.4,-75.60000000000001],[175.60000000000002,-76.4],[176.0,-77.0],[177.0,-78.0],[178.0,-77.0],[178.66666666666669,-77.33333333333334],[179.0,-77.33333333333334],[179.36363636363637,-79.0],[179.60000000000002,-81.0],[179.33333333333334,-82.33333333333334],[178.875,-82.875],[177.0,-83.6],[174.0,-84.0],[172.0,-84.6],[170.0,-85.0],[169.4,-85.4],[169.0,-86.0],[167.0,-86.0],[166.0,-85.66666666666667],[165.0,-86.0],[161.0,-86.0],[160.28571428571428,-86.28571428571428],[158.0,-86.75],[156.84615384615384,-86.84615384615384],[156.5,-87.0],[156.33333333333334,-87.33333333333334],[156.0,-87.5],[155.0,-87.66666666666667],[154.0,-87.66666666666667],[153.0,-88.0],[152.0,-88.0],[151.4,-88.4],[151.0,-88.5],[150.60000000000002,-88.4],[150.0,-88.0],[149.0,-88.0],[149.0,-90.0],[140.0,-90.0],[140.0,-89.0],[139.0,-89.0],[139.0,-90.0],[132.0,-90.0],[132.0,-89.0],[131.0,-88.66666666666667],[130.0,-88.0],[126.0,-87.4],[122.0,-87.57142857142857],[119.0,-87.57142857142857],[117.0,-87.4],[114.77777777777777,-87.77777777777777],[112.0,-87.71428571428572],[110.0,-87.875],[107.0,-87.71428571428572],[103.0,-87.83333333333334],[102.0,-87.71428571428572],[94.0,-87.66666666666667],[92.81818181818181,-87.81818181818181],[89.85714285714286,-87.85714285714286],[89.0,-88.0],[83.0,-88.0],[82.0,-87.85714285714286],[81.0,-88.0],[79.0,-88.0],[78.0,-88.25],[72.0,-88.25],[71.0,-88.0],[63.0,-88.0],[61.400000000000006,-87.6],[60.5,-87.0],[58.77777777777778,-86.22222222222223],[58.0,-86.0],[57.0,-86.0],[56.22222222222223,-85.77777777777777],[55.0,-85.66666666666667],[53.0,-85.0],[52.0,-85.0],[51.0,-85.33333333333334],[46.0,-85.25],[44.18181818181819,-84.81818181818181],[40.0,-84.25],[39.0,-84.4],[38.0,-84.33333333333334],[37.0,-84.5],[32.0,-84.33333333333334],[29.0,-84.5],[22.0,-84.4],[20.0,-84.6],[19.0,-84.4],[18.0,-84.4],[15.600000000000001,-84.60000000000001],[13.0,-84.5],[12.0,-84.33333333333334],[10.0,-84.33333333333334],[9.0,-84.0],[8.25,-84.25],[4.0,-84.25],[3.0,-84.0],[2.0,-84.0],[1.0,-83.75],[-3.0,-83.75],[-4.0,-83.6],[-8.0,-83.5],[-10.222222222222221,-83.22222222222223],[-12.000000000000002,-82.80000000000001],[-18.0,-82.5],[-19.0,-82.25],[-22.0,-82.25],[-23.0,-82.4],[-25.0,-82.0],[-30.0,-82.0],[-31.0,-82.33333333333334],[-32.0,-82.5],[-33.0,-82.33333333333334],[-34.6,-82.4],[-35.400000000000006,-82.6],[-36.0,-83.0],[-37.0,-83.33333333333333],[-38.0,-83.0],[-42.0,-83.0],[-43.0,-82.0],[-44.0,-82.0],[-44.0,-77.0],[-43.0,-77.0],[-43.0,-76.0],[-46.0,-76.0],[-49.0,-79.0],[-51.0,-79.0],[-52.0,-79.25],[-55.30769230769231,-77.3076923076923],[-56.5,-76.0],[-55.5,-75.0],[-53.75,-74.25],[-53.0,-73.5],[-52.66666666666667,-73.33333333333334],[-52.285714285714285,-72.71428571428571],[-52.0,-72.0],[-52.0,-71.0],[-50.71428571428571,-68.28571428571428],[-50.307692307692314,-66.6923076923077],[-49.421052631578945,-64.57894736842104],[-49.0,-64.0],[-48.44444444444444,-62.55555555555555],[-48.0,-62.0],[-47.285714285714285,-60.71428571428571],[-46.0,-60.0],[-45.6,-59.400000000000006],[-45.0,-59.0],[-44.0,-58.0],[-43.0,-57.5],[-42.16666666666667,-56.833333333333336],[-40.5,-56.0],[-39.66666666666667,-55.33333333333334],[-38.75,-55.0],[-37.71428571428571,-54.285714285714285],[-36.75,-54.0],[-35.8,-53.2],[-35.0,-53.0],[-34.470588235294116,-52.529411764705884],[-33.0,-52.0],[-32.0,-51.0],[-31.666666666666668,-50.0],[-32.0,-49.0],[-33.5,-46.0],[-33.5,-45.0],[-34.0,-44.5],[-34.400000000000006,-44.400000000000006],[-35.0,-44.0],[-35.5,-43.0],[-35.71428571428571,-41.71428571428571],[-36.0,-41.0],[-37.0,-40.0],[-39.0,-40.0],[-39.5,-40.5],[-40.0,-41.5],[-43.0,-44.5],[-43.400000000000006,-44.6],[-44.6,-45.4],[-46.400000000000006,-45.6],[-47.6,-46.400000000000006],[-49.285714285714285,-46.71428571428571],[-50.0,-47.0],[-51.0,-47.0],[-51.400000000000006,-46.400000000000006],[-51.5,-45.0],[-51.400000000000006,-44.6],[-51.0,-44.0],[-49.6,-43.400000000000006],[-49.0,-43.0],[-46.0,-43.0],[-46.0,-41.0],[-45.6,-40.4],[-45.0,-39.0],[-45.0,-38.0],[-44.400000000000006,-36.6],[-44.0,-36.0],[-44.0,-32.0],[-43.0,-31.0],[-41.0,-31.0],[-40.0,-31.5],[-38.71428571428571,-31.714285714285715],[-38.0,-32.0],[-36.0,-32.0],[-35.0,-32.25],[-33.285714285714285,-32.285714285714285],[-32.0,-32.5],[-31.0,-32.0],[-31.0,-31.0],[-30.0,-31.0],[-29.400000000000002,-31.400000000000002],[-28.0,-31.5],[-26.0,-32.5],[-25.0,-34.0],[-25.0,-37.0],[-24.0,-37.5],[-23.0,-37.5],[-22.0,-37.333333333333336],[-21.0,-37.0],[-20.400000000000002,-36.6],[-19.0,-36.42857142857142],[-17.6,-36.6],[-16.11764705882353,-37.11764705882353],[-15.470588235294118,-37.47058823529412],[-14.75,-38.75],[-14.444444444444445,-40.0],[-14.666666666666668,-41.333333333333336],[-15.0,-42.0],[-15.0,-43.0],[-15.285714285714285,-44.71428571428571],[-16.0,-47.0],[-15.5,-48.0],[-15.0,-48.5],[-14.0,-48.33333333333333],[-13.0,-48.0],[-9.0,-46.0],[-8.600000000000001,-45.4],[-8.0,-45.0],[-7.6,-44.400000000000006],[-7.0,-44.0],[-6.5,-43.0],[-6.5,-41.0],[-6.6000000000000005,-40.6],[-7.0,-40.0],[-6.6000000000000005,-39.400000000000006],[-6.5,-39.0],[-6.5,-38.0],[-6.333333333333334,-37.0],[-6.5,-36.0],[-7.0,-35.0],[-8.5,-34.5],[-9.0,-34.0],[-10.0,-33.75],[-11.0,-33.0],[-11.714285714285714,-32.71428571428571],[-12.333333333333334,-32.0],[-13.333333333333336,-31.333333333333336],[-14.0,-30.666666666666668],[-15.0,-30.0],[-16.444444444444443,-29.444444444444443],[-17.555555555555557,-28.555555555555554],[-18.5,-28.0],[-19.25,-27.25],[-20.0,-27.0],[-20.400000000000002,-26.400000000000002],[-21.5,-26.0],[-23.0,-25.0],[-26.0,-24.0],[-27.4,-23.400000000000002],[-29.714285714285715,-23.285714285714285],[-31.0,-23.0],[-32.0,-23.0],[-32.71428571428571,-22.71428571428571],[-36.0,-22.333333333333336],[-37.0,-22.0],[-39.0,-22.0],[-39.6,-21.6],[-40.0,-21.5],[-42.0,-21.5],[-43.28571428571428,-21.285714285714285],[-44.0,-21.0],[-48.0,-21.0],[-48.400000000000006,-20.400000000000002],[-49.5,-18.0],[-49.33333333333333,-17.0],[-49.33333333333333,-16.0],[-48.5,-14.0],[-48.333333333333336,-13.0],[-47.8,-12.2],[-47.55555555555556,-11.444444444444443],[-47.0,-10.5],[-46.63636363636364,-9.363636363636363],[-46.18181818181819,-8.818181818181818],[-45.6,-8.4],[-45.00000000000001,-8.142857142857142],[-44.38095238095238,-7.619047619047619],[-43.63636363636364,-7.363636363636364],[-42.0,-6.4],[-41.0,-5.615384615384615],[-39.18181818181818,-5.181818181818182],[-38.11764705882353,-5.117647058823529],[-37.77777777777777,-5.222222222222221],[-37.0,-5.0],[-37.0,-6.0],[-35.0,-6.25],[-32.0,-6.0],[-31.0,-5.800000000000001],[-30.6,-5.4],[-29.999999999999996,-5.111111111111112],[-29.555555555555554,-4.444444444444445],[-28.333333333333336,-3.666666666666667],[-27.000000000000004,-3.333333333333333],[-25.583333333333332,-3.5833333333333335],[-25.166666666666668,-4.0],[-24.42105263157895,-4.421052631578947],[-24.0,-5.0],[-23.0,-5.75],[-22.0,-6.25],[-21.0,-6.0],[-20.0,-6.200000000000001],[-19.0,-6.0],[-19.0,-5.0],[-18.0,-5.0],[-18.0,-4.0],[-19.285714285714285,-3.2857142857142856],[-19.714285714285715,-2.714285714285714],[-20.285714285714285,-2.2857142857142856],[-21.714285714285715,-0.7142857142857142],[-23.6,0.4],[-24.0,1.0],[-25.333333333333332,2.0],[-25.5,3.0],[-24.714285714285715,3.7142857142857144],[-24.285714285714285,4.285714285714286],[-23.0,5.0],[-22.5,6.0],[-23.0,6.5],[-24.666666666666668,7.333333333333334],[-25.0,8.0],[-25.6,8.4],[-26.0,8.5],[-27.22222222222222,9.777777777777779],[-27.666666666666668,11.0],[-27.5,12.0],[-27.5,14.0],[-28.5,15.0],[-29.0,16.0],[-31.0,18.0],[-30.0,19.0],[-30.0,20.0],[-29.6,20.6],[-29.400000000000002,21.4],[-27.6,23.6],[-27.0,24.0],[-26.5,25.0],[-26.5,26.0],[-26.400000000000002,26.400000000000002],[-26.0,27.0],[-26.0,28.0],[-25.0,28.0],[-25.0,31.0],[-24.666666666666668,32.0],[-24.0,33.0],[-23.0,33.5],[-19.666666666666668,33.66666666666667],[-18.347826086956523,34.34782608695652],[-18.181818181818183,34.81818181818182],[-17.939393939393938,35.06060606060606],[-16.0,35.3],[-15.181818181818182,35.18181818181819],[-14.333333333333334,35.333333333333336],[-14.0,36.0],[-12.666666666666668,36.66666666666667],[-12.235294117647058,37.23529411764706],[-11.0,37.66666666666667],[-9.0,38.0],[-8.333333333333334,38.333333333333336],[-6.25,38.75],[-5.0,38.75],[-3.2222222222222223,37.77777777777777],[-2.75,37.0],[-3.0,36.0]]],[[[23.0,-13.375],[22.0,-13.666666666666668],[21.510204081632654,-13.489795918367347],[20.523809523809522,-12.476190476190474],[20.375,-12.0],[20.583333333333336,-11.583333333333334],[21.76,-10.760000000000002],[22.0,-10.75],[22.877551020408163,-11.122448979591837],[23.430769230769233,-11.569230769230769],[23.666666666666664,-12.0],[23.46153846153846,-13.0],[23.0,-13.375]]],[[[-29.153846153846153,5.846153846153846],[-29.0,5.0],[-29.0,4.0],[-29.25,2.0],[-29.63636363636364,0.6363636363636364],[-30.285714285714285,-0.7142857142857142],[-31.571428571428577,-2.428571428571429],[-33.10526315789474,-3.8947368421052633],[-33.714285714285715,-4.285714285714286],[-34.400000000000006,-4.6],[-36.0,-5.0],[-37.875,-4.875],[-38.6,-4.6],[-39.48275862068966,-3.4827586206896552],[-40.42857142857143,-1.4285714285714286],[-40.75,-1.0],[-43.25,0.0],[-44.18181818181819,0.8181818181818181],[-44.285714285714285,1.0],[-44.285714285714285,2.0],[-44.0,2.6666666666666665],[-43.14285714285714,4.142857142857142],[-42.5,4.5],[-42.0,5.0],[-41.0,5.333333333333333],[-39.0,5.666666666666666],[-37.5,6.5],[-36.0,7.0],[-35.42857142857143,7.428571428571429],[-34.733333333333334,7.733333333333333],[-32.0,8.5],[-30.307692307692307,7.692307692307693],[-29.400000000000002,6.6000000000000005],[-29.153846153846153,5.846153846153846]]],[[[55.50458715596331,11.495412844036698],[55.0,11.0],[53.0,10.0],[51.86363636363637,9.863636363636363],[51.117647058823536,10.117647058823529],[51.0,11.0],[51.272727272727266,11.727272727272727],[51.733333333333334,12.266666666666666],[52.0,12.399999999999999],[52.21428571428571,12.785714285714285],[53.0,13.0],[53.375,13.625],[56.0,14.2],[56.875,13.875],[57.111111111111114,13.0],[56.55172413793103,12.448275862068966],[56.349999999999994,12.0],[55.50458715596331,11.495412844036698]]],[[[48.46153846153847,64.46153846153847],[49.5,64.0],[52.15384615384615,62.15384615384615],[54.0,61.33333333333333],[54.78947368421053,60.78947368421053],[58.0,59.38461538461538],[58.625,59.0],[62.27272727272727,56.0],[63.0,55.55555555555556],[64.22950819672131,54.22950819672131],[65.5,52.5],[66.33333333333334,51.0],[66.81818181818181,49.81818181818181],[67.21052631578948,48.21052631578947],[67.34615384615384,47.0],[67.33333333333333,45.0],[66.86666666666667,40.86666666666667],[67.05714285714286,40.057142857142864],[68.625,39.0],[69.28571428571428,38.0],[69.4,37.0],[68.66666666666667,36.0],[68.24242424242425,35.75757575757576],[67.69999999999999,35.0],[67.11111111111111,34.0],[66.77777777777779,33.0],[66.5,31.0],[67.0,30.5],[67.42105263157895,29.421052631578945],[67.57142857142857,28.999999999999996],[67.57142857142857,28.0],[67.28571428571428,26.714285714285715],[66.6774193548387,25.32258064516129],[66.5,25.0],[63.53333333333333,22.0],[62.6969696969697,21.303030303030305],[60.99999999999999,20.235294117647058],[58.77777777777778,19.22222222222222],[57.0,19.0],[56.0,18.5],[55.0,18.2],[53.8,18.2],[53.33333333333333,17.0],[53.33333333333333,16.0],[53.0,15.0],[51.81818181818182,14.18181818181818],[51.0,14.0],[49.0,13.0],[48.0,13.0],[47.63636363636364,13.636363636363637],[47.400000000000006,15.0],[47.0,16.0],[47.0,17.0],[47.18181818181819,17.81818181818182],[47.6,18.400000000000002],[48.33333333333333,19.0],[48.5,19.5],[49.0,20.0],[48.0,20.166666666666668],[47.0,20.0],[46.400000000000006,20.400000000000002],[45.6,21.6],[45.2,23.000000000000004],[45.25,24.0],[45.0,24.25],[43.0,24.6],[42.5,25.0],[41.46153846153846,25.461538461538463],[40.42857142857143,26.42857142857143],[40.0,27.166666666666664],[37.625,28.625],[37.25,29.0],[36.46153846153846,29.461538461538463],[36.0,30.0],[34.6,30.6],[34.0,31.125],[33.285714285714285,31.285714285714285],[32.69230769230769,31.692307692307693],[32.5,32.0],[32.0,32.285714285714285],[28.0,34.0],[26.0,34.5],[25.0,35.0],[25.0,36.0],[27.0,37.0],[27.53846153846154,37.46153846153847],[28.799999999999997,38.2],[30.0,38.400000000000006],[35.400000000000006,37.4],[37.53846153846155,36.53846153846154],[38.333333333333336,36.0],[39.625,35.625],[41.0,35.0],[42.25,34.75],[43.71428571428571,35.285714285714285],[44.81818181818182,36.18181818181819],[46.400000000000006,36.6],[47.6,37.4],[49.0,38.0],[49.0,39.0],[48.0,39.0],[47.4,38.6],[47.0,38.5],[46.0,39.0],[45.0,40.0],[44.25,39.75],[42.0,39.666666666666664],[40.71428571428571,39.71428571428571],[40.0,40.0],[39.0,39.666666666666664],[37.0,40.5],[36.0,41.333333333333336],[34.6,41.6],[34.0,42.0],[32.0,42.0],[31.400000000000002,42.4],[30.0,43.0],[29.6,43.60000000000001],[28.400000000000002,44.400000000000006],[28.0,45.0],[25.444444444444443,47.44444444444444],[24.22222222222222,49.22222222222223],[23.5,50.0],[23.0,51.0],[21.0,53.0],[21.0,54.0],[22.0,54.0],[22.6,54.400000000000006],[25.0,54.66666666666667],[25.5,55.0],[26.22222222222222,55.77777777777778],[26.666666666666668,57.0],[27.666666666666664,58.0],[28.0,59.0],[27.6,59.6],[27.0,60.0],[26.0,60.33333333333334],[24.0,61.5],[23.666666666666668,62.0],[23.799999999999997,62.199999999999996],[25.0,62.66666666666667],[26.0,62.66666666666667],[27.0,62.33333333333333],[28.0,62.33333333333333],[30.0,63.0],[31.0,63.0],[31.6,62.6],[32.0,62.5],[32.333333333333336,62.66666666666667],[33.0,64.0],[33.57142857142857,64.42857142857143],[34.0,65.0],[36.5,66.0],[38.074074074074076,66.07407407407408],[41.0,65.73333333333333],[42.0,65.5],[44.3,65.3],[48.46153846153847,64.46153846153847]]],[[[22.4,46.400000000000006],[23.700000000000003,45.7],[24.25,45.0],[24.73913043478261,44.73913043478261],[25.0,44.25],[25.65217391304348,43.65217391304348],[26.0,43.0],[26.476190476190474,42.476190476190474],[27.25,41.0],[27.18181818181818,39.81818181818181],[27.0,39.666666666666664],[26.0,39.4],[24.0,39.5],[22.71428571428571,39.71428571428571],[22.0,40.0],[20.200000000000003,40.2],[18.0,40.66666666666667],[16.714285714285715,40.71428571428571],[16.0,41.0],[16.0,44.0],[15.600000000000001,44.6],[15.666666666666668,45.0],[16.200000000000003,46.00000000000001],[16.57894736842105,46.421052631578945],[18.0,47.25],[19.0,47.400000000000006],[20.0,47.0],[21.0,46.85714285714286],[22.4,46.400000000000006]]],[[[109.5,-14.0],[110.0,-15.0],[109.53846153846155,-15.53846153846154],[109.0,-15.833333333333334],[108.0,-15.833333333333334],[107.42857142857144,-15.571428571428573],[106.66666666666666,-15.0],[106.4,-14.0],[107.0,-13.4],[108.0,-13.25],[108.60000000000001,-13.4],[109.26666666666667,-13.733333333333334],[109.5,-14.0]]],[[[96.0,-10.0],[95.81818181818181,-10.818181818181818],[95.33333333333334,-11.333333333333334],[95.0,-11.5],[94.0,-11.571428571428571],[93.2,-11.0],[92.44444444444444,-9.0],[92.29999999999998,-8.0],[92.5,-7.0],[93.0,-6.4],[94.0,-6.333333333333333],[94.47058823529412,-6.529411764705882],[95.42857142857143,-7.571428571428571],[95.83333333333333,-9.0],[96.0,-10.0]]],[[[104.5625,2.0],[105.05263157894737,0.05263157894736842],[105.61111111111111,-1.3888888888888888],[106.46153846153845,-3.0],[106.72727272727273,-4.0],[106.86666666666666,-5.866666666666666],[106.60000000000001,-6.6000000000000005],[106.0,-7.25],[105.0,-7.5],[104.0,-7.5],[103.6923076923077,-7.307692307692308],[103.18181818181819,-6.818181818181818],[102.33333333333334,-5.666666666666667],[101.33333333333334,-4.0],[100.66666666666669,-3.3333333333333335],[100.30769230769232,-2.6923076923076925],[100.0,-1.6666666666666667],[99.30769230769232,-0.6923076923076923],[99.0,0.5],[98.75,1.0],[99.0,2.0],[99.18181818181819,5.0],[99.52380952380952,6.476190476190475],[99.85714285714286,7.142857142857142],[101.0,8.0],[101.85714285714286,7.857142857142858],[102.41666666666667,7.416666666666666],[103.0,6.6000000000000005],[103.82978723404256,3.829787234042553],[104.5625,2.0]]],[[[94.3728813559322,21.372881355932204],[95.08333333333333,21.0],[95.48275862068967,20.482758620689655],[96.09302325581395,20.093023255813954],[96.66666666666667,20.0],[97.53846153846153,19.53846153846154],[100.25,19.0],[101.0,18.57142857142857],[102.0,18.285714285714285],[103.0,18.166666666666664],[105.28571428571428,18.285714285714285],[106.0,18.0],[105.5,17.5],[105.4,17.0],[105.0,16.6],[104.0,16.0],[103.0,15.75],[102.0,16.0],[100.0,16.0],[96.28571428571428,17.285714285714285],[95.71428571428571,17.714285714285715],[95.0,18.0],[94.16666666666667,18.166666666666668],[93.0,18.125],[91.0,17.5],[89.73333333333333,17.733333333333334],[88.38095238095238,18.38095238095238],[87.4,19.400000000000002],[87.1111111111111,20.0],[86.52,20.52],[86.16,21.16],[86.0,22.0],[86.18181818181817,23.0],[86.5,23.5],[87.0909090909091,23.909090909090907],[88.0,24.11764705882353],[89.85454545454546,23.854545454545455],[92.16666666666667,23.0],[92.60526315789474,22.605263157894736],[93.66666666666667,22.0],[94.3728813559322,21.372881355932204]]],[[[73.0,27.5],[73.4,28.0],[73.82857142857142,28.17142857142857],[74.76190476190476,28.23809523809524],[77.0,28.032258064516128],[79.0,27.48148148148148],[82.9090909090909,26.0],[84.14285714285715,25.0],[84.2,24.0],[83.34782608695652,22.652173913043477],[82.68,22.32],[81.0,22.07692307692308],[79.26086956521739,22.26086956521739],[78.52380952380952,22.523809523809522],[78.0,23.0],[76.4,23.400000000000002],[76.0,23.666666666666668],[75.66666666666667,23.666666666666668],[75.5,24.0],[75.13333333333333,24.133333333333333],[75.0,24.333333333333332],[74.6,24.400000000000002],[74.0,24.0],[74.6,23.6],[75.80000000000001,21.799999999999997],[76.33333333333334,21.333333333333336],[76.75,20.0],[76.0,19.25],[75.0,19.0],[74.0,19.0],[71.0,20.0],[70.625,20.625],[70.0,21.25],[69.125,23.0],[68.88235294117646,24.11764705882353],[69.0,25.0],[69.84615384615384,26.153846153846153],[71.0,26.5],[71.5,26.5],[72.0,26.0],[72.0,27.0],[73.0,27.5]]],[[[108.0,47.388888888888886],[109.0,47.85714285714286],[111.70731707317074,48.29268292682927],[113.0,48.4],[115.11111111111111,48.0],[114.6,47.0],[113.75999999999999,46.24],[113.25,46.0],[112.55555555555556,45.44444444444444],[111.0,45.0],[109.71428571428571,44.285714285714285],[108.80000000000001,44.0],[108.38095238095237,43.61904761904761],[107.65217391304347,43.34782608695652],[105.33333333333334,43.0],[104.4,42.6],[103.53846153846155,42.46153846153847],[101.44444444444443,42.44444444444444],[100.63636363636364,42.63636363636364],[100.0,43.0],[99.0,43.0],[97.0,42.25],[95.42105263157895,40.57894736842105],[93.6923076923077,39.30769230769231],[92.88888888888889,39.11111111111111],[91.0,39.0],[89.42857142857143,39.42857142857143],[88.0,40.142857142857146],[87.00000000000001,40.2],[85.18181818181819,39.81818181818181],[83.22222222222223,39.77777777777777],[81.55555555555556,39.44444444444444],[81.0,39.0],[79.0,38.333333333333336],[78.66666666666667,38.333333333333336],[78.0,38.0],[76.0,37.6],[74.0,37.5],[73.0,38.0],[73.4,38.6],[73.5,39.0],[74.0,39.333333333333336],[76.0,39.6],[78.0,39.25],[79.0,39.5],[80.4,39.6],[80.5,40.0],[82.28571428571428,40.71428571428571],[82.5,41.0],[83.7,41.3],[85.0,42.0],[85.85185185185185,42.14814814814815],[87.94444444444444,43.05555555555556],[88.53846153846155,43.46153846153846],[89.0,44.0],[90.41025641025641,44.58974358974359],[91.75,45.0],[93.71428571428571,45.285714285714285],[94.44444444444444,45.55555555555556],[95.0,46.0],[97.53846153846153,46.46153846153847],[98.33333333333334,47.0],[101.36842105263159,47.631578947368425],[102.4,48.0],[104.0,48.1764705882353],[105.06896551724138,48.06896551724138],[106.31578947368419,47.315789473684205],[107.0,47.13636363636364],[108.0,47.388888888888886]]]]}}]}