{"type":"FeatureCollection","features":[{"type":"Feature","properties":{"ageMa":440},"geometry":{"type":"MultiPolygon","coordinates":[[[[-81.0,-67.0],[-81.5,-67.5],[-82.0,-67.5],[-82.13333333333333,-68.13333333333333],[-82.0,-68.33333333333334],[-81.0,-68.0],[-80.5,-68.5],[-79.84615384615385,-68.84615384615384],[-78.60000000000001,-70.60000000000001],[-78.53846153846155,-71.46153846153847],[-78.66666666666667,-72.0],[-78.83333333333333,-72.16666666666667],[-80.22222222222223,-72.77777777777777],[-81.0,-73.33333333333333],[-82.0,-73.5],[-83.0,-73.83333333333334],[-84.0,-74.0],[-85.0,-74.0],[-85.66666666666667,-74.33333333333334],[-87.0,-74.66666666666667],[-89.0,-74.8],[-90.0,-75.0],[-91.0,-75.4],[-93.0,-75.75],[-93.5,-75.5],[-94.4,-74.4],[-95.0,-74.25],[-95.33333333333333,-74.0],[-95.15384615384616,-72.84615384615385],[-94.0,-72.0],[-93.61904761904762,-71.38095238095238],[-92.85714285714286,-71.0],[-92.46153846153847,-70.53846153846155],[-91.25,-70.0],[-90.60000000000001,-69.4],[-89.0,-69.0],[-88.0,-68.33333333333334],[-86.88888888888889,-67.11111111111111],[-86.5,-66.5],[-84.42857142857143,-64.57142857142858],[-82.0,-63.5],[-81.0,-63.66666666666667],[-80.75,-64.0],[-80.83333333333334,-65.16666666666666],[-81.25,-66.25],[-81.0,-67.0]]],[[[-28.666666666666668,-38.0],[-28.866666666666667,-37.86666666666667],[-29.0,-37.5],[-30.0,-38.0],[-31.66666666666667,-38.333333333333336],[-32.25,-39.0],[-34.04,-39.96],[-35.0,-40.074074074074076],[-37.0,-40.0],[-39.0,-40.1],[-39.5,-40.0],[-40.0,-39.5],[-40.0,-38.5],[-39.66666666666667,-38.0],[-38.05714285714286,-37.94285714285714],[-37.25,-37.75],[-36.70833333333333,-37.291666666666664],[-36.125,-37.0],[-33.87341772151899,-36.87341772151899],[-32.333333333333336,-37.0],[-32.0,-37.25],[-31.77777777777778,-37.22222222222222],[-31.5,-37.0],[-29.77777777777778,-36.77777777777778],[-29.142857142857146,-36.85714285714286],[-28.200000000000003,-36.0],[-26.80392156862745,-35.80392156862745],[-26.0,-36.0],[-25.352941176470587,-37.0],[-25.93220338983051,-38.06779661016949],[-27.0,-38.473684210526315],[-28.666666666666668,-38.0]]],[[[-136.5,-29.0],[-136.6470588235294,-29.352941176470587],[-137.56521739130434,-30.434782608695652],[-138.0,-30.625],[-138.7,-31.299999999999997],[-139.30769230769232,-31.692307692307693],[-140.4,-32.0],[-140.68421052631578,-32.315789473684205],[-141.0,-32.42857142857143],[-142.0,-32.55555555555556],[-144.15384615384616,-32.15384615384615],[-145.26666666666665,-31.266666666666666],[-145.4,-31.0],[-144.57142857142856,-28.999999999999996],[-144.28571428571428,-27.714285714285715],[-144.0,-27.0],[-143.14285714285714,-25.857142857142858],[-141.78947368421052,-25.210526315789473],[-141.0,-24.666666666666664],[-140.0,-25.0],[-138.75,-25.75],[-137.71428571428572,-26.714285714285715],[-136.86666666666667,-27.866666666666667],[-136.6,-28.6],[-136.5,-29.0]]],[[[-145.1818181818182,-20.81818181818182],[-145.625,-21.375],[-147.30769230769232,-21.692307692307693],[-149.0,-21.57142857142857],[-149.4,-21.4],[-149.8,-21.0],[-150.26666666666665,-20.266666666666666],[-150.375,-18.625],[-150.2,-18.0],[-149.76923076923077,-17.23076923076923],[-149.0,-16.8],[-148.375,-16.625],[-148.0,-16.57142857142857],[-146.56521739130434,-17.565217391304348],[-145.42857142857142,-19.0],[-145.14285714285714,-20.000000000000004],[-145.1818181818182,-20.81818181818182]]],[[[-22.0,-9.916666666666666],[-21.892857142857142,-10.892857142857142],[-22.0,-12.666666666666668],[-22.333333333333336,-13.666666666666668],[-22.57142857142857,-15.0],[-23.125,-16.0],[-23.266666666666666,-16.733333333333334],[-23.666666666666668,-17.333333333333336],[-24.4,-19.0],[-24.759999999999998,-19.240000000000002],[-25.25,-20.0],[-25.785714285714285,-20.214285714285715],[-26.0,-20.6],[-26.939393939393938,-21.06060606060606],[-27.857142857142858,-22.0],[-28.632653061224488,-22.367346938775512],[-29.428571428571423,-23.0],[-30.62162162162162,-23.37837837837838],[-31.4,-24.0],[-32.18181818181818,-24.181818181818183],[-32.81818181818182,-24.181818181818183],[-33.5,-24.5],[-33.85714285714286,-25.0],[-34.904761904761905,-25.095238095238095],[-35.583333333333336,-25.416666666666664],[-36.12903225806452,-25.87096774193548],[-36.89090909090909,-26.10909090909091],[-38.2,-27.0],[-39.733333333333334,-27.266666666666666],[-41.21052631578947,-27.789473684210524],[-41.5,-28.0],[-42.10526315789473,-28.105263157894736],[-42.94117647058823,-28.05882352941176],[-44.0,-28.57142857142857],[-45.0,-28.625],[-47.12765957446808,-29.127659574468083],[-48.76,-29.240000000000002],[-49.5,-29.5],[-50.0,-30.0],[-51.0,-30.0],[-51.0,-29.0],[-49.0,-27.0],[-48.421052631578945,-26.57894736842105],[-47.0,-26.0],[-46.0,-25.75],[-45.13333333333334,-25.866666666666667],[-44.22222222222222,-25.77777777777778],[-44.0,-25.5],[-43.0,-25.0],[-41.0,-24.428571428571427],[-37.1875,-22.8125],[-36.333333333333336,-22.666666666666668],[-34.833333333333336,-22.166666666666668],[-34.66666666666667,-22.0],[-33.0,-21.42857142857143],[-32.0,-20.75],[-30.833333333333336,-19.0],[-30.599999999999998,-18.0],[-30.799999999999997,-16.8],[-32.0,-16.75],[-34.0,-16.0],[-34.44444444444444,-15.444444444444443],[-34.57142857142857,-15.0],[-34.14285714285714,-13.857142857142858],[-33.142857142857146,-12.857142857142858],[-31.461538461538463,-11.53846153846154],[-30.0,-10.0],[-29.25,-8.75],[-28.7,-8.3],[-28.315789473684212,-7.684210526315789],[-28.0,-7.5],[-26.0,-7.5],[-25.0,-7.333333333333334],[-23.75,-7.75],[-23.0,-8.4],[-22.545454545454543,-9.545454545454547],[-22.0,-9.916666666666666]]],[[[-157.0,-17.0],[-158.0,-16.666666666666668],[-158.4,-16.400000000000002],[-158.78947368421052,-15.789473684210527],[-159.0,-15.0],[-158.66666666666669,-14.0],[-158.32432432432432,-13.675675675675677],[-157.0,-13.470588235294118],[-155.41666666666666,-14.999999999999998],[-155.36363636363637,-15.636363636363637],[-155.4,-16.0],[-156.0,-16.75],[-157.0,-17.0]]],[[[-59.0,-12.5],[-60.0,-12.75],[-61.0,-12.600000000000001],[-63.00000000000001,-12.666666666666668],[-64.33333333333333,-12.0],[-64.0,-11.0],[-63.0,-10.666666666666668],[-61.75,-10.75],[-61.0,-10.6],[-60.0,-10.6],[-58.0,-12.0],[-59.0,-12.5]]],[[[-167.0,-9.0],[-167.46153846153845,-9.53846153846154],[-169.0,-10.333333333333332],[-171.0,-10.5],[-172.13333333333333,-10.133333333333333],[-172.55555555555554,-9.555555555555555],[-172.82608695652175,-8.826086956521738],[-172.75,-7.25],[-172.41666666666666,-6.583333333333334],[-172.0,-6.285714285714286],[-170.77777777777777,-6.222222222222222],[-169.0,-6.625],[-168.12121212121212,-7.121212121212121],[-167.58333333333331,-8.0],[-167.4516129032258,-8.451612903225806],[-167.0,-9.0]]],[[[-180.0,1.131578947368421],[-179.0,1.5],[-178.16666666666669,1.0],[-178.31578947368422,0.3157894736842105],[-178.76470588235293,-0.23529411764705882],[-179.28571428571428,-0.2857142857142857],[-180.0,0.0],[-180.0,1.131578947368421]]],[[[-45.83333333333333,7.166666666666666],[-44.5,6.0],[-44.0,5.0],[-43.28571428571428,5.285714285714286],[-42.84615384615385,5.153846153846154],[-42.5,4.5],[-42.0,4.0],[-42.0,2.0],[-41.0,1.6666666666666667],[-40.69230769230769,1.3076923076923077],[-40.42857142857142,0.0],[-40.5,-1.0],[-40.66666666666667,-1.3333333333333333],[-42.0,-2.25],[-44.0,-2.5999999999999996],[-45.0,-3.0],[-46.0,-3.0],[-47.0,-3.8000000000000003],[-50.0,-5.333333333333333],[-50.733333333333334,-6.266666666666667],[-51.42857142857143,-6.571428571428572],[-52.0,-7.0],[-53.0,-7.0],[-53.57142857142858,-6.571428571428572],[-54.0,-6.0],[-54.4,-5.0],[-54.266666666666666,-3.7333333333333334],[-53.25,-2.0],[-53.0,-1.0],[-52.6,-0.4],[-52.63636363636363,0.36363636363636365],[-53.0,1.0],[-53.0,4.0],[-53.2,5.0],[-52.833333333333336,7.0],[-52.266666666666666,8.266666666666666],[-51.15384615384615,9.153846153846153],[-50.0,9.5],[-48.69230769230769,9.307692307692308],[-48.0,9.0],[-47.0,8.0],[-46.6,7.4],[-45.83333333333333,7.166666666666666]]],[[[-177.8490566037736,6.849056603773585],[-179.0,6.838709677419355],[-179.7605633802817,8.0],[-179.85106382978725,9.0],[-179.64864864864865,9.64864864864865],[-179.0,10.2],[-178.0,9.916666666666666],[-177.43478260869566,9.565217391304348],[-177.1111111111111,8.88888888888889],[-176.92857142857142,7.928571428571429],[-177.13793103448276,7.137931034482758],[-177.8490566037736,6.849056603773585]]],[[[-28.333333333333336,13.0],[-27.655172413793107,12.344827586206897],[-27.0,12.071428571428571],[-26.555555555555554,11.444444444444443],[-26.0,11.181818181818182],[-25.764705882352942,10.764705882352942],[-25.846153846153847,10.153846153846153],[-25.666666666666664,10.0],[-26.0,9.75],[-27.0,9.6],[-28.0,9.6],[-29.0,9.799999999999999],[-30.0,10.5],[-31.0,11.0],[-33.0,11.666666666666668],[-34.0,12.333333333333332],[-35.5,14.0],[-35.66666666666667,15.000000000000002],[-35.0,15.4],[-33.63636363636363,15.363636363636363],[-32.0,15.0],[-30.64705882352941,14.352941176470587],[-30.0,14.2],[-29.424242424242426,13.575757575757576],[-28.333333333333336,13.0]]],[[[-177.41666666666666,14.999999999999998],[-177.4,14.400000000000002],[-177.5,14.0],[-178.0,13.666666666666666],[-179.0,14.0],[-179.36363636363637,13.363636363636363],[-180.0,12.727272727272727],[-180.0,18.560000000000002],[-179.69911504424778,17.300884955752213],[-178.78787878787878,16.21212121212121],[-178.29999999999998,16.0],[-178.0,15.7],[-177.7878787878788,15.212121212121211],[-177.41666666666666,14.999999999999998]]],[[[153.0,26.0],[153.14285714285714,25.142857142857142],[153.5,25.0],[154.0,24.0],[155.0,23.5],[155.2,23.2],[156.0,23.0],[157.0,23.0],[157.6923076923077,22.692307692307693],[159.0,22.5],[160.0,22.75],[160.42857142857144,22.42857142857143],[161.0,21.0],[162.0,20.0],[162.25,19.0],[161.53846153846155,17.46153846153846],[161.10526315789474,16.894736842105264],[160.66666666666669,16.0],[160.0,15.5],[158.5,15.0],[157.0,14.0],[157.0,13.0],[158.5,12.0],[159.28571428571428,11.285714285714285],[161.0,11.0],[164.0,11.0],[165.0,10.857142857142858],[167.0,11.5],[167.4,11.400000000000002],[168.0,11.0],[168.26666666666665,10.266666666666666],[169.76470588235293,7.764705882352941],[171.0,6.5],[174.0,3.0],[174.15384615384613,2.1538461538461537],[174.44444444444446,1.4444444444444444],[175.21052631578948,0.21052631578947367],[175.8181818181818,-0.18181818181818182],[176.25,-1.0],[177.0,-2.0],[178.15384615384616,-2.846153846153846],[180.0,-4.75],[180.0,-90.0],[-180.0,-90.0],[-180.0,-4.75],[-179.51351351351352,-5.513513513513514],[-178.66666666666669,-8.0],[-178.125,-9.125],[-176.22222222222223,-12.222222222222221],[-175.75,-12.75],[-174.73333333333335,-14.733333333333334],[-174.23529411764707,-16.235294117647058],[-173.11764705882354,-18.11764705882353],[-172.6470588235294,-18.64705882352941],[-171.6470588235294,-20.64705882352941],[-171.13333333333333,-23.133333333333333],[-170.66666666666669,-24.0],[-170.0,-26.0],[-169.0,-26.666666666666668],[-168.0,-28.0],[-166.73333333333335,-28.733333333333334],[-166.21052631578948,-29.210526315789473],[-164.85714285714286,-29.85714285714286],[-164.3,-30.3],[-162.84615384615384,-30.846153846153847],[-161.0,-31.8],[-159.0,-32.16666666666667],[-158.0,-32.57142857142857],[-156.0,-33.0],[-154.0,-33.166666666666664],[-152.0,-33.57142857142857],[-149.0,-33.57142857142857],[-148.0,-33.800000000000004],[-146.6923076923077,-33.69230769230769],[-145.83333333333334,-33.83333333333333],[-145.125,-34.125],[-139.6923076923077,-34.69230769230769],[-137.0,-35.285714285714285],[-134.0,-35.42857142857143],[-132.0,-35.81818181818182],[-130.84615384615384,-35.84615384615385],[-128.52380952380952,-36.52380952380952],[-128.0,-36.8],[-127.47058823529412,-37.47058823529412],[-127.16666666666667,-38.0],[-127.66666666666666,-39.0],[-129.55555555555554,-40.44444444444444],[-130.20689655172413,-40.79310344827586],[-132.0,-41.0],[-134.0,-41.6],[-136.125,-41.875],[-136.33333333333334,-42.0],[-136.33333333333334,-42.333333333333336],[-136.0,-43.0],[-135.33333333333334,-42.66666666666667],[-134.0,-42.4],[-126.00000000000001,-42.14285714285714],[-124.0,-42.0],[-122.0,-41.66666666666667],[-114.80000000000001,-41.8],[-113.0,-42.0],[-111.0,-42.0],[-110.22222222222223,-42.22222222222223],[-108.0,-42.4],[-106.0,-42.4],[-104.63636363636363,-42.63636363636364],[-102.0,-42.666666666666664],[-100.5,-43.0],[-99.0,-43.55555555555556],[-98.75,-43.75],[-97.66666666666666,-44.0],[-96.625,-44.625],[-95.0,-45.0],[-94.47619047619048,-45.476190476190474],[-93.0,-46.0],[-92.46153846153847,-46.46153846153847],[-91.77777777777777,-46.77777777777777],[-90.5,-47.0],[-90.23529411764706,-47.23529411764706],[-89.0,-47.625],[-87.65217391304348,-48.652173913043484],[-87.30000000000001,-49.3],[-86.63636363636364,-49.63636363636363],[-86.3157894736842,-50.315789473684205],[-85.69999999999999,-50.7],[-85.375,-51.375],[-84.85714285714286,-51.85714285714286],[-84.5,-52.5],[-84.0,-53.0],[-83.66666666666667,-54.0],[-84.0,-55.0],[-84.5,-55.5],[-84.75,-56.0],[-85.36363636363637,-58.63636363636364],[-86.0,-60.0],[-87.0,-61.0],[-87.66666666666667,-62.0],[-88.42857142857143,-62.57142857142858],[-89.71428571428571,-64.28571428571428],[-90.36363636363636,-64.63636363636364],[-90.81818181818181,-65.18181818181819],[-91.44444444444444,-65.55555555555556],[-91.84615384615385,-66.15384615384616],[-93.33333333333334,-66.66666666666667],[-94.4,-67.6],[-94.69230769230771,-68.3076923076923],[-95.0,-68.66666666666667],[-95.25,-68.75],[-95.33333333333334,-69.0],[-96.375,-69.625],[-96.85714285714286,-70.14285714285714],[-98.81818181818181,-71.18181818181819],[-100.0,-71.33333333333333],[-100.84615384615384,-72.15384615384616],[-102.83333333333333,-73.16666666666667],[-104.0,-73.5],[-104.75,-74.25],[-105.47058823529412,-74.52941176470587],[-106.0,-75.0],[-108.18181818181817,-75.81818181818181],[-108.71428571428571,-76.28571428571428],[-109.42857142857143,-76.57142857142857],[-109.75,-77.0],[-109.5,-77.5],[-109.0,-78.0],[-108.0,-78.0],[-107.0,-78.33333333333334],[-106.0,-78.25],[-105.0,-78.5],[-102.0,-78.6],[-100.77777777777777,-78.77777777777777],[-98.0,-78.8],[-97.0,-79.0],[-95.0,-79.0],[-94.0,-78.8],[-91.81818181818181,-78.81818181818181],[-91.0,-79.0],[-89.0,-79.8],[-87.0,-80.25],[-86.0,-80.75],[-85.0,-81.0],[-84.0,-81.0],[-83.0,-81.66666666666667],[-79.0,-81.75],[-77.0,-82.25],[-75.0,-82.5],[-74.0,-82.33333333333334],[-73.0,-82.33333333333334],[-70.71428571428571,-82.71428571428571],[-68.0,-82.8],[-67.0,-83.0],[-57.0,-83.0],[-56.400000000000006,-83.4],[-56.0,-83.5],[-55.60000000000001,-83.4],[-55.0,-83.0],[-54.285714285714285,-83.28571428571428],[-52.55555555555555,-83.55555555555554],[-52.0,-83.6],[-51.0,-83.4],[-48.0,-83.5],[-47.0,-83.75],[-46.0,-83.75],[-45.0,-83.5],[-44.0,-83.75],[-43.0,-83.5],[-42.0,-83.66666666666667],[-41.0,-83.5],[-39.0,-83.75],[-38.0,-83.5],[-31.66666666666667,-83.33333333333334],[-31.0,-83.0],[-30.400000000000002,-83.4],[-29.0,-83.5],[-28.66666666666667,-83.33333333333334],[-25.30769230769231,-82.6923076923077],[-21.0,-82.75],[-16.0,-82.25],[-13.0,-82.33333333333334],[-12.0,-82.0],[-11.363636363636363,-82.36363636363636],[-10.0,-82.5],[-9.0,-82.33333333333334],[-8.0,-82.33333333333334],[-7.0,-82.0],[-6.0,-82.0],[-5.0,-81.80000000000001],[-4.0,-82.0],[-3.0,-81.75],[-2.0,-81.80000000000001],[-1.0,-81.5],[1.0,-81.75],[8.0,-81.5],[9.0,-81.33333333333334],[10.0,-81.33333333333334],[12.0,-81.6],[17.0,-81.5],[19.22222222222222,-81.22222222222223],[20.0,-81.0],[26.0,-81.0],[27.0,-80.83333333333333],[32.0,-80.75],[33.0,-80.5],[34.0,-80.66666666666667],[35.0,-80.66666666666667],[36.44444444444444,-80.44444444444444],[37.0,-80.0],[41.0,-80.0],[43.0,-79.5],[44.0,-79.0],[44.25,-78.0],[46.0,-76.25],[47.0,-75.5],[48.0,-75.33333333333334],[49.0,-74.5],[50.0,-74.0],[49.71428571428571,-73.28571428571428],[49.75,-73.0],[50.36363636363636,-72.36363636363636],[50.400000000000006,-72.0],[50.625,-71.625],[51.69230769230769,-70.6923076923077],[52.0,-70.5],[52.44444444444444,-70.44444444444444],[52.83333333333333,-69.83333333333333],[53.25,-69.75],[54.0,-70.0],[54.6,-69.6],[55.0,-69.0],[56.0,-69.0],[57.4,-68.4],[58.0,-68.0],[60.5,-67.5],[61.25,-67.25],[61.83333333333333,-66.83333333333333],[63.0,-66.5],[64.0,-66.4],[65.0,-66.0],[65.36363636363637,-65.36363636363637],[65.75,-64.0],[66.0,-62.0],[66.625,-60.625],[67.52941176470588,-59.529411764705884],[68.0,-59.0],[69.0,-58.4],[70.0,-58.0],[72.0,-57.599999999999994],[79.53846153846155,-58.46153846153846],[80.28571428571428,-58.71428571428571],[80.66666666666667,-59.0],[82.66666666666667,-59.333333333333336],[83.4,-59.6],[84.0,-60.0],[85.60000000000001,-60.400000000000006],[86.89473684210526,-61.10526315789473],[90.4,-62.6],[91.66666666666667,-63.333333333333336],[93.18181818181819,-63.81818181818181],[95.0,-65.0],[95.75,-65.25],[96.28571428571428,-65.71428571428571],[98.0,-66.4],[99.33333333333334,-66.66666666666667],[99.66666666666667,-67.0],[100.16666666666666,-67.16666666666667],[103.44444444444444,-67.55555555555556],[105.0,-68.0],[106.80000000000001,-68.2],[109.28571428571428,-68.71428571428571],[110.25,-68.75],[111.82608695652173,-69.17391304347827],[113.63636363636364,-69.36363636363636],[115.0,-69.66666666666667],[116.0,-69.5],[116.44444444444443,-69.55555555555554],[117.25,-69.75],[117.5,-70.0],[118.0,-70.16666666666667],[121.0,-70.4],[123.63636363636364,-70.36363636363636],[127.0,-70.66666666666666],[128.36363636363637,-70.36363636363636],[131.125,-70.125],[131.33333333333334,-70.0],[129.5,-69.5],[128.75,-69.25],[128.5,-69.0],[127.0,-68.57142857142857],[126.0,-68.5],[125.33333333333334,-68.0],[123.3,-67.7],[121.5,-67.0],[120.16,-66.84],[118.60000000000001,-66.4],[118.0,-66.0],[115.83333333333334,-65.16666666666666],[114.55555555555554,-64.44444444444444],[113.0,-64.0],[112.42857142857143,-63.57142857142857],[110.84615384615384,-63.15384615384615],[110.44444444444443,-62.55555555555555],[107.6,-61.400000000000006],[106.5,-60.5],[105.84615384615384,-60.15384615384616],[105.75,-60.0],[105.80000000000001,-58.0],[105.5,-57.0],[106.0,-56.333333333333336],[108.0,-55.5],[111.0,-55.0],[112.0,-54.6],[116.0,-53.75],[117.0,-53.66666666666667],[119.5,-52.0],[120.60000000000001,-51.6],[121.0,-51.0],[122.0,-50.0],[121.66666666666669,-49.33333333333334],[121.5,-48.0],[121.60000000000001,-47.6],[122.0,-47.0],[122.0,-46.0],[121.77777777777779,-45.22222222222222],[121.85714285714286,-44.85714285714286],[123.18181818181819,-44.18181818181819],[126.33333333333334,-41.0],[127.0,-40.0],[128.0,-39.0],[128.77777777777777,-38.77777777777778],[130.125,-38.125],[131.125,-37.125],[131.4,-36.400000000000006],[132.2,-35.2],[132.71428571428572,-34.71428571428571],[133.0,-34.0],[134.0,-34.0],[134.0,-33.0],[135.0,-33.0],[135.25,-32.25],[136.0,-31.666666666666664],[136.71428571428572,-30.71428571428571],[138.36363636363637,-29.363636363636367],[139.0,-29.0],[139.5,-27.5],[140.0,-27.0],[140.0,-26.0],[141.0,-26.0],[141.0,-24.0],[140.7142857142857,-23.285714285714285],[141.0,-22.0],[141.6,-21.6],[142.0,-21.0],[142.22222222222223,-20.22222222222222],[142.20000000000002,-19.0],[142.0,-18.0],[142.2,-16.8],[142.0,-16.0],[142.33333333333334,-15.000000000000002],[142.5,-14.0],[142.4,-13.600000000000001],[142.0,-13.0],[142.0,-12.0],[141.75,-11.0],[141.75,-9.0],[141.2,-6.800000000000001],[141.16666666666666,-6.0],[140.75,-5.0],[140.16666666666666,-2.8333333333333335],[139.39999999999998,-1.0],[140.0,0.0],[141.0,1.0],[141.5,2.0],[141.85714285714286,3.142857142857143],[142.46153846153848,3.5384615384615383],[142.84615384615384,4.153846153846153],[143.5,4.5],[144.0,5.0],[145.0,5.0],[145.5,6.0],[145.75,6.25],[146.28571428571428,7.7142857142857135],[146.4,9.4],[146.0,10.0],[145.4,10.4],[145.0,10.666666666666668],[144.0,11.0],[143.77777777777777,11.777777777777779],[143.75,13.0],[144.0,14.0],[144.0,15.0],[144.33333333333334,16.0],[145.33333333333334,17.0],[146.0,18.0],[145.25,20.0],[145.25,21.0],[146.20000000000002,23.000000000000004],[146.5,25.0],[147.0,25.5],[147.33333333333334,25.66666666666667],[148.0,25.75],[148.73333333333335,26.266666666666666],[150.66666666666669,26.666666666666668],[151.75,26.75],[152.0,26.66666666666667],[152.26666666666665,26.266666666666666],[153.0,26.0]]],[[[8.529411764705882,-8.470588235294118],[11.133333333333333,-9.866666666666667],[13.0,-10.5],[13.285714285714285,-10.714285714285715],[14.0,-10.875],[15.357142857142858,-11.642857142857144],[16.0,-11.857142857142858],[16.37837837837838,-12.621621621621621],[17.04,-13.0],[17.30769230769231,-13.692307692307693],[18.105263157894736,-14.0],[18.363636363636363,-14.636363636363637],[19.0,-15.0],[19.666666666666668,-17.0],[19.142857142857142,-18.142857142857142],[19.0,-20.0],[18.625,-22.0],[17.6,-26.0],[16.833333333333336,-27.0],[16.75,-27.75],[16.0,-28.333333333333332],[15.375,-29.375],[14.80952380952381,-29.80952380952381],[14.470588235294118,-30.47058823529412],[13.529411764705882,-31.529411764705884],[12.421052631578947,-32.421052631578945],[12.0,-32.57142857142857],[10.0,-32.833333333333336],[6.793103448275862,-32.20689655172414],[3.5,-32.0],[2.4444444444444446,-31.555555555555557],[2.0,-31.0],[1.0,-31.0],[0.0,-32.0],[-3.0,-32.75],[-4.0,-33.5],[-4.148148148148148,-33.851851851851855],[-5.285714285714286,-35.0],[-6.0,-35.357142857142854],[-6.538461538461538,-35.46153846153847],[-7.0,-36.0],[-7.818181818181818,-36.18181818181819],[-8.0,-36.333333333333336],[-9.0,-36.0],[-10.636363636363637,-36.36363636363636],[-13.0,-36.57142857142857],[-14.0,-36.42857142857143],[-14.333333333333334,-36.333333333333336],[-14.75,-36.0],[-15.789473684210527,-35.78947368421053],[-17.0,-34.66666666666667],[-17.18181818181818,-34.0],[-17.22222222222222,-33.0],[-17.0,-32.81818181818181],[-16.0,-32.6875],[-12.3,-32.7],[-11.444444444444443,-32.55555555555555],[-10.166666666666666,-31.833333333333336],[-9.636363636363637,-31.363636363636363],[-8.4,-30.6],[-7.0,-29.799999999999997],[-6.0,-29.4],[-3.0,-28.75],[-2.0,-29.0],[0.0,-29.0],[0.3333333333333333,-28.0],[1.2857142857142856,-27.285714285714285],[3.0,-25.25],[4.0,-24.5],[5.166666666666666,-24.166666666666668],[7.0,-23.0],[7.0,-22.0],[8.0,-21.0],[8.0,-20.0],[7.0,-19.0],[6.222222222222222,-19.22222222222222],[5.0,-19.333333333333336],[3.7777777777777777,-19.77777777777778],[3.0,-20.166666666666668],[2.0,-21.0],[0.6000000000000001,-21.6],[0.0,-22.0],[-4.0,-22.6],[-4.352941176470588,-22.352941176470587],[-4.6923076923076925,-21.692307692307693],[-5.166666666666666,-21.166666666666668],[-5.333333333333334,-20.333333333333336],[-5.7142857142857135,-19.714285714285715],[-6.25,-19.25],[-7.0,-19.0],[-8.0,-18.4],[-8.25,-18.0],[-8.275862068965516,-17.275862068965516],[-8.0,-15.5],[-7.37037037037037,-14.62962962962963],[-7.0,-13.7],[-6.575757575757576,-13.424242424242426],[-5.555555555555555,-12.0],[-5.227272727272727,-11.772727272727273],[-5.0,-11.285714285714286],[-3.0,-10.166666666666668],[-2.166666666666667,-9.833333333333332],[-1.0,-9.666666666666666],[-0.15384615384615385,-8.846153846153847],[3.0,-6.5],[4.0,-6.333333333333333],[5.0,-6.428571428571429],[5.9,-7.1],[7.190476190476191,-7.809523809523809],[8.0,-8.0],[8.529411764705882,-8.470588235294118]]],[[[120.875,2.875],[121.26666666666667,2.2666666666666666],[122.0,-2.0],[122.28571428571428,-2.714285714285714],[122.76470588235296,-6.235294117647059],[124.19999999999999,-11.0],[124.71428571428572,-15.0],[124.73333333333335,-18.266666666666666],[124.86666666666667,-19.133333333333333],[125.16666666666666,-19.833333333333332],[125.33333333333334,-21.0],[124.5,-22.5],[123.52941176470588,-23.52941176470588],[121.35294117647058,-25.352941176470587],[120.7,-25.7],[120.25,-26.25],[118.0,-27.666666666666668],[117.00000000000001,-27.666666666666668],[116.52941176470587,-27.47058823529412],[114.57894736842104,-26.421052631578945],[114.08695652173913,-25.91304347826087],[113.4,-25.6],[112.8,-25.0],[112.28571428571428,-24.714285714285715],[111.93103448275862,-23.06896551724138],[112.0,-22.0],[112.42424242424242,-21.424242424242426],[112.72093023255815,-20.72093023255814],[113.0,-19.200000000000003],[113.47058823529412,-18.470588235294116],[113.74358974358974,-17.743589743589745],[114.16949152542372,-15.169491525423728],[114.93103448275862,-13.931034482758621],[115.83333333333333,-10.0],[115.66666666666666,-3.0],[115.14285714285715,0.0],[114.86666666666667,3.8666666666666667],[114.0,8.0],[114.33333333333334,9.0],[114.60000000000001,9.4],[115.0,9.666666666666668],[116.0,10.0],[117.0,9.714285714285715],[118.5,9.0],[119.33333333333334,8.0],[120.28571428571428,5.285714285714286],[120.5,4.0],[120.875,2.875]]],[[[44.16666666666667,-6.0],[43.66666666666667,-7.0],[43.0,-7.588235294117647],[41.94736842105263,-8.052631578947368],[40.900000000000006,-8.1],[40.66666666666667,-7.333333333333334],[40.5,-6.0],[41.0,-4.8],[41.34782608695652,-4.3478260869565215],[42.09090909090909,-4.090909090909091],[43.0,-4.0],[43.733333333333334,-4.266666666666667],[44.25,-5.0],[44.16666666666667,-6.0]]],[[[49.46666666666667,-0.5333333333333333],[49.08333333333333,0.0],[49.40625,0.59375],[49.464285714285715,1.0],[50.0,1.5555555555555556],[50.75,2.0],[51.57142857142857,2.0],[51.875,1.875],[52.08163265306122,1.0],[51.82352941176471,0.1764705882352941],[51.0,-0.75],[49.99999999999999,-0.9166666666666666],[49.46666666666667,-0.5333333333333333]]],[[[130.71428571428572,4.7142857142857135],[130.0,5.0],[128.83333333333334,4.833333333333333],[127.53846153846155,5.538461538461539],[126.42857142857143,6.428571428571429],[125.76470588235293,6.764705882352941],[125.69230769230771,7.307692307692308],[126.0,8.0],[127.0,8.666666666666668],[128.0,9.0],[129.0,9.0],[130.0,9.5],[131.0,9.333333333333334],[132.16666666666669,8.166666666666666],[132.66666666666669,7.0],[132.35294117647058,5.647058823529411],[131.26666666666665,4.733333333333333],[130.71428571428572,4.7142857142857135]]],[[[130.16666666666666,17.166666666666664],[130.5,16.5],[131.0,16.0],[131.33333333333334,15.0],[131.66666666666669,13.0],[131.16666666666666,11.833333333333334],[130.0,11.75],[129.0,11.5],[127.69230769230771,11.692307692307693],[127.0,12.0],[127.25,12.75],[127.0,13.5],[126.60000000000001,13.4],[126.4,12.6],[126.0,12.5],[125.5,13.0],[125.4,13.4],[125.0,13.5],[124.66666666666666,14.0],[124.0,16.0],[124.0,17.0],[125.0,18.25],[126.0,18.6],[127.53846153846155,18.53846153846154],[129.0,18.0],[129.4,17.4],[130.16666666666666,17.166666666666664]]],[[[179.56923076923078,18.43076923076923],[180.0,18.56],[180.0,12.727272727272727],[179.32,14.0],[179.19354838709677,15.0],[179.36363636363637,18.0],[179.56923076923078,18.43076923076923]]],[[[115.25,20.0],[115.0,19.0],[113.85714285714286,18.857142857142858],[113.75,19.0],[114.0,20.0],[115.14285714285714,20.142857142857142],[115.25,20.0]]],[[[177.1875,21.0],[178.0,21.92857142857143],[179.01724137931035,22.017241379310345],[179.29955947136563,21.29955947136564],[179.32116788321167,19.67883211678832],[179.0,19.153846153846153],[177.47619047619045,19.476190476190474],[177.0,20.0],[177.1875,21.0]]],[[[171.14285714285717,23.0],[172.0,23.413793103448278],[173.0,23.4375],[173.3181818181818,23.31818181818182],[173.63636363636363,23.0],[173.0,22.363636363636363],[172.0,22.0],[171.31578947368422,22.31578947368421],[171.14285714285717,23.0]]],[[[29.153846153846153,31.846153846153847],[30.0,32.0],[31.0,31.2],[31.043478260869566,31.0],[30.212765957446805,30.787234042553195],[29.625,30.0],[29.144927536231883,29.855072463768117],[29.0,29.583333333333332],[28.6,29.400000000000002],[28.0,28.727272727272727],[27.54285714285714,28.457142857142856],[26.242424242424242,26.757575757575758],[26.0,25.5],[25.4,24.0],[25.0,22.0],[25.142857142857142,21.0],[24.833333333333336,20.0],[24.75,19.0],[24.375,18.625],[24.0,17.9],[23.0,17.666666666666668],[21.866666666666667,17.866666666666667],[21.48,19.48],[21.0,20.0],[20.8,21.0],[20.923076923076923,22.0],[20.666666666666668,23.0],[20.0,23.666666666666668],[18.0,24.727272727272727],[17.0,25.0],[15.19047619047619,25.19047619047619],[12.666666666666668,25.66666666666667],[11.0,25.72222222222222],[9.0,25.5625],[6.25,25.0],[3.878787878787879,24.121212121212118],[3.0,24.0],[1.7037037037037037,23.296296296296298],[0.75,23.0],[-0.34782608695652173,22.347826086956523],[-1.0,22.1],[-2.0,22.0],[-4.0,22.8],[-5.25,22.75],[-5.846153846153846,23.153846153846153],[-6.5,24.0],[-6.714285714285714,25.0],[-6.571428571428572,25.571428571428573],[-6.0,26.5],[-5.666666666666667,26.666666666666668],[-3.0,27.2],[-1.84,27.840000000000003],[-0.3404255319148936,28.340425531914892],[0.23809523809523808,28.761904761904763],[1.0,29.0],[2.6521739130434785,30.34782608695652],[5.0,31.75],[8.25,33.0],[10.0,33.357142857142854],[11.0,33.416666666666664],[12.399999999999999,34.0],[13.0,34.11538461538461],[18.25,34.0],[20.5,33.0],[26.0,32.05882352941177],[28.0,31.833333333333336],[29.153846153846153,31.846153846153847]]],[[[139.0,29.576923076923073],[140.0,29.272727272727273],[142.16666666666669,29.0],[142.4,28.400000000000002],[143.0,28.0],[143.0,27.0],[142.36363636363637,26.636363636363637],[141.26666666666665,25.733333333333334],[139.0,25.4],[137.0,24.799999999999997],[135.71428571428572,24.714285714285715],[133.57894736842104,25.57894736842105],[132.0,27.0],[131.0,27.0],[130.0,28.333333333333336],[129.0,28.5],[128.71428571428572,28.71428571428571],[128.5,29.0],[128.6,30.0],[128.77777777777777,30.22222222222222],[130.1818181818182,30.81818181818182],[131.0,30.833333333333336],[131.58333333333334,30.583333333333336],[134.10810810810813,30.108108108108105],[136.5,30.0],[139.0,29.576923076923073]]]]}}]}