{"type":"FeatureCollection","features":[{"type":"Feature","properties":{"ageMa":220},"geometry":{"type":"MultiPolygon","coordinates":[[[[-66.44444444444444,-14.444444444444443],[-67.0,-14.0],[-66.66666666666667,-13.0],[-66.77777777777777,-12.777777777777779],[-67.0,-12.833333333333334],[-67.09375,-11.0],[-67.0,-10.1],[-66.66037735849058,-10.660377358490567],[-66.76315789473685,-11.0],[-66.65384615384616,-11.346153846153847],[-66.72222222222221,-11.722222222222221],[-66.16666666666667,-12.0],[-66.22222222222223,-12.222222222222221],[-66.0,-12.333333333333332],[-66.0,-15.012820512820513],[-66.125,-15.0],[-66.44444444444444,-14.444444444444443]]],[[[-66.17021276595744,-9.829787234042552],[-66.42790697674418,-9.427906976744186],[-66.29773462783172,-8.702265372168286],[-66.0,-8.08],[-65.04545454545455,-8.045454545454545],[-65.07272727272726,-9.927272727272728],[-65.9375,-10.0625],[-66.24242424242425,-10.242424242424242],[-66.8,-10.0],[-66.17021276595744,-9.829787234042552]]],[[[-66.0,-6.5],[-66.04444444444445,-6.044444444444444],[-67.03717472118959,-6.037174721189591],[-67.07594936708861,-5.075949367088607],[-67.88505747126436,-5.114942528735632],[-68.25,-5.0],[-68.75999999999999,-4.0],[-68.68421052631578,-3.6842105263157894],[-69.0,-3.0],[-68.01980198019803,-2.98019801980198],[-67.4804469273743,-3.480446927374302],[-65.95348837209302,-4.0],[-65.0,-5.0],[-65.1,-5.9],[-65.5,-6.0],[-66.0,-6.5]]],[[[-72.4,0.0],[-72.6,-0.4],[-73.0,-0.6],[-73.05882352941177,-0.05882352941176472],[-73.1764705882353,0.0],[-73.16666666666667,1.0],[-74.0,2.0434782608695654],[-74.31884057971014,2.681159420289855],[-74.91666666666667,3.0],[-74.91304347826087,3.9130434782608696],[-74.0,4.0],[-73.0,3.45],[-72.70165745856355,2.298342541436464],[-72.49056603773585,2.0],[-72.8974358974359,1.0],[-72.85714285714286,0.14285714285714285],[-72.4,0.0]]],[[[-11.0,22.0],[-10.4,22.4],[-9.875,22.125],[-9.428571428571427,21.0],[-9.652173913043478,20.652173913043477],[-10.470588235294118,20.52941176470588],[-10.8,21.0],[-10.75,21.25],[-11.0,22.0]]],[[[-73.5,44.5],[-74.2,44.0],[-74.55555555555554,43.55555555555555],[-75.0,43.333333333333336],[-76.94871794871794,42.94871794871795],[-77.0,42.6],[-78.08695652173914,42.08695652173913],[-77.54929577464789,41.45070422535211],[-77.54285714285714,41.0],[-77.76470588235294,40.76470588235294],[-77.75714285714287,40.24285714285715],[-77.88666666666667,39.88666666666667],[-78.61481481481482,39.614814814814814],[-78.97435897435898,39.0],[-78.90123456790124,35.098765432098766],[-78.28571428571428,34.0],[-78.33333333333334,33.66666666666667],[-78.0,33.25],[-77.97560975609755,32.02439024390244],[-77.0,32.0],[-76.72649572649573,31.273504273504276],[-76.15584415584416,31.155844155844157],[-75.91489361702128,30.914893617021278],[-75.69747899159665,29.69747899159664],[-75.85074626865672,29.149253731343286],[-75.75,29.0],[-76.0,28.833333333333336],[-76.85401459854015,28.854014598540147],[-77.10309278350516,29.0],[-77.16666666666666,29.833333333333336],[-77.5,30.5],[-78.02803738317758,30.97196261682243],[-78.15384615384616,32.84615384615385],[-79.0,32.95652173913044],[-79.51724137931035,34.0],[-79.1081081081081,35.0],[-79.18604651162791,35.18604651162791],[-79.06451612903226,35.935483870967744],[-79.93548387096774,35.935483870967744],[-80.14,36.86],[-81.03333333333333,37.0],[-80.75,37.25],[-80.35,37.35],[-80.0,38.0],[-80.0,39.0],[-80.4,39.6],[-81.0,39.75],[-81.0,40.800000000000004],[-80.92307692307693,41.0],[-80.2,41.2],[-80.0,42.06976744186046],[-79.31746031746032,42.317460317460316],[-79.06060606060606,43.06060606060606],[-79.03745318352061,44.0374531835206],[-78.31304347826087,44.313043478260866],[-78.15625,45.0],[-78.02,47.019999999999996],[-77.15827338129496,48.15827338129496],[-77.02255639097744,49.02255639097744],[-76.24285714285713,49.24285714285714],[-76.0,49.68],[-75.31884057971014,50.31884057971014],[-75.0,51.0],[-74.0,51.0],[-73.44444444444444,50.55555555555555],[-73.10000000000001,49.9],[-73.0909090909091,48.0],[-73.3,47.0],[-73.0,46.0],[-73.16666666666667,45.0],[-73.5,44.5]]],[[[-68.0,44.0],[-67.0,44.66666666666667],[-66.60000000000001,44.6],[-66.5,45.0],[-66.125,45.125],[-65.66666666666667,45.0],[-66.0,44.5],[-66.4,44.400000000000006],[-66.4,43.60000000000001],[-66.0,43.0],[-68.0,43.0],[-68.0,44.0]]],[[[-180.0,90.0],[180.0,90.0],[180.0,82.33333333333334],[177.0,82.16666666666667],[176.5,82.0],[176.28571428571428,81.71428571428571],[175.66666666666669,81.33333333333334],[174.77777777777777,81.22222222222223],[174.30769230769232,81.3076923076923],[172.84615384615384,81.15384615384615],[171.0,81.14285714285714],[170.0,81.33333333333334],[167.0,81.0],[167.6,80.60000000000001],[168.4,80.4],[169.0,80.0],[169.0,79.0],[164.05882352941177,78.94117647058823],[163.76470588235293,78.76470588235293],[163.0,79.0],[163.0,78.0],[161.0,78.0],[161.0,79.0],[160.0,79.0],[160.0,78.0],[155.0,78.0],[155.0,79.0],[138.0,79.0],[138.0,78.0],[134.0,78.0],[134.0,77.0],[127.0,77.0],[127.0,76.0],[126.0,76.0],[126.0,75.0],[121.0,75.0],[121.0,74.0],[117.0,74.0],[117.0,73.0],[116.0,73.0],[116.0,72.0],[114.0,72.0],[113.21052631578947,71.78947368421053],[113.0,71.0],[107.0,71.0],[107.0,70.0],[106.0,70.0],[106.0,69.0],[105.0,69.0],[105.0,68.0],[102.0,68.0],[102.0,67.0],[100.1081081081081,66.8918918918919],[100.0,66.0],[98.05714285714286,65.94285714285715],[98.0,65.0],[96.11764705882354,64.88235294117646],[96.0,64.0],[95.0,64.0],[94.63636363636364,63.36363636363636],[94.0,63.0],[93.06185567010309,62.93814432989691],[92.9375,62.0625],[91.1875,61.8125],[91.0,61.0],[89.0,61.0],[89.0,60.0],[88.0,60.0],[88.0,59.0],[86.0,59.0],[86.0,58.0],[87.0,58.0],[87.0,57.0],[107.91304347826087,57.08695652173913],[108.0,57.5],[108.4,57.6],[109.0,58.0],[117.9245283018868,58.075471698113205],[118.24,58.76],[119.0,59.0],[124.91111111111111,59.08888888888889],[125.0,60.0],[126.0,60.0],[126.11428571428571,59.114285714285714],[131.0,59.0],[131.6,58.60000000000001],[132.0,58.5],[132.09302325581396,58.093023255813954],[139.0,58.0],[139.0,57.0],[151.95876288659792,57.04123711340206],[152.1904761904762,57.19047619047619],[152.80952380952382,57.19047619047619],[153.0,58.0],[154.0,58.0],[154.84615384615384,57.84615384615385],[156.0650406504065,58.0650406504065],[156.96521739130435,58.03478260869565],[157.33333333333334,58.33333333333334],[157.75,58.25],[157.52380952380952,58.52380952380952],[157.5744680851064,59.0],[157.84674329501917,59.15325670498084],[160.0,59.0],[159.04255319148936,58.95744680851064],[158.86206896551724,58.13793103448276],[158.33333333333334,58.0],[157.0421052631579,57.95789473684211],[156.28571428571428,57.71428571428571],[156.41176470588235,57.41176470588235],[155.86666666666667,55.86666666666667],[156.0,54.0],[155.04395604395603,53.956043956043956],[155.01503759398494,52.98496240601504],[154.10309278350516,52.896907216494846],[154.0,51.75],[153.71428571428572,51.285714285714285],[153.7391304347826,51.0],[152.55555555555554,50.44444444444444],[152.4230769230769,50.0],[152.1635687732342,49.8364312267658],[151.35294117647058,49.647058823529406],[150.77142857142857,49.0],[149.34437086092714,48.65562913907284],[149.0,48.33333333333333],[148.6176470588235,48.382352941176464],[148.21428571428572,48.214285714285715],[148.0,48.33333333333333],[147.85365853658536,48.146341463414636],[147.25,48.0],[145.1081081081081,47.89189189189189],[145.0,47.0],[142.0,47.0],[142.0,46.0],[141.0,46.0],[140.42105263157893,46.421052631578945],[139.60000000000002,46.400000000000006],[139.33333333333331,46.0],[139.4,45.6],[139.0,45.0],[137.0,45.0],[137.0,44.0],[135.0,44.0],[134.1290322580645,44.12903225806452],[133.5,44.0],[133.5,43.5],[133.0,43.0],[132.3,43.3],[131.0,43.25],[130.0701754385965,42.92982456140351],[130.0,42.6],[128.0,42.0],[126.0,42.0],[126.0,41.0],[124.0,41.0],[123.33333333333334,41.333333333333336],[123.0,42.0],[122.6,41.400000000000006],[122.0,41.0],[120.0,41.0],[120.0,39.0],[119.0,39.0],[119.0,38.0],[120.0,38.0],[119.77777777777777,37.22222222222222],[120.00000000000001,36.66666666666667],[120.4,36.6],[121.0,37.0],[121.0,36.0],[120.60000000000001,35.400000000000006],[120.0,35.0],[120.0,34.0],[119.04597701149426,33.95402298850575],[119.0,33.0],[118.21428571428572,32.785714285714285],[117.8888888888889,32.111111111111114],[117.0,32.0],[117.0,31.0],[116.28571428571428,31.285714285714285],[115.86666666666667,31.133333333333333],[114.5,31.0],[114.4,30.6],[113.7142857142857,30.285714285714285],[113.28571428571428,30.285714285714285],[112.5,30.0],[112.5,29.5],[112.0,29.0],[111.33333333333334,29.333333333333336],[111.00000000000001,29.333333333333336],[110.66666666666669,29.0],[110.60000000000001,28.6],[111.0,28.0],[109.0,28.0],[109.0,27.0],[108.0,27.0],[108.0,26.0],[107.0,26.0],[107.0,25.0],[106.0,25.0],[106.0,24.0],[104.0,24.0],[104.0,23.0],[103.0,23.0],[103.0,22.0],[102.0,22.0],[102.0,20.0],[101.0,20.0],[101.0,19.0],[100.0,19.0],[100.0,16.0],[97.66666666666667,16.0],[97.6,15.600000000000001],[98.0,15.0],[96.0,15.0],[96.0,16.0],[95.0,16.0],[95.0,17.0],[95.33333333333334,18.0],[95.0,18.5],[94.5,18.5],[94.0,19.0],[94.0,20.0],[92.0,20.0],[92.0,21.0],[91.0,21.0],[91.0,22.0],[89.0,22.0],[89.0,23.0],[88.0,23.0],[88.0,25.0],[88.25,26.0],[88.25,27.0],[88.5,27.5],[89.28571428571428,27.714285714285715],[89.5,28.0],[89.5,28.5],[90.0,29.0],[94.0,29.0],[94.0,28.0],[95.0,28.0],[95.0,27.0],[98.0,27.0],[98.0,29.0],[99.0,29.0],[99.0,30.0],[99.5,30.5],[100.0,30.5],[100.21428571428572,30.785714285714285],[100.33333333333334,31.333333333333336],[100.0,32.0],[102.0,32.0],[102.0,33.0],[104.0,33.0],[104.0,35.0],[105.0,35.0],[105.0,36.0],[106.0,36.0],[106.60000000000001,36.400000000000006],[107.0,36.333333333333336],[107.22222222222223,36.77777777777778],[107.23529411764706,37.23529411764706],[107.0,38.0],[107.0,42.0],[106.5,42.5],[106.5,43.0],[106.30769230769232,43.30769230769231],[106.0,43.5],[105.6923076923077,43.30769230769231],[105.5,43.0],[105.5,42.5],[105.0,42.0],[104.0,42.0],[104.0,41.0],[101.0,41.0],[100.16666666666666,41.16666666666667],[99.0,41.0],[97.0,41.0],[97.33333333333334,41.66666666666667],[97.25,42.0],[97.08333333333334,42.08333333333333],[94.0,42.0],[94.0,43.0],[90.0,43.0],[90.0,44.0],[89.0,44.5],[88.0,44.333333333333336],[87.0,44.0],[68.0,44.0],[68.0,43.0],[65.0,43.0],[65.0,42.0],[63.035714285714285,41.964285714285715],[62.88,41.12],[62.0,41.0],[61.80952380952381,40.19047619047619],[61.0,39.981818181818184],[60.429530201342274,39.57046979865772],[60.0,39.0],[57.97080291970803,38.97080291970803],[56.47120418848167,38.52879581151832],[56.0,38.02173913043478],[54.0,37.82352941176471],[53.3741935483871,37.6258064516129],[53.00000000000001,37.06451612903226],[52.0,36.95714285714286],[51.390243902439025,36.609756097560975],[50.929824561403514,36.07017543859649],[49.0,35.767857142857146],[46.0,35.86666666666667],[45.272727272727266,35.72727272727273],[45.0,35.4],[44.63636363636364,35.36363636363637],[44.0,35.0],[42.0,34.878787878787875],[40.0,34.94444444444445],[39.0,34.613861386138616],[38.0,34.54716981132076],[36.946666666666665,34.053333333333335],[35.974999999999994,34.025],[33.774193548387096,34.225806451612904],[32.31055900621118,33.68944099378882],[32.0,32.98863636363636],[26.166666666666668,33.0],[25.571428571428573,33.57142857142857],[25.0,33.666666666666664],[24.0,33.55555555555556],[23.333333333333336,33.66666666666667],[22.6,33.6],[22.0,34.0],[19.02325581395349,33.97674418604652],[19.0,33.0],[17.120481927710845,32.87951807228916],[17.0,31.8],[16.61904761904762,31.38095238095238],[16.470588235294116,30.529411764705884],[16.0,30.0],[15.166666666666668,29.833333333333336],[15.0,29.5],[14.714285714285712,29.285714285714285],[14.421052631578945,29.421052631578945],[13.692307692307693,29.307692307692307],[13.057142857142857,28.942857142857143],[13.0,28.0],[11.0,28.0],[10.4,28.400000000000002],[9.666666666666668,28.66666666666667],[9.5,29.0],[9.166666666666668,29.166666666666664],[7.285714285714286,29.285714285714285],[6.666666666666667,29.666666666666668],[6.5,30.0],[5.666666666666667,30.666666666666668],[5.5,31.0],[5.6000000000000005,32.4],[6.0,32.5],[6.333333333333334,33.333333333333336],[6.333333333333334,33.66666666666667],[7.0,34.0],[7.285714285714286,34.71428571428571],[9.5,35.0],[9.666666666666668,35.333333333333336],[10.0,35.5],[14.0,35.5],[14.5,36.5],[15.5,37.0],[15.666666666666668,37.333333333333336],[16.285714285714285,37.71428571428571],[18.0,37.833333333333336],[18.153846153846153,38.15384615384615],[18.0,38.5],[17.666666666666668,38.66666666666667],[17.5,39.0],[16.714285714285715,39.28571428571428],[16.285714285714285,39.28571428571428],[16.0,39.5],[14.0,39.5],[13.222222222222221,38.77777777777778],[13.0,38.8],[12.5,38.5],[12.0,37.5],[10.0,37.2],[8.0,37.333333333333336],[7.000000000000001,37.2],[6.0,37.25],[4.818181818181818,37.81818181818181],[4.0,38.0],[3.666666666666667,38.66666666666667],[3.0,38.8],[2.0,38.333333333333336],[1.5555555555555554,38.55555555555556],[1.2000000000000002,39.2],[1.0,40.0],[0.5,40.5],[0.2222222222222222,41.22222222222222],[0.33333333333333337,44.66666666666667],[0.6666666666666667,45.333333333333336],[1.0,45.5],[1.1,46.0],[1.0,48.0],[0.5,48.5],[0.3333333333333333,49.0],[0.5555555555555556,49.44444444444444],[1.0,49.66666666666667],[1.054054054054054,50.054054054054056],[1.074074074074074,51.07407407407407],[0.6923076923076923,51.69230769230769],[0.6666666666666666,52.0],[0.7777777777777778,52.22222222222222],[1.352941176470588,52.647058823529406],[2.142857142857143,53.0],[2.2857142857142856,53.28571428571428],[2.2857142857142856,53.71428571428571],[4.0,54.0],[5.0,55.0],[5.833333333333334,54.83333333333333],[7.105263157894736,54.89473684210526],[7.5,55.0],[7.666666666666668,55.33333333333334],[8.285714285714285,55.71428571428571],[8.714285714285714,55.71428571428571],[9.105263157894736,55.89473684210526],[11.857142857142858,55.857142857142854],[12.0,55.5],[14.0,55.5],[14.333333333333334,55.66666666666667],[14.666666666666668,56.333333333333336],[15.333333333333334,56.66666666666667],[15.666666666666668,57.333333333333336],[16.333333333333336,57.66666666666667],[16.666666666666668,58.33333333333334],[17.25,58.75],[17.285714285714285,59.285714285714285],[17.0,60.0],[17.5,60.5],[17.666666666666668,61.0],[17.444444444444443,61.44444444444444],[17.0,61.666666666666664],[16.636363636363637,61.63636363636363],[16.0,62.0],[16.666666666666668,62.333333333333336],[16.76923076923077,63.230769230769226],[18.0,64.0],[17.444444444444443,64.44444444444444],[17.0,64.57142857142857],[14.0,64.16666666666667],[8.0,64.5],[7.6,64.6],[7.153846153846153,65.15384615384616],[6.5,65.5],[6.166666666666667,66.16666666666667],[6.0,67.0],[3.2,67.19999999999999],[3.0,67.5],[2.931034482758621,66.93103448275862],[3.2857142857142856,66.71428571428571],[3.7142857142857144,66.71428571428571],[3.7142857142857144,66.28571428571428],[3.8947368421052633,65.89473684210526],[4.818181818181818,65.81818181818181],[4.733333333333333,65.26666666666667],[4.846153846153847,64.84615384615384],[6.0,64.875],[6.25,64.75],[6.75,64.75],[6.75,64.25],[6.931034482758621,63.93103448275862],[7.7894736842105265,63.78947368421053],[8.2,63.0],[8.764705882352942,62.76470588235294],[10.5,62.5],[11.5,62.0],[11.666666666666666,61.0],[11.444444444444443,60.55555555555555],[11.0,60.33333333333334],[10.0,60.5],[9.714285714285714,60.71428571428571],[9.666666666666666,61.0],[9.148148148148149,61.148148148148145],[8.0,61.0],[7.133333333333333,61.133333333333326],[6.5,61.5],[6.25,62.0],[6.0,62.142857142857146],[5.0,62.0],[4.5,62.5],[4.4,63.0],[4.0,63.5],[3.6363636363636362,63.63636363636363],[3.5,64.0],[3.2222222222222223,64.22222222222223],[3.1052631578947367,65.10526315789474],[2.0,65.0],[1.7142857142857142,64.28571428571428],[1.0,64.0],[-0.36363636363636365,64.63636363636364],[-0.5,65.0],[0.0,66.0],[0.7777777777777778,65.77777777777779],[1.1333333333333333,65.86666666666667],[1.0,66.5],[0.5,66.5],[0.0,67.0],[-0.33333333333333337,67.66666666666667],[-0.25,68.0],[-0.5714285714285714,68.42857142857143],[-1.0,68.6],[-1.4000000000000001,68.60000000000001],[-2.0,69.25],[-3.0,69.6],[-5.0,69.0],[-5.333333333333334,69.66666666666667],[-5.333333333333333,70.0],[-6.0,70.5],[-7.0,70.8],[-8.0,70.8],[-9.0,70.25],[-9.333333333333334,70.33333333333334],[-10.0,70.0],[-10.0,77.0],[-9.0,77.0],[-9.0,78.0],[-3.0,78.0],[-3.0,79.0],[-5.0,79.0],[-5.0,80.0],[-8.0,80.0],[-8.0,79.0],[-11.0,79.0],[-11.0,81.0],[-13.0,81.0],[-13.0,82.0],[-15.0,82.0],[-15.0,83.0],[-17.0,83.0],[-17.0,84.0],[-20.0,84.0],[-20.0,83.0],[-22.0,83.0],[-22.0,84.0],[-24.0,84.0],[-24.0,85.0],[-25.0,85.0],[-25.0,86.0],[-40.0,86.0],[-40.0,85.0],[-45.0,85.0],[-45.0,86.0],[-47.0,86.0],[-47.0,85.0],[-52.0,85.0],[-52.0,86.0],[-61.0,86.0],[-61.0,85.0],[-63.0,85.0],[-63.0,86.0],[-64.0,86.0],[-64.0,88.0],[-71.0,88.0],[-71.0,87.0],[-81.0,87.0],[-82.19999999999999,87.19999999999999],[-82.5,87.0],[-82.4,86.60000000000001],[-82.0,86.0],[-82.82352941176471,85.8235294117647],[-84.0,85.95238095238095],[-84.88059701492537,85.88059701492537],[-85.53846153846155,85.53846153846155],[-85.77272727272728,85.0],[-85.70588235294117,84.70588235294119],[-86.0,84.28571428571428],[-87.0,84.53846153846155],[-88.0,84.14285714285714],[-88.52380952380952,84.47619047619047],[-90.0,84.66666666666667],[-92.0,84.0],[-96.0,84.0],[-96.0909090909091,85.0],[-97.0,85.37037037037037],[-97.34482758620689,85.3448275862069],[-98.14285714285714,85.0],[-98.25,84.75],[-98.0,84.0],[-98.75,84.25],[-99.0,84.14285714285714],[-100.0,84.22222222222221],[-101.0,84.57142857142857],[-103.0,84.0],[-104.0,84.0],[-103.66666666666669,84.66666666666667],[-103.88571428571429,85.11428571428571],[-105.0,85.0],[-106.13333333333334,85.13333333333333],[-106.5,85.0],[-106.5,84.5],[-107.0,84.0],[-108.0,84.0],[-108.84615384615384,84.15384615384616],[-111.0,84.0],[-111.0,83.0],[-115.0,83.0],[-115.0,82.0],[-116.0,82.0],[-116.0,81.0],[-118.0,81.0],[-118.0,82.0],[-119.0,82.0],[-119.0,81.0],[-126.0,81.0],[-126.0,80.0],[-128.0,80.0],[-128.77777777777777,80.22222222222223],[-129.2,80.2],[-129.66666666666666,80.0],[-129.60000000000002,79.6],[-130.0,79.0],[-132.0,79.0],[-132.0,81.0],[-135.0,81.0],[-135.0,82.0],[-136.0,82.0],[-136.0,84.0],[-143.0,84.0],[-143.0,85.0],[-145.0,85.0],[-145.0,84.0],[-150.0,84.0],[-150.0,83.0],[-152.0,83.0],[-152.0,82.0],[-171.0,82.0],[-171.0,80.0],[-174.0,80.0],[-174.0,82.0],[-177.0,82.0],[-177.0,80.0],[-180.0,79.95604395604396],[-180.0,81.93333333333334],[-179.0,82.0],[-180.0,82.33333333333334],[-180.0,90.0]],[[-2.142857142857143,77.85714285714286],[-1.8333333333333335,78.0],[-2.25,78.25],[-3.0,78.0],[-2.142857142857143,77.85714285714286]],[[-135.46153846153845,83.53846153846155],[-135.0,83.57142857142857],[-134.91891891891893,84.08108108108108],[-135.26086956521738,84.2608695652174],[-136.0,84.0],[-135.46153846153845,83.53846153846155]],[[-135.73913043478262,84.73913043478261],[-135.91666666666669,85.08333333333334],[-136.23076923076923,84.99999999999999],[-136.3157894736842,84.68421052631578],[-136.0,84.0],[-135.73913043478262,84.73913043478261]],[[-173.0,82.0],[-172.66666666666669,82.66666666666667],[-172.75,83.0],[-174.33333333333334,83.0],[-174.4,82.6],[-174.0,82.0],[-173.0,82.0]],[[-159.8181818181818,86.18181818181819],[-160.0,86.28571428571428],[-160.1818181818182,86.18181818181819],[-160.1818181818182,86.0],[-159.8181818181818,86.0],[-159.8181818181818,86.18181818181819]],[[-105.60000000000001,87.4],[-106.0,87.66666666666667],[-106.4,87.6],[-106.5,88.0],[-107.16666666666667,88.00000000000001],[-107.0,87.5],[-106.60000000000001,87.4],[-106.66666666666666,87.0],[-106.0,86.75],[-104.66666666666669,87.0],[-104.75,87.25],[-105.0,87.20000000000002],[-105.60000000000001,87.4]],[[-104.2,88.0],[-104.25,87.75],[-104.0,87.66666666666667],[-103.80000000000001,87.8],[-103.0,87.77777777777777],[-102.90697674418604,87.90697674418604],[-102.0,88.0],[-103.0,88.1111111111111],[-104.05263157894737,88.05263157894737],[-104.2,88.0]],[[22.363636363636363,66.63636363636364],[22.666666666666664,67.0],[22.363636363636363,67.36363636363636],[21.714285714285715,67.28571428571428],[21.6,67.0],[21.692307692307693,66.6923076923077],[22.0,66.5],[22.363636363636363,66.63636363636364]],[[27.333333333333336,65.0],[27.22222222222222,65.22222222222223],[26.666666666666668,65.33333333333334],[26.5,65.0],[27.000000000000004,64.66666666666667],[27.25,64.75],[27.333333333333336,65.0]],[[32.800000000000004,36.0],[33.166666666666664,36.0],[33.0,36.2],[32.800000000000004,36.0]],[[40.733333333333334,37.733333333333334],[41.18181818181818,37.81818181818181],[41.44444444444444,38.44444444444444],[41.400000000000006,38.6],[42.0,38.833333333333336],[43.0,39.0],[43.0,40.0],[46.0,40.0],[46.0,41.0],[42.0,41.0],[42.0,43.0],[44.0,43.0],[44.0,45.0],[43.0,45.0],[43.0,46.0],[40.0,46.0],[40.0,44.0],[38.0,44.0],[38.0,43.0],[39.0,43.0],[39.0,40.0],[39.400000000000006,39.400000000000006],[39.6,38.6],[40.0,38.0],[40.733333333333334,37.733333333333334]],[[46.18181818181819,45.18181818181819],[45.71428571428571,45.285714285714285],[45.0,45.0],[45.75,44.75],[46.0,44.75],[46.333333333333336,45.0],[46.18181818181819,45.18181818181819]],[[59.0,86.57142857142857],[58.76,86.75999999999999],[57.214285714285715,86.78571428571428],[56.5,86.5],[56.22222222222222,86.0],[56.44444444444444,85.44444444444444],[57.15384615384615,85.15384615384616],[58.826086956521735,85.17391304347827],[60.16666666666667,85.83333333333333],[60.25,86.0],[60.16666666666667,86.16666666666666],[59.0,86.57142857142857]],[[111.33333333333334,46.66666666666667],[112.0,47.0],[111.22222222222223,47.22222222222222],[111.0,47.5],[110.66666666666667,47.333333333333336],[110.5,47.0],[111.00000000000001,46.66666666666667],[111.33333333333334,46.66666666666667]],[[112.28571428571428,46.28571428571428],[112.8,45.8],[113.2,45.8],[114.47058823529412,46.529411764705884],[114.8,47.0],[114.44444444444444,47.44444444444444],[114.0,47.5],[112.73913043478261,47.26086956521739],[112.0,47.0],[112.28571428571428,46.28571428571428]],[[133.17391304347825,46.173913043478265],[133.0,46.28571428571429],[132.75,46.0],[133.05479452054794,45.945205479452056],[133.1818181818182,46.0],[133.17391304347825,46.173913043478265]],[[134.85714285714286,48.0],[134.0,48.285714285714285],[133.57142857142856,48.0],[133.6470588235294,47.647058823529406],[134.0,47.33333333333333],[134.85714285714286,48.0]],[[142.0,51.875],[142.14285714285714,52.00000000000001],[142.0,52.25],[142.0,51.875]],[[14.0,53.5],[12.8,53.2],[12.5,53.0],[12.636363636363637,52.63636363636363],[13.0,52.33333333333333],[14.777777777777779,51.77777777777778],[16.0,52.0],[15.600000000000001,52.6],[15.5,53.0],[15.0,53.5],[14.0,53.5]],[[34.84615384615385,37.15384615384615],[34.888888888888886,36.888888888888886],[35.5,37.0],[35.22222222222222,37.22222222222222],[34.84615384615385,37.15384615384615]]],[[[-71.0,59.0],[-70.0,59.0],[-69.73333333333332,58.266666666666666],[-69.0,58.075471698113205],[-67.0,58.0],[-66.4,57.6],[-66.0,57.0],[-65.33333333333334,56.66666666666667],[-65.0,56.66666666666667],[-64.87878787878788,56.0],[-65.0,54.166666666666664],[-65.14285714285714,54.14285714285714],[-65.16666666666667,54.0],[-65.90825688073394,53.908256880733944],[-66.0,53.54545454545455],[-67.6,54.400000000000006],[-69.0,54.5],[-69.125,54.125],[-70.0,53.6],[-70.28571428571428,53.28571428571428],[-71.0,53.1875],[-71.6470588235294,53.35294117647058],[-71.86666666666667,54.00000000000001],[-71.64285714285714,54.642857142857146],[-71.28571428571428,55.0],[-71.6774193548387,55.32258064516129],[-72.46153846153845,55.53846153846154],[-72.66666666666667,56.0],[-72.86363636363636,56.13636363636363],[-75.0,56.0],[-75.0,57.0],[-75.17391304347825,57.82608695652174],[-76.0,58.0],[-76.0,59.0],[-76.86666666666667,60.13333333333334],[-76.76470588235294,61.23529411764706],[-77.0,62.0],[-75.0,62.0],[-75.0,61.0],[-73.0,61.0],[-72.91919191919192,60.080808080808076],[-72.0,60.0],[-71.84615384615384,59.15384615384616],[-71.0,59.0]]],[[[-24.666666666666668,63.333333333333336],[-24.428571428571427,63.42857142857143],[-24.0,63.23076923076923],[-23.523809523809522,63.52380952380952],[-23.090909090909093,64.0],[-22.866666666666667,64.86666666666667],[-20.08695652173913,64.91304347826087],[-19.77777777777778,64.77777777777777],[-19.22222222222222,64.77777777777777],[-19.0,64.5],[-17.6,64.4],[-17.0,64.0],[-17.22222222222222,63.22222222222222],[-17.25,62.25],[-17.5,62.0],[-17.5,61.0],[-17.666666666666668,60.66666666666667],[-19.0,60.0],[-19.400000000000002,59.400000000000006],[-21.0,59.0],[-21.6,58.60000000000001],[-22.0,58.5],[-22.4,58.60000000000001],[-24.285714285714285,59.71428571428571],[-24.555555555555554,60.444444444444436],[-25.0,61.0],[-26.0,61.333333333333336],[-27.0,61.400000000000006],[-28.22222222222222,61.22222222222223],[-30.875,61.125],[-31.333333333333336,61.33333333333334],[-31.66666666666667,61.33333333333334],[-31.66666666666667,61.66666666666667],[-32.0,62.16666666666667],[-32.333333333333336,62.333333333333336],[-32.66666666666667,62.333333333333336],[-32.66666666666667,62.66666666666667],[-33.0,63.5],[-33.333333333333336,63.66666666666667],[-33.5,64.0],[-33.0,64.2],[-32.63636363636364,64.63636363636364],[-32.0,64.9090909090909],[-26.0,64.92307692307692],[-25.25,64.75],[-24.692307692307693,64.3076923076923],[-24.555555555555554,63.55555555555556],[-24.666666666666668,63.333333333333336]]],[[[-77.4,61.400000000000006],[-78.0,61.0],[-79.0,61.0],[-79.0,63.0],[-77.0,63.0],[-77.0,62.0],[-77.4,61.400000000000006]]],[[[-6.655172413793104,63.65517241379311],[-7.428571428571429,63.42857142857143],[-7.75,63.0],[-7.7142857142857135,62.714285714285715],[-8.0,62.333333333333336],[-9.0,62.333333333333336],[-9.444444444444445,62.55555555555555],[-9.666666666666668,63.00000000000001],[-9.333333333333334,64.0],[-9.8,65.0],[-9.600000000000001,65.60000000000001],[-8.846153846153847,65.84615384615384],[-7.153846153846153,65.84615384615384],[-6.333333333333334,65.66666666666667],[-6.0,65.0],[-6.375,64.0],[-6.655172413793104,63.65517241379311]]],[[[-176.0,65.0],[-176.0,63.94565217391305],[-178.0,64.0],[-177.04761904761904,64.04761904761905],[-177.0,64.66666666666667],[-176.0,65.0]]],[[[-4.666666666666667,65.33333333333334],[-4.5,65.0],[-5.0,64.5],[-5.285714285714286,64.71428571428571],[-6.0,65.0],[-5.4,65.4],[-5.0,65.5],[-4.666666666666667,65.33333333333334]]],[[[-150.6949152542373,71.30508474576271],[-149.0,71.01136363636363],[-147.975,71.0],[-147.76470588235293,70.23529411764707],[-147.2127659574468,70.2127659574468],[-146.95327102803736,70.04672897196261],[-147.0,69.54545454545455],[-147.10204081632654,69.89795918367346],[-148.0,69.93258426966293],[-150.81632653061223,69.81632653061224],[-151.0,69.65384615384615],[-151.1747572815534,69.8252427184466],[-152.04347826086956,69.95652173913044],[-159.0,70.0],[-159.0,71.0],[-155.28571428571428,71.28571428571428],[-154.52380952380952,71.52380952380952],[-154.0,71.85],[-153.0,72.0],[-151.0,72.0],[-150.6949152542373,71.30508474576271]]],[[[-142.375,73.0],[-141.7,73.0],[-141.91666666666669,72.91666666666667],[-142.0,72.0],[-143.0,71.82795698924731],[-143.94117647058823,72.0],[-143.22695035460993,72.22695035460993],[-143.0,72.76190476190476],[-142.7058823529412,72.70588235294117],[-142.375,73.0]]],[[[-125.0,78.0],[-122.0,78.0],[-122.0,76.0],[-125.0,76.0],[-125.0,78.0]]],[[[77.5,-70.5],[77.0,-70.0],[77.8,-69.8],[79.0,-70.0],[78.5,-70.5],[77.5,-70.5]]],[[[58.41379310344828,-66.58620689655173],[58.266666666666666,-67.26666666666667],[57.58620689655172,-67.41379310344827],[57.0,-67.0],[57.42857142857143,-66.42857142857143],[58.0,-66.14285714285715],[58.41379310344828,-66.58620689655173]]],[[[-71.0,26.757575757575758],[-70.46994535519126,25.530054644808743],[-70.0,25.104166666666668],[-69.0,24.92],[-68.69127516778524,24.308724832214764],[-68.0,24.09375],[-66.97777777777777,24.022222222222222],[-66.79439252336448,23.205607476635514],[-65.33333333333334,23.0],[-65.0,22.666666666666668],[-64.87261146496814,22.127388535031848],[-64.50943396226415,21.49056603773585],[-63.90909090909091,21.09090909090909],[-63.74074074074075,20.25925925925926],[-62.93127147766323,20.06872852233677],[-62.766666666666666,19.233333333333334],[-62.06666666666667,19.0],[-61.775862068965516,18.224137931034484],[-60.92857142857143,18.0],[-60.66666666666667,17.333333333333336],[-60.0,17.0],[-59.10526315789474,17.105263157894736],[-58.57142857142857,18.0],[-58.19047619047619,18.19047619047619],[-57.925925925925924,20.074074074074076],[-57.925925925925924,20.925925925925927],[-57.75,21.0],[-57.66666666666667,21.666666666666668],[-57.5,22.0],[-57.5,23.0],[-57.4,23.400000000000002],[-57.0,23.5],[-56.0,23.5],[-55.66666666666667,23.333333333333336],[-55.5,23.0],[-55.5,22.0],[-55.074074074074076,21.925925925925924],[-54.66666666666667,21.666666666666668],[-54.333333333333336,21.666666666666668],[-54.333333333333336,21.333333333333336],[-54.166666666666664,21.0],[-53.857142857142854,20.857142857142858],[-53.142857142857146,20.857142857142858],[-53.0,20.0],[-52.08695652173913,19.913043478260867],[-52.0,18.875],[-51.75,18.75],[-51.25,18.75],[-51.25,18.25],[-51.0,17.857142857142858],[-50.2,17.799999999999997],[-50.0,17.666666666666668],[-49.0,17.5],[-48.44444444444444,18.444444444444443],[-48.0,18.666666666666668],[-47.888888888888886,19.0],[-47.900000000000006,23.0],[-48.0,23.5],[-48.333333333333336,23.666666666666668],[-48.5,24.0],[-48.5,25.0],[-48.83333333333333,25.166666666666664],[-48.92,27.080000000000002],[-49.400000000000006,27.4],[-49.6,27.4],[-50.0,29.0],[-50.81818181818181,29.18181818181818],[-51.0,30.0],[-51.71428571428571,30.285714285714285],[-52.0,31.0],[-51.875,31.875],[-52.0,33.0],[-51.84615384615385,38.15384615384615],[-52.0,39.0],[-53.66666666666667,39.333333333333336],[-54.333333333333336,39.66666666666667],[-55.0,40.5],[-56.0,40.5],[-56.333333333333336,40.66666666666667],[-56.5,41.0],[-57.333333333333336,41.66666666666667],[-57.75,42.25],[-57.66666666666667,42.66666666666667],[-57.80952380952381,43.19047619047619],[-58.0,43.333333333333336],[-58.60000000000001,43.400000000000006],[-59.0,44.0],[-59.77777777777778,44.22222222222222],[-60.5,45.0],[-61.0,46.0],[-60.60000000000001,46.6],[-60.0,47.0],[-59.03921568627451,47.03921568627451],[-58.37037037037037,47.37037037037037],[-58.11764705882353,48.0],[-57.95959595959596,48.04040404040404],[-57.33333333333334,48.0],[-56.77777777777778,47.77777777777778],[-56.0,48.0],[-55.400000000000006,47.6],[-55.0,47.5],[-52.75,47.75],[-52.33333333333334,48.333333333333336],[-51.6,48.60000000000001],[-51.0,49.0],[-50.333333333333336,50.333333333333336],[-50.0,50.5],[-49.33333333333334,51.333333333333336],[-48.5,52.0],[-48.5,53.0],[-48.333333333333336,53.333333333333336],[-47.75,53.75],[-47.666666666666664,55.0],[-47.44444444444444,55.44444444444444],[-46.0,56.0],[-45.0,56.0],[-44.8,57.8],[-44.0,58.0],[-43.81818181818182,58.81818181818182],[-43.5,59.0],[-43.333333333333336,59.333333333333336],[-43.0,59.5],[-39.0,59.8],[-38.285714285714285,59.71428571428571],[-37.66666666666667,59.333333333333336],[-37.25,58.75],[-37.0,58.0],[-36.400000000000006,57.6],[-36.25,57.0],[-36.333333333333336,56.333333333333336],[-36.5,56.0],[-36.333333333333336,55.66666666666667],[-36.25,55.0],[-36.666666666666664,54.0],[-36.0,53.33333333333333],[-35.71428571428571,53.28571428571428],[-35.285714285714285,52.71428571428571],[-35.0,52.0],[-34.5,51.5],[-34.333333333333336,51.00000000000001],[-33.714285714285715,50.71428571428571],[-33.285714285714285,50.71428571428571],[-32.66666666666667,50.333333333333336],[-32.5,50.0],[-32.2,49.8],[-32.0,49.0],[-31.0,48.333333333333336],[-30.0,48.5],[-29.714285714285715,48.71428571428571],[-28.833333333333336,48.83333333333333],[-28.5,49.5],[-28.0,50.0],[-27.4,49.6],[-27.0,49.5],[-26.0,49.6],[-25.42857142857143,50.0],[-26.400000000000002,51.6],[-26.5,52.0],[-26.333333333333336,52.33333333333334],[-26.0,52.5],[-25.75,52.0],[-25.299999999999997,51.7],[-24.5,52.0],[-24.285714285714285,53.28571428571428],[-24.0,53.5],[-23.857142857142854,53.857142857142854],[-23.142857142857146,53.857142857142854],[-22.857142857142858,54.00000000000001],[-22.71428571428571,54.285714285714285],[-22.71428571428571,54.71428571428571],[-22.285714285714285,54.71428571428571],[-21.88888888888889,54.888888888888886],[-21.18181818181818,54.81818181818182],[-19.5,55.0],[-19.333333333333336,55.33333333333334],[-19.0,55.5],[-18.8,55.800000000000004],[-17.0,56.0],[-16.400000000000002,56.400000000000006],[-16.0,56.5],[-15.600000000000001,56.400000000000006],[-15.0,56.0],[-14.400000000000002,56.400000000000006],[-13.0,56.5],[-12.666666666666668,56.333333333333336],[-12.5,56.0],[-11.8,55.800000000000004],[-11.2,55.800000000000004],[-11.0,55.66666666666667],[-10.0,55.75],[-9.4,55.60000000000001],[-8.5,54.5],[-8.5,54.0],[-8.09090909090909,53.909090909090914],[-8.0,53.5],[-7.0,53.33333333333333],[-6.833333333333333,53.166666666666664],[-6.818181818181818,52.81818181818181],[-7.0,52.800000000000004],[-7.38095238095238,52.38095238095238],[-7.363636363636363,52.0],[-7.0,51.2],[-6.285714285714285,51.285714285714285],[-6.0,51.5],[-5.9,51.0],[-5.2,49.8],[-4.515151515151515,49.484848484848484],[-3.090909090909091,47.90909090909091],[-3.0,47.0],[-2.3333333333333335,46.66666666666667],[-2.3333333333333335,46.333333333333336],[-2.0,45.5],[-1.0,45.5],[-0.6666666666666667,45.333333333333336],[-0.5,45.0],[-0.6666666666666667,44.66666666666667],[-1.2222222222222223,44.22222222222222],[-1.25,44.0],[-1.0,42.0],[-1.2666666666666666,41.266666666666666],[-2.0425531914893615,41.04255319148936],[-2.125,40.875],[-1.75,40.0],[-1.6,39.0],[-1.2000000000000002,38.0],[-1.1666666666666667,36.0],[-1.0,35.5],[-0.6666666666666667,35.333333333333336],[-0.5,35.0],[-0.14285714285714285,34.857142857142854],[0.0,34.5],[0.33333333333333337,34.333333333333336],[0.5,34.0],[0.8461538461538461,33.84615384615385],[1.0,33.5],[1.4000000000000001,33.4],[2.0,33.0],[4.0,33.0],[3.6000000000000005,32.4],[4.0,31.0],[3.6000000000000005,30.400000000000002],[2.5,30.0],[2.4,29.6],[2.0,29.0],[1.3333333333333333,29.333333333333336],[0.7142857142857142,29.285714285714285],[0.75,29.0],[0.4,28.6],[0.0,28.5],[-0.3529411764705882,28.647058823529413],[-0.6,29.0],[-0.46153846153846156,29.461538461538463],[0.0,29.75],[0.2857142857142857,29.714285714285715],[0.3333333333333333,30.000000000000004],[-0.25,30.25],[-0.75,30.25],[-0.625,30.625],[-0.8,31.8],[-0.5,32.0],[-0.8461538461538461,32.15384615384615],[-1.0,32.5],[-1.4000000000000001,32.4],[-2.0,32.0],[-1.4000000000000001,31.6],[-1.5,30.5],[-2.1333333333333333,30.133333333333333],[-2.5714285714285716,29.571428571428573],[-3.2857142857142856,29.285714285714285],[-3.75,26.75],[-4.352941176470588,26.352941176470587],[-4.684210526315789,25.684210526315788],[-5.444444444444444,25.444444444444443],[-5.75,25.0],[-5.4799999999999995,24.52],[-5.0,24.25],[-4.733333333333333,24.266666666666666],[-4.5,24.0],[-4.636363636363637,23.636363636363633],[-5.0,23.5],[-7.0,23.5],[-8.0,23.200000000000003],[-9.0,23.375],[-9.357142857142858,23.642857142857142],[-9.5,24.0],[-9.600000000000001,25.400000000000002],[-10.0,25.57142857142857],[-10.307692307692308,25.30769230769231],[-10.5,25.0],[-10.625,24.0],[-10.53846153846154,22.53846153846154],[-11.0,22.0],[-11.400000000000002,21.4],[-12.0,21.0],[-10.600000000000001,20.400000000000002],[-10.833333333333334,20.0],[-10.875,19.0],[-10.714285714285715,18.285714285714285],[-10.5,18.0],[-10.555555555555554,17.555555555555557],[-11.0,17.333333333333336],[-11.25,17.0],[-11.0,16.5],[-10.666666666666668,16.333333333333336],[-10.666666666666668,16.0],[-9.862068965517242,15.862068965517242],[-9.636363636363637,16.363636363636363],[-10.0,17.0],[-9.0,17.0],[-8.5,17.5],[-8.2,18.2],[-7.0,18.666666666666668],[-5.571428571428571,18.571428571428573],[-5.333333333333334,18.666666666666668],[-5.0,18.5],[-4.0,18.5],[-3.666666666666667,18.333333333333336],[-2.0,18.0],[-1.3333333333333333,18.333333333333336],[-1.0,19.0],[-0.6000000000000001,18.400000000000002],[0.0,18.25],[0.75,17.75],[2.0,17.5],[3.0,17.666666666666668],[3.48,17.48],[3.916666666666667,16.916666666666668],[4.133333333333333,16.866666666666667],[5.0,17.25],[5.352941176470588,17.64705882352941],[6.0,17.88888888888889],[8.0,18.0],[7.75,17.25],[7.875,16.875],[7.866666666666667,15.133333333333333],[7.7142857142857135,14.285714285714285],[7.5,14.0],[8.600000000000001,13.600000000000001],[9.0,12.5],[9.333333333333334,12.333333333333334],[9.5,12.0],[10.285714285714285,11.714285714285714],[10.714285714285715,11.714285714285714],[10.636363636363637,11.363636363636363],[11.0,10.333333333333332],[11.285714285714285,10.285714285714285],[12.0,9.666666666666668],[12.5,9.5],[13.600000000000001,8.600000000000001],[14.0,7.5],[14.600000000000001,8.4],[15.307692307692307,8.692307692307693],[16.0,9.5],[16.333333333333336,9.333333333333334],[16.5,9.0],[17.0,8.666666666666668],[18.0,8.5],[18.285714285714285,8.285714285714285],[18.333333333333336,8.0],[19.22222222222222,7.222222222222222],[19.25,7.0],[19.7,6.7],[20.375,6.625],[21.0,6.75],[21.6,6.6000000000000005],[22.0,6.0],[22.71428571428571,5.7142857142857135],[24.0,5.5],[25.0,5.5],[25.333333333333336,5.333333333333334],[25.5,5.0],[26.181818181818183,4.818181818181818],[26.818181818181817,4.818181818181818],[27.5,4.5],[28.0,4.0],[29.0,4.0],[29.6,3.6000000000000005],[30.5,3.5],[30.5,3.0],[31.0,2.8000000000000003],[31.22222222222222,2.7777777777777777],[31.5,3.0],[31.5,3.5],[32.0,3.5],[32.333333333333336,3.3333333333333335],[32.5,3.0],[32.5,2.0],[32.71428571428571,1.7142857142857142],[33.333333333333336,1.3333333333333333],[33.5,1.0],[33.4,0.6000000000000001],[33.0,0.0],[34.0,-1.0],[34.0,-2.0],[33.6,-2.6],[33.5,-3.0],[33.5,-5.0],[34.0,-5.5],[34.333333333333336,-5.333333333333334],[35.0,-5.25],[35.5,-5.5],[35.75,-6.0],[35.66666666666667,-6.666666666666667],[35.333333333333336,-7.333333333333334],[34.66666666666667,-7.666666666666668],[34.5,-8.0],[34.5,-9.0],[34.66666666666667,-9.333333333333334],[34.75,-10.0],[34.66666666666667,-10.666666666666668],[34.5,-11.0],[35.333333333333336,-11.666666666666668],[36.0,-12.5],[39.0,-12.5],[39.28571428571428,-12.285714285714285],[39.71428571428571,-12.285714285714285],[40.5,-12.0],[40.66666666666667,-11.666666666666668],[41.0,-11.5],[43.0,-11.5],[43.333333333333336,-11.333333333333334],[43.66666666666667,-10.666666666666668],[44.333333333333336,-10.333333333333334],[44.5,-10.0],[44.5,-9.0],[44.66666666666667,-8.666666666666668],[45.0,-8.5],[45.333333333333336,-8.666666666666668],[45.5,-9.0],[45.5,-11.0],[45.333333333333336,-11.333333333333334],[44.66666666666667,-11.666666666666668],[44.5,-12.0],[44.5,-13.0],[44.333333333333336,-13.333333333333336],[44.0,-13.5],[43.71428571428571,-13.285714285714285],[43.0,-13.2],[42.2,-14.0],[42.22222222222223,-14.222222222222221],[41.833333333333336,-14.833333333333334],[41.16666666666667,-14.833333333333334],[40.5,-15.0],[40.333333333333336,-15.333333333333334],[40.0,-15.5],[39.84615384615385,-15.846153846153847],[39.5,-16.0],[39.5,-17.0],[39.6,-17.4],[40.0,-18.0],[41.8,-18.2],[42.0,-18.5],[42.4,-18.6],[43.0,-19.0],[44.75,-19.25],[45.333333333333336,-19.666666666666668],[45.6,-20.400000000000002],[46.400000000000006,-21.6],[46.5,-22.0],[46.77777777777777,-22.22222222222222],[47.0,-26.0],[46.888888888888886,-29.111111111111114],[47.0,-29.5],[47.333333333333336,-29.666666666666668],[47.5,-30.0],[47.800000000000004,-32.0],[48.333333333333336,-32.333333333333336],[48.66666666666667,-32.333333333333336],[48.66666666666667,-32.66666666666667],[48.833333333333336,-33.0],[48.75,-33.75],[48.5,-34.0],[49.84615384615385,-34.15384615384615],[50.0,-34.333333333333336],[52.0,-34.0],[58.0,-34.0],[58.0,-33.0],[61.0,-33.0],[61.99999999999999,-33.45454545454545],[62.83333333333333,-33.0],[62.77777777777777,-32.77777777777778],[63.0,-32.5],[66.0,-32.5],[66.18181818181819,-32.18181818181818],[67.1,-32.1],[70.25,-32.25],[71.0,-32.0],[72.81818181818181,-32.18181818181818],[74.0,-32.5],[74.4,-32.4],[75.0,-32.0],[76.0,-33.0],[77.0,-33.0],[77.4,-32.4],[77.66666666666667,-31.66666666666667],[78.0,-31.5],[78.4,-31.6],[79.0,-32.0],[79.5,-31.5],[80.0,-31.333333333333336],[82.0,-31.333333333333336],[83.0,-31.5],[83.25,-31.75],[83.25,-32.0],[83.68421052631578,-32.315789473684205],[84.0,-32.375],[85.0,-32.142857142857146],[85.81818181818181,-32.18181818181818],[87.4,-32.6],[88.0,-33.0],[88.6,-32.6],[89.0,-32.5],[89.4,-32.6],[90.0,-33.0],[91.0,-33.142857142857146],[91.5,-33.0],[91.66666666666667,-32.66666666666667],[92.0,-32.5],[92.4,-32.6],[93.0,-33.0],[93.6,-32.6],[94.33333333333334,-32.333333333333336],[95.0,-32.25],[95.66666666666667,-32.333333333333336],[96.0,-32.5],[97.28571428571428,-32.285714285714285],[99.0,-32.25],[100.0,-32.0],[100.60000000000001,-31.6],[101.0,-31.5],[102.0,-31.5],[103.0,-31.333333333333336],[103.0677966101695,-31.93220338983051],[104.0,-32.0],[105.02020202020202,-32.97979797979798],[106.0,-33.166666666666664],[106.19999999999999,-33.8],[107.6,-34.400000000000006],[108.0,-35.22222222222222],[108.13592233009709,-35.86407766990291],[108.63636363636363,-36.0],[109.04597701149426,-36.95402298850575],[109.66666666666667,-37.0],[109.84615384615384,-37.15384615384615],[110.0,-38.0],[109.33333333333333,-40.0],[109.36363636363637,-40.36363636363637],[108.71428571428571,-41.71428571428571],[108.0,-42.0],[107.0,-42.0],[107.0,-44.0],[106.0,-44.0],[106.0,-48.0],[106.5,-48.5],[106.5,-52.0],[106.4,-52.4],[106.0,-53.0],[106.4,-53.60000000000001],[106.66666666666669,-54.333333333333336],[106.75,-55.0],[106.5,-55.5],[106.0,-55.75],[105.85714285714286,-56.0],[105.8,-57.8],[105.5,-58.0],[105.5,-59.0],[105.4,-59.400000000000006],[105.0,-60.0],[104.81818181818181,-60.81818181818182],[104.5,-61.0],[104.33333333333334,-61.33333333333334],[104.0,-61.5],[103.0,-61.5],[102.77777777777777,-61.77777777777777],[101.0,-62.0],[100.0,-61.727272727272734],[99.81818181818181,-61.81818181818181],[99.57142857142858,-62.42857142857143],[100.0,-63.0],[99.42857142857143,-62.57142857142858],[99.0,-62.72727272727273],[98.0,-62.4375],[96.0,-63.0],[96.4,-63.60000000000001],[97.0,-64.0],[97.0,-65.0],[94.0,-65.0],[94.0,-66.0],[91.0,-66.0],[91.0,-67.0],[90.0,-67.0],[90.0,-68.0],[89.0,-68.0],[89.0,-69.0],[88.0,-69.0],[88.0,-70.0],[91.0,-70.0],[91.77777777777777,-69.77777777777777],[92.125,-69.875],[93.81818181818181,-69.81818181818181],[94.2,-69.2],[94.5,-69.0],[94.5,-68.5],[95.0,-68.0],[95.5,-68.5],[95.5,-69.0],[95.75,-69.25],[95.83333333333333,-70.0],[95.66666666666667,-70.33333333333334],[95.66666666666667,-70.66666666666667],[94.80000000000001,-70.80000000000001],[94.5,-71.0],[94.33333333333334,-71.33333333333334],[94.0,-71.5],[93.44444444444443,-72.44444444444444],[92.8,-72.8],[92.19999999999999,-72.8],[91.66666666666667,-73.0],[91.60000000000001,-73.4],[92.0,-74.0],[91.0,-74.0],[90.83333333333334,-74.83333333333334],[90.0,-75.25],[89.33333333333334,-75.33333333333334],[89.0,-75.5],[88.84615384615384,-75.84615384615384],[88.5,-76.0],[88.33333333333334,-76.33333333333334],[88.0,-76.5],[87.88235294117646,-76.88235294117646],[85.5,-77.0],[85.33333333333334,-77.33333333333334],[85.0,-77.5],[83.0,-77.5],[82.66666666666667,-77.66666666666667],[82.33333333333334,-78.33333333333334],[82.0,-78.5],[81.5,-78.5],[81.0,-78.0],[81.0,-77.0],[80.0,-77.0],[80.0,-75.0],[79.0,-75.0],[79.0,-74.0],[79.5,-73.5],[79.66666666666666,-73.0],[79.6,-72.6],[80.0,-72.0],[81.0,-72.0],[81.0,-71.0],[83.0,-71.0],[83.0,-70.0],[82.0,-69.0],[81.0,-69.25],[78.45454545454545,-68.54545454545455],[77.0,-68.6],[76.53846153846153,-68.46153846153847],[76.25,-68.0],[75.53846153846155,-67.46153846153847],[75.3225806451613,-66.6774193548387],[75.0,-66.16666666666666],[73.80952380952381,-65.80952380952381],[73.0,-66.0],[73.30303030303031,-65.3030303030303],[73.0,-63.66666666666667],[72.0,-64.0],[71.7037037037037,-63.29629629629629],[71.75,-63.0],[71.0,-62.25],[70.7948717948718,-62.205128205128204],[70.35897435897436,-61.641025641025635],[69.84615384615384,-61.84615384615384],[68.33333333333333,-62.0],[68.4,-62.4],[68.0,-63.0],[66.0,-63.0],[66.0,-62.0],[65.23529411764706,-61.76470588235294],[65.0,-61.33333333333333],[64.8,-61.8],[64.28571428571428,-61.71428571428571],[63.2,-62.0],[63.285714285714285,-62.285714285714285],[63.0,-63.0],[56.0,-63.0],[56.0,-62.0],[53.0,-62.0],[53.0,-63.0],[54.0,-63.0],[54.0,-64.0],[59.0,-64.0],[59.0,-65.0],[58.5,-65.5],[58.0,-65.5],[57.66666666666667,-65.33333333333334],[57.0,-65.25],[56.0,-65.25],[55.400000000000006,-65.4],[55.0,-66.0],[55.33333333333333,-67.0],[56.25,-67.25],[57.0,-67.0],[57.0,-68.0],[57.44444444444444,-68.55555555555556],[58.10526315789474,-68.89473684210526],[58.13793103448276,-69.13793103448276],[57.64102564102564,-69.64102564102564],[57.588235294117645,-70.0],[57.57575757575758,-70.42424242424242],[58.0,-71.0],[58.0,-72.0],[57.0,-72.0],[57.0,-73.0],[55.0,-73.0],[55.0,-75.0],[54.333333333333336,-74.66666666666667],[54.0,-74.75],[53.806451612903224,-74.19354838709677],[53.0,-74.11111111111111],[52.24390243902439,-74.2439024390244],[51.705882352941174,-74.70588235294117],[51.54545454545454,-75.0],[51.0,-75.31578947368422],[49.647058823529406,-75.35294117647058],[49.0,-75.0],[48.10526315789473,-74.89473684210526],[47.33333333333333,-75.0],[46.0,-75.5],[45.55555555555556,-75.44444444444444],[45.2,-75.0],[43.95454545454545,-74.95454545454545],[43.5,-75.0],[41.77777777777778,-75.77777777777777],[41.0,-75.9090909090909],[40.0,-76.0],[39.0,-75.75],[38.0,-75.875],[37.800000000000004,-76.0],[37.71428571428571,-76.28571428571428],[38.0,-77.0],[36.0,-77.0],[36.285714285714285,-76.28571428571428],[36.2,-76.0],[36.0,-75.80000000000001],[35.0,-75.57142857142856],[34.0,-76.0],[28.0,-76.01136363636364],[25.872,-76.128],[25.03960396039604,-76.03960396039605],[24.347826086956523,-76.34782608695653],[24.0,-76.88888888888889],[21.0,-77.05434782608695],[18.5,-77.0],[17.0,-76.42857142857142],[16.0,-76.75],[15.0,-76.14285714285714],[14.0,-76.3125],[13.000000000000002,-75.85714285714286],[12.6,-75.4],[12.3,-74.69999999999999],[12.0,-74.53846153846153],[10.0,-74.5],[8.92,-74.08],[8.384615384615385,-73.61538461538461],[7.52,-73.48],[7.0,-72.66666666666667],[6.555555555555555,-72.44444444444444],[6.199999999999999,-71.8],[5.4,-71.60000000000001],[5.222222222222221,-70.77777777777777],[5.0,-70.5],[4.0,-70.5],[3.75,-70.75],[3.0,-70.83333333333334],[2.666666666666667,-70.66666666666667],[2.3333333333333335,-70.66666666666667],[2.3333333333333335,-70.33333333333334],[2.166666666666667,-70.0],[2.4,-69.4],[3.7142857142857144,-69.28571428571428],[4.0,-69.5],[4.4,-69.4],[5.0,-69.0],[9.0,-69.0],[9.0,-70.0],[14.0,-70.0],[14.0,-68.0],[8.0,-68.0],[8.0,-67.0],[6.0,-67.0],[6.0,-66.0],[5.0,-66.0],[5.0,-65.0],[4.0,-65.0],[4.0,-64.0],[3.0,-64.0],[3.166666666666667,-63.16666666666667],[3.0,-62.5],[2.666666666666667,-62.66666666666667],[2.428571428571429,-62.57142857142858],[2.0,-62.625],[0.5,-62.0],[-1.0,-61.900000000000006],[-1.7200000000000002,-61.720000000000006],[-2.6,-60.60000000000001],[-3.0,-60.44736842105263],[-4.0,-60.63636363636364],[-5.0,-60.55263157894737],[-5.424242424242425,-60.42424242424243],[-5.78,-59.78],[-6.0,-59.66666666666667],[-6.22,-59.78],[-6.3478260869565215,-60.652173913043484],[-7.0,-61.0],[-9.0,-61.0],[-9.0,-62.0],[-12.0,-62.0],[-12.25,-62.75],[-13.000000000000002,-62.85714285714286],[-18.846153846153847,-62.84615384615385],[-19.0,-62.5],[-19.333333333333336,-62.333333333333336],[-19.5,-62.0],[-21.799999999999997,-61.8],[-21.900000000000002,-61.0],[-22.142857142857142,-60.857142857142854],[-22.857142857142858,-60.857142857142854],[-23.0,-60.0],[-23.857142857142854,-59.85714285714286],[-24.5,-59.5],[-24.875,-58.875],[-25.285714285714285,-58.71428571428571],[-25.714285714285715,-58.71428571428571],[-25.714285714285715,-58.28571428571428],[-25.9,-57.900000000000006],[-26.866666666666667,-57.86666666666667],[-27.333333333333336,-57.66666666666667],[-27.666666666666668,-57.66666666666667],[-27.666666666666668,-57.333333333333336],[-27.833333333333336,-57.0],[-28.333333333333336,-56.66666666666667],[-28.66666666666667,-56.66666666666667],[-28.66666666666667,-56.333333333333336],[-28.92,-55.92],[-29.2,-55.800000000000004],[-29.8,-55.800000000000004],[-29.8,-55.2],[-30.000000000000004,-54.66666666666667],[-30.444444444444443,-54.44444444444444],[-30.666666666666668,-54.00000000000001],[-30.935483870967744,-53.935483870967744],[-30.97826086956522,-52.97826086956522],[-32.875,-52.875],[-32.98095238095238,-50.98095238095238],[-33.94285714285714,-50.94285714285714],[-33.8974358974359,-50.1025641025641],[-34.0,-49.833333333333336],[-34.285714285714285,-49.71428571428571],[-34.8,-49.8],[-35.0,-47.92307692307692],[-35.84615384615385,-47.84615384615384],[-36.0,-43.0],[-36.625,-42.625],[-36.96491228070175,-41.96491228070175],[-37.0,-35.8],[-37.09411764705882,-35.09411764705882],[-37.92592592592593,-34.925925925925924],[-38.0,-31.9375],[-38.567567567567565,-31.567567567567572],[-38.976470588235294,-30.976470588235294],[-39.06122448979592,-30.06122448979592],[-39.976470588235294,-29.976470588235294],[-40.1551724137931,-29.155172413793103],[-41.0,-28.985915492957748],[-41.9908256880734,-27.990825688073397],[-42.95652173913044,-27.956521739130437],[-43.21212121212121,-27.21212121212121],[-43.98214285714286,-26.982142857142854],[-44.28387096774193,-26.283870967741933],[-44.983739837398375,-25.983739837398375],[-45.34444444444445,-25.344444444444445],[-45.96875,-25.0],[-46.1551724137931,-24.155172413793103],[-46.971830985915496,-23.971830985915492],[-47.0,-22.967741935483872],[-47.935483870967744,-22.93548387096774],[-48.0,-21.0],[-48.94117647058823,-20.941176470588232],[-49.0,-19.85714285714286],[-49.285714285714285,-19.714285714285715],[-49.71428571428571,-19.714285714285715],[-49.71428571428571,-19.285714285714285],[-49.935483870967744,-18.93548387096774],[-49.9622641509434,-17.962264150943394],[-49.951219512195124,-15.048780487804878],[-49.8,-15.0],[-49.85714285714286,-13.000000000000002],[-49.71428571428571,-12.714285714285714],[-49.71428571428571,-12.285714285714285],[-49.285714285714285,-12.285714285714285],[-49.0,-12.142857142857144],[-48.71428571428571,-9.285714285714285],[-48.0,-9.0],[-48.951219512195124,-8.951219512195124],[-48.983050847457626,-7.983050847457627],[-49.951219512195124,-7.951219512195122],[-49.983870967741936,-6.983870967741936],[-50.945945945945944,-6.945945945945946],[-51.0,-5.9565217391304355],[-51.913043478260875,-5.913043478260869],[-52.00000000000001,-4.9],[-52.8,-4.8],[-52.8,-4.2],[-53.0,-3.909090909090909],[-53.81818181818181,-3.8181818181818183],[-53.81818181818181,-3.1818181818181817],[-53.94736842105263,-2.9473684210526314],[-53.92857142857143,-0.07142857142857145],[-53.45454545454545,0.45454545454545453],[-53.0,0.5],[-52.81395348837209,2.0],[-53.0,2.242424242424242],[-53.340425531914896,2.3404255319148937],[-53.89473684210527,2.1052631578947367],[-54.0,6.125],[-54.25,6.25],[-54.75,6.25],[-54.92307692307693,8.0],[-55.099999999999994,8.1],[-56.0,8.0],[-55.96153846153846,9.038461538461538],[-56.3063063063063,9.693693693693694],[-56.94444444444444,10.0],[-56.935483870967744,11.935483870967742],[-56.5,12.0],[-56.88888888888889,12.11111111111111],[-57.3,12.7],[-57.75,13.0],[-57.86666666666667,14.133333333333333],[-59.0,14.625],[-59.06060606060606,14.93939393939394],[-60.0,15.0],[-60.0,16.0],[-60.71134020618557,15.711340206185564],[-61.0,15.797101449275363],[-61.33333333333334,16.333333333333336],[-61.315789473684205,16.684210526315788],[-62.050000000000004,17.0],[-62.35616438356164,17.643835616438356],[-63.65714285714286,18.34285714285714],[-64.0,18.4],[-64.24827586206897,18.751724137931035],[-65.88888888888889,19.0],[-66.34666666666666,19.653333333333332],[-68.0,20.11764705882353],[-68.21897810218978,20.78102189781022],[-68.83333333333333,21.0],[-69.0,21.23076923076923],[-69.16666666666667,21.833333333333336],[-70.0,22.0],[-70.25352112676056,22.746478873239436],[-70.94736842105264,23.0],[-71.03370786516855,24.0],[-71.31168831168831,24.688311688311686],[-72.00760456273764,24.992395437262356],[-72.17241379310344,25.827586206896555],[-73.0,26.0],[-73.27814569536423,26.721854304635762],[-73.95454545454545,27.0],[-74.03488372093022,28.03488372093023],[-72.98095238095237,28.01904761904762],[-72.43478260869566,27.565217391304344],[-72.0,27.454545454545453],[-71.24242424242425,27.0],[-71.19047619047619,26.80952380952381],[-71.0,26.757575757575758]],[[54.0,-66.0],[53.46153846153847,-65.53846153846155],[52.0,-65.4],[51.0,-65.85714285714286],[50.0,-66.0],[49.344827586206904,-66.3448275862069],[47.57142857142857,-66.57142857142858],[47.0,-66.75],[46.85714285714286,-67.0],[46.888888888888886,-67.11111111111111],[48.0,-67.375],[48.35714285714286,-67.64285714285714],[48.625,-68.0],[49.0,-69.0],[49.71428571428571,-69.28571428571428],[50.36,-69.36],[51.0,-69.14285714285714],[51.387096774193544,-69.61290322580645],[51.3,-70.0],[52.0,-70.38888888888889],[52.63636363636364,-70.0],[52.4516129032258,-69.54838709677419],[52.0,-69.125],[51.733333333333334,-69.26666666666667],[51.33333333333334,-69.0],[51.333333333333336,-68.66666666666667],[51.00000000000001,-68.80000000000001],[50.5,-68.0],[51.0,-67.6],[51.333333333333336,-67.66666666666667],[51.57142857142857,-68.0],[51.57142857142858,-68.42857142857143],[52.0,-68.6],[52.375,-68.375],[53.26315789473685,-68.26315789473685],[53.69230769230769,-67.6923076923077],[54.8,-67.0],[54.71428571428571,-66.71428571428571],[55.0,-66.0],[54.0,-66.0]],[[85.0,-71.0],[86.0,-71.0],[86.0,-70.0],[85.0,-70.0],[85.0,-71.0]],[[50.0,-63.0],[50.0,-64.0],[52.0,-64.0],[52.0,-63.0],[50.0,-63.0]],[[26.0,-68.0],[25.400000000000002,-67.6],[25.0,-67.5],[24.714285714285715,-67.71428571428571],[24.75,-68.0],[24.240000000000002,-68.24],[24.0,-68.5],[23.53846153846154,-68.46153846153847],[23.0,-68.0],[23.0,-67.0],[22.0,-67.0],[22.0,-68.0],[22.5,-68.5],[22.5,-69.0],[23.0,-69.5],[23.285714285714285,-69.28571428571428],[23.6,-69.4],[24.0,-69.33333333333334],[25.0,-69.57142857142857],[25.39344262295082,-69.39344262295081],[25.631578947368418,-69.0],[25.58823529411765,-68.58823529411764],[26.0,-68.0]],[[-41.89473684210526,43.10526315789473],[-42.0,43.333333333333336],[-42.285714285714285,43.28571428571428],[-42.5,43.0],[-42.0,42.875],[-41.89473684210526,43.10526315789473]],[[-31.400000000000002,34.6],[-31.6,35.400000000000006],[-32.333333333333336,35.333333333333336],[-33.0,35.0],[-33.5,34.0],[-33.4,33.6],[-32.66666666666667,33.333333333333336],[-32.285714285714285,32.71428571428571],[-32.0,32.5],[-31.6,32.6],[-31.0,33.0],[-30.0,33.0],[-29.5,32.5],[-29.0,32.333333333333336],[-28.6,32.6],[-28.333333333333332,33.0],[-28.0,34.0],[-27.4,34.400000000000006],[-27.0,34.5],[-26.77777777777778,35.22222222222222],[-27.333333333333336,35.66666666666667],[-27.714285714285715,36.285714285714285],[-28.0,36.25],[-29.333333333333336,36.66666666666667],[-29.6,37.4],[-30.0,37.5],[-31.5,37.0],[-31.333333333333336,36.0],[-31.400000000000002,35.6],[-30.6,35.400000000000006],[-30.0,35.0],[-30.6,34.6],[-31.0,34.0],[-31.400000000000002,34.6]],[[-25.785714285714285,45.785714285714285],[-25.81818181818182,46.18181818181819],[-26.25,46.25],[-26.4,46.0],[-26.285714285714285,45.71428571428571],[-26.0,45.599999999999994],[-25.785714285714285,45.785714285714285]],[[-22.285714285714285,47.71428571428571],[-22.2,48.0],[-22.71428571428571,48.28571428571428],[-23.444444444444443,48.0],[-23.0,47.33333333333333],[-22.636363636363637,47.36363636363636],[-22.5,47.0],[-22.0,46.71428571428571],[-21.5,47.0],[-21.866666666666667,47.13333333333333],[-22.0,47.66666666666667],[-22.285714285714285,47.71428571428571]],[[-19.818181818181817,48.81818181818181],[-19.727272727272727,49.0],[-19.77777777777778,49.22222222222223],[-20.5,49.5],[-20.833333333333336,50.166666666666664],[-21.065573770491802,50.0655737704918],[-21.235294117647058,49.23529411764706],[-22.03174603174603,49.03174603174603],[-22.125,48.875],[-22.0,48.5],[-21.904761904761905,48.9047619047619],[-21.242424242424242,48.75757575757576],[-19.818181818181817,48.81818181818181]],[[-19.913043478260867,51.086956521739125],[-20.153846153846153,51.0],[-20.166666666666664,50.833333333333336],[-19.80952380952381,50.80952380952381],[-19.714285714285715,51.0],[-19.913043478260867,51.086956521739125]],[[-19.583333333333336,12.0],[-19.466666666666665,11.533333333333335],[-19.0,11.125],[-18.444444444444443,11.555555555555555],[-18.22222222222222,12.0],[-18.444444444444443,12.555555555555555],[-19.0,12.777777777777777],[-19.424242424242426,12.424242424242424],[-19.583333333333336,12.0]],[[-18.6,52.0],[-18.3,51.7],[-16.0,51.75],[-15.833333333333334,52.0],[-16.0,52.15384615384615],[-18.0,52.27272727272727],[-18.6,52.0]],[[-13.0,39.166666666666664],[-14.0,39.0],[-13.25,38.75],[-13.0,38.333333333333336],[-12.900000000000002,39.0],[-13.0,39.166666666666664]],[[-9.894736842105264,27.10526315789474],[-10.2,27.0],[-10.0,26.75],[-9.75,26.75],[-9.5,27.0],[-9.894736842105264,27.10526315789474]],[[-11.066666666666666,-54.06666666666667],[-10.8,-54.0],[-11.071428571428573,-53.92857142857143],[-11.066666666666666,-54.06666666666667]],[[-6.000000000000001,-9.2],[-5.833333333333333,-9.0],[-6.133333333333333,-8.866666666666667],[-7.0,-8.833333333333334],[-7.333333333333334,-9.0],[-6.000000000000001,-9.2]],[[12.200000000000001,-29.000000000000004],[12.25,-28.0],[12.0,-27.75],[11.0,-28.0],[10.0,-30.0],[10.25,-31.0],[11.285714285714285,-31.285714285714285],[11.75,-31.0],[11.714285714285714,-29.714285714285715],[12.4,-29.400000000000002],[12.200000000000001,-29.000000000000004]],[[13.600000000000001,-29.6],[12.538461538461538,-29.53846153846154],[12.25,-30.0],[12.571428571428573,-30.42857142857143],[13.42857142857143,-30.571428571428573],[13.916666666666668,-31.083333333333336],[14.0,-31.5],[14.25,-31.0],[14.222222222222221,-29.77777777777778],[14.0,-29.5],[13.600000000000001,-29.6]],[[15.181818181818182,-55.18181818181819],[14.999999999999998,-54.764705882352935],[14.692307692307693,-55.0],[14.652173913043478,-55.34782608695652],[15.0,-55.57142857142857],[15.181818181818182,-55.18181818181819]],[[16.22222222222222,-63.0],[17.0,-63.5],[18.0,-63.58823529411765],[18.43478260869565,-63.434782608695656],[19.0,-63.0],[17.0,-62.36363636363636],[16.533333333333335,-62.53333333333334],[16.22222222222222,-63.0]],[[23.153846153846153,-20.153846153846153],[23.0,-19.833333333333336],[22.833333333333336,-20.0],[22.81818181818182,-20.18181818181818],[23.0,-20.333333333333336],[23.153846153846153,-20.153846153846153]],[[23.333333333333336,-28.66666666666667],[23.4,-29.0],[24.0,-29.6],[24.400000000000002,-29.400000000000002],[25.303030303030305,-29.303030303030305],[25.833333333333336,-29.0],[25.400000000000002,-26.6],[25.0,-26.5],[24.733333333333334,-26.266666666666666],[24.666666666666664,-26.0],[24.733333333333334,-25.733333333333334],[25.0,-25.5],[25.400000000000002,-25.400000000000002],[25.666666666666664,-24.0],[25.0,-23.5],[24.30769230769231,-24.30769230769231],[23.571428571428573,-24.57142857142857],[23.0,-25.0],[22.666666666666668,-25.66666666666667],[22.666666666666668,-26.666666666666668],[22.5,-27.0],[22.71428571428571,-27.285714285714285],[22.800000000000004,-28.000000000000004],[23.333333333333336,-28.66666666666667]],[[28.125,-21.875],[27.818181818181817,-21.81818181818182],[27.666666666666668,-22.0],[28.0,-23.0],[28.18181818181818,-22.18181818181818],[28.125,-21.875]],[[27.5,-23.5],[27.000000000000004,-23.666666666666664],[26.5,-24.0],[27.0,-24.25],[27.833333333333332,-24.166666666666668],[28.200000000000003,-24.000000000000004],[28.0,-23.0],[27.5,-23.5]],[[33.885714285714286,-26.885714285714286],[33.69230769230769,-27.307692307692307],[34.0,-28.0],[35.0,-27.0],[34.666666666666664,-26.0],[34.75,-25.75],[35.0,-25.8],[35.470588235294116,-25.470588235294116],[35.66666666666667,-25.0],[35.66666666666667,-24.0],[35.44444444444444,-23.555555555555557],[35.0,-23.333333333333332],[34.0,-23.5],[33.0,-23.0],[32.0,-24.0],[32.63636363636364,-24.363636363636367],[33.66666666666667,-24.333333333333336],[34.0,-24.5],[34.2,-24.8],[34.25,-25.25],[34.0,-25.333333333333332],[33.878787878787875,-25.878787878787875],[33.885714285714286,-26.885714285714286]],[[33.30769230769231,-27.692307692307693],[32.833333333333336,-28.0],[32.77777777777778,-28.22222222222222],[33.0,-28.5],[33.15384615384615,-28.153846153846153],[34.0,-28.0],[33.30769230769231,-27.692307692307693]],[[35.625,-21.0],[36.0,-21.75],[36.375,-21.0],[36.2,-20.8],[35.625,-21.0]],[[39.0,-44.39393939393939],[39.333333333333336,-44.0],[39.257425742574256,-43.742574257425744],[39.0,-43.59375],[38.71111111111111,-43.71111111111111],[38.480000000000004,-44.0],[38.69047619047619,-44.30952380952381],[39.0,-44.39393939393939]],[[42.0,-65.0],[40.5,-65.0],[40.5,-65.5],[40.0,-66.0],[41.0,-66.0],[42.0,-65.0]],[[46.0,-38.714285714285715],[45.5,-39.0],[46.333333333333336,-39.333333333333336],[46.5,-39.0],[46.0,-38.714285714285715]],[[50.5,-40.0],[50.38095238095238,-39.61904761904762],[50.0,-39.4],[49.57894736842105,-39.421052631578945],[48.875,-39.125],[48.25,-39.25],[47.2,-39.2],[46.6,-39.6],[46.66666666666667,-40.0],[47.91111111111111,-41.08888888888889],[48.093023255813954,-41.093023255813954],[49.0,-40.27272727272727],[50.0,-40.63157894736842],[50.375,-40.375],[50.5,-40.0]],[[55.24299065420561,-43.242990654205606],[55.40625,-43.0],[55.24761904761905,-42.752380952380946],[55.0,-42.66666666666667],[54.765765765765764,-42.765765765765764],[54.747572815533985,-43.252427184466015],[55.0,-43.40625],[55.24299065420561,-43.242990654205606]],[[59.99999999999999,-54.888888888888886],[59.78571428571428,-55.0],[59.99999999999999,-55.214285714285715],[60.13636363636364,-55.13636363636363],[59.99999999999999,-54.888888888888886]],[[62.315789473684205,-39.315789473684205],[62.5625,-38.5625],[63.18181818181817,-38.0],[63.0,-37.6],[62.0,-37.72727272727273],[61.46153846153847,-37.53846153846155],[61.00000000000001,-36.92307692307692],[60.85714285714286,-37.0],[60.760000000000005,-37.760000000000005],[60.785714285714285,-38.0],[61.3,-38.3],[61.7,-38.3],[61.625,-38.625],[62.0,-39.54545454545455],[62.315789473684205,-39.315789473684205]],[[65.9090909090909,-59.90909090909091],[65.84615384615384,-60.15384615384616],[66.11111111111111,-60.11111111111111],[66.2,-60.0],[65.9090909090909,-59.90909090909091]],[[68.17241379310344,-51.827586206896555],[67.89690721649485,-51.896907216494846],[67.88235294117648,-52.117647058823536],[68.2,-52.2],[69.0,-52.0],[68.17241379310344,-51.827586206896555]],[[70.0,-54.166666666666664],[71.2,-54.2],[71.2,-54.0],[71.0,-53.866666666666674],[69.95348837209302,-53.95348837209303],[70.0,-54.166666666666664]],[[71.6875,-54.6875],[71.75862068965517,-56.0],[72.0,-56.291666666666664],[72.53846153846155,-56.0],[72.625,-55.0],[72.3030303030303,-54.696969696969695],[72.0,-54.61538461538461],[71.6875,-54.6875]],[[72.7,-52.7],[72.55000000000001,-53.0],[72.66037735849056,-53.339622641509436],[73.0,-53.5625],[74.0,-53.36363636363636],[74.57142857142857,-53.0],[74.4,-52.6],[74.0,-52.42857142857143],[73.0,-52.526315789473685],[72.7,-52.7]],[[76.00000000000001,-55.142857142857146],[76.10000000000001,-55.0],[75.94285714285715,-54.94285714285714],[76.00000000000001,-55.142857142857146]],[[99.26666666666667,-42.266666666666666],[99.5,-42.0],[99.30769230769232,-41.69230769230769],[99.00000000000001,-41.66666666666667],[98.78947368421052,-41.78947368421053],[98.77777777777777,-42.22222222222223],[99.00000000000001,-42.333333333333336],[99.26666666666667,-42.266666666666666]],[[46.88235294117647,-68.88235294117646],[46.833333333333336,-69.0],[47.0,-69.33333333333334],[47.2,-69.0],[46.88235294117647,-68.88235294117646]],[[55.93333333333333,-68.93333333333334],[55.888888888888886,-69.0],[56.14285714285714,-69.0],[56.10526315789473,-68.89473684210526],[55.93333333333333,-68.93333333333334]],[[12.0,-71.71428571428572],[11.941176470588236,-72.05882352941177],[12.08,-72.08],[12.137931034482758,-71.86206896551724],[12.0,-71.71428571428572]],[[-46.74193548387097,-17.741935483870968],[-47.0,-17.666666666666668],[-47.12903225806452,-18.0],[-46.888888888888886,-18.11111111111111],[-46.55555555555556,-18.0],[-46.74193548387097,-17.741935483870968]],[[-23.0,40.333333333333336],[-24.666666666666668,40.333333333333336],[-25.0,40.5],[-26.0,40.333333333333336],[-26.200000000000003,39.8],[-25.333333333333336,39.66666666666667],[-25.0,39.5],[-23.71428571428571,39.28571428571428],[-23.0,39.0],[-22.6,39.6],[-22.6,40.0],[-23.0,40.333333333333336]],[[-17.137931034482758,39.13793103448276],[-17.200000000000003,39.0],[-17.0,38.6],[-16.77777777777778,39.0],[-17.137931034482758,39.13793103448276]],[[14.18181818181818,-55.81818181818181],[14.0,-55.9],[13.947368421052632,-56.05263157894737],[14.117647058823529,-56.11764705882353],[14.25,-56.0],[14.18181818181818,-55.81818181818181]],[[14.658536585365853,-56.65853658536585],[14.8,-57.199999999999996],[15.0,-57.31818181818182],[16.176470588235293,-57.0],[16.193548387096776,-56.80645161290323],[16.0,-56.400000000000006],[15.0,-56.3],[14.658536585365853,-56.65853658536585]],[[25.133333333333333,-34.86666666666667],[24.0,-34.54545454545455],[23.0,-34.714285714285715],[22.84,-34.84],[22.555555555555557,-36.0],[23.0,-36.421052631578945],[23.34782608695652,-36.34782608695652],[23.88888888888889,-36.0],[24.400000000000002,-35.400000000000006],[25.099999999999998,-35.1],[25.133333333333333,-34.86666666666667]],[[27.999999999999996,-69.18181818181819],[28.444444444444443,-69.0],[28.390243902439025,-68.60975609756098],[28.0,-68.5],[26.875,-69.0],[27.999999999999996,-69.18181818181819]],[[28.846153846153847,-68.15384615384615],[29.166666666666664,-67.83333333333333],[29.0,-67.0],[28.846153846153847,-68.15384615384615]],[[47.0,-64.0],[46.12903225806452,-63.87096774193549],[45.833333333333336,-64.0],[46.0,-64.25],[47.0,-64.0]],[[71.30303030303031,-61.3030303030303],[72.0,-61.11111111111111],[72.09523809523809,-60.904761904761905],[71.0,-60.61538461538461],[70.67741935483872,-61.322580645161295],[71.0,-61.55555555555556],[71.30303030303031,-61.3030303030303]],[[72.0,-57.73913043478261],[71.7,-57.99999999999999],[72.0,-59.0],[72.5,-58.0],[72.0,-57.73913043478261]],[[76.07142857142857,-61.92857142857143],[76.0,-61.5],[75.66666666666667,-61.66666666666667],[75.5,-62.0],[75.92,-62.08],[76.07142857142857,-61.92857142857143]],[[-23.333333333333336,37.0],[-23.0,36.66666666666667],[-21.799999999999997,36.8],[-21.666666666666668,37.0],[-22.0,37.333333333333336],[-23.0,37.333333333333336],[-23.333333333333336,37.0]],[[-18.066666666666666,37.0],[-18.0,36.800000000000004],[-17.88888888888889,36.888888888888886],[-17.916666666666664,37.083333333333336],[-18.066666666666666,37.0]],[[-16.85185185185185,35.148148148148145],[-17.0,35.285714285714285],[-17.4,35.0],[-17.0,34.33333333333333],[-16.8,34.8],[-16.85185185185185,35.148148148148145]],[[14.0,-59.44444444444444],[15.0,-59.22222222222223],[15.095238095238095,-59.09523809523809],[15.0,-58.882352941176464],[13.8,-58.8],[13.636363636363637,-59.0],[14.0,-59.44444444444444]],[[22.5,-59.0],[23.25,-59.0],[22.799999999999997,-58.8],[22.5,-59.0]],[[30.0,-74.6],[30.999999999999996,-74.42857142857142],[32.0,-74.5],[33.2,-74.2],[34.0,-73.88888888888889],[34.525423728813564,-73.52542372881356],[35.0,-73.41666666666666],[36.0,-73.5909090909091],[36.92857142857143,-73.0],[36.61538461538461,-72.38461538461539],[36.0,-72.07142857142857],[35.0,-71.81818181818181],[34.21052631578947,-71.78947368421053],[32.5,-72.0],[32.0,-72.2],[31.529411764705884,-72.52941176470588],[31.25,-73.25],[31.0,-73.4],[30.0,-73.5],[29.57142857142857,-74.0],[29.666666666666668,-74.33333333333334],[30.0,-74.6]],[[36.111111111111114,-70.0],[34.8421052631579,-69.84210526315789],[34.25,-70.0],[35.0,-70.25],[36.111111111111114,-70.0]]],[[[41.333333333333336,-3.666666666666667],[40.0,-3.75],[39.5,-3.5],[39.25,-3.0],[39.5,-2.5],[40.0,-2.25],[41.0,-2.5],[41.44444444444444,-2.4444444444444446],[42.0,-2.0],[43.0,-2.0],[43.0,-3.0],[42.0,-4.0],[41.333333333333336,-3.666666666666667]]],[[[31.333333333333336,4.333333333333334],[31.5,4.0],[31.5,3.5],[30.5,3.5],[30.5,4.0],[30.666666666666668,4.333333333333334],[31.0,4.5],[31.333333333333336,4.333333333333334]]],[[[58.0,20.0],[60.0,20.0],[60.0,18.0],[58.0,18.0],[58.0,20.0]]],[[[76.0,28.388888888888893],[76.12173913043479,28.121739130434783],[78.0,28.0],[79.0,27.166666666666664],[79.02020202020202,27.020202020202017],[79.2,27.0],[80.23529411764706,26.235294117647058],[80.625,25.625],[81.0,23.875],[81.57894736842104,23.57894736842105],[82.65217391304348,22.652173913043477],[83.4,22.4],[83.86666666666666,21.866666666666667],[84.0,21.0],[85.0,21.0],[85.0,18.0],[86.0,18.0],[86.0,14.0],[85.0,14.0],[84.55555555555554,14.555555555555554],[84.6,15.0],[84.17142857142858,15.17142857142857],[82.0,15.0],[82.0,16.0],[81.0,16.0],[81.0,18.0],[80.0,18.0],[80.0,20.0],[79.0,20.0],[79.0,22.0],[78.0,22.0],[78.0,23.0],[77.0,23.0],[77.0,24.0],[75.0,24.0],[75.0,25.0],[63.0,25.0],[63.0,24.0],[61.0,24.0],[61.0,27.0],[62.0,27.0],[62.315789473684205,27.684210526315788],[62.75,28.0],[62.66666666666667,28.333333333333336],[63.0,29.0],[66.0,29.13157894736842],[72.5,29.0],[74.25806451612902,28.741935483870968],[75.0,29.0],[75.5,28.5],[76.0,28.388888888888893]]],[[[6.0,22.833333333333336],[7.166666666666666,22.166666666666668],[7.25,22.0],[7.0,21.75],[6.7857142857142865,21.214285714285715],[6.625,20.375],[6.375,20.375],[5.769230769230769,20.0],[5.538461538461539,19.46153846153846],[5.0,19.23076923076923],[4.333333333333334,19.333333333333336],[3.7333333333333334,19.733333333333334],[3.6,20.0],[3.75,20.25],[4.0,20.333333333333332],[4.156862745098039,20.84313725490196],[4.10126582278481,21.10126582278481],[3.666666666666667,21.333333333333336],[3.3000000000000003,21.3],[3.25,21.75],[3.0000000000000004,22.200000000000003],[1.9130434782608696,22.086956521739133],[1.5,21.5],[0.6666666666666667,21.333333333333336],[0.3529411764705882,20.64705882352941],[0.0,20.25],[-0.4,20.400000000000002],[-1.0,20.0],[-0.6000000000000001,20.6],[-1.25,22.0],[-0.5789473684210527,22.57894736842105],[-0.375,23.375],[0.2727272727272727,24.727272727272727],[0.75,25.25],[1.0,25.333333333333332],[2.0,25.4],[2.25,25.25],[2.2857142857142856,25.0],[3.2777777777777777,24.72222222222222],[3.7222222222222223,24.72222222222222],[4.0,24.166666666666664],[4.923076923076923,23.923076923076923],[6.0,22.833333333333336]]],[[[38.0,22.0],[38.0,24.0],[41.0,24.0],[41.0,22.0],[38.0,22.0]]],[[[52.0,26.0],[54.0,26.0],[54.0,24.0],[52.0,24.0],[52.0,26.0]]],[[[6.6000000000000005,27.6],[7.0,27.0],[6.6000000000000005,26.400000000000002],[6.0,26.25],[5.285714285714286,25.714285714285715],[5.0,25.666666666666664],[3.8666666666666667,25.866666666666667],[3.6666666666666665,26.0],[3.444444444444444,26.444444444444443],[3.0,26.666666666666668],[1.0,26.57142857142857],[0.7,26.7],[0.5714285714285714,27.0],[0.6666666666666667,27.333333333333336],[1.0,27.6],[1.3636363636363635,27.636363636363637],[2.0,28.0],[2.0,29.0],[2.6,28.6],[5.0,28.5],[5.333333333333334,28.333333333333336],[5.5,28.0],[5.818181818181818,27.818181818181817],[6.6000000000000005,27.6]]],[[[2.0,54.5],[1.75,55.0],[2.0,55.199999999999996],[2.25,55.0],[2.25,54.75],[2.0,54.5]]],[[[162.22857142857143,59.77142857142857],[161.47887323943664,59.521126760563384],[161.03478260869565,58.96521739130435],[160.0,59.0],[159.91549295774647,60.0],[160.75,60.25],[161.0,60.58620689655173],[161.97916666666666,61.020833333333336],[165.12121212121212,61.121212121212125],[167.0,61.0],[166.39999999999998,60.0],[164.0,60.0],[162.22857142857143,59.77142857142857]]],[[[12.333333333333332,62.0],[13.0,62.285714285714285],[14.266666666666666,62.266666666666666],[14.666666666666668,62.0],[14.444444444444443,61.55555555555555],[14.0,61.333333333333336],[13.0,61.333333333333336],[12.555555555555555,61.55555555555555],[12.333333333333332,62.0]]],[[[170.3783783783784,62.0],[170.0,61.86138613861386],[169.0,62.0],[169.5820895522388,62.41791044776119],[170.0,63.0],[170.43076923076924,62.43076923076923],[170.3783783783784,62.0]]],[[[176.08333333333331,64.0],[175.0,63.896907216494846],[172.0,64.0],[173.89090909090908,64.10909090909091],[174.6,64.4],[175.0,65.0],[176.7029702970297,65.29702970297029],[177.0,66.05494505494505],[178.0,66.1829268292683],[178.86285714285714,66.13714285714286],[179.12121212121212,66.0],[178.9090909090909,65.0],[177.24793388429754,64.75206611570248],[177.0,64.42307692307692],[176.60714285714283,64.39285714285714],[176.08333333333331,64.0]]],[[[179.80419580419579,80.80419580419581],[179.5625,81.0],[179.54838709677418,81.45161290322581],[180.0,81.93333333333334],[179.95604395604394,80.0],[179.80419580419579,80.80419580419581]]]]}}]}