{"type":"FeatureCollection","features":[{"type":"Feature","properties":{"ageMa":240},"geometry":{"type":"MultiPolygon","coordinates":[[[[-62.0,-13.829787234042554],[-62.25,-13.75],[-62.68421052631579,-14.315789473684209],[-63.0,-16.09090909090909],[-63.15384615384615,-16.153846153846153],[-64.0,-15.8],[-64.0,-14.885714285714286],[-63.44444444444444,-14.555555555555554],[-63.32608695652174,-14.0],[-63.0,-13.482758620689655],[-62.68181818181819,-13.318181818181817],[-62.735849056603776,-13.000000000000002],[-62.0,-12.133333333333333],[-61.773584905660385,-12.226415094339622],[-61.647058823529406,-12.0],[-61.22680412371135,-11.77319587628866],[-61.0,-11.0],[-60.73493975903614,-11.734939759036145],[-61.0,-12.423076923076923],[-61.337078651685395,-12.662921348314608],[-61.27777777777778,-13.0],[-62.0,-13.829787234042554]]],[[[-59.37142857142857,-9.0],[-59.66666666666667,-10.0],[-59.848484848484844,-10.151515151515152],[-60.04651162790698,-11.046511627906977],[-61.0,-11.0],[-61.0625,-10.0],[-61.28888888888889,-9.288888888888888],[-62.040485829959515,-9.040485829959515],[-62.050632911392405,-8.0],[-62.30075187969925,-7.300751879699247],[-62.90909090909091,-7.0],[-62.900000000000006,-6.1000000000000005],[-61.99999999999999,-6.047619047619047],[-61.68,-6.68],[-61.10526315789473,-6.894736842105263],[-60.03225806451613,-8.0],[-59.712418300653596,-8.712418300653594],[-59.37142857142857,-9.0]]],[[[55.18181818181819,-29.81818181818182],[56.0,-30.0],[56.04545454545455,-30.954545454545453],[56.25,-31.25],[56.25,-31.75],[56.75,-31.75],[57.0,-31.875],[57.1,-32.9],[58.0,-32.95],[58.064516129032256,-33.935483870967744],[58.5,-34.0],[58.66666666666667,-34.333333333333336],[59.0,-34.5],[59.054054054054056,-34.94594594594595],[60.0,-35.0],[60.10526315789474,-35.89473684210526],[61.5,-36.0],[61.66666666666667,-36.333333333333336],[62.0,-36.5],[62.05555555555556,-36.94444444444444],[64.5,-37.0],[64.66666666666667,-37.333333333333336],[65.0,-37.5],[65.11111111111111,-37.888888888888886],[66.03030303030303,-37.969696969696976],[81.97777777777777,-37.977777777777774],[82.22222222222223,-38.22222222222222],[82.22222222222223,-38.77777777777778],[83.0,-38.888888888888886],[84.81818181818181,-38.81818181818181],[85.5,-38.5],[86.0,-38.0],[88.96000000000001,-37.96],[89.22222222222223,-37.77777777777777],[89.77777777777777,-37.77777777777777],[90.0,-37.0],[92.93548387096774,-36.935483870967744],[93.33333333333334,-36.66666666666667],[93.66666666666667,-36.66666666666667],[93.66666666666667,-36.333333333333336],[93.83333333333334,-36.0],[96.89473684210526,-35.89473684210526],[97.0,-35.5],[97.4,-35.400000000000006],[98.0,-35.0],[99.93939393939394,-34.93939393939394],[100.25,-34.75],[100.75,-34.75],[101.33333333333334,-34.333333333333336],[101.5,-34.0],[106.93939393939394,-33.93939393939394],[107.25,-33.75],[107.75,-33.75],[108.0,-33.0],[108.60000000000001,-33.4],[109.0,-33.5],[109.33333333333334,-33.333333333333336],[109.5,-33.0],[112.95,-32.949999999999996],[113.0,-32.75],[113.5,-32.5],[113.75,-32.0],[115.8,-31.8],[116.0,-31.5],[116.33333333333334,-31.333333333333336],[116.5,-31.0],[121.0,-31.0],[121.15384615384616,-31.846153846153847],[123.33333333333334,-32.0],[123.55555555555554,-32.44444444444444],[124.0,-32.66666666666667],[124.10526315789474,-32.89473684210527],[126.0909090909091,-33.0],[126.18181818181819,-33.81818181818182],[127.0,-33.90909090909091],[127.22222222222223,-34.22222222222222],[127.22222222222223,-34.77777777777778],[128.0,-34.88888888888889],[128.0625,-35.9375],[129.0,-36.0],[129.06451612903226,-37.93548387096774],[130.0,-37.96774193548387],[130.0909090909091,-39.90909090909091],[131.0,-39.95454545454546],[131.10526315789474,-44.89473684210526],[132.0,-44.94736842105263],[132.0952380952381,-45.095238095238095],[132.0952380952381,-45.904761904761905],[133.5,-46.0],[134.0,-46.5],[134.02739726027397,-46.97260273972603],[135.0,-47.0],[135.05714285714285,-47.94285714285714],[136.20000000000002,-48.0],[136.4,-48.60000000000001],[137.0,-48.8],[137.02222222222224,-48.977777777777774],[138.00840336134453,-48.99159663865546],[138.03030303030303,-49.96969696969697],[139.03125,-50.0],[139.0625,-50.9375],[140.0,-50.96875],[140.08695652173913,-51.913043478260875],[141.0,-51.95652173913044],[141.046511627907,-52.95348837209303],[141.20000000000002,-53.0],[141.4,-53.60000000000001],[142.0,-53.8],[142.04545454545456,-54.95454545454545],[142.25,-55.0],[142.5,-55.5],[143.0,-55.75],[143.07407407407408,-57.925925925925924],[144.0,-58.0],[144.05555555555557,-59.94444444444444],[145.0,-60.0],[145.03846153846152,-61.96153846153846],[145.5,-62.0],[145.60000000000002,-62.4],[146.0,-63.0],[145.28571428571428,-63.285714285714285],[145.16666666666669,-64.0],[145.33333333333334,-64.33333333333334],[145.33333333333334,-64.66666666666667],[145.66666666666669,-64.66666666666667],[146.0,-64.83333333333334],[146.11111111111111,-65.11111111111111],[146.11111111111111,-65.88888888888889],[147.2,-66.0],[147.4,-66.60000000000001],[148.0,-66.8],[148.0344827586207,-66.96551724137932],[148.5,-67.0],[148.5,-68.0],[148.66666666666669,-68.33333333333334],[149.0,-68.5],[149.0,-72.0],[148.33333333333334,-72.33333333333334],[148.0,-73.0],[148.1,-73.9],[148.0,-74.5],[147.66666666666669,-74.66666666666667],[147.5,-75.0],[147.06060606060606,-75.06060606060606],[147.0,-76.14285714285714],[146.71428571428572,-76.28571428571428],[146.28571428571428,-76.28571428571428],[146.28571428571428,-76.71428571428572],[146.05882352941177,-77.05882352941177],[146.0,-78.0],[145.4,-78.4],[145.25,-79.0],[145.0434782608696,-79.04347826086956],[145.0,-79.5],[144.66666666666669,-79.66666666666667],[144.5,-80.0],[144.13333333333333,-80.13333333333334],[144.11111111111111,-81.88888888888889],[144.4,-82.6],[145.0,-82.8],[145.25,-83.25],[145.25,-83.75],[146.0,-84.0],[146.2,-84.80000000000001],[146.8,-84.80000000000001],[147.14285714285714,-85.0],[147.25,-85.75],[148.0,-86.0],[149.0,-87.0],[149.83333333333334,-86.83333333333334],[151.05263157894737,-86.94736842105263],[158.95454545454544,-86.95454545454545],[159.86666666666667,-86.86666666666667],[160.0,-86.66666666666667],[161.0,-86.66666666666667],[161.5,-86.5],[162.0,-86.0],[170.96875,-85.96875],[173.0,-85.75],[176.0,-86.0],[177.92592592592592,-85.92592592592594],[177.96296296296296,-85.0],[179.0,-84.98148148148148],[179.05263157894737,-85.94736842105263],[180.0,-86.0],[180.0,-90.0],[140.5,-90.0],[140.5,-89.0],[140.33333333333334,-88.66666666666667],[139.66666666666669,-88.33333333333334],[139.0,-88.25],[138.5,-88.5],[138.25,-89.0],[138.25,-90.0],[-180.0,-90.0],[-180.0,-86.0],[-179.5,-86.5],[-179.0,-86.66666666666667],[-177.4,-86.60000000000001],[-176.66666666666669,-86.33333333333334],[-176.5,-86.0],[-176.0,-85.96296296296296],[-168.98863636363635,-85.98863636363636],[-168.5,-86.0],[-168.33333333333334,-86.33333333333334],[-168.0,-86.5],[-167.8181818181818,-86.81818181818181],[-167.1818181818182,-86.81818181818181],[-166.93548387096774,-86.93548387096774],[-151.0,-87.0],[-150.60000000000002,-87.6],[-149.83333333333334,-87.83333333333334],[-148.9,-87.9],[-115.0,-87.98214285714286],[-111.13333333333333,-87.86666666666667],[-111.0,-87.5],[-110.0,-87.5],[-109.66666666666669,-87.33333333333334],[-109.5,-87.0],[-94.03571428571429,-86.96428571428572],[-93.1111111111111,-86.88888888888889],[-93.0,-86.75],[-92.4,-86.60000000000001],[-92.0,-86.0],[-83.09523809523809,-85.9047619047619],[-82.71428571428571,-85.71428571428571],[-82.28571428571428,-85.71428571428571],[-82.28571428571428,-85.28571428571428],[-82.14285714285714,-85.0],[-79.04761904761905,-84.95238095238096],[-78.8,-84.80000000000001],[-78.2,-84.80000000000001],[-78.0,-84.0],[-74.07407407407408,-83.92592592592592],[-74.0,-83.66666666666667],[-73.55555555555554,-83.44444444444443],[-73.33333333333333,-83.0],[-70.11111111111111,-82.88888888888889],[-70.0,-82.5],[-69.66666666666667,-82.33333333333334],[-69.5,-82.0],[-67.11111111111111,-81.88888888888889],[-67.0,-81.0],[-65.08695652173913,-80.91304347826087],[-65.0,-80.0],[-64.03703703703704,-79.96296296296296],[-64.0,-79.5],[-63.66666666666667,-79.33333333333334],[-63.5,-79.0],[-63.03636363636363,-78.96363636363637],[-63.0,-78.0],[-62.05128205128205,-77.94871794871794],[-62.0,-76.92857142857143],[-61.14285714285714,-76.85714285714286],[-61.0,-75.0],[-60.09090909090909,-74.9090909090909],[-60.0,-73.85714285714286],[-59.71428571428571,-73.71428571428571],[-59.285714285714285,-73.71428571428571],[-59.285714285714285,-73.28571428571428],[-59.026315789473685,-72.97368421052632],[-59.0,-72.5],[-58.66666666666667,-72.33333333333334],[-58.5,-72.0],[-58.03333333333333,-71.96666666666667],[-58.0,-71.0],[-57.1,-70.9],[-57.0,-69.0],[-56.05263157894737,-68.94736842105263],[-56.0,-67.85714285714286],[-55.71428571428571,-67.71428571428571],[-55.28571428571428,-67.71428571428571],[-55.28571428571428,-67.28571428571428],[-55.03125,-66.96875],[-55.0,-66.5],[-54.5,-66.0],[-54.07142857142857,-65.92857142857143],[-54.0,-63.0],[-53.5,-62.5],[-53.33333333333333,-62.0],[-53.025316455696206,-61.9746835443038],[-53.0,-60.959999999999994],[-52.08,-60.919999999999995],[-52.0,-59.5],[-51.66666666666667,-59.333333333333336],[-51.5,-59.0],[-51.025316455696206,-58.9746835443038],[-51.0,-58.0],[-50.400000000000006,-58.400000000000006],[-50.0,-58.5],[-49.66666666666667,-58.33333333333334],[-49.5,-58.0],[-49.6,-57.6],[-50.0,-57.0],[-49.03636363636364,-56.96363636363636],[-49.0,-56.0],[-48.04651162790698,-55.95348837209303],[-48.0,-55.0],[-47.074074074074076,-54.92592592592593],[-47.0,-53.875],[-46.75,-53.75],[-46.25,-53.75],[-46.25,-53.25],[-46.026315789473685,-52.973684210526315],[-46.0,-51.875],[-45.22222222222222,-51.77777777777778],[-45.0,-51.0],[-44.6,-50.400000000000006],[-44.5,-50.0],[-44.6,-49.6],[-45.0,-49.0],[-44.0,-48.75],[-43.57142857142858,-48.42857142857143],[-43.400000000000006,-48.0],[-43.53846153846154,-47.53846153846154],[-44.0,-47.25],[-44.0,-45.666666666666664],[-43.71428571428571,-45.71428571428571],[-43.333333333333336,-46.333333333333336],[-43.0,-46.5],[-42.66666666666667,-46.0],[-42.5,-45.0],[-42.6,-44.6],[-43.0,-44.0],[-43.07142857142857,-40.07142857142857],[-43.28571428571428,-39.71428571428571],[-43.28571428571428,-39.28571428571428],[-44.0,-39.0],[-44.090909090909086,-37.09090909090909],[-45.0,-37.0],[-45.03225806451613,-36.03225806451613],[-45.5,-36.0],[-46.0,-35.5],[-46.166666666666664,-34.166666666666664],[-47.0,-34.04761904761905],[-47.03333333333333,-33.03333333333333],[-47.25,-33.0],[-47.53846153846154,-32.53846153846154],[-48.0,-32.25],[-48.16666666666667,-31.833333333333336],[-48.16666666666667,-31.166666666666664],[-49.0,-31.083333333333332],[-49.0,-30.0],[-48.5,-29.5],[-48.333333333333336,-29.0],[-48.55555555555555,-28.555555555555554],[-49.0,-28.333333333333332],[-49.44444444444444,-28.555555555555554],[-49.666666666666664,-29.0],[-50.0,-29.037037037037038],[-50.023529411764706,-28.023529411764706],[-50.16666666666667,-28.0],[-50.333333333333336,-27.666666666666668],[-50.333333333333336,-27.333333333333336],[-50.66666666666667,-27.333333333333336],[-51.0,-27.166666666666664],[-51.142857142857146,-23.0],[-51.0,-20.0],[-50.05263157894737,-19.94736842105263],[-50.0,-17.96875],[-49.0625,-17.9375],[-49.0,-8.5],[-48.66666666666667,-8.333333333333334],[-48.5,-8.0],[-48.13333333333333,-7.866666666666667],[-48.04347826086956,-6.9565217391304355],[-48.0,1.0],[-48.16494845360825,2.8350515463917527],[-49.0,3.8235294117647056],[-49.16279069767442,4.837209302325581],[-50.0,5.0],[-50.06,5.94],[-50.214285714285715,6.0],[-50.43478260869565,6.565217391304348],[-51.0,7.0],[-51.015151515151516,9.0],[-51.06666666666667,9.933333333333334],[-51.239999999999995,10.24],[-51.19047619047619,10.80952380952381],[-51.66666666666667,11.0],[-52.0,11.333333333333334],[-52.044943820224724,11.955056179775282],[-53.0,12.88888888888889],[-53.38888888888889,13.61111111111111],[-54.0,13.944444444444445],[-54.25,14.75],[-55.0,14.964285714285715],[-55.141414141414145,15.858585858585858],[-55.699999999999996,16.0],[-56.0,16.6],[-56.23529411764706,17.764705882352942],[-57.01041666666667,17.989583333333336],[-57.04494382022472,19.95505617977528],[-58.0,21.8],[-58.09803921568628,22.901960784313726],[-58.44444444444444,23.555555555555557],[-59.0188679245283,24.0],[-59.107142857142854,25.0],[-59.0,26.166666666666668],[-58.96296296296297,26.037037037037035],[-57.800000000000004,26.0],[-57.421052631578945,25.57894736842105],[-57.0,25.333333333333332],[-56.65625,24.34375],[-56.0,24.0],[-55.774647887323944,23.225352112676056],[-54.971428571428575,23.0],[-54.67213114754099,22.32786885245902],[-53.91304347826087,22.0],[-53.66666666666667,21.333333333333336],[-53.0,21.045454545454547],[-52.925925925925924,19.074074074074076],[-52.32,18.68],[-52.0,18.333333333333336],[-51.96491228070175,18.035087719298247],[-51.55102040816327,17.448979591836732],[-51.0,17.0],[-50.92941176470588,16.070588235294117],[-50.705882352941174,15.294117647058822],[-50.0,14.0],[-49.91304347826087,13.08695652173913],[-49.57894736842105,12.421052631578947],[-48.94444444444444,12.055555555555555],[-46.111111111111114,12.11111111111111],[-46.0,13.5],[-45.66666666666667,13.666666666666668],[-45.5,14.0],[-45.06060606060606,14.06060606060606],[-45.0,17.0],[-44.02857142857143,17.02857142857143],[-44.0,19.0625],[-43.125,19.125],[-43.01709401709402,21.017094017094017],[-43.044444444444444,23.955555555555556],[-43.16666666666667,25.0],[-43.02985074626866,25.029850746268657],[-43.028169014084504,31.971830985915492],[-43.33333333333333,32.0],[-43.55555555555555,32.44444444444444],[-44.0,32.66666666666667],[-44.11764705882352,34.88235294117647],[-45.0,34.94117647058823],[-45.044444444444444,35.955555555555556],[-46.0,35.977777777777774],[-46.02666666666667,36.97333333333333],[-48.375,37.0],[-48.523809523809526,37.476190476190474],[-49.0,37.714285714285715],[-49.05479452054795,37.94520547945205],[-51.017857142857146,37.98214285714286],[-51.04347826086956,38.95652173913044],[-52.5,39.0],[-52.66666666666667,39.333333333333336],[-53.0,39.5],[-53.15384615384616,39.84615384615385],[-54.0,39.90909090909091],[-54.111111111111114,40.111111111111114],[-54.111111111111114,40.888888888888886],[-54.5,41.5],[-55.0,41.75],[-55.009756097560974,43.009756097560974],[-54.05555555555556,43.05555555555556],[-54.0,44.08333333333333],[-53.166666666666664,44.16666666666667],[-53.08333333333333,45.0],[-52.054054054054056,45.054054054054056],[-52.0,46.0],[-50.0,46.0],[-50.0,45.0],[-49.5,44.5],[-48.0,44.0],[-47.8,43.2],[-47.44444444444444,42.55555555555556],[-47.0,42.333333333333336],[-46.833333333333336,42.0],[-46.833333333333336,40.833333333333336],[-47.44444444444444,40.44444444444444],[-47.66666666666667,40.0],[-47.5,39.5],[-46.5,38.5],[-46.5,38.0],[-46.333333333333336,37.66666666666667],[-45.75,37.25],[-44.875,37.125],[-44.5,36.5],[-44.0,36.25],[-43.5,36.5],[-43.13333333333333,37.13333333333333],[-42.0,37.25],[-41.5,37.5],[-41.14285714285714,38.14285714285714],[-40.4,38.4],[-40.199999999999996,39.0],[-40.333333333333336,39.66666666666667],[-41.0,40.0],[-40.4,40.4],[-40.0,40.33333333333333],[-39.0,40.5],[-38.94444444444444,40.05555555555556],[-36.09090909090909,40.090909090909086],[-36.0,40.5],[-35.66666666666667,40.66666666666667],[-35.5,41.0],[-33.02150537634409,41.02150537634408],[-32.75,41.25],[-32.25,41.25],[-32.25,41.75],[-32.125,42.0],[-31.07142857142857,42.07142857142858],[-31.0,43.04347826086956],[-30.086956521739133,43.086956521739125],[-30.0,44.0625],[-29.125,44.125],[-29.0,45.5],[-28.66666666666667,45.66666666666667],[-28.5,46.0],[-28.02272727272727,46.02272727272727],[-28.007782101167315,47.007782101167315],[-27.023809523809522,47.023809523809526],[-27.0,48.02439024390244],[-26.04878048780488,48.048780487804876],[-26.0,49.018181818181816],[-25.036363636363635,49.03636363636364],[-25.01818181818182,50.0],[-23.052631578947366,50.05263157894737],[-23.026315789473685,51.0],[-22.024390243902438,51.02439024390244],[-22.0078125,52.0078125],[-20.142857142857142,52.142857142857146],[-20.071428571428573,53.0],[-17.9,53.0],[-17.799999999999997,52.2],[-17.2,52.2],[-16.979166666666668,52.020833333333336],[-12.0,52.0],[-11.600000000000001,51.400000000000006],[-10.8,51.2],[-10.0,51.166666666666664],[-9.962962962962964,51.03703703703704],[-8.5,51.0],[-8.333333333333334,50.66666666666667],[-8.0,50.5],[-7.818181818181818,50.18181818181818],[-7.181818181818182,50.18181818181818],[-6.959183673469388,50.04081632653062],[-4.954545454545455,50.0],[-4.909090909090908,49.09090909090909],[-3.6666666666666665,49.0],[-3.444444444444444,48.55555555555555],[-3.0,48.333333333333336],[-2.9545454545454546,48.04545454545455],[-1.0,48.0],[0.9574468085106382,48.04255319148936],[1.0,52.33333333333333],[1.4444444444444444,52.55555555555555],[1.6666666666666665,53.0],[1.9285714285714286,53.07142857142857],[1.972972972972973,55.972972972972975],[1.8571428571428572,57.85714285714286],[1.0,57.92857142857143],[0.935483870967742,58.935483870967744],[0.0,59.0],[-0.07407407407407407,59.92592592592593],[-2.027027027027027,60.0],[-2.054054054054054,60.945945945945944],[-5.0,61.0],[-5.028169014084507,61.971830985915496],[-7.032258064516129,62.0],[-7.064516129032258,62.935483870967744],[-9.076923076923077,63.0],[-9.153846153846153,63.84615384615385],[-9.846153846153847,63.84615384615385],[-10.021978021978022,63.97802197802198],[-12.09090909090909,64.0],[-12.181818181818183,64.81818181818181],[-12.81818181818182,64.81818181818181],[-13.023529411764706,64.97647058823529],[-23.5,65.0],[-23.666666666666668,65.33333333333334],[-24.0,65.5],[-24.05128205128205,65.94871794871796],[-27.0,65.98850574712644],[-27.02777777777778,66.97222222222223],[-28.02941176470588,67.0],[-28.05882352941176,67.94117647058823],[-29.020833333333332,68.0],[-29.041666666666668,68.95833333333334],[-30.009803921568626,68.99019607843137],[-30.02898550724638,69.97101449275362],[-31.008968609865473,69.99103139013454],[-31.029850746268657,70.97014925373135],[-32.333333333333336,71.0],[-32.55555555555555,71.44444444444444],[-33.0,71.66666666666667],[-33.0253164556962,71.9746835443038],[-35.5,72.0],[-35.66666666666667,72.33333333333334],[-36.0,72.5],[-36.03225806451613,72.96774193548387],[-40.0,73.0],[-40.054054054054056,73.94594594594595],[-46.0625,74.0],[-46.125,74.875],[-48.0,75.0],[-48.09090909090909,75.9090909090909],[-50.0,76.0],[-50.25,76.75],[-51.0,76.85714285714286],[-51.75,76.75],[-52.0,76.0],[-53.96875,75.96875],[-54.0,75.0],[-54.97674418604651,74.9767441860465],[-55.0,73.92307692307692],[-55.84615384615384,73.84615384615384],[-55.98830409356725,71.98830409356725],[-55.97959183673469,68.0204081632653],[-55.857142857142854,67.85714285714286],[-55.857142857142854,67.14285714285714],[-55.0,67.07142857142857],[-54.976470588235294,66.02352941176471],[-54.833333333333336,66.0],[-54.66666666666667,65.66666666666667],[-54.66666666666667,65.33333333333334],[-54.333333333333336,65.33333333333334],[-54.0,65.16666666666667],[-53.951219512195124,64.95121951219512],[-55.28571428571428,64.71428571428571],[-55.66666666666667,65.33333333333334],[-56.285714285714285,65.71428571428571],[-57.0,65.8],[-57.71428571428571,65.71428571428571],[-58.0,65.5],[-58.0,71.16666666666667],[-57.66666666666667,71.33333333333334],[-57.333333333333336,71.33333333333334],[-57.333333333333336,71.66666666666667],[-57.05882352941176,72.05882352941177],[-57.0,73.25],[-56.5,73.5],[-56.25,74.0],[-56.02222222222222,74.02222222222221],[-56.007751937984494,75.0077519379845],[-55.023529411764706,75.02352941176471],[-55.007782101167315,76.00778210116732],[-54.02325581395349,76.0232558139535],[-54.0,77.0],[-51.090909090909086,77.0909090909091],[-51.0,77.33333333333333],[-50.55555555555555,77.55555555555556],[-50.33333333333333,78.0],[-42.02298850574712,78.02298850574712],[-41.81818181818182,78.18181818181819],[-41.18181818181818,78.18181818181819],[-41.18181818181818,78.81818181818181],[-41.0,79.01149425287356],[-28.05128205128205,79.05128205128204],[-28.0,79.16666666666667],[-27.22222222222222,79.22222222222223],[-26.5,79.5],[-26.0,80.0],[-20.11111111111111,80.11111111111111],[-20.0,81.0],[-12.022988505747126,81.02298850574712],[-10.076923076923077,81.07692307692307],[-9.0,81.25],[-7.222222222222222,81.22222222222223],[-6.333333333333334,81.33333333333334],[-5.666666666666667,81.66666666666667],[-5.5,82.0],[46.2,82.0],[46.400000000000006,81.4],[47.111111111111114,81.11111111111111],[52.0,81.0],[52.4,80.4],[53.0,80.25],[53.11764705882353,80.11764705882354],[57.5,80.0],[57.66666666666667,79.66666666666667],[58.0,79.5],[58.05714285714286,79.05714285714286],[60.03703703703703,79.0],[60.074074074074076,78.07407407407408],[61.5,78.0],[61.66666666666667,77.66666666666667],[62.0,77.5],[62.02597402597403,77.02597402597402],[63.00921658986175,77.00921658986175],[63.03636363636363,76.03636363636363],[64.01036269430051,76.01036269430053],[64.0392156862745,75.0392156862745],[65.03030303030303,75.0],[65.06060606060606,74.06060606060606],[66.05263157894737,74.0],[66.10526315789474,73.10526315789474],[67.0,73.05263157894737],[67.14285714285714,72.85714285714286],[67.14285714285714,72.14285714285714],[68.0,72.07142857142857],[68.0952380952381,71.09523809523809],[69.0,71.04761904761905],[69.04255319148936,70.04255319148936],[70.0,70.02127659574468],[70.02298850574712,69.02298850574712],[70.25,69.0],[70.5,68.5],[71.0,68.25],[71.05128205128206,67.05128205128206],[72.0,67.0],[72.15384615384616,65.15384615384616],[73.0,65.07692307692307],[73.13333333333334,62.13333333333333],[74.0,62.0],[74.0421052631579,51.04210526315789],[74.33333333333333,51.0],[74.73333333333333,50.733333333333334],[76.32,50.68],[77.5,51.0],[78.01438848920863,51.014388489208635],[88.87234042553192,51.12765957446808],[89.0,51.46153846153846],[89.69999999999999,52.0],[91.77215189873418,52.22784810126582],[92.0,52.900000000000006],[92.16666666666667,53.0],[93.86842105263158,53.13157894736842],[94.0,53.55555555555556],[94.32,53.68],[94.5,54.0],[97.85185185185185,54.14814814814815],[98.41666666666667,54.583333333333336],[98.71428571428572,55.0],[100.96330275229357,55.03669724770642],[101.16666666666666,55.16666666666667],[101.78571428571428,55.214285714285715],[102.0,56.01149425287356],[112.0,56.0],[112.35897435897436,55.35897435897436],[112.64102564102565,55.35897435897436],[113.12389380530973,55.123893805309734],[115.28571428571428,55.0],[115.64912280701753,54.64912280701755],[116.0,54.565217391304344],[116.30588235294118,54.30588235294118],[118.0,54.18888888888888],[120.4,54.400000000000006],[120.69811320754718,54.30188679245283],[121.4090909090909,54.590909090909086],[122.0,55.0],[122.86666666666666,54.86666666666667],[123.0,54.75],[124.0,54.8],[124.25806451612902,54.25806451612903],[124.71428571428571,54.285714285714285],[126.0,54.0],[127.0,54.0],[127.0909090909091,53.0],[126.60000000000001,52.4],[126.5,52.0],[126.62962962962962,50.629629629629626],[127.125,50.0],[127.0,49.0],[126.4,49.400000000000006],[126.0,49.375],[125.0,49.0],[124.55555555555554,48.0],[124.60000000000001,47.6],[125.0,47.2],[126.19999999999999,47.2],[126.5,47.0],[126.15384615384616,46.84615384615385],[126.0,44.75],[125.5,44.5],[125.0952380952381,43.904761904761905],[125.0,42.666666666666664],[124.55555555555554,42.44444444444444],[124.33333333333333,42.0],[124.05882352941177,41.94117647058823],[124.0,41.0],[123.15384615384615,40.84615384615385],[123.08333333333334,40.0],[122.07692307692307,39.92307692307693],[122.03846153846153,39.0],[120.125,38.875],[120.0,38.0],[118.04347826086958,37.95652173913043],[118.0,37.5],[117.66666666666667,37.333333333333336],[117.5,37.0],[116.10526315789474,36.89473684210526],[116.10526315789474,36.10526315789474],[116.0,35.88888888888889],[115.22222222222223,35.77777777777778],[115.11111111111111,35.0],[114.75,34.75],[114.25,34.75],[114.25,34.25],[114.125,34.0],[113.83333333333334,33.83333333333333],[113.16666666666666,33.83333333333333],[113.16666666666666,33.16666666666667],[113.0,32.9],[112.2,32.8],[112.2,32.2],[112.02247191011236,31.97752808988764],[112.0,31.0],[111.4,30.6],[111.25,30.0],[111.0,26.9],[110.2,26.8],[110.2,26.200000000000003],[110.025,25.975],[110.0,24.833333333333336],[109.66666666666669,24.666666666666668],[109.33333333333334,24.666666666666668],[109.33333333333334,24.333333333333336],[109.03636363636363,23.963636363636365],[109.0,23.5],[108.60000000000001,23.400000000000002],[108.0,23.0],[108.25,22.25],[108.04878048780488,20.951219512195124],[108.0,19.0],[107.07142857142857,18.928571428571427],[107.0,15.5],[106.66666666666669,15.333333333333334],[106.22222222222223,14.777777777777779],[106.22222222222223,14.222222222222221],[106.08695652173913,13.91304347826087],[106.0952380952381,11.095238095238095],[106.4,10.600000000000001],[106.4,10.4],[107.0,10.2],[107.05714285714286,9.057142857142857],[108.0,9.0],[108.02777777777779,8.027777777777779],[108.2,8.0],[108.4,7.4],[108.60000000000001,7.4],[109.0,7.2],[109.02325581395348,7.023255813953488],[109.25,7.0],[109.5,6.5],[110.0,6.25],[110.025,6.0249999999999995],[111.0,6.0],[111.0377358490566,5.037735849056604],[111.5,5.0],[111.66666666666667,4.666666666666667],[112.0,4.5],[112.13333333333333,3.1333333333333333],[113.0,3.0666666666666664],[113.04255319148936,2.0425531914893615],[114.0,2.0588235294117645],[114.15,1.85],[114.18181818181819,1.1818181818181817],[114.73333333333332,1.2666666666666666],[115.13793103448276,1.0],[115.14492753623188,0.14492753623188404],[115.29411764705883,0.0],[115.29411764705881,-0.29411764705882354],[115.0,-1.0],[115.0,-2.0],[114.42857142857144,-1.5714285714285716],[114.0,-1.625],[113.75999999999999,-2.24],[114.0,-2.75],[114.33333333333334,-2.666666666666667],[115.0,-3.0],[114.0909090909091,-3.090909090909091],[114.0,-4.076923076923077],[113.15384615384616,-4.153846153846153],[113.15384615384616,-4.846153846153847],[113.0,-5.066666666666666],[112.13333333333333,-5.133333333333334],[112.13333333333333,-5.866666666666666],[112.0,-6.066666666666666],[111.13333333333333,-6.133333333333333],[111.06666666666668,-7.0],[110.0,-7.0],[109.33333333333334,-7.333333333333334],[109.2,-8.0],[108.03999999999999,-8.04],[107.75,-8.25],[107.0,-8.0],[107.25,-8.75],[107.14285714285714,-9.0],[106.05555555555556,-9.055555555555555],[106.0,-9.5],[105.66666666666667,-9.666666666666668],[105.5,-10.0],[104.03333333333333,-10.033333333333333],[103.75,-10.25],[103.25,-10.25],[103.25,-10.75],[103.125,-11.0],[92.0,-11.0],[91.60000000000001,-10.4],[91.0,-10.25],[90.91666666666667,-10.083333333333334],[86.98952879581152,-10.010471204188482],[86.88235294117648,-9.882352941176471],[86.88235294117648,-9.117647058823529],[84.0,-9.0],[83.9,-8.1],[80.66666666666667,-8.0],[80.44444444444444,-7.555555555555555],[80.0,-7.333333333333333],[79.93103448275862,-7.068965517241379],[76.99,-7.01],[76.92857142857143,-6.071428571428571],[73.94736842105264,-6.0],[73.89473684210526,-5.105263157894737],[70.66666666666666,-5.0],[70.44444444444444,-4.555555555555555],[70.0,-4.333333333333334],[69.92307692307693,-4.076923076923077],[60.0,-4.0],[59.66666666666667,-3.3333333333333335],[59.333333333333336,-3.3333333333333335],[58.93333333333333,-3.0666666666666664],[53.98984771573604,-3.0101522842639596],[53.913043478260875,-2.0869565217391304],[51.900000000000006,-2.0],[51.8,-1.2000000000000002],[51.2,-1.2000000000000002],[50.96610169491525,-1.0338983050847457],[48.8,-1.0],[48.60000000000001,-0.4],[48.0,-0.19999999999999996],[47.94285714285714,-0.05714285714285716],[44.99038461538461,-0.009615384615384637],[44.94117647058823,0.9411764705882353],[42.75,1.0],[42.5,1.5],[42.0,1.75],[41.96923076923077,1.9692307692307693],[40.833333333333336,2.0],[40.66666666666667,2.3333333333333335],[40.66666666666667,2.666666666666667],[40.333333333333336,2.666666666666667],[40.0,2.833333333333333],[39.96491228070175,2.9649122807017547],[38.75,3.0],[38.5,3.5],[38.0,3.75],[37.95833333333333,3.9583333333333335],[35.952380952380956,4.0],[35.904761904761905,4.904761904761904],[32.66666666666667,5.0],[32.44444444444444,5.444444444444444],[32.0,5.666666666666667],[31.94871794871795,5.948717948717949],[31.5,6.0],[31.333333333333336,6.333333333333334],[31.0,6.5],[30.91304347826087,6.913043478260869],[30.666666666666664,7.0],[30.5,7.5],[30.0,8.0],[30.77777777777778,8.222222222222221],[30.875,9.0],[33.81818181818182,9.181818181818182],[34.0,9.5],[35.0,9.5],[35.333333333333336,9.666666666666668],[35.5,10.0],[37.92,10.08],[37.96,11.0],[39.888888888888886,11.11111111111111],[39.94444444444444,12.0],[40.96666666666667,12.033333333333333],[41.0,12.5],[41.333333333333336,12.666666666666668],[41.5,13.0],[50.14285714285714,13.0],[50.28571428571428,12.714285714285714],[50.28571428571428,12.285714285714285],[50.71428571428571,12.285714285714285],[51.02739726027397,12.027397260273974],[53.2,12.0],[53.400000000000006,11.400000000000002],[54.0,11.2],[54.04651162790698,11.046511627906977],[57.333333333333336,11.0],[57.55555555555555,10.555555555555554],[58.0,10.333333333333332],[58.0952380952381,10.095238095238095],[61.05555555555555,10.0],[61.11111111111111,9.11111111111111],[63.03030303030303,9.0],[63.05882352941177,8.058823529411764],[69.0,8.0],[70.0,7.5],[70.18181818181819,7.181818181818182],[72.02898550724638,7.028985507246377],[75.19999999999999,7.0],[76.0,6.666666666666667],[76.29629629629629,6.296296296296296],[77.0183486238532,6.0183486238532105],[79.07692307692308,6.0],[79.15384615384616,5.153846153846154],[80.97999999999999,5.02],[81.02597402597402,4.025974025974026],[82.02083333333333,4.0],[82.04166666666666,3.041666666666667],[83.08333333333333,3.0],[83.26666666666667,2.2666666666666666],[83.81818181818181,2.1818181818181817],[84.02150537634408,2.021505376344086],[85.00873362445415,2.0087336244541483],[85.0327868852459,1.0327868852459017],[86.05555555555554,1.0],[86.19047619047619,0.19047619047619047],[87.33333333333334,0.0],[87.6,-0.4],[88.0,-0.6666666666666666],[88.02597402597402,-0.974025974025974],[89.00943396226414,-0.9905660377358491],[89.03921568627452,-1.9607843137254901],[92.95652173913044,-1.9565217391304348],[92.94736842105263,0.9473684210526316],[92.0,1.0],[91.88888888888889,3.888888888888889],[91.66666666666666,4.0],[91.44444444444444,4.444444444444445],[91.0,4.666666666666666],[90.96296296296298,6.962962962962964],[90.66666666666667,7.0],[90.44444444444444,7.444444444444444],[90.0,7.666666666666666],[89.97727272727272,8.977272727272728],[89.83333333333333,9.0],[89.66666666666667,9.333333333333334],[89.66666666666667,9.666666666666668],[89.33333333333334,9.666666666666668],[89.0,9.833333333333334],[88.9,11.9],[88.75,12.0],[88.6,12.6],[88.0,13.0],[88.0,19.25],[88.5,19.5],[88.84615384615384,20.153846153846153],[89.0,23.0],[89.88888888888889,23.11111111111111],[90.0,29.0],[89.875,29.875],[88.0,30.0],[87.95121951219512,30.951219512195124],[86.91666666666667,31.0],[86.83333333333334,31.833333333333336],[86.16666666666666,31.833333333333336],[85.75,32.0],[85.5,32.5],[85.0,32.75],[84.97297297297297,32.972972972972975],[83.96296296296296,33.0],[83.92592592592592,33.925925925925924],[81.89999999999999,34.0],[81.8,34.8],[81.2,34.8],[80.97260273972603,34.97260273972603],[78.9,35.0],[78.8,35.8],[78.2,35.8],[77.97590361445783,35.975903614457835],[74.875,36.0],[74.75,36.25],[74.75,36.75],[74.25,36.75],[73.95833333333333,36.95833333333333],[72.95402298850576,36.95402298850575],[70.21176470588236,36.78823529411765],[69.50769230769231,36.49230769230769],[69.0,36.0],[67.11475409836065,35.885245901639344],[66.35555555555555,35.644444444444446],[66.08823529411764,35.0],[65.05333333333333,34.946666666666665],[65.0,34.666666666666664],[64.52941176470588,34.470588235294116],[64.2,34.0],[63.239999999999995,33.76],[63.05263157894737,33.0],[62.10714285714286,32.89285714285714],[62.0,32.57142857142857],[61.33333333333333,32.0],[60.14705882352942,31.852941176470587],[59.61702127659574,31.382978723404253],[59.526315789473685,31.0],[58.58333333333333,30.583333333333336],[58.388888888888886,30.61111111111111],[58.416666666666664,30.416666666666668],[58.12903225806451,29.870967741935484],[58.0,29.285714285714285],[57.77777777777777,29.22222222222222],[57.63636363636363,29.0],[57.12962962962963,28.87037037037037],[57.02307692307693,27.976923076923075],[56.130434782608695,27.869565217391305],[56.0,26.972602739726028],[55.098765432098766,26.901234567901234],[55.0,26.0],[54.0246913580247,25.97530864197531],[54.0,25.75],[53.5,25.5],[53.25,25.0],[52.04761904761905,24.952380952380953],[52.0,24.0],[50.04081632653062,23.95918367346939],[50.0,23.75],[49.5,23.5],[49.25,23.0],[47.06896551724138,22.931034482758623],[47.0,22.0],[44.02985074626866,21.970149253731343],[44.00829875518672,20.991701244813278],[42.02298850574712,20.97701149425287],[42.0,20.75],[41.5,20.5],[41.25,20.0],[40.028169014084504,19.971830985915492],[40.0,19.0],[38.086956521739125,18.913043478260867],[38.0,18.0],[36.06060606060606,17.939393939393938],[36.0,17.0],[34.03846153846154,16.96153846153846],[34.0,16.666666666666664],[33.55555555555555,16.444444444444443],[33.333333333333336,16.0],[28.0,16.0],[27.4,16.400000000000002],[27.0,16.5],[26.6,16.400000000000002],[26.0,16.0],[23.0625,15.9375],[23.0,15.5],[22.666666666666668,15.333333333333334],[22.5,15.0],[22.074074074074073,14.925925925925927],[22.0,14.666666666666668],[21.5,14.5],[21.25,13.75],[21.2,13.0],[20.055555555555557,12.944444444444445],[20.0,12.8],[19.77777777777778,12.777777777777779],[19.5,13.0],[19.400000000000002,13.4],[19.0,13.5],[18.77777777777778,13.222222222222221],[18.0,13.0],[18.0,11.0],[18.25,9.75],[18.166666666666668,9.166666666666668],[18.555555555555554,8.555555555555555],[19.0,8.333333333333334],[19.057142857142857,8.057142857142857],[20.0,8.0],[20.054054054054056,7.0540540540540535],[21.333333333333336,7.0],[21.555555555555554,6.555555555555555],[22.0,6.333333333333334],[22.024096385542165,6.024096385542169],[23.00787401574803,6.0078740157480315],[23.133333333333333,4.133333333333333],[24.0,4.066666666666666],[24.033898305084744,3.0338983050847457],[24.333333333333336,3.0],[24.555555555555554,2.555555555555556],[25.0,2.333333333333333],[25.105263157894736,1.1052631578947367],[26.0,1.0526315789473686],[26.05263157894737,0.05263157894736842],[27.058823529411764,0.0],[27.11764705882353,-0.8823529411764706],[28.0,-0.9411764705882353],[28.125,-2.875],[29.0,-2.9375],[29.133333333333333,-4.866666666666667],[30.0,-4.933333333333334],[30.029850746268657,-5.970149253731344],[31.00925925925926,-5.990740740740741],[31.03225806451613,-6.967741935483871],[32.142857142857146,-7.0],[32.285714285714285,-7.285714285714286],[32.285714285714285,-7.7142857142857135],[32.71428571428571,-7.7142857142857135],[33.090909090909086,-7.909090909090909],[38.0,-8.0],[38.25,-8.75],[38.75,-8.75],[39.04166666666667,-8.958333333333334],[40.0,-9.0],[40.333333333333336,-9.666666666666668],[41.0,-9.799999999999999],[41.02857142857143,-9.971428571428572],[42.0,-10.0],[42.04,-10.96],[43.050000000000004,-11.0],[43.099999999999994,-11.9],[44.142857142857146,-12.0],[44.285714285714285,-12.285714285714285],[44.285714285714285,-12.714285714285714],[44.71428571428571,-12.714285714285714],[45.023809523809526,-12.976190476190476],[45.333333333333336,-13.0],[45.55555555555556,-13.444444444444445],[46.0,-13.666666666666666],[46.02564102564103,-13.974358974358974],[47.00917431192661,-13.990825688073395],[47.035714285714285,-14.964285714285714],[48.2,-15.0],[48.400000000000006,-15.600000000000001],[49.0,-15.8],[49.22222222222223,-16.22222222222222],[49.22222222222223,-16.77777777777778],[50.0,-16.88888888888889],[50.083333333333336,-17.916666666666664],[51.0,-17.958333333333332],[51.03846153846154,-18.961538461538463],[52.0,-19.0],[52.02985074626866,-19.970149253731343],[52.33333333333333,-20.0],[52.55555555555555,-20.444444444444443],[53.0,-20.666666666666668],[53.166666666666664,-21.166666666666668],[52.5,-21.5],[52.25,-22.0],[52.4,-22.6],[53.0,-23.0],[53.0,-24.0],[52.4,-24.400000000000002],[52.0,-25.0],[52.5,-25.5],[53.0,-25.666666666666664],[53.5,-25.5],[53.66666666666667,-25.0],[53.60000000000001,-24.6],[54.0,-24.0],[55.0,-25.0],[55.023529411764706,-28.976470588235294],[55.18181818181819,-29.18181818181818],[55.18181818181819,-29.81818181818182]],[[110.71428571428571,-6.7142857142857135],[110.83333333333333,-6.0],[110.0,-5.666666666666666],[109.74358974358974,-5.743589743589743],[109.58333333333333,-6.416666666666667],[110.0,-7.0],[110.71428571428571,-6.7142857142857135]],[[4.333333333333334,59.0],[4.555555555555555,58.55555555555556],[5.0,58.33333333333333],[5.333333333333334,58.66666666666667],[5.4,59.0],[5.0,59.66666666666667],[4.555555555555555,59.44444444444444],[4.333333333333334,59.0]],[[7.307692307692308,54.30769230769231],[6.636363636363637,54.36363636363637],[6.0,54.25],[5.5,54.0],[5.666666666666667,53.66666666666667],[7.0,53.0],[7.5,53.5],[7.666666666666666,54.0],[7.307692307692308,54.30769230769231]],[[5.4,52.6],[5.0,51.5],[4.666666666666667,51.333333333333336],[4.5,51.0],[4.7142857142857135,50.71428571428571],[5.0,50.66666666666667],[5.363636363636363,50.36363636363636],[7.105263157894736,50.10526315789474],[7.333333333333333,50.0],[7.285714285714286,49.71428571428571],[7.0,49.5],[6.833333333333334,49.0],[6.133333333333333,47.86666666666667],[5.0,47.63636363636364],[4.2,48.00000000000001],[4.0,48.33333333333333],[3.7142857142857144,48.28571428571428],[3.5,48.0],[3.166666666666667,47.833333333333336],[3.1,47.0],[3.142857142857143,46.142857142857146],[3.25,46.0],[3.1818181818181817,45.81818181818182],[2.4,45.6],[2.2,45.0],[2.68,44.68],[3.0,44.714285714285715],[3.5,44.5],[3.6774193548387095,43.677419354838705],[4.0,43.0],[5.0,42.4],[6.0,42.0],[5.6000000000000005,41.400000000000006],[5.0,41.0],[5.0,40.0],[6.0,40.0],[6.0,39.0],[6.222222222222222,38.22222222222222],[6.133333333333333,37.86666666666667],[5.636363636363637,37.36363636363636],[5.375,36.0],[5.875,35.0],[6.529411764705882,34.529411764705884],[6.931034482758621,33.93103448275862],[7.0,33.5],[7.333333333333333,33.0],[7.75,32.75],[8.0,32.0],[8.5,32.5],[8.666666666666668,33.0],[8.666666666666668,35.0],[8.5,36.5],[9.0,37.0],[8.0,37.0],[7.777777777777778,38.22222222222222],[8.0,39.0],[8.0,40.0],[8.600000000000001,40.4],[9.0,40.33333333333333],[9.5,40.0],[9.600000000000001,39.6],[10.0,39.0],[11.0,39.0],[11.5,39.5],[13.0,40.0],[13.4,40.6],[13.600000000000001,41.400000000000006],[14.0,42.0],[13.0,43.0],[14.0,44.0],[12.714285714285714,44.71428571428571],[12.5,45.0],[12.333333333333332,46.0],[11.636363636363637,46.63636363636364],[10.5,48.5],[10.0,49.0],[10.307692307692308,49.69230769230769],[10.333333333333334,51.00000000000001],[10.0,52.0],[9.600000000000001,52.6],[9.0,52.75],[8.0,52.75],[7.0,53.0],[5.4,52.6]],[[9.600000000000001,38.4],[9.5,38.0],[9.600000000000001,37.6],[10.0,37.5],[10.2,38.2],[10.0,39.0],[9.600000000000001,38.4]],[[10.307692307692308,29.0],[10.095238095238095,30.095238095238095],[10.115384615384617,33.0],[10.0,33.42857142857143],[9.600000000000001,33.4],[9.25,33.0],[9.25,31.75],[9.0,31.0],[9.333333333333334,30.333333333333336],[9.2,29.0],[9.4,28.400000000000002],[10.0,28.200000000000003],[10.307692307692308,29.0]],[[17.799999999999997,46.8],[18.0,46.66666666666667],[18.333333333333336,46.66666666666667],[19.0,47.0],[18.400000000000002,47.4],[18.0,47.5],[17.799999999999997,47.8],[16.0,48.25],[15.666666666666668,48.0],[15.90909090909091,47.90909090909091],[16.375,47.375],[16.333333333333332,47.0],[16.714285714285715,46.71428571428571],[17.4,46.6],[17.799999999999997,46.8]],[[19.285714285714285,46.28571428571428],[19.636363636363637,46.36363636363637],[21.0,46.0],[21.384615384615383,46.61538461538461],[21.384615384615387,47.0],[21.357142857142858,47.35714285714286],[21.0,48.0],[19.636363636363637,47.63636363636364],[19.285714285714285,47.71428571428571],[19.0,47.0],[19.285714285714285,46.28571428571428]],[[20.444444444444443,45.55555555555556],[20.0,45.666666666666664],[19.400000000000002,45.6],[19.0,45.0],[19.75,43.75],[20.0,43.66666666666667],[20.22222222222222,43.77777777777778],[20.6,44.400000000000006],[20.8,45.0],[20.6,45.4],[21.0,46.0],[20.444444444444443,45.55555555555556]],[[28.66666666666667,79.33333333333334],[28.5,79.0],[29.0,78.66666666666667],[29.333333333333336,79.0],[29.285714285714285,79.28571428571428],[29.0,79.5],[28.66666666666667,79.33333333333334]],[[29.666666666666668,18.666666666666668],[29.0,19.0],[28.6,18.400000000000002],[28.5,18.0],[28.66666666666667,17.666666666666668],[29.0,17.5],[30.0,17.333333333333332],[31.0,17.5],[32.0,17.5],[32.333333333333336,17.666666666666668],[32.77777777777778,18.22222222222222],[33.714285714285715,18.285714285714285],[34.333333333333336,18.666666666666668],[34.5,19.0],[34.5,20.0],[34.333333333333336,20.333333333333336],[34.0,20.5],[33.22222222222222,19.77777777777778],[32.285714285714285,19.714285714285715],[31.714285714285715,19.285714285714285],[30.333333333333336,18.666666666666668],[29.666666666666668,18.666666666666668]],[[35.5,22.0],[35.66666666666667,21.666666666666668],[36.0,21.5],[36.285714285714285,21.714285714285715],[36.333333333333336,22.0],[36.0,22.333333333333336],[35.71428571428571,22.285714285714285],[35.5,22.0]],[[94.60000000000001,33.6],[95.5,33.5],[96.0,33.0],[96.0,34.0],[94.75,34.25],[94.0,34.0],[94.60000000000001,33.6]],[[99.60000000000001,32.6],[100.0,32.5],[100.33333333333334,32.66666666666667],[100.5,33.0],[99.75,33.25],[99.0,33.0],[99.60000000000001,32.6]],[[106.85714285714286,22.0],[107.0,21.5],[107.33333333333334,21.666666666666668],[107.5,22.0],[107.33333333333334,22.333333333333336],[107.0,22.333333333333336],[106.85714285714286,22.0]],[[110.71428571428571,38.285714285714285],[111.0,38.125],[111.25,38.25],[111.75,38.25],[111.75,38.75],[111.875,39.0],[111.66666666666667,39.333333333333336],[112.0,39.333333333333336],[112.16666666666666,39.16666666666667],[113.83333333333334,39.16666666666667],[114.44444444444444,39.55555555555555],[114.66666666666666,40.0],[113.39024390243904,40.390243902439025],[112.63636363636364,40.36363636363637],[111.86206896551724,40.13793103448276],[111.46153846153847,39.53846153846155],[111.0,39.53846153846153],[110.30000000000001,39.0],[110.4,38.6],[110.0,38.0],[110.71428571428571,38.285714285714285]],[[117.66666666666667,40.66666666666667],[118.0,40.5],[118.33333333333334,40.66666666666667],[118.5,41.0],[118.0625,41.0625],[117.5,41.0],[117.66666666666667,40.66666666666667]],[[121.0,43.375],[120.7,42.7],[121.0,42.0],[121.60000000000001,42.4],[121.75,43.0],[121.42857142857144,43.42857142857143],[121.0,43.375]],[[122.78571428571428,47.21428571428571],[122.64705882352942,46.647058823529406],[123.0,46.0],[123.5,46.5],[123.6,47.0],[123.27272727272727,47.272727272727266],[123.00000000000001,47.333333333333336],[122.78571428571428,47.21428571428571]],[[122.4,45.6],[122.0,45.75],[121.69999999999999,45.0],[121.83333333333334,44.00000000000001],[121.66666666666669,43.66666666666667],[122.0,43.5],[122.33333333333334,43.66666666666667],[122.66666666666667,44.333333333333336],[122.75,45.0],[122.6,45.4],[123.0,46.0],[122.4,45.6]],[[77.66666666666667,1.6666666666666665],[78.0,1.5],[78.4,1.6],[79.0,2.0],[78.08695652173914,2.0869565217391304],[77.5,2.0],[77.66666666666667,1.6666666666666665]],[[35.0,-45.25],[35.25,-45.0],[35.75,-44.0],[35.66666666666667,-43.333333333333336],[35.5,-43.0],[35.75,-42.75],[36.44444444444444,-42.44444444444444],[36.666666666666664,-42.0],[36.333333333333336,-41.66666666666667],[34.0,-41.0],[32.55555555555555,-41.55555555555555],[32.0,-42.0],[32.75,-44.0],[34.0,-45.75],[35.0,-45.25]],[[40.77777777777778,-39.22222222222222],[41.0,-39.666666666666664],[41.44444444444444,-39.44444444444444],[41.66666666666667,-39.0],[41.19047619047619,-38.80952380952381],[40.875,-38.875],[40.77777777777778,-39.22222222222222]],[[60.75,-73.0],[62.25,-73.0],[61.0,-72.9090909090909],[60.75,-73.0]],[[80.66666666666667,-47.66666666666667],[80.5,-48.0],[80.66666666666667,-48.333333333333336],[81.0,-48.5],[81.33333333333334,-48.333333333333336],[81.5,-48.0],[81.33333333333334,-47.66666666666667],[81.0,-47.5],[80.66666666666667,-47.66666666666667]],[[125.66666666666669,-40.0],[126.0,-41.0],[126.5,-40.5],[126.66666666666666,-40.0],[126.44444444444444,-39.55555555555555],[126.0,-39.333333333333336],[125.66666666666669,-40.0]],[[137.0,-52.0],[137.6,-52.4],[138.5,-52.5],[139.0,-53.0],[139.0,-52.0],[138.4,-51.6],[138.0,-51.5],[137.6,-51.6],[137.0,-52.0]],[[-17.266666666666666,24.266666666666666],[-17.666666666666668,24.0],[-17.6,23.6],[-18.0,23.0],[-17.0,23.0],[-16.6,23.6],[-16.77777777777778,24.22222222222222],[-17.0,24.333333333333332],[-17.266666666666666,24.266666666666666]],[[-18.666666666666668,23.333333333333336],[-19.0,23.333333333333336],[-19.200000000000003,23.2],[-19.5,22.5],[-20.0,22.333333333333336],[-20.333333333333336,22.0],[-20.0,21.0],[-19.0,21.0],[-19.0,22.0],[-18.6,22.6],[-18.0,23.0],[-18.666666666666668,23.333333333333336]],[[-16.6,22.4],[-16.666666666666668,21.666666666666668],[-18.0,21.0],[-17.4,20.6],[-17.0,20.5],[-16.6,20.6],[-16.0,21.0],[-15.0,22.0],[-15.4,22.6],[-16.0,23.0],[-17.0,23.0],[-16.6,22.4]],[[-10.333333333333334,37.0],[-10.2,36.8],[-10.0,36.75],[-9.9,37.00000000000001],[-10.0,37.333333333333336],[-10.25,37.25],[-10.333333333333334,37.0]],[[-3.2857142857142856,3.7142857142857144],[-3.0,3.7142857142857144],[-2.8666666666666667,4.0],[-3.0,4.333333333333334],[-3.4,4.0],[-3.2857142857142856,3.7142857142857144]],[[4.6,56.400000000000006],[4.5,56.0],[4.866666666666667,55.86666666666667],[5.074074074074074,56.074074074074076],[5.0,57.0],[4.6,56.400000000000006]],[[4.0,19.0],[4.7142857142857135,17.714285714285715],[5.0,17.666666666666668],[5.2,18.0],[5.0,19.25],[4.7142857142857135,19.285714285714285],[4.0,19.0]],[[5.0,22.0],[5.666666666666667,21.666666666666668],[6.000000000000001,21.8],[7.0,21.5],[8.0,20.8],[8.600000000000001,20.6],[9.0,19.666666666666668],[10.0,19.5],[10.4,19.6],[11.0,20.0],[11.0,21.0],[12.4,21.6],[13.0,22.0],[12.285714285714285,22.285714285714285],[12.0,22.25],[11.53846153846154,22.53846153846154],[11.25,23.0],[10.4,23.400000000000002],[10.0,24.153846153846153],[9.352941176470587,24.352941176470587],[9.0625,25.0625],[9.0,26.5],[8.461538461538462,25.53846153846154],[8.0,25.4],[7.851851851851852,25.148148148148145],[7.5,25.0],[8.0,24.0],[7.2,22.799999999999997],[5.0,22.0]],[[4.5,21.0],[4.75,20.75],[5.0,20.75],[5.333333333333334,21.333333333333336],[5.0,22.0],[4.5,21.0]],[[16.77777777777778,-46.77777777777777],[16.833333333333332,-47.16666666666667],[17.0,-47.333333333333336],[18.0,-47.0],[17.333333333333336,-46.66666666666667],[17.0,-46.0],[16.77777777777778,-46.77777777777777]],[[138.33333333333334,-58.66666666666667],[137.71428571428572,-58.71428571428571],[137.0,-59.0],[136.66666666666669,-59.66666666666667],[136.0,-60.0],[136.0,-61.0],[137.0,-61.0],[138.0,-60.0],[139.0,-60.0],[139.0,-59.0],[138.33333333333334,-58.66666666666667]],[[139.0,-61.0],[140.0,-61.0],[140.0,-60.0],[139.0,-60.0],[139.0,-61.0]],[[7.692307692307693,2.6923076923076925],[8.0,2.333333333333333],[9.0,2.0],[10.0,2.0],[9.600000000000001,2.6],[9.666666666666668,3.3333333333333335],[9.571428571428571,4.0],[9.600000000000001,4.4],[10.0,5.0],[9.307692307692308,5.307692307692308],[8.789473684210527,5.210526315789474],[8.333333333333334,5.0],[7.777777777777778,4.222222222222222],[7.5,3.5],[7.0,3.0],[7.692307692307693,2.6923076923076925]],[[10.8,2.2],[11.0,2.111111111111111],[11.818181818181818,2.1818181818181817],[12.0,2.5],[12.333333333333334,2.666666666666667],[12.5,3.0],[12.0,3.1111111111111107],[11.0,3.7272727272727275],[10.461538461538463,3.5384615384615383],[10.111111111111112,3.0],[10.2,2.8],[10.0,2.0],[10.8,2.2]],[[11.0,4.75],[11.0,5.2],[10.0,5.0],[11.0,4.75]],[[13.0,17.5],[12.0,17.5],[11.666666666666668,17.333333333333336],[11.5,17.0],[11.600000000000001,16.6],[12.0,16.0],[12.5,16.5],[13.0,16.666666666666668],[13.333333333333334,17.0],[13.285714285714285,17.285714285714285],[13.0,17.5]],[[19.5,37.0],[20.0,36.5],[20.5,36.5],[21.0,36.0],[21.0,37.0],[20.0,37.2],[19.5,37.0]],[[136.66666666666669,-69.66666666666667],[136.5,-70.0],[137.0,-70.33333333333334],[137.28571428571428,-70.28571428571428],[137.5,-70.0],[137.33333333333334,-69.66666666666667],[137.0,-69.5],[136.66666666666669,-69.66666666666667]],[[141.5,-67.5],[140.75,-67.25],[140.33333333333334,-66.66666666666667],[140.0,-66.5],[139.5,-66.5],[139.0,-66.0],[139.0,-68.0],[139.5,-68.5],[140.0,-68.66666666666667],[141.0,-68.66666666666667],[142.0,-68.0],[141.5,-67.5]],[[141.6,-62.4],[141.0,-62.0],[141.0,-64.0],[143.0,-64.0],[142.6,-63.400000000000006],[142.66666666666666,-63.0],[142.44444444444443,-62.55555555555555],[142.0,-62.33333333333333],[141.6,-62.4]],[[14.5,6.0],[14.666666666666668,5.666666666666667],[15.0,5.5],[15.333333333333334,5.666666666666667],[15.5,6.0],[15.4,7.4],[14.5,8.5],[13.75,8.75],[13.0,8.625],[12.615384615384615,8.384615384615385],[12.5,8.0],[13.0,7.375],[13.26086956521739,7.260869565217392],[13.333333333333332,7.0],[14.0,6.142857142857142],[14.18181818181818,6.181818181818182],[14.5,6.0]],[[13.666666666666668,2.3333333333333335],[13.5,2.0],[13.666666666666668,1.6666666666666665],[14.0,1.5],[14.333333333333334,1.6666666666666665],[14.5,2.0],[14.333333333333334,2.3333333333333335],[14.0,2.5],[13.666666666666668,2.3333333333333335]]],[[[-65.0,0.0],[-65.75999999999999,0.24],[-66.0,0.2],[-66.52173913043478,1.0],[-66.33333333333334,2.0],[-67.0,3.0],[-66.14035087719299,3.1403508771929824],[-65.89473684210526,2.894736842105263],[-65.94117647058823,2.0588235294117645],[-65.0,1.5],[-64.91489361702128,1.0],[-65.0,0.0]]],[[[-71.75999999999999,5.24],[-71.72727272727273,5.0],[-72.0,4.7272727272727275],[-72.3157894736842,4.684210526315789],[-73.0,5.0],[-72.0,5.333333333333333],[-71.75999999999999,5.24]]],[[[-44.285714285714285,39.28571428571428],[-43.5,39.0],[-44.15384615384615,38.84615384615385],[-45.0,39.0],[-44.285714285714285,39.28571428571428]]],[[[-45.5,40.0],[-45.0,40.22222222222222],[-44.75,40.0],[-44.63636363636364,39.63636363636363],[-45.0,39.0],[-45.5,39.5],[-45.5,40.0]]],[[[6.5,41.0],[6.666666666666667,41.333333333333336],[7.0,41.333333333333336],[8.0,41.0],[8.0,40.0],[7.0,40.0],[6.5,40.5],[6.5,41.0]]],[[[127.0,47.5],[126.80000000000001,47.8],[127.0,49.0],[127.04347826086956,48.04347826086956],[127.0,47.5]]],[[[-35.0,63.45],[-34.84070796460177,63.15929203539823],[-33.5,63.0],[-32.85185185185185,62.0],[-33.0,60.93333333333334],[-35.0,60.94117647058824],[-35.8,60.800000000000004],[-36.0,60.5],[-36.32786885245902,60.32786885245902],[-36.45454545454545,60.0],[-37.2,59.8],[-37.8,59.8],[-38.5,59.0],[-39.385542168674704,58.3855421686747],[-39.666666666666664,58.0],[-40.30769230769231,57.69230769230769],[-40.8125,57.8125],[-40.77777777777778,57.22222222222222],[-40.9349593495935,56.9349593495935],[-40.932584269662925,55.06741573033708],[-40.57142857142857,55.0],[-40.0,54.42857142857143],[-39.79310344827586,53.79310344827586],[-39.79310344827586,53.20689655172414],[-39.24242424242424,53.24242424242424],[-39.0,53.12903225806452],[-38.906976744186046,52.09302325581395],[-38.55555555555556,52.0],[-38.2,51.00000000000001],[-38.733333333333334,50.733333333333334],[-38.705882352941174,50.294117647058826],[-38.91596638655462,49.91596638655462],[-39.0,49.0],[-39.94594594594595,48.945945945945944],[-39.97520661157025,47.97520661157024],[-40.92857142857142,47.92857142857143],[-41.0,47.400000000000006],[-42.0,48.0],[-44.0,47.25],[-44.46153846153847,47.53846153846154],[-44.6,48.0],[-44.3,48.3],[-44.0,49.0],[-44.315789473684205,49.68421052631578],[-44.833333333333336,50.166666666666664],[-44.833333333333336,50.833333333333336],[-45.00000000000001,51.142857142857146],[-45.06521739130435,52.0],[-44.17741935483871,53.17741935483871],[-44.0,54.55555555555556],[-43.66666666666667,55.0],[-43.66666666666667,55.33333333333334],[-44.0,56.0],[-44.6,56.400000000000006],[-44.833333333333336,57.16666666666667],[-45.0,57.33333333333334],[-45.315789473684205,57.315789473684205],[-45.75,57.0],[-46.0,56.98181818181818],[-46.10526315789474,57.89473684210526],[-46.79220779220779,57.79220779220779],[-47.53333333333333,58.0],[-48.0,58.4375],[-48.163636363636364,58.83636363636363],[-48.84905660377359,58.84905660377359],[-49.33333333333333,59.0],[-49.65217391304348,59.34782608695652],[-50.0,59.4],[-50.27586206896552,59.72413793103448],[-50.888888888888886,59.99999999999999],[-51.3265306122449,60.673469387755105],[-52.241379310344826,61.0],[-52.56,61.44],[-53.0,61.611111111111114],[-53.388888888888886,62.0],[-53.56435643564357,62.43564356435644],[-54.17777777777778,62.82222222222222],[-55.07142857142857,63.07142857142858],[-55.0,63.4],[-54.6,63.60000000000001],[-53.627906976744185,63.627906976744185],[-53.0,63.81818181818181],[-51.863013698630134,63.13698630136986],[-49.09375,63.09375],[-47.51724137931035,63.51724137931034],[-47.0,64.0],[-43.89130434782609,64.1086956521739],[-35.940298507462686,64.05970149253731],[-35.64705882352941,64.0],[-35.3859649122807,63.6140350877193],[-35.0,63.45]]]]}}]}