{"type":"FeatureCollection","features":[{"type":"Feature","properties":{"ageMa":330},"geometry":{"type":"MultiPolygon","coordinates":[[[[-84.0,-87.0],[-82.0,-87.0],[-82.0,-88.0],[-80.0,-88.0],[-80.0,-90.0],[-82.0,-90.0],[-82.0,-89.0],[-84.0,-89.0],[-84.0,-87.0]]],[[[-109.5,-85.5],[-109.0,-85.0],[-108.4,-85.4],[-108.0,-85.5],[-107.6,-85.4],[-107.0,-85.0],[-104.0,-85.0],[-104.0,-87.0],[-103.0,-87.0],[-103.0,-86.0],[-101.0,-86.0],[-101.0,-84.0],[-100.0,-84.0],[-99.0,-83.5],[-97.6,-83.4],[-97.0,-83.0],[-95.0,-83.0],[-95.0,-84.0],[-96.0,-85.0],[-96.60000000000001,-84.60000000000001],[-97.0,-84.5],[-97.4,-84.60000000000001],[-98.0,-85.0],[-98.60000000000001,-84.60000000000001],[-99.0,-84.5],[-99.4,-84.60000000000001],[-99.5,-85.5],[-100.0,-86.0],[-99.0,-86.0],[-99.0,-87.0],[-96.0,-87.0],[-96.0,-86.0],[-95.5,-85.5],[-95.0,-85.5],[-94.60000000000001,-85.60000000000001],[-94.0,-86.0],[-94.0,-87.0],[-93.0,-87.0],[-93.0,-86.0],[-90.0,-86.0],[-90.0,-85.0],[-87.0,-85.0],[-86.4,-85.4],[-86.0,-85.5],[-85.60000000000001,-85.4],[-85.0,-85.0],[-84.0,-85.0],[-84.0,-87.0],[-85.0,-87.0],[-85.0,-89.0],[-87.0,-89.0],[-87.0,-90.0],[-169.0,-90.0],[-169.0,-89.0],[-172.0,-89.0],[-172.6,-88.6],[-174.4,-88.4],[-175.0,-88.0],[-174.0,-87.5],[-170.0,-87.5],[-169.0,-87.0],[-165.0,-87.0],[-164.0,-86.75],[-161.8,-86.8],[-161.0,-87.0],[-152.0,-87.0],[-151.4,-87.4],[-151.0,-87.5],[-150.0,-87.0],[-147.0,-87.0],[-146.25,-86.75],[-145.0,-87.0],[-140.0,-87.0],[-139.0,-86.66666666666667],[-137.0,-86.75],[-130.0,-86.66666666666667],[-127.0,-86.33333333333334],[-125.66666666666667,-86.33333333333334],[-125.0,-86.0],[-124.33333333333334,-86.33333333333334],[-123.00000000000001,-86.33333333333334],[-122.0,-86.0],[-120.0,-86.0],[-119.0,-85.75],[-118.0,-86.0],[-117.0,-85.66666666666666],[-116.0,-86.0],[-115.0,-85.66666666666666],[-110.0,-85.66666666666666],[-109.5,-85.5]]],[[[-59.15384615384615,-32.0],[-59.27272727272728,-34.0],[-59.75,-35.75],[-60.315789473684205,-38.68421052631579],[-61.0,-40.5],[-61.19047619047619,-42.19047619047619],[-61.0,-43.0],[-60.0,-43.0],[-59.18181818181819,-43.18181818181818],[-58.84615384615385,-43.84615384615385],[-58.8,-44.2],[-59.2,-45.8],[-60.0,-46.6],[-60.5,-47.5],[-61.142857142857146,-48.0],[-61.42857142857143,-48.57142857142858],[-62.0,-49.0],[-62.333333333333336,-50.0],[-62.0,-51.0],[-62.4,-51.6],[-63.0,-52.0],[-62.4,-52.4],[-61.6,-52.6],[-61.5,-54.0],[-61.66666666666667,-54.333333333333336],[-62.4,-54.6],[-63.0,-55.0],[-64.0,-56.0],[-65.4,-56.6],[-66.60000000000001,-57.4],[-67.0,-58.0],[-68.0,-58.5],[-68.75,-59.25],[-71.28571428571428,-60.71428571428571],[-72.0,-61.0],[-72.4,-61.6],[-73.60000000000001,-62.4],[-74.0,-63.0],[-74.75,-63.25],[-75.33333333333334,-63.66666666666667],[-75.5,-64.0],[-77.4,-64.6],[-78.0,-65.0],[-80.0,-65.5],[-80.85714285714286,-66.14285714285714],[-82.0,-66.4],[-85.0,-67.6],[-85.88235294117648,-68.11764705882354],[-87.5,-68.5],[-88.86666666666667,-69.13333333333333],[-90.0,-69.25],[-92.0,-70.0],[-92.625,-70.375],[-94.00000000000001,-70.85714285714286],[-95.44444444444444,-71.55555555555554],[-97.0,-72.0],[-97.57894736842104,-72.42105263157895],[-99.24000000000001,-72.75999999999999],[-100.52941176470588,-73.47058823529412],[-104.0,-74.0],[-104.52380952380952,-74.47619047619047],[-105.0,-74.71428571428571],[-107.0,-75.0],[-108.0,-75.5],[-110.0,-75.875],[-111.0,-76.5],[-116.00000000000001,-77.80000000000001],[-117.0,-78.33333333333334],[-118.0,-78.0],[-119.28571428571428,-78.71428571428571],[-121.0,-79.0],[-122.0,-79.0],[-122.6,-79.4],[-123.0,-79.5],[-124.0,-79.5],[-126.0,-80.0],[-127.0,-80.0],[-128.0,-80.33333333333333],[-131.0,-80.25],[-133.0,-80.6],[-138.0,-81.0],[-139.0,-81.33333333333334],[-141.0,-81.33333333333334],[-142.0,-81.75],[-146.0,-82.0],[-148.0,-82.0],[-148.60000000000002,-82.4],[-149.0,-82.5],[-153.0,-82.75],[-154.71428571428572,-83.28571428571428],[-156.0,-83.33333333333333],[-157.28571428571428,-83.71428571428571],[-157.63636363636363,-83.63636363636363],[-159.0,-83.80000000000001],[-160.0,-83.66666666666667],[-167.0,-84.6],[-168.0,-84.57142857142857],[-170.22222222222223,-84.77777777777777],[-175.0,-84.5],[-177.0,-84.66666666666667],[-179.0,-84.57142857142857],[-180.0,-85.0],[-180.0,-74.95652173913044],[-179.0,-75.0],[-178.0,-74.0],[-176.0,-74.0],[-175.4,-74.4],[-174.0,-75.0],[-173.0,-74.75],[-172.2,-75.2],[-171.33333333333334,-75.33333333333334],[-165.0,-75.5],[-163.7142857142857,-75.28571428571428],[-163.0,-75.0],[-162.0,-75.33333333333334],[-161.0,-75.0],[-160.0,-75.33333333333334],[-159.0,-74.8],[-155.0,-74.75],[-154.0,-75.0],[-153.22222222222223,-74.77777777777777],[-151.0,-74.5],[-150.0,-74.6],[-147.0,-74.14285714285714],[-143.0,-74.0],[-142.0,-73.66666666666666],[-140.0,-73.6],[-139.0,-73.33333333333334],[-138.0,-73.33333333333334],[-136.0,-73.0],[-135.0,-73.0],[-131.71428571428572,-72.28571428571428],[-131.0,-72.25],[-130.0,-72.0],[-129.0,-72.0],[-128.0,-71.5],[-127.0,-71.5],[-126.0,-71.0],[-125.0,-71.0],[-124.0,-70.66666666666666],[-121.71428571428572,-70.28571428571428],[-121.0,-70.0],[-120.0,-70.0],[-119.0,-69.66666666666667],[-118.0,-69.66666666666667],[-115.0,-69.0],[-112.85714285714286,-68.14285714285714],[-112.0,-68.0],[-110.0,-67.0],[-109.18181818181819,-66.81818181818181],[-108.0,-66.0],[-107.06896551724138,-65.93103448275862],[-105.0,-65.0],[-104.05882352941177,-64.94117647058823],[-103.34782608695653,-64.65217391304348],[-102.25,-64.0],[-101.27272727272727,-63.72727272727272],[-101.0,-63.4],[-99.21428571428572,-62.78571428571429],[-98.0,-62.0],[-97.18181818181819,-61.81818181818181],[-96.0,-61.0],[-95.1875,-60.8125],[-94.0,-60.0],[-93.0909090909091,-59.90909090909091],[-92.375,-59.625],[-91.19999999999999,-59.0],[-90.27027027027027,-58.72972972972973],[-89.0,-58.0],[-88.25,-57.75],[-87.0,-57.090909090909086],[-85.4,-56.6],[-84.5,-56.0],[-83.125,-55.875],[-83.0,-55.666666666666664],[-82.5,-55.5],[-82.0,-55.0],[-81.16,-54.84],[-81.0,-54.5],[-80.5,-54.0],[-79.26086956521739,-53.73913043478261],[-78.5,-53.0],[-77.3448275862069,-52.65517241379311],[-75.34782608695653,-51.65217391304348],[-74.5,-51.0],[-70.23655913978496,-48.763440860215056],[-68.5072463768116,-47.492753623188406],[-67.62068965517241,-46.37931034482759],[-67.47619047619048,-46.0],[-66.44444444444444,-44.55555555555555],[-65.46808510638297,-42.0],[-64.13157894736842,-37.0],[-63.868852459016395,-34.131147540983605],[-63.0,-30.75],[-62.78181818181818,-30.21818181818182],[-62.0,-29.09090909090909],[-61.0,-29.071428571428573],[-60.26086956521739,-29.26086956521739],[-59.733333333333334,-29.733333333333334],[-59.333333333333336,-30.333333333333336],[-59.15384615384615,-32.0]]],[[[33.5,2.0],[33.714285714285715,1.7142857142857142],[33.800000000000004,1.0],[33.6,0.4],[32.69230769230769,-0.6923076923076923],[32.30769230769231,-0.6923076923076923],[31.333333333333332,-1.0],[31.22222222222222,-1.2222222222222223],[30.636363636363637,-1.6363636363636362],[30.0,-1.8333333333333335],[29.0,-1.6],[27.0,-2.4000000000000004],[25.0,-2.0],[24.333333333333332,-1.0],[24.333333333333332,0.0],[24.6,0.4],[25.5,1.0],[25.66666666666667,1.3333333333333333],[26.333333333333336,1.6666666666666665],[29.0,2.2],[30.000000000000004,2.6666666666666665],[31.0,2.7142857142857144],[32.0,2.571428571428571],[33.2,2.2],[33.5,2.0]]],[[[41.00000000000001,7.200000000000001],[40.400000000000006,7.0],[40.0,6.714285714285714],[39.31818181818182,7.318181818181818],[39.0,7.777777777777778],[38.6875,9.0],[38.75,10.0],[39.0,10.333333333333332],[39.15686274509804,10.843137254901961],[39.590909090909086,11.409090909090908],[40.0,11.473684210526315],[41.08888888888889,11.088888888888889],[41.71052631578947,10.0],[41.86206896551724,9.0],[41.35294117647059,7.647058823529411],[41.00000000000001,7.200000000000001]]],[[[39.53125,14.0],[39.243902439024396,12.75609756097561],[39.0,12.375],[37.99999999999999,12.083333333333334],[36.57142857142858,12.571428571428573],[36.11764705882353,13.11764705882353],[35.8,14.0],[35.71428571428571,14.714285714285712],[35.80952380952381,15.19047619047619],[36.55555555555556,16.0],[36.826086956521735,16.17391304347826],[38.0,16.291666666666668],[38.81818181818181,15.818181818181818],[39.30952380952381,15.309523809523808],[39.44827586206897,15.0],[39.53125,14.0]]],[[[35.266666666666666,18.733333333333334],[35.0,18.0],[34.44444444444444,17.555555555555557],[34.0,17.333333333333336],[33.0,17.428571428571427],[31.517241379310345,18.517241379310345],[31.22222222222222,19.0],[31.125,20.0],[31.3125,20.6875],[32.0,21.5],[33.44444444444444,21.444444444444443],[34.0,21.0],[35.0,21.0],[34.92307692307693,20.076923076923077],[35.266666666666666,19.266666666666666],[35.266666666666666,18.733333333333334]]],[[[27.4,26.0],[27.833333333333336,25.0],[27.666666666666668,24.0],[27.0,23.6],[25.529411764705884,23.52941176470588],[24.666666666666668,23.666666666666668],[24.25,24.0],[23.333333333333336,24.333333333333336],[22.333333333333336,26.0],[22.4,26.6],[22.5,27.0],[23.142857142857146,27.857142857142858],[25.0,27.857142857142858],[25.642857142857142,27.642857142857142],[26.764705882352942,26.764705882352942],[27.0,26.333333333333336],[27.4,26.0]]],[[[24.457831325301207,56.45783132530121],[25.825000000000003,55.824999999999996],[26.604938271604937,55.60493827160494],[28.0,55.32352941176471],[34.0,54.76923076923077],[37.86363636363636,54.13636363636364],[39.9375,53.9375],[40.71428571428571,53.71428571428571],[42.285714285714285,53.0],[43.205128205128204,52.205128205128204],[43.885714285714286,51.885714285714286],[45.5,50.5],[50.09090909090909,45.0],[50.77777777777778,43.77777777777778],[51.208333333333336,41.20833333333333],[51.609756097560975,40.609756097560975],[52.146341463414636,40.14634146341463],[53.66666666666667,39.66666666666667],[54.66666666666667,39.0],[55.0,38.0],[54.0,37.583333333333336],[53.58823529411765,37.0],[53.0,36.473684210526315],[52.09230769230769,35.90769230769231],[50.19047619047619,35.80952380952381],[49.0,35.54545454545455],[46.0,33.72],[45.0,33.40909090909091],[43.0,33.68421052631579],[41.733333333333334,33.266666666666666],[41.0,32.85714285714286],[38.333333333333336,32.333333333333336],[38.0,32.333333333333336],[36.77777777777778,32.77777777777778],[35.75,33.75],[35.44444444444444,34.44444444444444],[35.0,35.0],[34.25,35.25],[30.0,35.25],[29.0,35.5],[28.0,35.25],[26.0,35.66666666666667],[25.0,35.5],[24.5,36.0],[23.77777777777778,36.22222222222222],[23.0,36.0],[21.0,36.0],[21.0,37.0],[18.0,37.0],[18.0,38.0],[16.0,38.0],[15.600000000000001,38.6],[15.5,39.0],[14.5,39.5],[13.4,40.4],[13.0,41.0],[12.0,41.0],[12.0,42.0],[11.0,42.0],[11.0,45.0],[11.333333333333334,46.0],[11.333333333333334,47.0],[11.5,47.5],[12.0,48.0],[12.0,51.0],[11.0,51.0],[10.600000000000001,51.6],[10.5,52.0],[9.0,53.0],[8.0,53.0],[7.6,53.60000000000001],[7.5,54.0],[7.666666666666666,55.0],[8.5,56.0],[9.461538461538462,56.53846153846154],[11.333333333333334,58.0],[12.307692307692308,58.30769230769231],[12.692307692307693,58.30769230769231],[13.666666666666666,59.0],[15.0,59.44444444444444],[17.0,59.77777777777777],[18.0,59.54545454545455],[18.324324324324323,59.32432432432432],[22.0,58.18518518518519],[24.457831325301207,56.45783132530121]]],[[[79.0,-53.0],[77.0,-53.0],[77.0,-51.0],[79.0,-51.0],[79.0,-53.0]]],[[[-11.0,28.5],[-9.600000000000001,28.400000000000002],[-9.0,28.0],[-8.0,28.0],[-6.6000000000000005,27.4],[-6.0,27.0],[-5.0,27.0],[-4.0,26.0],[-3.4000000000000004,25.6],[-2.0,25.0],[1.0,25.0],[2.0,24.5],[2.3333333333333335,25.0],[2.5,26.0],[3.0,26.25],[3.7142857142857144,26.285714285714285],[4.666666666666667,26.0],[5.222222222222221,25.22222222222222],[6.0,25.0],[7.0,25.0],[7.739130434782609,25.26086956521739],[8.666666666666668,25.333333333333336],[9.296296296296296,25.296296296296298],[10.25,25.0],[10.4,24.0],[10.153846153846153,22.846153846153847],[9.714285714285715,22.0],[9.777777777777779,21.22222222222222],[9.666666666666668,20.333333333333336],[9.4,19.6],[9.0,19.0],[10.0,18.0],[12.0,18.0],[12.714285714285714,17.714285714285715],[14.0,17.666666666666668],[15.0,17.333333333333332],[16.0,17.333333333333332],[17.77777777777778,16.77777777777778],[19.0,16.75],[19.46153846153846,16.461538461538463],[20.0,16.0],[20.5,15.0],[20.5,14.0],[20.333333333333332,13.0],[20.25,9.0],[20.77777777777778,6.777777777777779],[21.5,6.0],[22.0,5.800000000000001],[23.666666666666668,5.666666666666667],[24.0,5.5],[25.0,5.5],[25.5,5.0],[25.400000000000002,3.6000000000000005],[24.666666666666668,2.3333333333333335],[24.0,2.0],[23.25,0.75],[22.0,0.5],[19.714285714285715,-0.2857142857142857],[17.285714285714285,-0.2857142857142857],[16.0,0.125],[15.0,0.0],[14.222222222222221,-0.2222222222222222],[13.666666666666668,-0.6666666666666667],[11.0,-2.0],[10.0,-2.0],[9.0,-2.6666666666666665],[8.0,-3.0],[7.0,-3.0],[6.0,-4.0],[6.0,-5.0],[7.0,-5.0],[7.6,-4.6],[8.444444444444445,-4.444444444444445],[10.0,-4.5],[11.0,-4.4],[12.000000000000002,-4.2],[14.833333333333334,-2.8333333333333335],[16.0,-2.5],[17.0,-2.0],[19.666666666666668,-2.3333333333333335],[20.416666666666668,-2.5833333333333335],[22.666666666666668,-4.0],[23.2,-4.8],[23.5,-5.0],[23.400000000000002,-5.4],[23.0,-6.0],[23.0,-7.0],[22.095238095238095,-7.095238095238095],[21.444444444444443,-7.444444444444444],[21.166666666666664,-8.0],[20.266666666666666,-8.266666666666666],[20.083333333333332,-9.0],[19.9,-9.1],[19.1,-9.1],[18.0,-10.0],[17.363636363636363,-10.363636363636363],[16.75,-11.0],[17.333333333333332,-12.0],[17.0,-13.0],[17.0,-14.0],[16.0,-15.5],[15.0,-16.0],[15.0,-17.0],[14.600000000000001,-17.6],[14.0,-19.0],[13.0,-20.0],[13.0,-21.0],[12.0,-21.0],[12.0,-22.0],[11.600000000000001,-22.6],[11.400000000000002,-23.400000000000002],[11.0,-24.0],[11.0,-25.0],[9.0,-25.0],[9.0,-24.0],[8.0,-24.0],[7.0,-23.0],[5.0,-23.0],[5.0,-22.0],[3.0,-22.0],[3.0,-24.0],[3.5,-24.5],[3.8,-25.200000000000003],[4.444444444444445,-25.555555555555554],[5.0,-26.5],[5.333333333333334,-26.666666666666668],[5.7142857142857135,-27.285714285714285],[6.333333333333334,-27.666666666666668],[7.0,-29.0],[7.5,-29.5],[8.0,-31.0],[9.0,-32.0],[9.0,-33.0],[9.600000000000001,-33.4],[10.0,-34.0],[12.0,-36.0],[13.4,-38.6],[14.0,-39.0],[15.0,-40.0],[15.555555555555554,-41.44444444444444],[16.0,-42.0],[17.4,-42.4],[18.0,-42.0],[18.0,-43.0],[20.0,-43.0],[20.0,-44.0],[21.0,-44.0],[21.0,-45.0],[22.0,-45.0],[22.0,-44.0],[27.0,-44.0],[27.0,-39.0],[26.0,-39.0],[26.0,-36.0],[27.0,-34.0],[28.0,-33.666666666666664],[29.0,-34.0],[30.0,-35.5],[30.75,-36.25],[31.285714285714285,-36.285714285714285],[32.0,-36.0],[33.0,-35.0],[33.0,-34.0],[34.0,-33.0],[34.333333333333336,-32.0],[34.6,-31.6],[35.5,-31.0],[36.0,-30.0],[36.75,-29.75],[39.0,-29.4],[40.0,-29.0],[42.0,-29.0],[44.0,-30.0],[44.333333333333336,-30.666666666666668],[45.0,-31.0],[45.4,-31.6],[47.2,-32.8],[48.66666666666667,-34.333333333333336],[50.2,-34.8],[52.0,-36.0],[53.0,-36.333333333333336],[53.400000000000006,-36.6],[54.0,-37.5],[54.5,-38.0],[55.0,-38.333333333333336],[56.0,-38.5],[57.0,-39.0],[57.6,-39.400000000000006],[58.0,-40.0],[59.0,-40.0],[59.0,-41.0],[60.0,-41.0],[60.0,-42.0],[61.0,-42.0],[61.400000000000006,-42.6],[62.0,-44.0],[63.400000000000006,-44.6],[63.5,-45.0],[64.0,-45.5],[64.4,-45.6],[64.5,-46.0],[65.0,-46.5],[65.4,-46.6],[67.0,-47.66666666666667],[67.33333333333334,-47.66666666666667],[68.0,-48.0],[68.60000000000001,-48.400000000000006],[69.0,-49.0],[70.4,-49.400000000000006],[71.0,-49.0],[71.0,-50.0],[73.0,-50.0],[73.0,-51.0],[74.0,-51.0],[74.0,-52.0],[76.0,-52.0],[76.0,-53.0],[77.0,-53.0],[77.0,-54.0],[80.0,-54.0],[80.0,-55.0],[83.0,-55.0],[83.0,-56.0],[85.0,-56.0],[85.0,-57.0],[88.0,-57.0],[88.0,-58.0],[92.0,-58.0],[92.0,-59.0],[94.0,-59.0],[94.0,-58.0],[93.0,-58.0],[93.0,-57.0],[91.0,-57.0],[91.0,-54.0],[93.0,-54.0],[93.0,-55.0],[94.0,-55.0],[94.0,-53.0],[97.0,-53.0],[97.0,-52.0],[99.0,-52.0],[99.0,-50.0],[100.0,-50.0],[100.0,-49.0],[101.0,-49.0],[101.0,-48.0],[103.0,-48.0],[103.0,-47.0],[104.0,-47.0],[104.0,-46.0],[105.0,-46.0],[105.28571428571428,-45.285714285714285],[108.0,-44.0],[110.0,-44.0],[110.60000000000001,-43.60000000000001],[111.0,-43.5],[116.0,-43.66666666666667],[117.0,-44.0],[118.0,-44.0],[120.0,-44.66666666666667],[121.28571428571428,-44.71428571428571],[122.0,-45.0],[122.33333333333334,-44.333333333333336],[122.25,-44.0],[118.69230769230771,-41.30769230769231],[118.28571428571428,-40.71428571428571],[118.0,-40.0],[118.0,-39.0],[118.5,-38.5],[120.0,-38.0],[122.26666666666667,-38.266666666666666],[123.0,-38.25],[124.0,-38.0],[124.0,-37.0],[123.0,-36.0],[123.0,-35.0],[124.0,-35.0],[124.0,-34.0],[124.5,-33.0],[127.5,-31.0],[128.0,-30.5],[128.33333333333334,-30.333333333333336],[129.0,-30.25],[130.5,-29.5],[131.71428571428572,-29.285714285714285],[132.0,-29.25],[133.0,-29.75],[134.0,-29.75],[135.4,-30.6],[136.66666666666669,-32.0],[138.1818181818182,-32.81818181818182],[140.0,-34.75],[141.47058823529412,-35.529411764705884],[141.8,-36.0],[142.8181818181818,-36.18181818181819],[143.44444444444443,-36.55555555555556],[143.66666666666669,-37.0],[144.22222222222223,-37.22222222222222],[144.77777777777777,-37.22222222222222],[145.33333333333331,-38.0],[145.87878787878788,-38.121212121212125],[146.5,-38.5],[147.0,-39.142857142857146],[147.66666666666669,-39.333333333333336],[148.0,-39.666666666666664],[149.66666666666669,-40.333333333333336],[150.0,-40.66666666666667],[151.71428571428572,-41.28571428571428],[153.63636363636363,-42.36363636363636],[154.0,-43.0],[155.0,-44.0],[155.60000000000002,-44.400000000000006],[156.0,-45.0],[156.6,-45.4],[157.0,-46.0],[158.0,-46.0],[158.0,-47.0],[159.0,-47.0],[159.0,-48.0],[160.5,-49.5],[161.2,-49.8],[162.36363636363637,-51.63636363636363],[163.0,-53.5],[163.60000000000002,-54.400000000000006],[164.5,-55.0],[165.66666666666669,-57.00000000000001],[166.40000000000003,-57.6],[166.8181818181818,-58.18181818181818],[168.55555555555554,-59.44444444444444],[169.44444444444443,-60.55555555555555],[170.0,-61.0],[170.77777777777777,-63.22222222222222],[172.0,-63.66666666666667],[172.5,-64.0],[173.71428571428572,-65.28571428571428],[175.0,-68.0],[175.55555555555554,-68.44444444444444],[175.8,-69.0],[177.22222222222223,-69.77777777777777],[178.0,-70.66666666666666],[179.0,-71.33333333333334],[179.1707317073171,-73.82926829268293],[179.5,-74.5],[180.0,-74.95652173913041],[180.0,-85.0],[179.0,-84.33333333333334],[178.0,-84.66666666666667],[177.0,-84.75],[176.0,-85.0],[175.26666666666665,-84.73333333333332],[170.0,-84.4],[168.0,-84.5],[167.0,-84.25],[165.0,-84.5],[163.0,-84.5],[162.0,-84.25],[158.1818181818182,-84.18181818181819],[157.0,-83.75],[156.0,-83.75],[155.0,-83.5],[153.63636363636363,-83.36363636363636],[152.0,-83.33333333333333],[151.0,-83.0],[149.0,-83.0],[148.0,-82.75],[147.0,-83.0],[146.0,-83.0],[145.0,-83.25],[144.0,-83.0],[142.36363636363637,-83.36363636363636],[139.0,-83.6],[138.0,-84.0],[138.4,-84.60000000000001],[139.0,-85.0],[142.0,-85.2],[143.0,-85.5],[144.0,-85.5],[145.0,-85.66666666666666],[146.0,-85.5],[147.0,-85.66666666666666],[149.0,-85.66666666666666],[149.8,-86.2],[151.0,-86.5],[152.0,-86.5],[153.0,-86.66666666666667],[154.0,-86.5],[155.33333333333334,-86.66666666666667],[156.0,-87.0],[157.0,-87.0],[158.0,-87.25],[163.0,-87.25],[164.0,-87.5],[165.0,-87.5],[166.0,-87.75],[167.0,-87.5],[168.0,-87.75],[174.0,-87.8],[174.5,-88.0],[174.71428571428572,-88.28571428571428],[177.0,-88.5],[177.4,-88.4],[178.0,-88.0],[179.0,-88.0],[179.4,-88.6],[179.33333333333334,-90.0],[-75.0,-90.0],[-75.0,-87.0],[-73.0,-87.0],[-73.0,-85.0],[-73.60000000000001,-84.60000000000001],[-74.5,-84.5],[-75.0,-84.0],[-75.71428571428571,-83.71428571428571],[-76.33333333333334,-83.66666666666667],[-77.0,-84.0],[-77.5,-83.0],[-77.77777777777777,-82.77777777777777],[-78.33333333333334,-82.66666666666667],[-79.0,-83.0],[-80.0,-82.0],[-81.0,-82.0],[-81.0,-81.0],[-80.60000000000001,-80.4],[-80.0,-80.0],[-78.55555555555554,-79.44444444444443],[-78.0,-79.0],[-77.0,-79.0],[-75.0,-78.0],[-74.0,-78.0],[-73.5,-77.5],[-72.0,-77.0],[-71.44444444444444,-76.55555555555556],[-70.0,-76.0],[-69.46153846153847,-75.53846153846155],[-67.0,-75.0],[-66.0,-74.33333333333334],[-65.4,-73.60000000000001],[-64.33333333333333,-73.0],[-63.647058823529406,-72.35294117647058],[-62.599999999999994,-72.0],[-62.333333333333336,-71.66666666666667],[-61.71428571428571,-71.28571428571428],[-60.66666666666667,-71.0],[-59.66666666666667,-70.33333333333334],[-58.28571428571428,-69.71428571428572],[-57.77777777777777,-69.22222222222223],[-55.0,-68.4],[-54.333333333333336,-68.0],[-54.0,-67.5],[-53.0,-67.5],[-52.69230769230769,-67.3076923076923],[-51.5,-67.0],[-49.78947368421053,-66.21052631578948],[-49.21052631578947,-66.21052631578948],[-48.5,-66.0],[-48.266666666666666,-65.73333333333333],[-47.578947368421055,-65.42105263157895],[-45.0,-64.5],[-44.71428571428571,-64.28571428571428],[-43.5,-64.0],[-41.75,-63.25],[-40.66666666666667,-63.00000000000001],[-40.333333333333336,-62.66666666666667],[-39.0,-62.0],[-39.0,-61.0],[-39.66666666666667,-59.0],[-39.66666666666667,-58.0],[-40.0,-57.0],[-40.66666666666667,-56.0],[-41.0,-55.0],[-41.0,-54.0],[-41.71428571428571,-52.71428571428571],[-43.0,-52.0],[-43.5,-52.5],[-44.0,-52.66666666666667],[-45.285714285714285,-52.71428571428571],[-48.0,-54.0],[-48.5,-54.5],[-48.8,-55.2],[-49.5,-55.5],[-50.0,-56.0],[-51.5,-56.5],[-52.0,-57.0],[-53.0,-57.166666666666664],[-54.77777777777778,-57.22222222222222],[-56.400000000000006,-57.6],[-57.0,-58.0],[-58.5,-58.5],[-59.0,-59.0],[-60.0,-59.25],[-62.0,-59.5],[-62.4,-59.6],[-63.0,-60.0],[-64.0,-60.25],[-66.5,-60.5],[-67.0,-60.0],[-65.60000000000001,-59.400000000000006],[-63.0,-58.0],[-61.400000000000006,-57.6],[-60.5,-56.5],[-60.333333333333336,-55.66666666666667],[-59.6,-54.400000000000006],[-58.0,-51.0],[-56.0,-51.0],[-56.0,-50.0],[-55.0,-50.0],[-54.71428571428571,-49.285714285714285],[-54.71428571428571,-48.28571428571428],[-54.5,-47.0],[-54.66666666666667,-46.0],[-54.6,-45.0],[-54.46153846153847,-44.53846153846154],[-54.0,-44.0],[-54.0,-43.0],[-53.0,-42.666666666666664],[-52.0,-42.0],[-51.0,-41.66666666666667],[-49.0,-41.66666666666667],[-48.0,-42.25],[-47.0,-42.0],[-45.71428571428571,-42.285714285714285],[-42.0,-42.333333333333336],[-41.0,-42.5],[-40.6,-42.4],[-40.0,-42.0],[-39.5,-42.5],[-38.71428571428571,-42.71428571428571],[-38.0,-42.75],[-37.0,-42.5],[-35.81818181818182,-42.81818181818182],[-33.81818181818182,-42.81818181818182],[-32.285714285714285,-43.28571428571428],[-31.0,-44.0],[-30.0,-44.0],[-29.400000000000002,-44.400000000000006],[-29.0,-45.0],[-28.0,-45.5],[-27.333333333333336,-46.333333333333336],[-26.0,-47.0],[-26.0,-48.0],[-24.0,-48.0],[-24.0,-49.0],[-23.25,-49.25],[-22.666666666666668,-49.0],[-22.4,-48.60000000000001],[-21.799999999999997,-48.2],[-21.2,-48.2],[-20.200000000000003,-47.8],[-19.25,-47.75],[-17.81818181818182,-47.18181818181819],[-17.5,-46.5],[-17.0,-46.0],[-17.0,-45.0],[-17.285714285714285,-44.285714285714285],[-18.0,-43.0],[-18.555555555555554,-42.55555555555556],[-20.0,-42.0],[-21.799999999999997,-40.8],[-23.0,-40.33333333333333],[-24.0,-39.333333333333336],[-28.0,-38.0],[-29.8,-36.8],[-31.400000000000002,-36.400000000000006],[-32.0,-36.0],[-34.0,-36.0],[-35.0,-35.66666666666667],[-37.0,-35.333333333333336],[-38.0,-35.0],[-39.0,-34.33333333333333],[-40.285714285714285,-34.285714285714285],[-41.71428571428571,-33.714285714285715],[-43.333333333333336,-33.66666666666667],[-44.0,-34.0],[-44.5,-33.5],[-46.0,-33.0],[-48.0,-33.0],[-49.0,-33.333333333333336],[-50.77777777777778,-32.77777777777778],[-52.0,-33.0],[-53.0,-32.5],[-54.0,-32.5],[-55.25,-32.25],[-55.71428571428571,-31.714285714285715],[-56.0,-31.0],[-56.66666666666667,-30.000000000000004],[-56.77777777777778,-28.77777777777778],[-57.0,-28.0],[-57.5,-27.0],[-57.0,-26.0],[-57.22222222222222,-25.22222222222222],[-57.14285714285714,-23.142857142857146],[-57.55555555555555,-22.555555555555557],[-58.25,-22.0],[-58.66666666666667,-21.0],[-60.0,-19.0],[-60.0,-16.0],[-59.400000000000006,-15.600000000000001],[-59.0,-15.0],[-58.400000000000006,-15.4],[-58.0,-15.5],[-56.71428571428571,-15.285714285714285],[-56.0,-15.0],[-55.0,-15.25],[-53.0,-14.666666666666668],[-52.0,-15.0],[-51.0,-15.0],[-50.0,-15.2],[-49.0,-15.0],[-48.0,-15.0],[-47.0,-14.75],[-46.0,-14.75],[-45.0,-15.0],[-44.0,-14.75],[-43.0,-15.0],[-42.0,-15.0],[-41.0,-15.25],[-40.0,-15.0],[-39.0,-15.333333333333336],[-38.0,-15.5],[-37.333333333333336,-16.0],[-36.30769230769231,-16.30769230769231],[-35.333333333333336,-17.0],[-35.0,-17.076923076923077],[-33.1,-17.1],[-32.0,-17.25],[-31.0,-17.125],[-30.0,-17.299999999999997],[-26.733333333333334,-16.266666666666666],[-26.266666666666666,-16.266666666666666],[-25.333333333333332,-16.0],[-23.0,-15.0],[-22.454545454545453,-14.545454545454545],[-21.25,-14.0],[-20.75,-13.0],[-20.714285714285715,-12.714285714285714],[-21.0,-12.0],[-22.0,-12.0],[-23.0,-12.5],[-25.25,-12.25],[-25.5,-12.0],[-25.6,-11.600000000000001],[-26.0,-11.0],[-27.0,-11.0],[-27.0,-9.0],[-29.0,-9.0],[-29.0,-8.0],[-30.0,-7.0],[-31.0,-7.0],[-31.6,-6.6000000000000005],[-32.0,-6.5],[-33.0,-6.5],[-33.4,-6.6000000000000005],[-34.0,-7.0],[-34.0,-10.0],[-34.6,-10.4],[-35.0,-10.5],[-36.285714285714285,-10.285714285714285],[-37.8,-9.8],[-39.28571428571428,-9.285714285714285],[-39.5,-9.0],[-40.0,-8.75],[-40.66666666666667,-8.666666666666668],[-41.0,-8.5],[-41.71428571428571,-7.7142857142857135],[-42.0,-7.0],[-42.0,-6.0],[-41.6,-5.4],[-41.0,-5.0],[-41.0,-3.0],[-40.0,-1.0],[-40.0,0.0],[-39.0,1.0],[-38.0,1.0],[-37.0,0.0],[-36.666666666666664,-1.0],[-36.400000000000006,-1.4000000000000001],[-36.0,-2.0],[-35.0,-3.0],[-34.0,-3.5],[-33.6,-3.4000000000000004],[-33.0,-3.0],[-32.0,-3.0],[-32.0,-2.0],[-31.77777777777778,-0.7777777777777778],[-32.0,0.0],[-32.66666666666667,1.0],[-33.333333333333336,3.0],[-33.333333333333336,5.0],[-33.0,6.0],[-33.0,7.0],[-33.333333333333336,8.0],[-33.333333333333336,9.0],[-33.5,10.0],[-33.5,14.0],[-33.25,14.25],[-32.75,16.0],[-32.77777777777778,16.22222222222222],[-33.333333333333336,17.0],[-33.333333333333336,17.333333333333336],[-33.0,18.0],[-33.0,19.0],[-32.4,19.400000000000002],[-31.0,20.0],[-30.0,22.0],[-29.0,23.0],[-28.0,23.0],[-27.4,23.400000000000002],[-26.0,23.666666666666664],[-23.5,24.5],[-23.0,25.0],[-22.0,25.0],[-22.5,25.5],[-22.333333333333336,27.0],[-22.0,27.5],[-21.666666666666668,27.666666666666668],[-21.5,28.0],[-21.0,28.25],[-20.0,28.333333333333332],[-19.0,28.75],[-17.0,29.25],[-16.0,29.333333333333336],[-15.0,29.0],[-13.0,29.0],[-11.333333333333334,28.66666666666667],[-11.0,28.5]],[[101.0,-55.0],[101.0,-54.0],[100.0,-54.0],[100.0,-55.0],[101.0,-55.0]]],[[[96.5,-18.0],[96.42857142857143,-19.0],[96.2608695652174,-19.26086956521739],[96.0,-19.42857142857143],[95.0,-19.5],[94.0,-19.25],[93.5,-19.0],[93.30769230769232,-18.692307692307693],[92.375,-18.0],[92.27272727272728,-17.727272727272727],[91.5,-17.0],[91.4,-16.0],[91.6470588235294,-15.64705882352941],[92.0,-15.4],[92.66666666666667,-15.333333333333334],[93.0,-15.333333333333336],[94.15384615384616,-15.846153846153847],[95.0,-17.0],[96.3157894736842,-17.684210526315788],[96.5,-18.0]]],[[[69.0,6.111111111111111],[72.07272727272728,5.927272727272728],[74.0,5.5675675675675675],[78.0,4.444444444444445],[79.48484848484848,4.484848484848484],[81.3076923076923,4.3076923076923075],[84.0,4.5],[85.27272727272727,4.727272727272727],[86.68421052631578,5.315789473684211],[86.81818181818181,5.818181818181818],[87.0,6.03030303030303],[89.14814814814815,6.148148148148148],[90.0,6.0],[90.2,5.2],[90.23076923076924,4.0],[90.0,2.666666666666667],[89.21428571428572,1.7857142857142856],[89.0,1.0],[89.0,0.0],[89.2,-0.8],[90.00000000000001,-1.1428571428571428],[90.32432432432434,-1.6756756756756759],[91.80645161290323,-2.193548387096774],[92.34146341463415,-2.6585365853658534],[96.0,-4.466666666666667],[100.0,-5.800000000000001],[103.0,-6.0],[106.0,-7.0],[107.0,-7.666666666666666],[108.0,-8.0],[109.18181818181819,-8.818181818181818],[110.0,-10.0],[110.25,-11.0],[110.14285714285714,-12.142857142857142],[109.0,-12.75],[108.0,-13.0],[104.84615384615384,-13.153846153846153],[104.0,-12.75],[103.0,-12.75],[101.0,-12.166666666666666],[99.0,-12.0],[96.0,-11.0],[95.4,-10.600000000000001],[94.0,-10.166666666666668],[92.16666666666666,-9.833333333333332],[90.0,-9.75],[88.75,-9.0],[88.0,-8.25],[87.6470588235294,-7.352941176470589],[87.0,-7.0],[87.375,-6.375],[87.42857142857142,-6.0],[87.375,-5.0],[87.19354838709677,-4.806451612903226],[86.6875,-4.3125],[85.6,-4.0],[85.0,-3.4],[83.84615384615384,-3.1538461538461537],[83.22222222222223,-2.7777777777777777],[82.00000000000001,-2.8000000000000003],[81.0,-3.142857142857143],[80.0,-3.0],[78.0,-3.142857142857143],[77.0,-3.0],[76.0,-3.3333333333333335],[74.0,-3.6],[72.0,-4.285714285714286],[71.35294117647058,-4.352941176470588],[70.0,-4.333333333333334],[68.66666666666667,-4.0],[68.0,-3.3333333333333335],[67.5,-2.5],[67.0,-2.0],[66.72727272727272,-1.2727272727272727],[66.4,-1.0],[65.83333333333333,0.0],[65.63636363636364,0.6363636363636364],[64.83333333333333,1.8333333333333333],[64.0,2.666666666666667],[63.0,3.0],[61.00000000000001,3.1428571428571432],[60.5,3.0],[61.0,2.0],[62.13333333333333,1.1333333333333333],[62.5,0.0],[62.0,-0.6666666666666667],[61.0,-1.1666666666666665],[58.0,-1.0],[55.78947368421052,-0.21052631578947367],[54.94117647058824,-0.05882352941176472],[53.0,0.0],[51.69230769230769,0.6923076923076923],[49.0,1.1666666666666667],[47.71428571428571,1.7142857142857142],[47.333333333333336,2.0],[47.81818181818182,2.1818181818181817],[48.0,2.6666666666666665],[48.33333333333333,3.0],[48.83333333333333,3.166666666666667],[49.0,4.0],[49.0,5.0],[49.84615384615385,5.153846153846154],[51.0,6.0],[55.0,7.0],[56.0,7.666666666666667],[57.0,7.571428571428571],[59.0,8.0],[61.02247191011236,8.02247191011236],[64.0,7.277777777777778],[64.83561643835617,6.835616438356164],[66.0,6.5],[69.0,6.111111111111111]]],[[[44.333333333333336,2.0],[44.0,1.0],[43.8,2.0],[44.0,2.0869565217391304],[44.333333333333336,2.0]]],[[[45.50769230769231,7.492307692307692],[45.0,7.0],[44.660377358490564,6.339622641509434],[44.574999999999996,5.425],[44.65625,4.0],[44.33070866141732,3.669291338582677],[44.0,3.5],[43.0,3.3611111111111107],[42.0,3.6666666666666665],[41.625,3.625],[41.0,4.0],[42.0,4.428571428571429],[42.63636363636364,5.363636363636363],[43.1917808219178,5.808219178082192],[43.55555555555556,7.0],[44.0,7.666666666666667],[44.32432432432432,7.675675675675675],[44.46153846153846,8.0],[44.827160493827165,8.172839506172838],[46.40816326530613,8.408163265306122],[46.84615384615385,8.153846153846153],[47.0,8.2],[47.0625,8.0],[45.50769230769231,7.492307692307692]]],[[[56.0,31.0],[56.285714285714285,30.285714285714285],[57.0,29.75],[57.333333333333336,29.0],[57.5,28.0],[58.0,27.0],[58.11111111111111,26.0],[58.89473684210526,23.0],[58.65217391304348,20.652173913043477],[58.73913043478261,19.73913043478261],[59.0,19.0],[58.27777777777777,17.0],[57.70833333333333,16.0],[55.99999999999999,14.130434782608695],[55.325,13.675],[54.6875,13.0],[53.61038961038962,12.389610389610391],[53.2247191011236,11.775280898876405],[52.56756756756757,11.432432432432433],[52.172839506172835,10.82716049382716],[51.45454545454545,10.545454545454545],[50.90909090909091,10.0],[50.0,9.545454545454547],[49.54716981132076,9.452830188679245],[49.07142857142858,8.928571428571429],[47.733333333333334,8.733333333333334],[47.5,9.0],[48.457142857142856,9.542857142857143],[49.0,10.363636363636363],[50.0,11.0],[49.69230769230769,12.0],[49.310344827586206,12.310344827586206],[45.977777777777774,13.977777777777778],[44.0,15.866666666666667],[42.0,16.454545454545453],[39.65,17.65],[38.27777777777778,19.0],[38.0,19.454545454545453],[37.4,20.0],[37.0,20.666666666666668],[36.13333333333333,21.133333333333333],[36.0,21.333333333333336],[35.5,21.5],[35.333333333333336,22.0],[34.52380952380952,22.523809523809522],[33.529411764705884,23.52941176470588],[32.66666666666667,24.0],[31.333333333333336,25.0],[30.333333333333336,26.0],[31.0,26.5],[32.266666666666666,26.266666666666666],[34.0,26.22222222222222],[37.8,27.2],[41.375,27.625],[41.75,28.0],[42.78947368421053,28.210526315789473],[43.47619047619047,28.523809523809522],[44.0,29.0],[44.87096774193549,29.129032258064516],[45.72727272727273,30.0],[47.15686274509804,30.84313725490196],[49.111111111111114,31.88888888888889],[49.86363636363637,32.13636363636364],[53.0,33.625],[54.0,33.5],[55.266666666666666,33.0],[56.08333333333333,32.0],[56.0,31.0]]],[[[65.5,38.0],[65.36363636363637,37.63636363636364],[65.0,37.333333333333336],[64.6,37.4],[64.0,37.0],[64.0,38.0],[65.0,38.15384615384615],[65.5,38.0]]],[[[87.0,43.0],[89.53488372093022,43.46511627906977],[91.0,43.55555555555556],[93.66666666666667,43.0],[93.44444444444443,42.55555555555556],[93.375,42.0],[92.28571428571428,40.71428571428571],[91.72727272727272,40.272727272727266],[90.0,39.5],[87.0,39.6],[85.0,39.5],[78.0,38.0],[77.03389830508475,37.96610169491525],[73.0,38.333333333333336],[71.0,39.0],[71.73333333333333,39.266666666666666],[72.16666666666667,40.0],[75.69565217391305,41.30434782608696],[76.7,42.0],[77.7,42.3],[78.85714285714286,43.0],[81.77777777777777,43.77777777777778],[82.77777777777777,43.77777777777778],[84.25,43.25],[86.0,43.0],[87.0,43.0]]]]}}]}