{"type":"FeatureCollection","features":[{"type":"Feature","properties":{"ageMa":200},"geometry":{"type":"MultiPolygon","coordinates":[[[[-81.85185185185185,6.148148148148148],[-81.75,5.0],[-82.0,4.85],[-82.25,5.0],[-82.28571428571428,6.0],[-82.0,6.333333333333334],[-81.85185185185185,6.148148148148148]]],[[[-87.0,6.699999999999999],[-86.53333333333333,6.466666666666667],[-86.22222222222221,6.0],[-87.0,5.125],[-87.14285714285714,5.857142857142857],[-88.5,6.0],[-87.6,6.6000000000000005],[-87.0,6.699999999999999]]],[[[-89.0,8.0],[-85.66666666666666,8.0],[-86.0,7.8],[-87.0,7.75],[-88.0,7.75],[-89.0,8.0]]],[[[-83.77935943060498,42.779359430604984],[-84.0,42.34042553191489],[-84.7748344370861,41.77483443708609],[-84.98837209302326,41.0],[-84.94666666666667,40.053333333333335],[-84.23622047244095,40.23622047244095],[-83.85148514851485,40.0],[-83.97183098591549,38.0],[-83.79245283018868,37.20754716981132],[-83.35294117647058,37.0],[-83.32432432432434,36.67567567567568],[-83.0,36.4],[-82.93333333333334,36.06666666666667],[-82.63636363636363,35.63636363636364],[-82.8,35.2],[-82.38461538461537,35.38461538461539],[-82.0,35.23809523809524],[-81.91228070175438,35.08771929824562],[-81.0566037735849,35.05660377358491],[-80.69841269841271,34.301587301587304],[-79.91216216216216,34.08783783783784],[-79.72093023255815,32.72093023255814],[-79.93846153846155,32.06153846153846],[-79.75,32.0],[-80.09523809523809,32.0],[-81.22222222222223,32.77777777777778],[-82.0990099009901,32.9009900990099],[-82.24000000000001,33.239999999999995],[-82.17821782178218,33.82178217821782],[-82.75,34.0],[-83.01980198019801,34.980198019801975],[-83.5,35.5],[-84.0,35.69230769230769],[-84.20183486238533,36.79816513761468],[-85.01538461538462,36.98461538461538],[-85.01149425287356,38.0],[-85.17647058823529,38.82352941176471],[-85.81132075471697,38.81132075471698],[-86.10638297872342,39.0],[-86.01449275362319,41.0],[-86.0952380952381,41.904761904761905],[-86.74757281553399,41.74757281553398],[-87.0931899641577,41.90681003584229],[-87.0,43.34615384615385],[-86.11764705882354,44.11764705882352],[-86.0,45.0],[-85.27586206896552,44.724137931034484],[-84.21052631578948,44.78947368421053],[-83.52380952380952,44.476190476190474],[-83.28571428571428,44.0],[-83.86111111111111,43.861111111111114],[-83.64772727272728,43.35227272727273],[-83.77935943060498,42.779359430604984]]],[[[-84.0,46.0],[-84.33333333333334,45.333333333333336],[-85.30769230769232,45.30769230769231],[-86.0,45.0],[-86.18604651162791,45.81395348837209],[-86.61739130434783,45.617391304347834],[-87.1512027491409,45.84879725085911],[-87.11636363636364,47.11636363636364],[-86.6144578313253,47.3855421686747],[-86.33898305084745,47.33898305084745],[-86.0,48.66666666666667],[-85.0,48.736842105263165],[-84.375,48.625],[-83.72222222222223,48.27777777777778],[-83.37837837837839,47.62162162162163],[-83.17647058823529,47.0],[-83.30000000000001,46.3],[-84.0,46.0]]],[[[-83.72222222222223,50.27777777777778],[-83.95238095238095,51.0],[-83.0,51.800000000000004],[-82.21052631578948,51.78947368421053],[-81.52941176470588,51.529411764705884],[-81.15384615384615,51.0],[-81.3157894736842,50.315789473684205],[-81.875,49.875],[-83.0,49.8],[-83.72222222222223,50.27777777777778]]],[[[-85.8019801980198,61.198019801980195],[-82.96969696969697,61.03030303030303],[-81.85483870967741,60.145161290322584],[-79.2,60.0],[-79.0,59.8],[-78.82978723404256,59.170212765957444],[-76.78125,59.0],[-76.63157894736842,58.631578947368425],[-76.72727272727272,58.272727272727266],[-76.33333333333334,58.33333333333334],[-75.84848484848484,58.0],[-75.95,57.0],[-76.88990825688073,56.88990825688074],[-77.0,56.599999999999994],[-77.375,56.625],[-78.0,57.0],[-78.66666666666667,56.66666666666667],[-80.33333333333334,55.33333333333334],[-81.47619047619048,55.52380952380952],[-82.26666666666667,56.733333333333334],[-82.28571428571428,57.0],[-83.0,57.357142857142854],[-84.0,57.142857142857146],[-84.21428571428572,57.785714285714285],[-84.94444444444446,57.94444444444444],[-85.50666666666666,58.49333333333333],[-86.18064516129031,58.81935483870967],[-87.06968641114982,58.930313588850176],[-87.18181818181819,59.18181818181819],[-87.11111111111111,59.888888888888886],[-88.0,60.0],[-88.12987012987013,60.87012987012987],[-88.83529411764707,60.83529411764707],[-89.26923076923077,61.0],[-89.51898734177215,61.48101265822785],[-90.12403100775194,61.87596899224806],[-91.0,62.0],[-91.59420289855072,62.40579710144928],[-92.0,62.45161290322581],[-92.26153846153846,62.738461538461536],[-94.12413793103448,62.87586206896552],[-94.30769230769232,63.307692307692314],[-94.0,64.0],[-91.69565217391305,63.69565217391305],[-90.10619469026548,64.10619469026548],[-89.85714285714286,63.85714285714286],[-89.8409090909091,63.15909090909091],[-88.0,62.77777777777778],[-87.73076923076923,62.269230769230774],[-86.93700787401575,62.06299212598425],[-85.96992481203007,62.03007518796992],[-85.8019801980198,61.198019801980195]]],[[[-91.98850574712642,69.0],[-91.91878172588832,67.91878172588832],[-92.0,67.1111111111111],[-92.14285714285714,67.0],[-92.0,66.92857142857143],[-91.80152671755725,65.80152671755725],[-91.97590361445783,65.02409638554217],[-91.89473684210526,64.89473684210526],[-93.0,64.25],[-94.0,64.0],[-99.0,63.86],[-99.25688073394497,64.25688073394495],[-99.23762376237624,64.76237623762376],[-100.0,64.9247311827957],[-102.09216589861752,64.90783410138249],[-102.4,65.0],[-103.25954198473283,65.74045801526718],[-107.125,66.0],[-108.0,66.56],[-108.171875,66.828125],[-109.33333333333333,67.0],[-108.0,67.2340425531915],[-107.5688622754491,67.5688622754491],[-107.41935483870968,68.0],[-107.18245614035087,68.18245614035088],[-106.38888888888889,68.38888888888889],[-106.35,68.64999999999999],[-106.0,69.14],[-104.19101123595506,69.19101123595506],[-103.4,69.4],[-103.41935483870968,69.58064516129032],[-103.09961685823754,70.09961685823755],[-90.92439862542955,70.07560137457045],[-90.92439862542955,69.92439862542956],[-91.19469026548673,69.80530973451327],[-91.8876404494382,69.88764044943821],[-91.98850574712642,69.0]]],[[[-173.0,66.98850574712644],[-176.0277777777778,66.97222222222223],[-174.02298850574715,67.02298850574712],[-174.0,68.0],[-171.07407407407408,68.07407407407408],[-171.0,68.33333333333333],[-170.60000000000002,68.4],[-170.5,68.0],[-172.9753086419753,67.9753086419753],[-173.0,66.98850574712644]]],[[[-110.06382978723404,67.93617021276596],[-112.33333333333333,68.0],[-113.0,68.28571428571428],[-113.24590163934425,68.75409836065575],[-116.80000000000001,69.0],[-114.1340206185567,69.1340206185567],[-111.0,69.02272727272728],[-110.95238095238095,68.04761904761905],[-109.97692307692309,68.02307692307691],[-110.0,67.4],[-110.06382978723404,67.93617021276596]]],[[[-170.33333333333334,69.0],[-169.96153846153845,69.0],[-170.0,68.5],[-170.4,68.60000000000001],[-170.33333333333334,69.0]]],[[[-122.0,69.27777777777779],[-123.0,69.27272727272727],[-123.17777777777778,69.82222222222222],[-130.0,70.0],[-121.0,70.15686274509804],[-119.96581196581197,69.96581196581197],[-120.44,69.44],[-121.0,69.05882352941177],[-122.0,69.27777777777779]]],[[[-172.83333333333334,73.0],[-175.0,73.0],[-174.25,73.25],[-172.88235294117646,73.11764705882354],[-172.83333333333334,73.0]]],[[[-176.25,73.0],[-176.2,73.2],[-175.71428571428572,73.28571428571428],[-175.0,73.0],[-176.25,73.0]]],[[[-179.71428571428572,74.28571428571428],[-179.44444444444443,73.55555555555554],[-178.8,73.2],[-177.83333333333331,73.16666666666667],[-177.75,73.0],[-180.0,72.984375],[-180.0,74.5],[-179.71428571428572,74.28571428571428]]],[[[-170.0,74.5],[-169.0,74.0],[-170.25,74.0],[-170.0,74.5]]],[[[-173.5,75.0],[-173.0,75.25],[-172.66666666666669,75.0],[-172.85714285714286,74.85714285714286],[-173.5,75.0]]],[[[-64.13186813186813,-3.131868131868132],[-64.79130434782608,-3.2086956521739127],[-64.98850574712642,-4.0],[-64.86868686868686,-5.0],[-65.0,-5.928571428571428],[-65.32727272727273,-6.672727272727273],[-65.36734693877551,-7.36734693877551],[-64.98850574712642,-8.0],[-65.29268292682927,-8.707317073170731],[-65.32432432432432,-9.324324324324325],[-65.0,-9.666666666666666],[-64.93975903614458,-11.0],[-65.0,-11.384615384615385],[-65.41025641025641,-11.58974358974359],[-65.5,-12.0],[-65.47058823529412,-12.470588235294116],[-65.0,-12.88888888888889],[-64.90526315789474,-16.0],[-65.0,-16.097826086956523],[-65.09473684210526,-16.0],[-65.06896551724138,-14.06896551724138],[-65.87878787878788,-14.121212121212121],[-66.06521739130434,-14.0],[-66.0,-10.0],[-66.20253164556962,-9.0],[-66.08695652173914,-8.0],[-66.41111111111111,-7.0],[-66.22598870056497,-5.774011299435028],[-66.0,-5.259259259259259],[-65.73584905660377,-5.264150943396226],[-65.57894736842105,-4.421052631578947],[-65.2,-4.0],[-65.6923076923077,-3.6923076923076925],[-66.0952380952381,-3.0952380952380953],[-66.61038961038962,-3.38961038961039],[-67.0,-3.340909090909091],[-67.27027027027027,-2.72972972972973],[-67.11940298507463,-2.1194029850746268],[-67.79310344827586,-2.206896551724138],[-69.0,-2.0],[-68.94736842105263,-0.9473684210526316],[-69.375,0.0],[-68.0,0.08510638297872342],[-67.56756756756756,-0.5675675675675675],[-65.0,-1.0],[-64.46153846153847,-2.4615384615384617],[-63.944700460829495,-2.944700460829493],[-64.13186813186813,-3.131868131868132]]],[[[-72.83333333333333,4.833333333333333],[-72.75,4.25],[-72.0,4.076923076923077],[-71.97333333333333,2.026666666666667],[-70.97777777777777,1.9777777777777779],[-71.0,1.75],[-71.60000000000001,1.6],[-72.0,1.0],[-72.04761904761904,1.9523809523809523],[-72.2,2.0],[-72.5,2.5],[-73.0,2.8000000000000003],[-73.03571428571429,2.964285714285714],[-74.0,2.9622641509433962],[-74.30555555555556,4.0],[-74.61832061068702,4.381679389312977],[-75.48717948717949,5.0],[-75.52380952380952,5.476190476190476],[-75.77777777777777,6.0],[-75.23076923076923,8.0],[-75.0,8.03370786516854],[-74.93181818181819,7.931818181818182],[-74.88,7.12],[-73.99233716475096,7.007662835249042],[-73.97701149425286,6.022988505747127],[-72.99233716475096,6.007662835249042],[-72.98,5.02],[-72.83333333333333,4.833333333333333]]],[[[-76.6231884057971,6.6231884057971016],[-77.28571428571428,6.7142857142857135],[-77.61904761904762,7.0],[-77.0,7.8125],[-76.5438596491228,7.456140350877193],[-76.27777777777777,7.0],[-76.6231884057971,6.6231884057971016]]],[[[176.2,75.0],[176.16666666666669,74.83333333333334],[175.63636363636363,74.36363636363636],[174.86666666666667,74.13333333333334],[173.0,74.0],[171.0,74.1111111111111],[170.0,74.0],[170.6923076923077,73.6923076923077],[170.88888888888889,73.0],[166.0,72.70833333333333],[159.8181818181818,73.0],[159.0,73.375],[158.7,73.7],[157.84146341463415,73.84146341463415],[145.0,73.90425531914893],[139.0,73.58333333333334],[138.5679012345679,73.4320987654321],[138.04504504504504,72.95495495495496],[136.0,72.73033707865169],[135.50943396226415,72.49056603773585],[135.14393939393938,71.85606060606061],[134.5022222222222,71.49777777777778],[134.14736842105265,70.85263157894737],[132.47368421052633,70.5263157894737],[132.0,69.93478260869566],[130.26666666666665,69.73333333333332],[129.53571428571428,69.46428571428572],[129.03587443946188,68.96412556053811],[128.140350877193,68.85964912280701],[127.43478260869564,68.56521739130434],[127.00877192982456,67.99122807017544],[124.0,67.65116279069767],[123.51931330472104,67.48068669527896],[123.0,67.0],[121.07692307692308,66.92307692307692],[120.03225806451613,66.0],[119.0,65.97560975609757],[117.65822784810126,65.34177215189874],[117.07964601769912,64.92035398230088],[114.5695067264574,64.43049327354261],[114.0,64.0],[111.0,63.78888888888889],[110.45962732919254,63.54037267080745],[110.0,62.97727272727273],[108.0,62.79807692307693],[107.0,62.15384615384615],[104.3937823834197,61.60621761658031],[103.0,61.0],[103.06451612903226,60.064516129032256],[108.97701149425286,60.02298850574713],[110.0,60.916666666666664],[110.5,61.0],[118.98425196850394,61.01574803149606],[119.83050847457626,61.16949152542373],[120.05882352941177,61.94117647058823],[126.73856209150327,62.26143790849673],[128.0,62.80952380952381],[128.8,63.0],[133.9626168224299,63.03738317757009],[135.98936170212764,64.01063829787235],[139.5,64.0],[141.0,63.833333333333336],[142.0,63.93333333333334],[142.65714285714284,63.65714285714286],[143.0,63.4],[143.11940298507463,63.11940298507462],[145.5,63.0],[145.8,62.8],[146.16666666666666,62.166666666666664],[146.83333333333334,62.166666666666664],[147.025,62.025],[149.00943396226415,62.00943396226415],[149.31884057971013,61.31884057971014],[150.016,61.016000000000005],[153.0,61.0],[153.28571428571428,60.28571428571428],[154.13333333333333,60.13333333333334],[159.5,60.0],[159.84615384615387,59.846153846153854],[159.76470588235293,59.23529411764706],[160.0,58.5],[160.23529411764707,58.23529411764706],[161.0,58.09090909090909],[162.28571428571428,58.71428571428571],[162.5,59.0],[164.9189189189189,59.08108108108108],[164.78181818181818,59.78181818181818],[164.9163763066202,60.08362369337979],[165.19354838709677,60.19354838709677],[165.975,60.025000000000006],[166.26086956521738,60.73913043478261],[166.20000000000002,61.00000000000001],[167.7171717171717,61.282828282828284],[168.0,62.02272727272727],[172.1595744680851,62.159574468085104],[173.97222222222223,62.02777777777778],[174.14285714285714,62.14285714285714],[174.20000000000002,62.0],[171.7272727272727,61.72727272727272],[171.16216216216216,61.83783783783784],[171.0,61.400000000000006],[170.63636363636363,61.0],[168.1958041958042,60.8041958041958],[167.47058823529412,60.52941176470588],[167.009756097561,59.990243902439026],[166.01408450704224,59.98591549295775],[165.27906976744185,59.720930232558146],[165.0,58.96052631578947],[163.09375,58.90625],[163.11764705882354,58.11764705882353],[163.0,57.66666666666667],[162.51515151515153,57.484848484848484],[162.0,57.0],[161.0,56.83333333333333],[160.44444444444443,56.55555555555556],[160.16666666666669,56.0],[160.28571428571428,55.71428571428571],[160.2,55.2],[160.8,55.2],[161.00766283524905,54.992337164750964],[160.0222222222222,54.977777777777774],[159.8095238095238,54.19047619047619],[159.6,54.0],[159.0625,53.9375],[159.00766283524905,52.99233716475096],[158.04494382022472,52.95505617977528],[158.01515151515153,51.984848484848484],[157.06451612903226,51.935483870967744],[157.0,51.0],[155.11627906976744,50.883720930232556],[155.02325581395348,49.97674418604652],[154.08695652173913,49.91304347826087],[154.01520912547528,48.98479087452471],[153.03333333333333,48.96666666666667],[152.26086956521738,48.73913043478261],[152.0,48.0],[150.24242424242425,47.75757575757576],[150.16,47.16],[150.0,46.955555555555556],[149.0,46.924731182795696],[148.0,46.704918032786885],[147.0,46.91489361702128],[145.21518987341773,46.78481012658228],[145.0,46.66666666666667],[143.36,46.64],[143.0,46.18181818181818],[142.5,46.0],[140.0,45.93478260869565],[139.22727272727272,45.77272727272727],[138.51351351351352,45.48648648648649],[138.06113537117903,44.93886462882096],[137.15,44.849999999999994],[136.33333333333331,44.0],[135.5056179775281,43.49438202247191],[135.26666666666668,43.0],[135.0,42.75757575757576],[134.5049504950495,42.495049504950494],[134.32432432432432,42.0],[133.75510204081633,41.755102040816325],[133.2549019607843,41.745098039215684],[133.2340425531915,41.234042553191486],[133.0758620689655,40.92413793103448],[132.77319587628864,40.77319587628866],[132.24761904761905,40.75238095238095],[132.05714285714285,39.94285714285715],[131.26548672566372,39.73451327433628],[131.0681818181818,38.93181818181818],[130.75,38.75],[130.29545454545456,38.70454545454545],[130.23529411764707,38.23529411764706],[130.0,37.83673469387755],[129.3728813559322,37.6271186440678],[129.0958904109589,36.9041095890411],[129.0151515151515,35.984848484848484],[128.19642857142856,35.80357142857143],[128.0371747211896,34.962825278810406],[127.25,34.75],[127.05511811023622,33.94488188976378],[126.35294117647058,33.647058823529406],[126.0,32.94871794871795],[125.39344262295081,32.60655737704918],[125.13157894736841,31.86842105263158],[125.00766283524905,30.992337164750957],[124.19834710743801,30.801652892561982],[124.0,30.0],[123.18803418803418,29.811965811965813],[123.008,28.992],[122.31404958677686,28.68595041322314],[122.02830188679246,26.971698113207548],[121.34615384615384,26.653846153846153],[121.07142857142857,25.92857142857143],[121.39024390243902,24.390243902439025],[122.0763358778626,24.076335877862594],[122.27631578947368,23.27631578947368],[122.61764705882352,23.0],[122.6829268292683,22.68292682926829],[123.0,22.31578947368421],[123.12631578947368,21.126315789473683],[124.00772200772201,21.00772200772201],[124.12371134020619,19.123711340206185],[125.0,19.011764705882353],[127.89473684210526,19.105263157894736],[127.84615384615384,19.846153846153847],[128.0,20.263157894736842],[128.25,20.25],[128.56756756756758,20.43243243243243],[129.0,20.426666666666666],[130.0,20.0],[130.3030303030303,19.303030303030305],[131.0,19.05],[131.88235294117646,19.11764705882353],[131.72413793103448,19.724137931034484],[131.9304347826087,20.069565217391307],[131.99159663865544,21.008403361344538],[132.87012987012986,21.12987012987013],[133.0,22.016129032258064],[133.96774193548387,22.032258064516128],[134.0,23.043478260869563],[134.91666666666666,23.083333333333332],[135.0,24.0],[135.95652173913044,24.043478260869563],[136.0,25.043478260869566],[136.82608695652175,25.17391304347826],[136.74193548387098,25.741935483870968],[136.9304347826087,26.069565217391304],[137.0,27.066666666666666],[137.55555555555554,27.0],[137.65217391304347,26.652173913043477],[138.16666666666669,26.166666666666664],[138.03809523809525,25.961904761904762],[138.0,25.0],[137.05263157894737,24.94736842105263],[137.0,23.75],[136.6,23.400000000000002],[136.57142857142856,23.0],[136.08247422680412,22.917525773195877],[136.0077519379845,21.992248062015506],[135.02272727272728,21.977272727272727],[135.0,21.0],[134.02247191011236,20.97752808988764],[134.0078125,19.9921875],[133.15686274509804,19.84313725490196],[133.0,18.981132075471695],[132.0377358490566,18.962264150943398],[132.0,17.975],[131.05,17.95],[131.01149425287358,16.0],[130.02272727272728,15.977272727272727],[130.0,15.0],[128.13333333333333,14.866666666666667],[128.06666666666666,14.0],[127.03174603174602,13.968253968253968],[127.0,13.0],[125.04761904761905,12.952380952380953],[124.66666666666669,12.666666666666668],[124.33333333333334,12.666666666666668],[124.33333333333334,12.333333333333334],[124.16666666666667,12.0],[122.0,12.0],[120.70967741935482,11.709677419354838],[120.11764705882352,11.882352941176471],[120.1904761904762,11.19047619047619],[120.05755395683452,10.942446043165468],[119.0,10.796296296296298],[117.0,10.96629213483146],[112.0,10.788990825688074],[110.92682926829269,11.0],[110.72727272727272,11.727272727272727],[110.32142857142856,11.678571428571427],[109.86567164179104,11.865671641791044],[107.79850746268656,11.798507462686567],[107.35714285714285,12.0],[107.32967032967034,12.329670329670328],[106.82905982905983,12.82905982905983],[106.20155038759691,12.7984496124031],[105.45833333333334,13.0],[105.37931034482759,13.379310344827587],[104.7,14.0],[104.58620689655172,14.586206896551724],[104.2,15.2],[103.0,15.333333333333336],[102.87096774193549,15.870967741935484],[102.25,16.0],[102.0,16.18181818181818],[101.77777777777777,16.77777777777778],[100.95833333333333,17.0],[100.60869565217392,17.608695652173914],[99.66666666666666,18.0],[99.375,18.375],[99.0,18.6],[98.92727272727272,18.927272727272726],[98.6,19.0],[98.42857142857143,19.42857142857143],[98.0,19.75],[97.95876288659794,19.95876288659794],[96.99230769230769,19.99230769230769],[96.97674418604652,20.976744186046513],[95.9921875,20.9921875],[95.95294117647059,21.95294117647059],[94.98380566801619,21.983805668016196],[94.66101694915254,22.66101694915254],[93.90441176470588,22.90441176470588],[93.64948453608247,23.649484536082472],[92.21052631578948,24.0],[91.93877551020408,24.93877551020408],[90.9,25.0],[90.80000000000001,25.8],[90.2,25.8],[89.97222222222223,25.97222222222222],[85.05714285714285,25.942857142857143],[85.0,25.0],[82.02197802197801,24.978021978021978],[81.8,24.8],[81.2,24.8],[81.10000000000001,24.0],[79.03174603174604,23.96825396825397],[79.0,22.988505747126435],[72.1,22.900000000000002],[72.0,22.5],[71.66666666666667,22.333333333333336],[71.5,22.0],[70.5,22.0],[70.33333333333334,22.333333333333336],[69.71428571428572,22.71428571428571],[69.0,22.8],[68.28571428571428,22.71428571428571],[67.0,22.0],[66.75,22.75],[66.25,22.75],[65.92,22.92],[60.8,23.0],[60.60000000000001,23.6],[60.0,23.8],[59.9746835443038,23.9746835443038],[56.96551724137931,24.0],[56.93103448275862,24.93103448275862],[53.0,25.0],[52.96666666666667,25.966666666666665],[50.5,26.0],[50.333333333333336,26.333333333333336],[50.0,26.5],[49.904761904761905,26.904761904761905],[46.92307692307692,27.0],[46.84615384615385,27.846153846153847],[46.15384615384615,27.846153846153847],[45.971830985915496,27.971830985915492],[41.5,28.0],[41.333333333333336,28.333333333333336],[41.0,28.5],[40.959999999999994,28.959999999999997],[37.0,28.98850574712644],[36.97260273972603,29.972602739726028],[34.992217898832685,29.992217898832685],[34.975903614457835,30.97590361445783],[33.97435897435897,31.0],[33.94871794871795,31.94871794871795],[32.66666666666667,32.0],[32.44444444444444,32.44444444444444],[32.0,32.66666666666667],[31.977777777777778,32.977777777777774],[30.992248062015506,32.992248062015506],[30.976190476190474,33.976190476190474],[29.0,34.0],[28.970588235294116,34.970588235294116],[26.5,35.0],[26.333333333333336,35.333333333333336],[26.0,35.5],[25.97701149425287,35.97701149425288],[24.0,35.98850574712643],[23.955555555555556,36.955555555555556],[21.991561181434598,36.9915611814346],[21.96825396825397,37.96825396825397],[19.040816326530614,37.95918367346939],[19.008968609865473,36.99103139013453],[17.028985507246375,36.971014492753625],[17.0,36.0],[15.023255813953488,35.97674418604652],[15.008695652173914,34.99130434782609],[14.035087719298247,34.96491228070175],[14.0,33.970588235294116],[12.0,34.0],[12.181818181818183,33.18181818181818],[12.033333333333333,32.96666666666667],[12.043010752688172,31.956989247311828],[11.764705882352942,31.764705882352942],[11.235294117647058,31.764705882352942],[11.285714285714285,31.285714285714285],[11.157894736842106,31.0],[10.818181818181818,30.81818181818182],[10.24390243902439,30.75609756097561],[10.0,30.0],[8.06060606060606,29.939393939393938],[8.0,29.799999999999997],[7.818181818181818,29.81818181818182],[7.428571428571429,30.42857142857143],[7.0,30.545454545454543],[6.761904761904762,30.76190476190476],[5.5,31.0],[5.0,31.333333333333336],[4.733333333333333,31.266666666666666],[4.0,30.5],[3.7777777777777777,29.77777777777778],[3.7777777777777777,29.22222222222222],[3.6,29.0],[3.2142857142857144,28.785714285714285],[2.2222222222222223,28.77777777777778],[2.1142857142857143,27.885714285714286],[1.5,27.5],[1.125,26.875],[0.0,26.71428571428571],[-0.14814814814814814,26.85185185185185],[-1.0,26.9],[-2.2857142857142856,26.714285714285715],[-2.6666666666666665,27.000000000000004],[-2.5999999999999996,28.0],[-2.4,28.400000000000002],[-1.7777777777777777,28.77777777777778],[-1.5555555555555554,29.555555555555554],[-1.0,30.0],[-0.8666666666666667,31.866666666666667],[-0.42424242424242425,32.42424242424243],[0.0,32.46666666666667],[1.2000000000000002,33.0],[0.6000000000000001,33.6],[-0.33333333333333337,34.0],[-0.4,34.6],[-0.6666666666666667,35.333333333333336],[-1.0,35.333333333333336],[-1.4444444444444444,35.55555555555556],[-1.6666666666666667,36.0],[-1.4444444444444444,36.44444444444444],[-1.0,36.66666666666667],[-0.5,36.5],[0.0,36.0],[1.0,36.0],[1.4000000000000001,36.6],[2.0,37.0],[4.166666666666667,36.83333333333333],[4.222222222222222,38.22222222222222],[4.0,38.333333333333336],[2.714285714285714,38.285714285714285],[2.0,38.0],[1.5,38.5],[1.5,39.5],[2.0,40.0],[2.714285714285714,39.71428571428571],[3.2222222222222223,39.77777777777777],[3.5,40.0],[3.3333333333333335,40.333333333333336],[3.0,40.5],[2.5,40.5],[2.0,41.0],[1.0,41.0],[1.0,40.0],[0.75,39.25],[-0.15384615384615385,39.15384615384615],[-0.11764705882352944,38.88235294117647],[0.8181818181818181,38.81818181818181],[1.0,38.0],[0.8181818181818181,37.18181818181819],[0.0,37.1],[-0.8181818181818181,37.18181818181819],[-1.0,38.0],[-2.0,38.0],[-2.4,37.4],[-3.0,37.0],[-3.1818181818181817,36.18181818181819],[-3.333333333333333,36.0],[-3.5,35.0],[-3.2857142857142856,33.0],[-3.4000000000000004,32.4],[-3.9452054794520546,30.945205479452056],[-4.0,29.75],[-4.4,29.400000000000002],[-4.6,29.0],[-5.8,28.799999999999997],[-6.0,28.400000000000002],[-6.666666666666667,28.333333333333336],[-9.0,28.333333333333336],[-10.0,28.5],[-10.307692307692308,28.30769230769231],[-10.5,28.0],[-11.5,27.5],[-12.0,27.0],[-12.793103448275861,26.79310344827586],[-13.210526315789474,26.210526315789473],[-13.5,25.5],[-14.0,25.0],[-14.891891891891891,24.89189189189189],[-15.818181818181818,25.18181818181818],[-16.097560975609756,25.09756097560976],[-16.53846153846154,24.53846153846154],[-16.83783783783784,23.83783783783784],[-17.448275862068964,23.448275862068968],[-17.77358490566038,22.77358490566038],[-18.0,22.793103448275865],[-18.446601941747574,22.446601941747574],[-18.740259740259738,21.740259740259738],[-19.0,21.72222222222222],[-19.440677966101696,21.440677966101696],[-19.7027027027027,21.0],[-19.586206896551722,20.413793103448274],[-19.0,20.133333333333336],[-18.285714285714285,20.285714285714285],[-18.08888888888889,21.08888888888889],[-17.31578947368421,21.31578947368421],[-17.060606060606062,22.06060606060606],[-16.400000000000002,22.4],[-16.0,22.77777777777778],[-14.190476190476192,23.19047619047619],[-14.0,23.444444444444443],[-12.5625,23.5625],[-11.0,23.88235294117647],[-8.0,23.818181818181813],[-6.0,24.0],[-10.0,24.200000000000003],[-10.692307692307693,24.30769230769231],[-11.0,24.666666666666664],[-12.0,24.5],[-12.5,25.0],[-12.1875,25.1875],[-11.777777777777779,25.22222222222222],[-11.105263157894736,25.105263157894736],[-11.0,25.5],[-10.714285714285715,25.714285714285715],[-10.434782608695652,25.565217391304348],[-9.736842105263158,25.736842105263158],[-9.0,26.66666666666667],[-7.733333333333333,26.266666666666666],[-7.0,26.1875],[-6.727272727272727,26.272727272727273],[-6.142857142857142,26.142857142857146],[-6.0,26.5],[-5.777777777777778,26.22222222222222],[-5.857142857142857,26.0],[-5.0,25.142857142857142],[-4.666666666666666,25.0],[-4.444444444444445,24.555555555555554],[-4.0,24.333333333333336],[-3.0,24.333333333333336],[-2.7777777777777777,24.22222222222222],[-2.3636363636363638,23.636363636363633],[-2.25,23.0],[-2.111111111111111,22.88888888888889],[-1.8,22.799999999999997],[-1.3333333333333335,23.0],[-1.0,23.5],[-0.6000000000000001,23.400000000000002],[0.0,23.0],[1.0,24.0],[2.0,23.0],[2.6363636363636367,23.363636363636363],[3.0,23.333333333333332],[3.148148148148148,23.14814814814815],[3.666666666666667,23.0],[4.0,22.75],[5.333333333333334,22.333333333333336],[5.692307692307693,21.692307692307693],[6.0,21.5],[7.0,21.5],[7.333333333333334,21.333333333333336],[7.333333333333333,21.0],[8.0,20.714285714285715],[9.0,19.714285714285715],[9.307692307692308,19.692307692307693],[10.0,20.0],[10.085106382978722,19.085106382978722],[11.0,18.181818181818183],[11.16,17.84],[11.206896551724139,17.20689655172414],[12.0,16.625],[12.227272727272727,16.227272727272727],[13.043010752688172,16.043010752688172],[13.372093023255815,15.372093023255813],[14.0,15.0],[15.0,14.75],[15.166666666666668,14.833333333333334],[15.4,15.600000000000001],[16.18181818181818,15.818181818181818],[18.0,15.857142857142858],[18.15,15.15],[19.0,15.0],[19.197183098591548,14.19718309859155],[19.841269841269842,14.158730158730158],[20.15625,14.0],[20.32258064516129,13.677419354838708],[20.32258064516129,13.32258064516129],[20.65714285714286,13.342857142857143],[21.75,13.0],[22.0,12.714285714285715],[23.0,12.75],[23.5,12.5],[23.857142857142854,11.857142857142858],[29.999999999999996,11.888888888888888],[30.866666666666667,11.866666666666667],[31.333333333333336,11.666666666666668],[31.66666666666667,11.666666666666668],[31.66666666666667,11.333333333333334],[31.904761904761905,10.904761904761905],[32.285714285714285,10.714285714285715],[32.71428571428571,10.714285714285715],[32.71428571428571,10.285714285714285],[32.904761904761905,9.904761904761905],[33.285714285714285,9.714285714285714],[33.714285714285715,9.714285714285714],[34.0,8.0],[34.71428571428571,7.7142857142857135],[34.86666666666667,5.866666666666666],[35.0,5.5],[35.333333333333336,5.333333333333334],[35.71428571428571,4.7142857142857135],[35.85714285714286,2.0],[36.0,1.75],[36.5,1.5],[36.81818181818182,0.8181818181818181],[36.875,-1.125],[37.0,-1.5],[37.333333333333336,-1.6666666666666665],[37.5,-2.0],[38.285714285714285,-2.714285714285714],[38.333333333333336,-3.0],[38.76470588235294,-3.235294117647059],[39.6,-3.4000000000000004],[39.875,-4.125],[40.5,-4.5],[40.75,-5.0],[40.833333333333336,-7.0],[40.71428571428571,-7.7142857142857135],[40.0,-8.0],[40.8,-8.2],[42.074074074074076,-8.074074074074074],[42.25,-8.0],[42.4,-7.4],[43.0,-7.0],[43.8,-7.2],[46.0,-7.333333333333334],[46.04761904761905,-7.9523809523809526],[47.0,-8.0],[47.12903225806452,-8.870967741935484],[48.0,-9.142857142857144],[48.12631578947368,-9.873684210526315],[48.75,-10.0],[49.0,-10.25],[49.114285714285714,-10.885714285714286],[50.0,-11.0],[50.0246913580247,-11.97530864197531],[51.0,-12.0],[51.02777777777778,-12.972222222222221],[52.0,-13.0],[52.17391304347826,-13.826086956521738],[53.0,-14.0],[53.19607843137255,-14.803921568627452],[54.0,-15.0],[54.285714285714285,-15.714285714285712],[55.0,-16.0],[56.0,-16.0],[56.05128205128205,-16.94871794871795],[58.0,-17.0],[58.0,-18.0],[59.0,-18.0],[59.0,-19.0],[60.0,-19.0],[60.5,-19.5],[60.5,-20.0],[61.125,-20.125],[63.0,-20.0],[63.0,-21.0],[65.0,-21.0],[65.0,-22.0],[71.0,-21.955555555555556],[71.08510638297872,-22.914893617021278],[72.0,-23.0],[71.75,-23.75],[71.8,-24.2],[72.0,-24.4],[72.5,-24.0],[72.55555555555556,-23.555555555555557],[73.0,-23.333333333333336],[73.06557377049181,-23.934426229508198],[74.0,-24.0],[75.0,-24.57142857142857],[76.0,-24.166666666666664],[76.4,-24.6],[77.0,-24.764705882352942],[77.07339449541284,-24.926605504587158],[79.27777777777777,-25.0],[79.51851851851852,-25.481481481481485],[80.0,-25.72222222222222],[80.09345794392523,-25.906542056074766],[84.01990049751244,-25.980099502487562],[84.36363636363636,-26.636363636363637],[84.63636363636363,-26.636363636363637],[85.09756097560975,-26.902439024390244],[87.0,-27.0],[87.1311475409836,-27.868852459016395],[89.25,-28.0],[89.6470588235294,-28.352941176470587],[90.0,-28.46153846153846],[90.14141414141415,-28.858585858585858],[90.77952755905511,-28.77952755905512],[93.94174757281553,-28.941747572815533],[94.46153846153847,-28.461538461538463],[94.66666666666666,-28.0],[95.82352941176471,-27.823529411764703],[95.9624060150376,-26.962406015037594],[96.84466019417475,-26.844660194174757],[97.0,-26.384615384615387],[97.28571428571428,-26.285714285714285],[97.55555555555556,-26.0],[97.95767195767196,-25.957671957671955],[98.1311475409836,-26.131147540983605],[98.20779220779221,-26.79220779220779],[98.77777777777777,-26.77777777777778],[99.16666666666666,-27.0],[99.46376811594203,-27.53623188405797],[101.0,-28.055555555555554],[101.4578313253012,-29.542168674698797],[102.11469534050178,-29.88530465949821],[102.30769230769232,-30.307692307692307],[102.30769230769232,-30.692307692307693],[102.70833333333333,-30.708333333333332],[103.09333333333333,-30.906666666666666],[103.23728813559322,-31.237288135593218],[103.24590163934425,-31.75409836065574],[103.75,-32.0],[104.0,-32.27777777777778],[104.21978021978022,-34.78021978021978],[104.79310344827587,-34.79310344827586],[105.09473684210526,-35.0],[105.06521739130434,-41.0],[104.86363636363636,-41.13636363636364],[104.16666666666666,-41.16666666666667],[104.06521739130434,-43.0],[103.84810126582278,-43.151898734177216],[103.19780219780219,-43.197802197802204],[103.09302325581395,-44.0],[103.1219512195122,-50.8780487804878],[103.26315789473685,-51.26315789473684],[103.25,-51.75],[103.78125,-51.78125],[104.10687022900764,-52.10687022900764],[104.18421052631578,-53.0],[104.02247191011236,-56.02247191011236],[103.16,-56.160000000000004],[103.05017921146953,-57.05017921146953],[102.8494623655914,-57.15053763440861],[102.13483146067415,-57.13483146067416],[102.16494845360825,-57.83505154639175],[102.05673758865248,-58.05673758865248],[101.83673469387756,-58.163265306122454],[101.11627906976744,-58.116279069767444],[101.14893617021276,-58.851063829787236],[101.05017921146953,-59.05017921146953],[100.85714285714285,-59.142857142857146],[100.07317073170731,-59.07317073170732],[100.12765957446808,-59.87234042553192],[100.0,-60.065217391304344],[97.11111111111111,-60.11111111111111],[97.11111111111111,-60.888888888888886],[97.0,-61.03370786516854],[94.07594936708861,-61.07594936708861],[94.0,-62.033707865168545],[90.10909090909092,-62.10909090909091],[90.02575107296138,-63.02575107296137],[87.13636363636364,-63.13636363636364],[87.13636363636364,-63.86363636363636],[87.02702702702702,-64.02702702702703],[85.06818181818181,-64.06818181818181],[85.0,-65.03370786516854],[83.04705882352941,-65.04705882352941],[83.02439024390245,-66.02439024390245],[82.08695652173913,-66.08695652173913],[82.01515151515152,-68.01515151515152],[80.06741573033707,-68.06741573033707],[80.02255639097744,-69.02255639097746],[79.06741573033707,-69.06741573033707],[79.0,-70.02272727272727],[74.09433962264151,-70.09433962264151],[73.42857142857143,-70.42857142857143],[73.33333333333333,-71.0],[72.80582524271844,-71.19417475728156],[72.21621621621622,-71.21621621621622],[72.0,-71.85714285714286],[71.04838709677419,-72.04838709677419],[70.34782608695652,-72.34782608695652],[70.09677419354838,-73.0],[69.05357142857143,-73.05357142857143],[68.73913043478261,-73.26086956521739],[68.26086956521739,-73.26086956521739],[68.26086956521739,-73.73913043478261],[68.02985074626866,-74.02985074626866],[64.11538461538461,-74.11538461538461],[63.66666666666667,-74.33333333333334],[63.333333333333336,-74.33333333333334],[63.0,-75.0],[59.0,-75.01149425287356],[58.85,-74.15],[55.0,-74.03370786516854],[54.93181818181818,-73.06818181818181],[53.0,-73.05494505494507],[52.891304347826086,-72.89130434782608],[52.92857142857142,-72.07142857142857],[51.625,-72.0],[51.41666666666667,-71.58333333333334],[51.0,-71.375],[50.565217391304344,-71.56521739130434],[50.285714285714285,-72.0],[50.021857923497265,-72.02185792349727],[44.968421052631584,-72.03157894736843],[44.75,-72.0],[44.5,-71.5],[44.0,-71.25],[43.0,-71.25],[41.0,-71.375],[39.0,-72.0],[34.950248756218905,-72.04975124378109],[34.73684210526316,-72.0],[34.5,-71.5],[33.80392156862745,-71.19607843137256],[30.99019607843137,-71.00980392156863],[30.72093023255814,-70.27906976744185],[30.256410256410255,-70.25641025641025],[29.917355371900825,-70.08264462809917],[26.0,-70.0],[25.703703703703702,-69.29629629629629],[25.0,-69.14285714285714],[22.1875,-69.1875],[21.0,-69.43333333333334],[20.0,-69.15384615384616],[19.0,-69.63157894736841],[18.0,-69.375],[17.444444444444443,-69.44444444444444],[16.733333333333334,-69.73333333333332],[16.0,-69.77777777777777],[15.5,-69.5],[14.275862068965518,-69.27586206896552],[13.0,-69.375],[12.833333333333332,-69.16666666666667],[12.100000000000001,-69.0],[12.066666666666666,-67.93333333333334],[9.642857142857142,-67.35714285714286],[9.375,-67.0],[9.31578947368421,-66.68421052631578],[9.0,-66.625],[8.0,-65.86666666666667],[7.3589743589743595,-66.35897435897436],[6.5813953488372094,-66.5813953488372],[6.140350877192983,-67.14035087719299],[4.0,-66.93333333333334],[3.0,-67.09677419354838],[-0.034090909090909116,-67.0340909090909],[-0.6,-67.0],[-1.0,-66.81818181818181],[-1.6666666666666665,-67.0],[-3.1,-67.0],[-3.8181818181818183,-65.81818181818181],[-4.0,-65.76923076923077],[-5.0,-66.33333333333334],[-6.363636363636363,-66.63636363636364],[-6.666666666666666,-67.0],[-8.0,-67.0],[-8.574468085106384,-66.57446808510639],[-9.433333333333334,-66.43333333333334],[-10.111111111111112,-66.0],[-9.615384615384615,-65.38461538461539],[-8.866666666666667,-65.13333333333333],[-9.0,-64.84210526315789],[-12.0,-64.90625],[-12.833333333333332,-64.83333333333333],[-13.0,-64.71428571428572],[-13.216216216216218,-64.78378378378378],[-13.673469387755102,-65.3265306122449],[-14.0,-65.44444444444444],[-15.157894736842106,-65.15789473684211],[-16.0,-64.6],[-17.413793103448278,-64.41379310344828],[-18.0,-64.16666666666667],[-18.099999999999998,-64.0],[-19.52631578947369,-63.526315789473685],[-20.0,-63.18181818181818],[-21.0,-63.09090909090909],[-21.09090909090909,-63.0],[-21.0,-62.0],[-21.833333333333336,-61.0],[-21.6,-60.60000000000001],[-22.11111111111111,-60.11111111111111],[-22.0,-59.8],[-21.46511627906977,-60.46511627906977],[-20.444444444444443,-60.444444444444436],[-19.0,-61.81818181818182],[-17.115384615384617,-62.11538461538461],[-16.574468085106382,-62.57446808510638],[-16.232558139534884,-63.23255813953489],[-16.0,-63.294117647058826],[-15.836065573770492,-63.16393442622951],[-15.0,-63.130434782608695],[-14.246153846153845,-63.246153846153845],[-14.0,-63.53333333333333],[-13.0,-63.5],[-12.0,-63.064516129032256],[-11.0,-63.0],[-10.444444444444443,-62.55555555555555],[-9.704918032786885,-62.295081967213115],[-6.971830985915493,-62.02816901408451],[-6.0,-61.666666666666664],[-4.0,-61.57142857142857],[-1.8125,-61.1875],[1.75,-61.0],[1.75,-60.0],[1.5,-59.5],[0.875,-59.125],[-3.0,-59.0],[-3.2857142857142856,-58.28571428571428],[-4.0,-58.166666666666664],[-4.7142857142857135,-58.28571428571428],[-5.0,-59.0],[-8.8,-59.2],[-9.0,-59.5],[-9.222222222222221,-59.22222222222222],[-10.0,-59.142857142857146],[-10.1,-59.0],[-10.11111111111111,-57.88888888888889],[-9.25,-57.75],[-9.25,-57.25],[-9.125,-57.0],[-9.2,-56.2],[-9.5,-56.0],[-9.666666666666668,-55.66666666666667],[-10.0,-55.5],[-10.166666666666666,-55.16666666666667],[-12.0,-55.1],[-12.285714285714285,-55.28571428571428],[-12.714285714285714,-55.28571428571428],[-12.578947368421051,-55.578947368421055],[-12.8,-56.2],[-13.538461538461538,-56.46153846153846],[-13.899999999999999,-57.0],[-14.0,-57.5],[-14.200000000000001,-57.8],[-15.0,-58.0],[-15.8,-57.8],[-16.923076923076923,-57.92307692307692],[-17.875,-57.875],[-19.0,-57.5],[-19.333333333333336,-57.66666666666667],[-19.571428571428573,-57.57142857142858],[-20.0,-57.625],[-20.434782608695652,-57.434782608695656],[-22.142857142857142,-57.14285714285714],[-24.0,-56.285714285714285],[-25.0,-56.0],[-25.22222222222222,-55.22222222222222],[-25.866666666666667,-54.86666666666667],[-26.22222222222222,-54.22222222222222],[-26.166666666666668,-54.0],[-26.5,-53.5],[-27.375,-53.375],[-28.0,-53.0],[-27.6,-52.4],[-27.5,-52.0],[-28.26086956521739,-51.73913043478261],[-28.866666666666667,-51.86666666666667],[-29.0,-51.5],[-29.0,-50.92307692307693],[-28.333333333333332,-50.0],[-28.510204081632654,-49.51020408163266],[-29.416666666666668,-48.41666666666667],[-30.0,-48.090909090909086],[-29.93103448275862,-47.0],[-30.301075268817208,-46.3010752688172],[-31.00892857142857,-46.00892857142857],[-31.045801526717558,-45.04580152671756],[-32.01851851851852,-44.01851851851852],[-32.042857142857144,-43.0],[-32.27777777777778,-42.27777777777777],[-33.0,-41.2],[-33.12765957446808,-39.0],[-33.549783549783555,-37.54978354978355],[-33.833333333333336,-37.0],[-34.11827956989247,-35.0],[-35.0,-32.760000000000005],[-35.57491289198606,-29.57491289198606],[-36.546827794561935,-26.546827794561935],[-37.34285714285714,-25.342857142857145],[-37.6010498687664,-24.601049868766403],[-38.21082621082621,-24.210826210826212],[-38.598971722365036,-23.598971722365036],[-39.31607629427793,-23.316076294277927],[-39.7979094076655,-22.797909407665504],[-41.154761904761905,-22.154761904761905],[-41.54617414248021,-21.54617414248021],[-42.150150150150154,-21.15015015015015],[-42.541333333333334,-20.541333333333334],[-43.17291066282421,-20.172910662824208],[-43.54787234042553,-19.547872340425535],[-44.15976331360947,-19.159763313609467],[-44.527472527472526,-18.527472527472526],[-45.08163265306122,-18.081632653061224],[-45.785714285714285,-16.785714285714285],[-46.266253869969034,-16.266253869969038],[-46.532033426183844,-15.532033426183844],[-47.12140575079872,-15.121405750798722],[-47.45662100456621,-14.456621004566209],[-47.96153846153846,-14.0],[-48.11764705882353,-12.882352941176471],[-48.04651162790698,-12.046511627906977],[-48.28235294117647,-11.28235294117647],[-48.79746835443038,-10.797468354430379],[-49.08510638297872,-10.085106382978722],[-49.80952380952381,-10.19047619047619],[-50.12244897959184,-10.0],[-50.0,-9.6],[-49.526315789473685,-9.473684210526315],[-49.25,-9.0],[-49.42857142857143,-8.428571428571429],[-50.03960396039604,-8.03960396039604],[-51.03030303030303,-8.030303030303031],[-51.0,-7.0],[-51.86274509803922,-7.137254901960784],[-52.075268817204304,-7.0],[-52.255319148936174,-5.25531914893617],[-53.0,-4.359999999999999],[-53.378787878787875,-3.0],[-53.577319587628864,-2.577319587628866],[-54.09473684210526,-2.0],[-54.411764705882355,0.5882352941176471],[-55.0,3.0],[-55.3469387755102,6.653061224489797],[-55.60893854748604,7.391061452513967],[-56.08510638297872,8.0],[-56.108695652173914,11.891304347826088],[-57.00766283524904,11.992337164750959],[-57.127272727272725,12.872727272727273],[-58.0,13.125],[-58.5043227665706,14.495677233429394],[-59.16504854368932,15.0],[-59.55102040816327,16.448979591836732],[-60.05691056910569,16.94308943089431],[-60.41420118343195,17.585798816568047],[-61.08843537414966,17.91156462585034],[-61.460732984293195,18.539267015706805],[-62.0,18.86734693877551],[-63.08,18.919999999999998],[-63.55760368663594,19.442396313364057],[-64.86666666666667,20.000000000000004],[-65.712,21.288000000000004],[-66.28571428571428,21.714285714285715],[-69.0,21.955555555555556],[-69.41558441558442,22.584415584415588],[-71.04347826086956,22.956521739130437],[-71.25210084033614,23.747899159663866],[-72.04379562043796,23.956204379562042],[-72.3943661971831,24.605633802816904],[-73.1294498381877,24.8705501618123],[-73.51829268292683,25.48170731707317],[-74.2,25.8],[-74.56776556776558,26.43223443223443],[-75.2015503875969,26.7984496124031],[-75.63917525773196,27.360824742268044],[-76.27272727272728,27.727272727272727],[-77.02962962962964,27.97037037037037],[-77.31944444444444,28.680555555555554],[-78.05017921146953,28.949820788530467],[-78.27814569536423,29.721854304635762],[-78.69999999999999,30.0],[-78.66666666666667,31.0],[-78.23021582733813,31.230215827338128],[-77.0,31.011494252873565],[-76.65714285714286,30.34285714285714],[-76.0,30.1123595505618],[-75.0,30.0],[-74.64912280701753,29.350877192982452],[-74.0,29.090909090909093],[-73.05405405405406,28.945945945945944],[-72.8736842105263,28.126315789473683],[-72.1263157894737,28.126315789473683],[-71.0,27.916666666666664],[-70.81666666666666,27.18333333333333],[-70.0,27.0],[-69.84158415841584,26.15841584158416],[-69.14432989690721,26.144329896907216],[-68.69565217391305,26.0],[-68.40506329113924,25.59493670886076],[-68.0,25.407407407407405],[-67.83582089552239,25.16417910447761],[-66.99233716475096,25.00766283524904],[-66.8345864661654,24.165413533834585],[-66.57692307692308,24.0],[-66.36144578313252,23.638554216867472],[-66.0,23.444444444444443],[-65.46315789473684,22.53684210526316],[-64.0,22.044444444444444],[-61.0,22.022727272727273],[-60.56521739130435,21.434782608695652],[-60.0,21.217391304347824],[-59.34615384615385,21.346153846153847],[-59.016129032258064,22.016129032258064],[-59.00829875518672,23.008298755186722],[-58.05714285714286,23.057142857142857],[-58.019230769230774,28.980769230769234],[-58.111111111111114,29.888888888888886],[-60.02247191011236,29.977528089887638],[-60.023529411764706,30.976470588235294],[-61.01149425287356,31.0],[-61.06060606060606,32.93939393939394],[-63.00766283524904,32.99233716475096],[-63.02298850574712,33.97701149425287],[-64.01960784313725,34.01960784313725],[-64.13333333333333,35.86666666666667],[-65.0,35.93333333333334],[-65.05,39.95],[-66.0,39.975],[-66.0,40.5],[-65.66666666666667,40.66666666666667],[-65.33333333333334,41.333333333333336],[-65.0,41.5],[-64.66666666666667,42.66666666666667],[-64.0,43.5],[-63.60000000000001,43.400000000000006],[-63.5,43.0],[-63.00000000000001,42.66666666666667],[-62.714285714285715,42.71428571428571],[-62.5,43.0],[-62.6,43.400000000000006],[-63.0,44.0],[-62.57142857142857,46.0],[-63.86666666666667,47.13333333333333],[-65.0,47.08333333333333],[-66.0,47.45454545454545],[-66.27272727272727,48.0],[-66.27906976744187,48.27906976744186],[-65.0,49.875],[-64.75,50.0],[-61.80582524271844,50.19417475728156],[-61.12048192771084,50.12048192771084],[-61.01550387596899,51.01550387596899],[-60.056603773584904,51.056603773584904],[-59.699999999999996,51.3],[-59.25,51.25],[-59.0,52.0],[-59.0,57.0],[-58.05555555555555,57.05555555555556],[-58.0,57.333333333333336],[-57.5,57.5],[-57.0,58.0],[-55.11764705882353,58.11764705882353],[-54.400000000000006,58.400000000000006],[-54.15384615384616,59.15384615384616],[-53.55555555555555,59.55555555555555],[-53.33333333333333,60.0],[-53.5,60.5],[-54.0,61.0],[-54.77777777777778,60.77777777777778],[-56.0,60.8],[-56.36363636363637,61.36363636363636],[-56.285714285714285,61.71428571428571],[-56.71428571428571,61.71428571428571],[-57.0,61.875],[-57.0,63.05555555555556],[-56.111111111111114,63.111111111111114],[-56.05555555555556,64.0],[-55.888888888888886,64.11111111111111],[-55.111111111111114,64.11111111111111],[-55.007462686567166,66.00746268656717],[-54.02222222222222,66.02222222222223],[-54.007462686567166,67.00746268656717],[-53.02197802197802,67.02197802197801],[-53.0,68.01149425287356],[-51.03076923076923,68.03076923076924],[-51.0,69.01149425287356],[-49.02702702702703,69.02702702702703],[-49.0,70.0],[-44.06185567010309,70.0618556701031],[-43.76923076923077,70.23076923076923],[-43.18181818181818,70.18181818181819],[-43.0,70.66666666666667],[-42.5,70.5],[-41.5,70.5],[-41.0,71.0],[-29.666666666666668,71.0],[-29.444444444444443,70.55555555555556],[-28.846153846153847,70.15384615384616],[-26.0,70.03030303030303],[-21.074074074074076,70.07407407407408],[-21.0,70.5],[-20.666666666666668,70.66666666666667],[-20.5,71.0],[-20.027027027027028,71.02702702702703],[-20.013888888888886,72.0],[-20.046511627906977,73.95348837209303],[-21.022727272727273,74.0],[-21.09090909090909,76.9090909090909],[-22.0,76.95454545454545],[-22.058823529411764,77.94117647058825],[-24.063157894736843,77.93684210526315],[-24.162162162162165,78.16216216216216],[-24.025316455696206,78.9746835443038],[-24.9746835443038,78.9746835443038],[-25.11764705882353,79.11764705882354],[-25.0,80.0],[-24.75,79.25],[-23.0,79.0],[-22.666666666666668,78.33333333333334],[-22.0,78.2],[-21.0,78.2],[-20.0,78.4],[-19.666666666666668,78.66666666666667],[-18.916666666666668,78.91666666666667],[-18.944444444444446,79.05555555555556],[-19.7,79.3],[-20.0,79.6],[-21.142857142857142,79.85714285714286],[-22.0,80.75],[-24.181818181818183,80.81818181818181],[-24.733333333333334,81.26666666666667],[-26.0,81.5],[-27.0,81.55555555555556],[-27.454545454545453,81.45454545454545],[-28.0,81.0],[-31.0,81.0],[-29.285714285714285,81.28571428571428],[-28.71428571428571,81.71428571428571],[-28.75,82.0],[-28.90909090909091,82.0909090909091],[-31.0,82.58823529411765],[-31.444444444444443,82.44444444444444],[-32.0,82.0],[-35.0,81.98850574712644],[-35.25,82.0],[-35.625,82.375],[-36.0,82.5],[-37.0,82.33333333333334],[-37.114285714285714,82.88571428571427],[-38.01379310344827,82.98620689655172],[-70.91304347826087,82.91304347826086],[-71.0,82.0],[-76.92592592592592,81.92592592592592],[-77.0,80.98850574712644],[-84.91999999999999,80.91999999999999],[-85.0,80.5],[-85.33333333333334,80.33333333333334],[-85.5,80.0],[-86.96825396825398,79.96825396825398],[-86.9915611814346,78.9915611814346],[-87.97674418604652,78.9767441860465],[-87.9848484848485,77.98484848484848],[-90.0,78.0],[-90.60000000000001,77.6],[-91.36363636363636,77.36363636363637],[-92.69230769230771,76.6923076923077],[-92.6470588235294,76.35294117647058],[-92.76923076923077,76.0],[-98.0,76.0],[-98.77777777777777,75.77777777777777],[-98.77777777777777,75.22222222222223],[-99.0,74.96629213483146],[-100.0,75.0],[-101.00000000000001,75.2],[-102.0,75.0],[-102.97752808988763,74.97752808988764],[-116.0,74.98850574712644],[-119.875,74.875],[-120.68421052631578,74.68421052631578],[-121.0,74.25],[-121.66666666666666,74.0],[-124.98540145985402,73.98540145985402],[-125.83870967741936,73.83870967741936],[-125.99107142857143,72.99107142857143],[-126.9496855345912,72.9496855345912],[-127.70212765957447,72.70212765957446],[-127.80645161290323,72.19354838709677],[-128.0,71.93478260869564],[-129.67832167832168,71.67832167832168],[-130.17073170731706,71.17073170731707],[-130.54054054054052,70.54054054054053],[-132.75,70.25],[-133.0,70.22222222222221],[-134.0,70.5909090909091],[-134.18556701030928,70.81443298969072],[-135.05633802816902,70.94366197183098],[-135.83157894736843,70.83157894736843],[-144.0,70.93478260869566],[-144.24,71.0],[-145.14285714285714,71.85714285714286],[-146.0,71.94444444444444],[-159.0,71.98850574712644],[-159.11764705882354,72.11764705882354],[-159.11764705882354,72.88235294117646],[-166.33333333333331,73.0],[-166.36363636363637,73.36363636363636],[-166.0,73.66666666666667],[-165.0,73.5],[-164.6,73.60000000000001],[-164.0,74.0],[-163.0,75.0],[-166.0,75.23076923076923],[-166.57894736842107,75.42105263157895],[-167.0,76.0],[-169.77777777777777,76.22222222222223],[-170.58333333333334,76.41666666666667],[-174.10526315789474,76.10526315789474],[-174.66666666666666,76.0],[-174.77777777777777,75.77777777777777],[-175.28571428571428,75.71428571428571],[-176.0,76.0],[-177.0,76.0],[-177.30769230769232,75.30769230769232],[-178.07999999999998,75.08],[-180.0,75.0625],[-180.0,90.0],[180.0,90.0],[180.0,75.0625],[179.25454545454545,75.25454545454545],[177.0,75.18181818181817],[176.2,75.0]],[[1.0,42.0],[1.4000000000000001,42.6],[1.6,43.400000000000006],[2.0,44.0],[1.4000000000000001,44.400000000000006],[1.25,45.0],[1.0,45.2],[0.8181818181818181,45.18181818181819],[0.5,44.5],[-0.25,44.0],[-0.4,41.6],[0.0,41.0],[1.0,41.0],[1.0,42.0]],[[39.84615384615385,-8.846153846153847],[39.15384615384615,-8.846153846153847],[38.833333333333336,-9.0],[38.81818181818181,-9.181818181818182],[40.06896551724138,-9.068965517241379],[40.2,-8.8],[40.0,-8.0],[39.84615384615385,-8.846153846153847]],[[-58.25,51.75],[-57.8,51.8],[-57.5,52.0],[-57.66666666666667,52.33333333333334],[-58.0,52.5],[-58.400000000000006,52.4],[-59.0,52.0],[-58.25,51.75]],[[-162.4,74.6],[-162.0,74.5],[-161.83333333333334,75.0],[-162.0909090909091,75.0909090909091],[-163.0,75.0],[-162.4,74.6]],[[-2.0,40.0],[-1.25,39.75],[-0.8461538461538461,39.84615384615385],[-0.7777777777777778,40.22222222222222],[-1.0,41.0],[-1.1666666666666665,40.166666666666664],[-2.0,40.0]],[[-3.0,40.0],[-3.0,39.0],[-2.0,39.0],[-2.0,40.0],[-3.0,40.0]],[[11.0,34.0],[10.0,34.0],[10.0,33.0],[11.0,33.0],[11.0,34.0]],[[10.222222222222221,34.77777777777778],[10.0,36.0],[9.0,36.0],[8.4,35.6],[8.0,35.5],[7.7142857142857135,35.285714285714285],[7.666666666666667,35.0],[8.333333333333334,34.66666666666667],[8.666666666666668,34.66666666666667],[9.0,34.0],[10.0,34.0],[10.222222222222221,34.77777777777778]],[[3.0,44.0],[4.0,44.0],[4.0,45.0],[3.0,45.0],[3.0,44.0]],[[-5.0,41.0],[-4.0,40.0],[-3.6000000000000005,40.6],[-3.666666666666667,41.0],[-4.222222222222222,41.22222222222222],[-5.0,41.0]],[[-6.0,44.66666666666667],[-6.0,42.0],[-5.0,42.0],[-5.0,45.0],[-5.6000000000000005,44.6],[-6.0,44.66666666666667]],[[-4.0,46.0],[-4.826086956521739,46.173913043478265],[-5.0,46.10526315789473],[-5.097560975609756,45.90243902439024],[-5.0,45.0],[-4.0,46.0]],[[-100.0,79.5],[-100.4,79.4],[-101.0,79.0],[-99.77777777777777,78.77777777777777],[-99.5,79.0],[-99.66666666666667,79.33333333333334],[-100.0,79.5]],[[-96.19999999999999,78.8],[-98.0,78.875],[-98.25,78.75],[-98.75,78.75],[-98.75,78.25],[-98.875,78.0],[-98.5,77.5],[-98.0,77.3],[-96.42857142857143,77.42857142857143],[-95.625,77.625],[-95.4,78.0],[-95.53846153846155,78.46153846153847],[-96.19999999999999,78.8]],[[-14.666666666666668,74.66666666666667],[-14.5,75.0],[-13.777777777777779,75.22222222222223],[-12.666666666666668,75.33333333333334],[-12.0,75.0],[-11.0,75.0],[-11.5,75.5],[-11.5,76.0],[-11.285714285714285,76.28571428571428],[-10.5,76.5],[-10.0,77.0],[-11.0,77.66666666666667],[-12.0,77.5],[-13.0,77.0],[-14.666666666666668,77.33333333333334],[-17.235294117647058,77.23529411764706],[-18.333333333333336,77.0],[-18.333333333333336,76.66666666666667],[-18.0,76.0],[-17.77777777777778,75.22222222222223],[-16.75,75.0],[-16.5,74.5],[-16.0,74.25],[-15.333333333333334,74.33333333333334],[-14.666666666666668,74.66666666666667]],[[-10.833333333333334,73.16666666666667],[-10.0,73.0],[-9.153846153846153,73.15384615384616],[-9.0,74.0],[-9.153846153846153,74.84615384615384],[-10.0,75.0],[-11.0,75.0],[-10.833333333333334,73.16666666666667]],[[-7.0,74.0],[-6.4,74.4],[-6.0,75.0],[-6.4,75.60000000000001],[-7.0,76.0],[-8.0,76.0],[-8.5,75.5],[-8.666666666666668,75.0],[-8.600000000000001,74.6],[-9.0,74.0],[-7.0,74.0]],[[-18.75,75.75],[-19.0,75.85714285714286],[-19.285714285714285,75.71428571428571],[-19.714285714285715,75.71428571428571],[-19.714285714285715,75.28571428571428],[-19.857142857142858,75.0],[-19.714285714285715,74.71428571428571],[-19.714285714285715,74.28571428571428],[-19.285714285714285,74.28571428571428],[-19.0,74.14285714285714],[-18.714285714285715,74.28571428571428],[-18.285714285714285,74.28571428571428],[-18.285714285714285,74.71428571428571],[-18.142857142857142,75.0],[-18.25,75.25],[-18.0,76.0],[-18.75,75.75]],[[16.0,69.66666666666667],[17.0,69.36363636363636],[18.26086956521739,69.26086956521739],[18.6,69.0],[18.46153846153846,68.53846153846155],[17.0,68.42857142857142],[16.0,68.0],[16.333333333333336,67.33333333333334],[17.0,67.0],[19.0,67.0],[18.666666666666668,67.66666666666667],[18.75,68.0],[18.6,68.4],[19.400000000000002,68.4],[20.0,68.0],[20.0,69.0],[21.0,69.16666666666666],[21.5,69.5],[21.75,70.25],[22.266666666666666,70.73333333333333],[24.0,71.0],[21.375,71.375],[19.0,71.16666666666667],[18.0,71.2],[17.0,71.0],[16.0,71.33333333333334],[15.0,71.0],[14.0,71.4],[13.636363636363637,71.36363636363636],[13.0,71.0],[12.555555555555555,71.55555555555554],[12.0,71.8],[10.833333333333334,71.83333333333334],[9.0,72.75],[8.4,72.6],[8.0,72.0],[9.476190476190476,71.47619047619047],[9.714285714285715,71.0],[11.470588235294118,70.47058823529412],[12.0,70.0],[12.81818181818182,69.81818181818181],[15.0,69.6],[16.0,69.66666666666667]],[[37.0,74.33333333333334],[36.5,74.0],[37.0,73.75],[37.333333333333336,74.0],[37.0,74.33333333333334]],[[41.375,44.0],[41.65517241379311,43.65517241379311],[42.0,43.5],[43.0,43.5],[43.3030303030303,43.696969696969695],[43.400000000000006,44.400000000000006],[43.0,44.714285714285715],[42.0,44.625],[41.6,44.400000000000006],[41.375,44.0]],[[69.0,42.577235772357724],[68.57485029940119,42.4251497005988],[68.0,41.834951456310684],[67.0,41.868686868686865],[66.25954198473282,41.74045801526718],[66.0,41.291666666666664],[65.5625,41.0],[64.81052631578947,40.810526315789474],[64.18947368421053,40.810526315789474],[64.00790513833992,39.99209486166008],[62.357894736842105,39.642105263157895],[62.0,39.0],[58.02247191011236,38.97752808988764],[57.0,38.84375],[55.99999999999999,38.08571428571428],[55.25,38.0],[55.647058823529406,37.64705882352941],[55.75757575757576,36.75757575757576],[56.0,36.5],[56.10526315789473,36.10526315789474],[61.0,36.01149425287356],[61.03703703703704,35.03703703703703],[68.97590361445783,35.02409638554217],[69.0,35.5],[69.33333333333334,35.66666666666667],[69.5,36.0],[70.96774193548387,36.03225806451613],[71.0,36.25],[71.5,36.5],[71.75,37.0],[73.96875,37.03125],[74.0,38.0],[78.5,38.0],[78.66666666666667,37.66666666666667],[79.33333333333334,37.333333333333336],[80.81818181818181,37.18181818181819],[81.03448275862068,37.03448275862069],[84.33333333333334,37.0],[84.55555555555554,36.55555555555556],[85.0,36.333333333333336],[85.03571428571428,36.035714285714285],[88.125,36.0],[88.25,35.75],[88.25,35.25],[88.75,35.25],[89.0212765957447,35.02127659574468],[91.00766283524904,35.00766283524904],[91.02298850574712,34.02298850574712],[92.1,34.0],[92.19999999999999,33.2],[92.8,33.2],[93.02061855670102,33.02061855670103],[94.00772200772201,33.007722007722],[94.02352941176471,32.023529411764706],[95.00896860986546,32.00896860986547],[95.03921568627452,31.03921568627451],[96.01724137931033,31.0],[96.0344827586207,30.03448275862069],[97.00947867298578,30.009478672985782],[97.02409638554217,29.02409638554217],[98.01169590643275,29.011695906432745],[98.02197802197801,28.021978021978022],[98.25,28.0],[98.5,27.5],[99.13333333333333,27.133333333333333],[99.13333333333333,26.133333333333333],[99.33333333333334,26.0],[99.55555555555556,25.555555555555554],[100.16666666666666,25.166666666666664],[100.22222222222223,24.22222222222222],[101.0,24.11111111111111],[101.22222222222223,24.22222222222222],[102.0,24.0],[101.69230769230771,24.692307692307693],[101.80000000000001,25.0],[101.0,25.88888888888889],[100.83333333333334,25.833333333333336],[100.66666666666666,26.0],[100.86666666666667,26.133333333333333],[100.81818181818181,27.818181818181817],[99.78947368421052,27.789473684210524],[99.6,28.0],[99.95744680851064,28.04255319148936],[99.97727272727272,29.977272727272727],[99.0,30.0],[98.97142857142858,31.97142857142857],[98.0,31.985714285714288],[97.97727272727272,32.97727272727273],[97.0,33.0],[96.97894736842106,33.97894736842105],[96.71428571428571,34.285714285714285],[96.71428571428571,34.71428571428571],[96.28571428571428,34.71428571428571],[96.0,34.85714285714286],[95.97752808988764,35.97752808988764],[95.66666666666667,36.0],[95.5,36.5],[95.0,36.666666666666664],[94.97849462365592,36.97849462365591],[94.66666666666666,37.0],[94.26666666666667,37.266666666666666],[94.0,38.0],[92.0,37.98850574712644],[92.0,39.0],[90.0,38.98850574712643],[89.94444444444444,39.94444444444445],[87.9921875,39.9921875],[87.95294117647059,40.95294117647059],[86.93333333333334,41.0],[86.60000000000001,41.6],[85.98039215686273,41.98039215686274],[84.99227799227799,41.99227799227799],[84.91397849462365,42.913978494623656],[82.99233716475096,42.99233716475096],[82.87878787878788,43.87878787878788],[72.0,43.93846153846154],[71.45454545454545,43.54545454545455],[71.00847457627118,42.99152542372881],[70.33623188405797,42.66376811594203],[69.0,42.577235772357724]],[[101.16666666666666,23.833333333333336],[101.0909090909091,23.0],[101.18181818181819,22.18181818181818],[101.81818181818181,22.18181818181818],[102.05555555555556,22.055555555555554],[102.11764705882354,21.11764705882353],[103.0,20.428571428571427],[103.3157894736842,20.31578947368421],[104.0,19.0],[105.00000000000001,18.666666666666668],[106.72222222222223,17.72222222222222],[108.0,17.6],[108.94117647058823,16.941176470588236],[109.0,16.75],[110.25,16.25],[110.58333333333334,15.583333333333334],[111.0,15.375],[112.23076923076923,15.23076923076923],[115.0,15.2],[119.0,15.428571428571429],[119.4,15.600000000000001],[119.66666666666667,16.0],[120.78571428571428,16.214285714285715],[122.0,16.75],[122.25,17.0],[122.4,18.0],[121.875,18.875],[121.0,19.0],[120.0,18.266666666666666],[118.8,18.2],[118.0,18.0],[116.0,18.4],[115.4,18.400000000000002],[114.66666666666667,18.666666666666668],[114.0,18.75],[113.66666666666667,19.0],[114.0,20.0],[114.60000000000001,20.400000000000002],[115.0,21.0],[115.75,21.25],[116.33333333333334,21.666666666666668],[117.0,21.75],[117.25,22.0],[117.0,22.5],[116.66666666666667,22.666666666666668],[116.5,23.0],[116.5,23.5],[117.0,24.0],[116.0,24.0],[116.0,25.0],[115.4,24.6],[115.0,24.666666666666664],[114.25,25.25],[114.0,26.0],[113.22222222222223,25.77777777777778],[113.0,25.833333333333336],[112.5,25.5],[112.44444444444446,25.0],[112.66666666666669,24.666666666666668],[112.81818181818181,23.18181818181818],[112.6,22.0],[112.77777777777777,21.77777777777778],[112.9090909090909,21.0],[112.7142857142857,20.285714285714285],[112.5,20.0],[112.5,19.0],[112.1904761904762,18.80952380952381],[111.0,18.75],[108.0,19.0],[107.0,19.5],[105.7037037037037,19.703703703703702],[104.47058823529412,20.470588235294116],[103.75510204081633,21.755102040816325],[103.80645161290322,22.0],[103.59090909090908,22.590909090909086],[102.9,22.900000000000002],[102.6,23.6],[102.0,24.0],[101.16666666666666,23.833333333333336]],[[114.52941176470588,26.470588235294116],[115.44444444444443,26.555555555555554],[116.0,28.0],[116.90476190476191,29.095238095238095],[117.47999999999999,29.52],[118.27586206896552,29.724137931034484],[118.66666666666666,30.0],[118.66666666666669,30.333333333333336],[119.0,31.0],[117.0,31.25],[116.78571428571428,31.214285714285715],[116.2962962962963,30.703703703703702],[116.0,30.599999999999998],[115.72413793103448,30.724137931034484],[115.25806451612902,31.258064516129032],[114.5,31.5],[114.10000000000001,32.0],[114.1111111111111,33.0],[114.0,33.142857142857146],[113.90476190476191,33.095238095238095],[113.84615384615384,30.846153846153847],[114.0,30.5],[114.29629629629629,30.296296296296294],[114.54545454545453,29.0],[113.7142857142857,26.714285714285715],[114.0,26.0],[114.52941176470588,26.470588235294116]],[[96.95454545454545,37.04545454545455],[96.0,37.0],[96.60000000000001,36.6],[97.0,36.5],[97.06451612903226,36.935483870967744],[96.95454545454545,37.04545454545455]],[[101.0,59.9],[101.5,60.0],[100.94736842105263,60.0],[101.0,59.9]],[[168.16666666666669,80.83333333333334],[168.25,81.25],[168.0,81.5],[167.66666666666669,81.33333333333334],[167.5,81.0],[168.0,80.75],[168.16666666666669,80.83333333333334]],[[170.0,80.66666666666667],[170.66666666666669,81.0],[170.44444444444443,81.44444444444444],[170.0,81.66666666666667],[169.63636363636363,81.36363636363636],[169.60000000000002,81.0],[169.75,80.75],[170.0,80.66666666666667]],[[110.0,33.0],[109.0,33.5],[108.78947368421052,33.21052631578947],[108.73333333333333,32.733333333333334],[109.0,32.333333333333336],[110.0,33.0]],[[126.0,48.5],[127.0,48.5],[127.26666666666667,48.733333333333334],[127.44444444444444,49.44444444444444],[127.0,49.666666666666664],[125.8,49.2],[125.66666666666669,49.0],[126.0,48.5]],[[127.5,50.0],[127.6,49.6],[128.33333333333334,50.0],[128.125,50.125],[127.5,50.0]],[[126.83333333333333,15.166666666666668],[127.44444444444444,15.555555555555554],[127.66666666666666,16.0],[127.5,16.5],[127.0,16.666666666666664],[126.55555555555556,16.444444444444443],[126.16666666666667,15.833333333333332],[125.2,15.8],[125.0,15.0],[125.2,14.200000000000001],[126.0,14.11111111111111],[126.77777777777777,14.222222222222221],[126.83333333333333,15.166666666666668]],[[3.0,32.4],[2.5999999999999996,32.0],[3.1176470588235294,31.88235294117647],[3.4,32.0],[3.0,32.4]],[[-18.7,-52.99999999999999],[-19.0,-52.66666666666667],[-19.5,-53.0],[-19.0,-53.375],[-18.759999999999998,-53.24],[-18.7,-52.99999999999999]],[[6.245614035087719,-64.75438596491227],[6.0,-64.5],[5.416666666666667,-65.0],[6.0,-65.58333333333333],[6.304347826086957,-65.30434782608695],[6.245614035087719,-64.75438596491227]],[[11.0,-21.666666666666668],[10.5,-22.0],[10.0,-23.0],[10.8,-23.2],[11.0,-23.4],[11.363636363636363,-22.636363636363637],[11.285714285714285,-22.285714285714285],[12.0,-22.0],[11.333333333333334,-21.666666666666668],[11.0,-21.666666666666668]],[[13.0,-22.5],[12.8,-22.799999999999997],[13.0,-24.0],[13.2,-22.799999999999997],[13.0,-22.5]],[[14.285714285714285,-48.28571428571428],[14.0,-47.76190476190476],[13.5,-48.0],[13.666666666666668,-48.333333333333336],[14.0,-48.416666666666664],[14.285714285714285,-48.28571428571428]],[[16.313725490196077,-36.68627450980392],[15.714285714285712,-36.714285714285715],[15.0,-37.0],[16.0,-37.31999999999999],[16.29090909090909,-37.29090909090909],[16.666666666666664,-37.0],[16.313725490196077,-36.68627450980392]],[[16.933333333333334,-49.93333333333334],[17.125,-50.125],[17.25,-50.0],[17.11764705882353,-49.88235294117647],[16.933333333333334,-49.93333333333334]],[[19.733333333333334,-36.266666666666666],[20.0,-36.5],[20.22222222222222,-36.22222222222222],[20.692307692307693,-36.30769230769231],[21.0,-36.22222222222222],[21.6,-36.400000000000006],[22.0,-36.75],[22.444444444444443,-36.44444444444444],[22.666666666666664,-36.0],[22.461538461538463,-35.53846153846154],[21.799999999999997,-35.2],[21.4,-34.0],[21.19047619047619,-33.80952380952381],[20.904761904761905,-33.904761904761905],[20.61904761904762,-34.61904761904762],[19.636363636363637,-35.63636363636364],[19.0,-35.64285714285714],[18.166666666666664,-36.0],[18.655172413793103,-36.3448275862069],[19.733333333333334,-36.266666666666666]],[[23.0,-22.333333333333336],[23.6,-22.0],[24.30769230769231,-21.307692307692307],[24.647058823529413,-19.647058823529413],[25.75,-19.0],[26.0,-18.0],[25.444444444444443,-17.555555555555557],[24.714285714285715,-17.285714285714285],[24.5,-17.0],[24.0,-16.75],[23.0,-17.0],[22.0,-17.666666666666668],[21.75,-18.0],[21.6,-19.0],[22.0,-20.0],[21.866666666666667,-20.866666666666667],[22.0,-21.5],[22.571428571428573,-22.42857142857143],[23.0,-22.333333333333336]],[[33.333333333333336,-17.0],[33.266666666666666,-16.733333333333334],[32.75,-16.75],[32.0,-17.0],[32.63636363636364,-17.363636363636363],[33.0,-18.0],[33.333333333333336,-17.333333333333336],[33.333333333333336,-17.0]],[[34.0,-14.833333333333332],[33.833333333333336,-15.0],[34.0,-15.5],[34.13333333333333,-14.866666666666667],[34.0,-14.833333333333332]],[[35.92857142857143,-12.0],[36.0,-12.25],[36.125,-12.0],[36.111111111111114,-11.88888888888889],[35.92857142857143,-12.0]],[[36.925925925925924,-10.925925925925926],[36.888888888888886,-11.11111111111111],[37.07142857142857,-11.071428571428573],[37.111111111111114,-10.88888888888889],[36.925925925925924,-10.925925925925926]],[[37.916666666666664,-9.916666666666668],[37.888888888888886,-10.11111111111111],[38.2,-10.0],[38.18181818181818,-9.818181818181818],[37.916666666666664,-9.916666666666668]],[[39.91304347826087,-57.08695652173913],[40.0,-57.2],[40.333333333333336,-57.00000000000001],[40.01980198019802,-56.98019801980198],[39.91304347826087,-57.08695652173913]],[[41.0,-33.57142857142857],[40.57142857142857,-34.0],[41.19354838709677,-34.193548387096776],[41.214285714285715,-33.785714285714285],[41.0,-33.57142857142857]],[[46.0,-33.58333333333333],[43.833333333333336,-33.83333333333333],[43.77777777777778,-34.0],[44.0,-34.666666666666664],[44.25,-34.25],[45.0,-34.2],[45.629629629629626,-34.37037037037037],[46.0,-34.625],[46.333333333333336,-34.333333333333336],[46.45454545454545,-34.0],[46.0,-33.58333333333333]],[[49.16666666666667,-48.83333333333333],[49.0,-48.66666666666667],[48.69230769230769,-48.69230769230769],[48.333333333333336,-49.0],[49.0,-49.22222222222223],[49.16666666666667,-48.83333333333333]],[[49.8,-48.00000000000001],[49.9,-48.1],[50.0,-47.900000000000006],[49.8,-48.00000000000001]],[[51.6,-35.0],[51.0,-34.4],[50.75,-34.75],[50.25,-35.0],[51.25,-35.25],[51.6,-35.0]],[[53.0,-60.0],[54.285714285714285,-60.28571428571428],[54.5,-60.0],[54.285714285714285,-59.71428571428571],[54.2,-59.0],[54.0,-58.800000000000004],[52.0,-59.0],[52.6,-59.400000000000006],[53.0,-60.0]],[[53.18181818181819,-50.18181818181818],[53.17142857142857,-49.82857142857142],[53.0,-49.75],[52.57142857142857,-50.0],[52.72727272727272,-50.272727272727266],[53.0,-50.333333333333336],[53.18181818181819,-50.18181818181818]],[[54.55555555555556,-35.0],[54.303030303030305,-34.696969696969695],[54.0,-34.61538461538462],[53.44444444444444,-35.0],[53.696969696969695,-35.303030303030305],[54.0,-35.38461538461539],[54.55555555555556,-35.0]],[[56.0,-57.55555555555556],[56.35714285714286,-57.357142857142854],[56.25641025641025,-56.74358974358974],[56.0,-56.44444444444444],[55.77272727272727,-56.77272727272727],[55.16666666666667,-57.0],[55.60000000000001,-57.4],[56.0,-57.55555555555556]],[[61.41176470588235,-59.0],[60.69444444444445,-58.30555555555556],[60.66666666666667,-58.0],[60.27848101265823,-57.721518987341774],[57.06060606060606,-57.93939393939394],[56.833333333333336,-57.83333333333333],[56.81818181818182,-58.18181818181818],[57.0,-58.5],[57.28571428571428,-58.71428571428571],[58.0,-58.8],[58.5,-60.0],[58.86666666666667,-60.13333333333334],[59.769230769230774,-59.769230769230774],[61.0,-59.53846153846154],[61.41176470588235,-59.0]],[[58.45333333333333,-33.45333333333333],[58.73913043478261,-33.0],[58.38636363636363,-32.61363636363636],[57.66666666666667,-32.66666666666667],[57.43333333333333,-33.0],[57.521126760563384,-33.478873239436616],[58.0,-33.80952380952381],[58.45333333333333,-33.45333333333333]],[[61.18518518518519,-30.185185185185183],[61.23809523809524,-29.761904761904763],[61.0,-29.66666666666667],[60.76190476190476,-29.761904761904763],[60.61538461538461,-30.0],[60.76744186046512,-30.232558139534888],[61.18518518518519,-30.185185185185183]],[[63.38461538461539,-28.000000000000004],[63.28169014084507,-27.718309859154928],[63.00000000000001,-27.666666666666668],[62.78021978021978,-27.78021978021978],[62.770114942528735,-28.229885057471265],[63.24390243902439,-28.24390243902439],[63.38461538461539,-28.000000000000004]],[[93.28571428571428,-29.714285714285715],[93.0,-29.5],[92.0,-30.0],[92.6470588235294,-30.352941176470587],[93.0,-30.375],[93.33333333333334,-30.000000000000004],[93.28571428571428,-29.714285714285715]],[[-53.0,53.5],[-54.0,53.66666666666667],[-54.44444444444444,53.444444444444436],[-54.66666666666667,53.0],[-55.0,52.0],[-54.33333333333334,51.00000000000001],[-54.10526315789474,50.89473684210526],[-53.75,51.0],[-53.25,52.25],[-52.83333333333333,52.83333333333333],[-52.8,53.2],[-53.0,53.5]],[[-49.0,61.5],[-48.66666666666667,61.66666666666667],[-48.5,62.0],[-48.66666666666667,62.333333333333336],[-49.0,62.5],[-49.33333333333334,62.333333333333336],[-49.5,62.0],[-49.33333333333334,61.66666666666667],[-49.0,61.5]],[[-47.75,57.0],[-47.75,57.25],[-48.0,57.5],[-48.28571428571428,57.28571428571428],[-48.33333333333333,57.00000000000001],[-48.00000000000001,56.800000000000004],[-47.75,57.0]],[[-44.63636363636364,58.63636363636364],[-44.0,59.0],[-44.5,59.5],[-45.0,59.66666666666667],[-45.44444444444444,59.44444444444444],[-45.666666666666664,59.0],[-45.30769230769231,58.69230769230769],[-44.63636363636364,58.63636363636364]],[[-42.0,67.33333333333333],[-41.55555555555555,67.55555555555556],[-41.333333333333336,68.0],[-41.55555555555555,68.44444444444444],[-42.0,68.66666666666667],[-42.44444444444444,68.44444444444444],[-42.666666666666664,68.0],[-42.44444444444444,67.55555555555556],[-42.0,67.33333333333333]],[[-36.0,60.0],[-35.18181818181819,59.81818181818181],[-34.0,60.0],[-33.30769230769231,59.69230769230769],[-32.0,59.55555555555556],[-31.2,60.0],[-31.2,60.2],[-31.0,60.333333333333336],[-30.0,59.6],[-29.000000000000004,59.8],[-28.352941176470587,60.35294117647059],[-27.166666666666664,61.0],[-27.333333333333336,61.33333333333334],[-27.333333333333336,61.66666666666667],[-27.666666666666668,61.66666666666667],[-28.11111111111111,61.888888888888886],[-29.0,62.0],[-29.875,61.875],[-30.0,61.75],[-31.6,61.6],[-33.0,61.0],[-33.53846153846154,61.46153846153847],[-34.0,61.599999999999994],[-35.285714285714285,61.28571428571428],[-36.0,60.0]],[[-36.6,60.400000000000006],[-38.0,60.5],[-38.4,60.400000000000006],[-39.0,60.0],[-37.285714285714285,59.71428571428571],[-37.0,59.5],[-36.5,59.5],[-36.0,59.0],[-36.0,60.0],[-36.6,60.400000000000006]],[[-39.6,60.400000000000006],[-40.0,60.5],[-40.333333333333336,60.333333333333336],[-40.5,60.0],[-40.25,59.75],[-39.0,60.0],[-39.6,60.400000000000006]],[[-26.999999999999996,8.09090909090909],[-27.6,8.4],[-29.16949152542373,8.830508474576272],[-29.536231884057973,9.46376811594203],[-30.17857142857143,9.821428571428571],[-30.217391304347828,10.0],[-30.666666666666668,10.333333333333334],[-31.395604395604394,10.395604395604394],[-31.642857142857142,10.0],[-31.333333333333336,9.0],[-31.200000000000003,8.0],[-32.22222222222222,7.0],[-32.166666666666664,6.833333333333333],[-31.586206896551722,6.413793103448276],[-31.0,6.285714285714286],[-29.444444444444443,6.444444444444445],[-28.627906976744185,6.627906976744185],[-27.333333333333336,7.333333333333334],[-27.0,7.75],[-26.416666666666668,7.583333333333333],[-24.74358974358974,7.743589743589743],[-23.644444444444446,8.644444444444444],[-23.466666666666665,9.0],[-23.555555555555557,9.444444444444445],[-24.0,10.0],[-23.454545454545453,10.454545454545453],[-23.142857142857146,11.142857142857142],[-22.235294117647058,11.235294117647058],[-22.06896551724138,12.0],[-22.137931034482758,12.862068965517242],[-23.0,12.931034482758621],[-23.692307692307693,12.692307692307693],[-23.82608695652174,11.826086956521738],[-24.425531914893615,11.425531914893616],[-24.6,10.600000000000001],[-25.210526315789473,10.210526315789473],[-25.644444444444442,8.644444444444444],[-26.0,8.384615384615385],[-26.999999999999996,8.09090909090909]],[[-22.166666666666668,57.0],[-22.000000000000004,56.83333333333333],[-21.9375,56.9375],[-21.942857142857143,57.05714285714286],[-22.166666666666668,57.0]],[[-21.0,61.0],[-19.0,60.66666666666667],[-18.759999999999998,61.24],[-19.0,61.75],[-20.0,61.666666666666664],[-20.5,61.5],[-21.0,61.0]],[[-15.333333333333334,73.33333333333334],[-15.5,73.0],[-15.222222222222221,72.77777777777777],[-14.0,72.66666666666667],[-13.5,73.0],[-13.666666666666668,73.33333333333334],[-14.0,73.5],[-15.0,73.5],[-15.333333333333334,73.33333333333334]],[[-14.153846153846153,70.84615384615384],[-14.8,71.2],[-15.714285714285712,71.28571428571428],[-16.0,71.5],[-16.400000000000002,71.4],[-17.0,71.0],[-16.444444444444443,69.55555555555554],[-16.0,69.33333333333334],[-15.875,69.125],[-16.0,68.0],[-16.6,67.6],[-17.333333333333336,67.33333333333334],[-17.75,65.75],[-18.5,65.5],[-18.75,65.0],[-18.5,64.5],[-18.0,64.25],[-17.4,64.4],[-16.5,66.0],[-16.400000000000002,66.4],[-16.0,66.66666666666667],[-15.88888888888889,66.88888888888889],[-15.0,67.0],[-14.400000000000002,67.4],[-14.0,67.5],[-13.555555555555555,67.44444444444444],[-13.333333333333334,67.0],[-12.583333333333334,66.41666666666667],[-12.0,65.25],[-11.571428571428571,65.57142857142857],[-10.833333333333334,65.83333333333334],[-9.363636363636363,65.63636363636364],[-9.0,65.33333333333333],[-8.0,65.0],[-8.75,64.75],[-9.0,64.0],[-9.818181818181818,64.18181818181819],[-10.105263157894736,64.10526315789474],[-10.5,63.5],[-11.25,63.25],[-11.7,63.300000000000004],[-13.0,63.0],[-12.6,62.4],[-12.0,62.25],[-10.0,62.5],[-9.714285714285714,62.285714285714285],[-9.0,62.2],[-8.25,62.25],[-7.5,62.5],[-7.0,63.0],[-6.0,63.0],[-5.6000000000000005,62.4],[-5.5,62.0],[-5.5,61.0],[-3.621621621621622,60.378378378378386],[-3.0,60.0],[-2.4705882352941178,59.529411764705884],[-2.1764705882352944,58.82352941176471],[-1.6,58.400000000000006],[-1.0,56.400000000000006],[-0.6923076923076923,56.307692307692314],[-0.5,56.0],[-0.4166666666666667,55.0],[0.0,54.0],[0.5,54.5],[0.625,55.0],[0.26666666666666666,56.266666666666666],[0.0,58.0],[-0.3076923076923077,58.69230769230769],[-0.6666666666666667,59.0],[-0.33333333333333337,59.333333333333336],[-0.09090909090909088,60.09090909090909],[1.0,60.400000000000006],[1.2999999999999998,61.0],[1.4000000000000001,61.6],[2.0,62.0],[3.0,62.0],[3.5384615384615383,62.46153846153846],[5.142857142857143,62.85714285714286],[6.444444444444445,63.55555555555556],[8.0,64.0],[8.428571428571429,64.57142857142858],[8.428571428571427,65.0],[8.0,65.42857142857142],[6.833333333333333,65.83333333333334],[6.666666666666666,66.0],[6.5,67.0],[5.5,67.5],[5.0,68.0],[4.133333333333333,68.13333333333333],[2.0,69.25],[1.3333333333333333,69.33333333333334],[1.0,69.5],[0.75,69.75],[0.75,70.0],[0.46153846153846156,70.46153846153847],[-0.18181818181818182,70.81818181818181],[-1.0,71.0],[-1.2857142857142856,71.71428571428571],[-2.0,72.0],[-2.75,71.75],[-3.0,71.5],[-4.0,72.0],[-4.0,73.0],[-5.0,73.0],[-5.0,72.0],[-6.0,72.0],[-7.0,71.5],[-8.0,72.0],[-8.5,71.5],[-8.833333333333334,70.83333333333333],[-11.0,70.75],[-12.0,70.0],[-13.0,70.6],[-14.153846153846153,70.84615384615384]],[[-0.3888888888888889,53.38888888888889],[-0.6,52.0],[-1.0,51.0],[-1.0,50.0],[-0.36363636363636365,50.36363636363636],[0.0,50.285714285714285],[0.625,51.0],[0.6,52.0],[0.875,53.0],[0.6666666666666667,53.66666666666667],[0.0,54.0],[-0.3888888888888889,53.38888888888889]],[[-1.6666666666666665,50.333333333333336],[-2.0,50.25],[-2.121212121212121,49.878787878787875],[-2.0,49.0],[-1.0,50.0],[-1.6666666666666665,50.333333333333336]],[[-2.931034482758621,49.06896551724138],[-3.052631578947368,48.94736842105263],[-3.0,48.0],[-2.6,48.60000000000001],[-2.0,49.0],[-2.931034482758621,49.06896551724138]],[[14.545454545454545,59.54545454545454],[15.0,59.375],[15.428571428571429,59.42857142857144],[15.666666666666668,59.333333333333336],[16.333333333333336,59.66666666666667],[16.5,60.0],[15.0,60.45454545454545],[14.166666666666668,60.0],[14.545454545454545,59.54545454545454]],[[19.0,65.5],[18.0,65.0],[19.0,64.5],[19.25,64.75],[19.200000000000003,65.2],[19.0,65.5]],[[31.0,38.46153846153846],[30.631578947368425,38.631578947368425],[30.63157894736842,39.0],[30.413793103448274,39.41379310344828],[30.0,39.666666666666664],[29.547169811320753,39.45283018867924],[29.25,39.0],[29.363636363636367,38.63636363636363],[29.2,38.2],[30.142857142857146,38.14285714285714],[30.285714285714285,37.285714285714285],[30.71428571428571,37.285714285714285],[31.021052631578947,37.02105263157895],[32.0,37.0],[32.02272727272727,36.02272727272727],[33.0076923076923,36.00769230769231],[33.02325581395349,35.02325581395349],[34.00858369098712,35.00858369098713],[34.03333333333333,34.03333333333333],[36.89473684210526,34.10526315789473],[36.94736842105264,35.0],[38.973684210526315,35.026315789473685],[39.0,35.5],[39.333333333333336,35.66666666666667],[39.5,36.0],[45.333333333333336,36.0],[45.55555555555556,35.55555555555556],[46.0,35.333333333333336],[46.03846153846154,35.03846153846153],[48.945945945945944,35.054054054054056],[48.97297297297297,36.0],[50.863247863247864,36.136752136752136],[51.0,36.32],[52.0,36.53333333333333],[52.24561403508772,37.24561403508772],[51.92307692307692,37.92307692307692],[48.0,37.98850574712644],[47.97701149425287,38.97701149425287],[46.0,38.97727272727273],[45.873684210526314,39.87368421052632],[44.0,39.97727272727273],[43.4327868852459,40.432786885245896],[42.0,40.81132075471699],[35.13186813186813,40.86813186813187],[34.98816568047337,39.98816568047337],[33.0990099009901,39.9009900990099],[33.0,39.54545454545455],[32.333333333333336,39.0],[31.127272727272725,38.872727272727275],[31.0,38.46153846153846]],[[-19.0,-55.833333333333336],[-19.166666666666668,-56.0],[-19.0,-56.5],[-18.75,-56.0],[-19.0,-55.833333333333336]],[[13.538461538461538,-66.0],[13.148936170212766,-65.85106382978724],[13.0,-65.65],[12.5,-66.0],[12.702127659574469,-66.29787234042553],[13.0,-66.38888888888889],[13.538461538461538,-66.0]],[[14.714285714285712,-48.71428571428571],[14.583333333333332,-49.0],[14.999999999999998,-49.416666666666664],[15.833333333333334,-49.0],[14.714285714285712,-48.71428571428571]],[[21.333333333333336,-53.0],[23.0,-53.66666666666667],[25.30769230769231,-53.69230769230769],[25.666666666666668,-54.00000000000001],[25.944444444444446,-54.05555555555556],[29.0,-54.375],[31.0,-54.0],[30.0,-53.81818181818181],[27.000000000000004,-53.66666666666667],[26.5,-53.5],[26.25,-53.0],[25.999999999999996,-52.81818181818181],[24.0,-52.41666666666667],[22.684210526315788,-52.315789473684205],[22.2,-51.8],[21.421052631578945,-51.57894736842105],[20.0,-51.5],[19.636363636363637,-51.36363636363636],[19.666666666666664,-51.0],[19.5,-50.5],[19.0,-50.0],[18.0,-50.5],[17.75,-50.75],[18.0,-51.3],[19.0,-51.8],[19.285714285714285,-51.71428571428571],[19.333333333333336,-52.0],[20.57894736842105,-52.421052631578945],[21.333333333333336,-53.0]],[[22.4,-22.6],[22.0,-22.333333333333336],[21.904761904761905,-22.904761904761905],[22.0,-23.200000000000003],[22.25,-23.0],[22.4,-22.6]],[[24.285714285714285,-33.285714285714285],[24.294117647058826,-32.705882352941174],[24.0,-32.44444444444444],[23.565217391304348,-32.565217391304344],[23.28571428571429,-33.0],[23.444444444444443,-33.44444444444444],[23.0,-33.400000000000006],[22.625,-33.625],[22.5,-34.0],[22.64705882352941,-34.35294117647059],[23.0,-34.5],[23.26086956521739,-34.26086956521739],[23.523809523809522,-33.52380952380952],[24.0,-33.5],[24.285714285714285,-33.285714285714285]],[[32.0,-18.625],[31.866666666666667,-18.866666666666667],[31.857142857142858,-19.857142857142858],[31.625,-20.0],[31.79310344827586,-20.20689655172414],[32.26086956521739,-20.26086956521739],[32.75,-20.0],[32.6,-19.0],[32.375,-18.625],[32.0,-18.625]],[[36.800000000000004,-54.0],[37.333333333333336,-54.00000000000001],[37.0,-53.92307692307693],[36.800000000000004,-54.0]],[[41.44444444444444,-62.0],[41.67741935483871,-61.67741935483871],[42.0,-61.5],[42.344827586206904,-61.65517241379311],[42.705882352941174,-62.294117647058826],[43.0,-62.333333333333336],[44.0,-62.0],[45.5,-61.0],[45.25,-60.75],[45.0,-60.75],[44.0,-60.125],[41.84615384615385,-60.15384615384616],[40.0,-60.333333333333336],[39.65217391304348,-60.652173913043484],[39.5,-61.0],[40.142857142857146,-63.0],[41.0,-63.42857142857143],[41.42857142857143,-63.42857142857143],[41.6,-63.0],[41.44444444444444,-62.0]],[[48.78947368421052,-53.78947368421052],[48.13333333333333,-53.86666666666666],[47.0,-53.5],[46.0,-53.4],[44.0,-54.0],[45.82352941176471,-54.1764705882353],[45.869565217391305,-55.130434782608695],[46.0,-55.42857142857143],[46.15384615384615,-54.84615384615384],[46.15384615384615,-54.15384615384616],[49.666666666666664,-54.0],[48.78947368421052,-53.78947368421052]],[[48.68,-51.32],[49.0,-51.5],[50.0,-51.5],[51.25,-51.0],[49.0,-50.63636363636364],[48.72413793103448,-50.724137931034484],[48.55555555555556,-51.0],[48.68,-51.32]],[[-39.30769230769231,11.0],[-39.18181818181818,10.818181818181818],[-38.0,10.55],[-37.0,10.833333333333334],[-36.87878787878788,11.121212121212121],[-38.0,11.36],[-39.0,11.210526315789473],[-39.30769230769231,11.0]],[[-35.0,41.0],[-34.6,41.6],[-34.0,42.0],[-32.66666666666667,41.333333333333336],[-32.5,41.0],[-32.6,40.6],[-33.0,40.0],[-32.4,39.6],[-32.0,39.5],[-31.0,40.0],[-31.5,40.5],[-31.666666666666668,41.0],[-31.5,41.5],[-31.0,42.0],[-31.75,42.25],[-32.66666666666667,42.333333333333336],[-33.0,42.5],[-33.25,42.75],[-33.2,43.0],[-33.6,43.400000000000006],[-34.0,43.5],[-35.166666666666664,43.166666666666664],[-35.333333333333336,43.0],[-35.333333333333336,42.0],[-35.5,41.5],[-36.0,41.333333333333336],[-36.333333333333336,41.0],[-36.400000000000006,40.6],[-36.0,40.0],[-35.0,40.0],[-35.0,41.0]],[[-28.799999999999997,53.2],[-29.0,53.66666666666667],[-29.16,53.16],[-29.093023255813954,52.90697674418604],[-28.897435897435898,52.8974358974359],[-28.799999999999997,53.2]],[[-19.853658536585364,51.146341463414636],[-20.299999999999997,51.3],[-20.6,51.0],[-20.0,50.66666666666667],[-19.793103448275865,50.79310344827586],[-19.853658536585364,51.146341463414636]],[[-19.0,59.25],[-19.4,59.0],[-19.000000000000004,58.85714285714286],[-18.902439024390244,59.09756097560976],[-19.0,59.25]],[[-8.0,60.9],[-7.5,61.0],[-7.666666666666668,61.33333333333334],[-8.0,61.5],[-9.4,61.400000000000006],[-10.0,61.0],[-8.0,60.9]],[[28.216216216216218,-64.78378378378378],[26.91111111111111,-64.91111111111111],[26.6,-65.0],[26.375,-66.0],[27.0,-66.3125],[29.0,-66.4],[29.296296296296298,-66.0],[29.262295081967213,-65.73770491803279],[29.0,-65.2],[28.216216216216218,-64.78378378378378]],[[29.333333333333336,-63.00000000000001],[28.894736842105264,-62.89473684210526],[28.6,-63.0],[28.875,-63.125],[29.0,-63.33333333333334],[29.333333333333336,-63.00000000000001]],[[32.333333333333336,-59.66666666666667],[33.78947368421053,-60.21052631578947],[34.173913043478265,-60.173913043478265],[34.85714285714286,-59.0],[34.307692307692314,-58.69230769230769],[34.0,-58.647058823529406],[32.0,-59.0],[32.333333333333336,-59.66666666666667]],[[42.11764705882353,-63.88235294117647],[42.0,-63.66666666666667],[41.66666666666667,-63.66666666666667],[41.800000000000004,-64.0],[42.0,-64.06896551724138],[42.11764705882353,-63.88235294117647]],[[-34.70666666666666,12.293333333333333],[-35.29729729729729,12.297297297297296],[-36.0,12.0],[-35.36065573770492,11.639344262295081],[-35.0,11.576923076923077],[-34.266666666666666,12.0],[-34.70666666666666,12.293333333333333]],[[-27.666666666666668,47.0],[-28.133333333333333,47.13333333333333],[-29.0,47.0],[-28.400000000000002,46.6],[-28.0,46.5],[-27.714285714285715,46.71428571428571],[-27.666666666666668,47.0]],[[-20.542857142857144,17.542857142857144],[-20.384615384615387,18.0],[-20.542857142857144,18.45714285714286],[-21.0,18.842105263157897],[-21.592592592592595,18.0],[-21.444444444444443,17.555555555555557],[-21.0,17.2],[-20.542857142857144,17.542857142857144]],[[-19.0,43.0],[-19.333333333333336,42.0],[-19.0,41.714285714285715],[-18.87878787878788,42.12121212121212],[-19.0,43.0]],[[5.222222222222221,36.22222222222222],[4.833333333333333,36.16666666666667],[4.888888888888889,35.888888888888886],[5.2,35.8],[5.5,36.0],[5.222222222222221,36.22222222222222]],[[20.25,-60.0],[20.333333333333336,-59.66666666666667],[20.0,-59.0],[19.6,-59.6],[19.0,-60.0],[20.0,-60.25],[20.25,-60.0]],[[-20.846153846153847,16.153846153846153],[-21.0,16.333333333333336],[-21.200000000000003,16.0],[-21.0,15.666666666666668],[-20.81818181818182,15.818181818181818],[-20.846153846153847,16.153846153846153]],[[23.0,-67.84615384615385],[22.857142857142858,-68.0],[23.0,-68.25],[23.10810810810811,-67.89189189189189],[23.0,-67.84615384615385]]],[[[-81.11764705882354,8.117647058823529],[-81.0,8.333333333333334],[-80.0,9.0],[-79.83333333333333,8.166666666666666],[-79.91549295774648,7.915492957746479],[-80.18181818181819,7.818181818181818],[-80.91999999999999,7.92],[-81.0,7.833333333333334],[-81.5,8.0],[-81.11764705882354,8.117647058823529]]],[[[30.333333333333336,16.666666666666668],[30.0,16.666666666666664],[29.91304347826087,16.913043478260867],[27.0,17.0],[26.875,17.875],[25.666666666666664,18.0],[25.970588235294116,18.029411764705884],[26.22222222222222,18.22222222222222],[26.77777777777778,18.22222222222222],[26.77777777777778,18.77777777777778],[27.012422360248447,19.012422360248447],[28.0,19.0],[28.6,18.6],[29.0,18.5],[29.142857142857146,18.142857142857142],[29.5,18.0],[29.666666666666668,17.666666666666668],[30.400000000000002,17.4],[31.0,17.0],[30.333333333333336,16.666666666666668]]],[[[8.833333333333334,21.833333333333336],[8.0,22.0],[8.666666666666668,22.333333333333336],[9.0,22.333333333333336],[9.076923076923077,21.923076923076923],[8.833333333333334,21.833333333333336]]],[[[12.08450704225352,23.915492957746476],[12.0,23.4],[11.75,24.0],[11.793103448275861,24.206896551724135],[12.1875,24.1875],[12.5,24.0],[12.08450704225352,23.915492957746476]]],[[[5.262295081967213,25.737704918032787],[5.0,25.63636363636364],[4.764705882352941,25.764705882352942],[4.5200000000000005,26.519999999999996],[3.5454545454545454,27.0],[4.0,28.0],[4.190476190476191,28.80952380952381],[5.866666666666666,28.866666666666667],[6.36734693877551,28.367346938775512],[6.222222222222222,27.77777777777778],[5.538461538461539,27.461538461538463],[5.199999999999999,27.0],[5.4,26.0],[5.262295081967213,25.737704918032787]]],[[[-67.02061855670102,41.97938144329897],[-67.0,42.5],[-66.8,42.2],[-66.33333333333334,42.0],[-66.875,41.875],[-67.02061855670102,41.97938144329897]]],[[[-69.0,43.55555555555556],[-68.0,43.0],[-68.94413407821229,42.94413407821229],[-69.03676470588235,42.96323529411765],[-69.0,43.55555555555556]]],[[[-72.19999999999999,44.2],[-71.75,44.0],[-76.0,44.0],[-75.0,44.4],[-72.19999999999999,44.2]]],[[[-74.22222222222223,47.77777777777778],[-75.0,48.0],[-74.0,48.14285714285714],[-73.75,48.0],[-73.8,47.8],[-74.22222222222223,47.77777777777778]]],[[[-81.29629629629629,52.29629629629629],[-82.0,52.25],[-82.56521739130434,52.43478260869565],[-83.0,53.0],[-82.92857142857143,54.0],[-82.63636363636363,54.63636363636364],[-82.0,54.866666666666674],[-81.27272727272728,54.72727272727273],[-81.0,54.4],[-80.6923076923077,54.30769230769231],[-80.46153846153847,53.53846153846154],[-80.41666666666666,53.0],[-80.58823529411765,52.588235294117645],[-81.29629629629629,52.29629629629629]]],[[[176.0,62.0],[175.71428571428572,62.714285714285715],[175.0,63.0],[176.95000000000002,63.050000000000004],[176.99065420560746,64.00934579439253],[178.96296296296296,64.03703703703704],[179.0,64.5],[179.0,63.986301369863014],[178.02739726027397,63.97260273972603],[178.0,62.98850574712643],[176.02380952380955,62.97619047619048],[176.0,62.0]]],[[[-25.0,80.0],[-25.88235294117647,79.88235294117646],[-26.019417475728154,79.98058252427184],[-27.333333333333336,80.0],[-27.2,80.2],[-26.0,80.25],[-25.0,80.0]]]]}}]}