{"type":"FeatureCollection","features":[{"type":"Feature","properties":{"ageMa":390},"geometry":{"type":"MultiPolygon","coordinates":[[[[-124.60000000000001,-88.4],[-124.0,-88.0],[-123.4,-88.4],[-121.60000000000001,-88.6],[-121.0,-89.0],[-121.0,-90.0],[-131.0,-90.0],[-131.0,-89.0],[-130.5,-88.5],[-129.0,-88.5],[-128.60000000000002,-88.4],[-128.0,-88.0],[-127.4,-88.4],[-127.0,-88.5],[-125.0,-88.5],[-124.60000000000001,-88.4]]],[[[-33.46153846153846,-75.53846153846155],[-33.0,-75.5],[-32.0,-75.5],[-31.25,-76.0],[-31.6,-76.4],[-32.0,-76.5],[-33.0,-76.5],[-34.0,-76.0],[-33.46153846153846,-75.53846153846155]]],[[[-37.0,-75.0],[-36.0,-74.66666666666667],[-34.81818181818182,-74.81818181818181],[-34.5,-75.0],[-34.66666666666667,-75.33333333333334],[-35.25,-75.25],[-35.66666666666667,-75.33333333333334],[-37.0,-75.0]]],[[[-175.33333333333334,-58.33333333333334],[-174.5,-58.0],[-173.68421052631578,-57.315789473684205],[-172.25,-56.75],[-168.92727272727274,-56.07272727272727],[-168.375,-55.625],[-167.66666666666669,-55.33333333333334],[-165.5,-55.0],[-163.33333333333331,-54.0],[-163.1818181818182,-53.81818181818181],[-161.76,-53.24],[-161.0,-53.07692307692308],[-159.93333333333334,-53.06666666666667],[-159.28571428571428,-52.71428571428571],[-158.0,-52.42857142857142],[-157.0,-53.0],[-156.0,-54.25],[-155.0,-54.2],[-154.0,-54.5],[-153.0,-54.5],[-152.66666666666669,-54.66666666666667],[-151.77777777777777,-54.77777777777778],[-150.0,-54.75],[-149.0,-55.0],[-147.0,-54.5],[-146.0,-53.8],[-145.0,-53.6],[-143.9,-53.1],[-143.1,-53.1],[-142.0,-52.81818181818182],[-140.0,-52.86363636363636],[-139.39999999999998,-53.0],[-138.58333333333334,-53.583333333333336],[-137.5,-54.0],[-137.66666666666669,-55.0],[-137.44444444444443,-55.44444444444444],[-136.8181818181818,-55.81818181818181],[-136.44444444444443,-56.44444444444444],[-135.5,-57.0],[-134.7142857142857,-57.71428571428571],[-133.84615384615387,-57.84615384615385],[-133.0,-58.25],[-132.0,-58.0],[-130.5,-58.5],[-130.0,-59.0],[-129.2,-59.2],[-128.0,-59.0],[-126.0,-59.22222222222223],[-123.0,-59.0],[-122.19354838709677,-59.193548387096776],[-121.0,-59.27272727272728],[-118.9090909090909,-59.90909090909091],[-117.52941176470588,-60.52941176470588],[-115.5,-62.0],[-115.5,-63.0],[-116.0,-63.5],[-117.00000000000001,-63.66666666666667],[-117.5,-64.0],[-117.6,-64.4],[-118.0,-65.0],[-118.66666666666669,-65.33333333333334],[-121.00000000000001,-65.80000000000001],[-123.15384615384615,-65.84615384615384],[-124.0,-66.0],[-124.5,-66.5],[-126.00000000000001,-66.66666666666667],[-127.0,-66.33333333333334],[-130.0,-66.33333333333334],[-131.0,-65.83333333333333],[-132.0,-65.5],[-133.28571428571428,-65.28571428571428],[-134.0,-65.0],[-134.0,-64.0],[-135.0,-63.5],[-136.0,-63.66666666666667],[-137.0,-63.5],[-138.0,-63.0],[-140.0,-63.0],[-141.0,-62.0],[-142.0,-62.0],[-142.0,-61.0],[-144.0,-61.0],[-145.0,-60.5],[-146.0,-60.66666666666667],[-148.0,-60.0],[-155.83333333333334,-59.166666666666664],[-158.0,-59.2],[-159.0,-59.42857142857143],[-162.35294117647058,-59.647058823529406],[-168.0,-59.81818181818181],[-169.25,-60.0],[-169.5,-60.5],[-170.16666666666669,-60.83333333333333],[-170.83333333333334,-60.83333333333333],[-171.25,-61.0],[-171.40000000000003,-61.6],[-172.0,-62.0],[-173.0,-63.0],[-173.66666666666669,-63.333333333333336],[-174.0,-64.0],[-174.4705882352941,-64.52941176470588],[-174.7,-65.3],[-175.875,-66.125],[-177.27272727272725,-66.72727272727272],[-177.76470588235293,-67.23529411764706],[-180.0,-68.16666666666667],[-180.0,-54.0],[-179.4,-53.60000000000001],[-179.0,-53.0],[-178.4,-52.6],[-178.0,-52.5],[-177.75,-53.0],[-177.66666666666666,-58.0],[-177.0,-59.0],[-176.0,-58.666666666666664],[-175.66666666666669,-58.33333333333334],[-175.33333333333334,-58.33333333333334]]],[[[-76.04347826086956,-55.95652173913044],[-76.38095238095238,-56.61904761904761],[-77.16666666666667,-57.0],[-77.83333333333334,-58.16666666666667],[-78.33333333333334,-58.66666666666667],[-78.85714285714286,-60.142857142857146],[-79.0,-60.333333333333336],[-79.5,-60.5],[-80.0,-61.0],[-80.5,-62.0],[-81.0,-62.33333333333333],[-81.27586206896552,-62.72413793103448],[-82.0,-63.0],[-82.53333333333333,-63.46666666666667],[-83.25,-63.75],[-84.13636363636364,-63.86363636363636],[-86.0,-63.96],[-87.0,-64.18181818181819],[-91.0,-64.28571428571428],[-95.0,-65.14285714285714],[-98.0,-65.33333333333333],[-99.0,-65.0],[-100.0,-65.0],[-100.66666666666669,-64.66666666666667],[-101.0,-64.0],[-100.53846153846155,-63.46153846153847],[-99.2,-62.8],[-98.0,-62.699999999999996],[-96.76470588235294,-62.23529411764706],[-95.06666666666668,-61.93333333333333],[-93.55555555555554,-61.44444444444444],[-90.66666666666667,-61.0],[-86.0,-59.5],[-85.0,-59.5],[-84.0,-59.0],[-83.66666666666667,-58.0],[-83.19047619047619,-57.80952380952381],[-82.11111111111111,-57.0],[-80.69491525423729,-56.30508474576271],[-79.0,-55.20833333333333],[-76.80645161290323,-54.19354838709677],[-76.0,-53.57142857142857],[-75.0,-53.2],[-74.36363636363636,-53.36363636363637],[-73.83333333333334,-54.0],[-73.88888888888889,-54.111111111111114],[-75.35714285714286,-55.642857142857146],[-76.04347826086956,-55.95652173913044]]],[[[-175.7037037037037,-44.7037037037037],[-176.125,-44.0],[-175.0,-43.0],[-174.11764705882354,-43.117647058823536],[-173.73333333333335,-44.266666666666666],[-174.0,-45.0],[-174.6,-45.4],[-175.0,-45.400000000000006],[-175.7037037037037,-44.7037037037037]]],[[[-123.28571428571428,-87.71428571428572],[-124.0,-88.0],[-125.0,-87.66666666666667],[-127.33333333333334,-87.66666666666667],[-128.0,-88.0],[-128.60000000000002,-87.6],[-129.0,-87.5],[-130.5,-87.5],[-131.0,-87.0],[-136.0,-87.0],[-137.0,-87.33333333333334],[-138.0,-87.33333333333334],[-139.0,-87.5],[-139.4,-87.4],[-140.0,-87.0],[-141.0,-88.0],[-140.4,-88.4],[-139.0,-88.5],[-138.0,-89.0],[-138.0,-90.0],[-180.0,-90.0],[-180.0,-71.5],[-179.6,-71.4],[-179.0,-71.0],[-177.28571428571428,-70.71428571428571],[-177.0,-70.0],[-176.16666666666669,-69.83333333333333],[-175.55555555555554,-69.44444444444444],[-175.33333333333331,-69.0],[-175.11764705882354,-68.88235294117646],[-174.22222222222223,-68.77777777777777],[-173.66666666666669,-68.33333333333334],[-173.5,-68.0],[-172.71428571428572,-67.71428571428571],[-172.28571428571428,-67.71428571428571],[-172.0,-67.5],[-171.0,-67.5],[-169.7142857142857,-67.71428571428571],[-167.8,-67.8],[-167.5,-68.0],[-167.33333333333334,-68.33333333333334],[-167.0,-68.5],[-166.0,-68.66666666666667],[-164.0,-69.4],[-163.0,-69.5],[-161.0,-70.0],[-160.0,-70.4],[-159.0,-70.5],[-158.0,-71.0],[-157.0,-71.0],[-156.0,-71.25],[-155.0,-71.25],[-154.0,-71.5],[-150.0,-71.66666666666667],[-149.0,-72.0],[-145.99999999999997,-72.08333333333333],[-144.0,-72.0],[-141.0,-72.23076923076923],[-139.2,-72.19999999999999],[-138.0,-72.57142857142858],[-137.4,-72.6],[-135.0,-72.25],[-133.0,-72.6],[-132.0,-72.5],[-129.0,-73.0],[-127.0,-73.0],[-126.4,-73.4],[-126.0,-73.5],[-125.60000000000001,-73.4],[-125.0,-73.0],[-112.0,-73.0],[-111.0,-72.75],[-109.66666666666669,-72.66666666666667],[-109.0,-73.0],[-108.0,-73.0],[-108.0,-75.0],[-107.0,-75.0],[-106.18181818181819,-75.18181818181819],[-105.5,-75.0],[-105.5,-74.5],[-105.0,-74.0],[-104.0,-74.0],[-103.44444444444444,-73.55555555555554],[-100.0,-73.0],[-98.66666666666667,-72.33333333333334],[-96.5,-72.0],[-96.19999999999999,-71.8],[-94.00000000000001,-71.16666666666667],[-92.0,-71.0],[-90.0,-70.5],[-89.0,-70.6],[-88.0,-70.5],[-87.0,-70.0],[-81.0,-70.0],[-80.0,-69.66666666666667],[-77.0,-69.5],[-75.0,-68.5],[-74.0,-68.5],[-71.0,-69.5],[-70.66666666666667,-69.66666666666667],[-70.0,-70.4],[-69.0,-70.5],[-68.0,-71.25],[-67.0,-71.33333333333334],[-66.0,-71.66666666666667],[-65.0,-72.5],[-63.75,-72.75],[-63.00000000000001,-73.33333333333334],[-62.0,-73.33333333333334],[-59.71428571428571,-73.71428571428571],[-59.0,-74.0],[-58.0,-74.0],[-55.0,-75.0],[-55.0,-76.0],[-54.6,-76.60000000000001],[-54.5,-77.0],[-54.75,-77.25],[-56.0,-77.5],[-58.0,-77.5],[-59.0,-78.0],[-61.0,-78.0],[-62.0,-78.33333333333334],[-63.0,-78.0],[-65.0,-79.0],[-66.0,-79.0],[-66.4,-79.6],[-68.0,-80.66666666666667],[-70.0,-81.25],[-72.0,-81.5],[-73.0,-81.33333333333334],[-73.60000000000001,-81.4],[-74.4,-81.60000000000001],[-75.0,-82.0],[-76.0,-82.33333333333334],[-78.0,-82.25],[-78.66666666666667,-82.33333333333334],[-79.0,-82.5],[-79.4,-82.4],[-80.0,-82.0],[-82.0,-82.0],[-82.0,-83.0],[-83.0,-83.0],[-83.0,-84.0],[-84.5,-84.5],[-85.0,-85.0],[-87.0,-85.0],[-88.0,-86.0],[-87.4,-86.4],[-86.66666666666667,-86.33333333333334],[-86.0,-86.0],[-82.0,-86.0],[-81.0,-86.25],[-76.0,-86.33333333333334],[-75.0,-86.66666666666667],[-74.0,-86.66666666666667],[-73.0,-86.5],[-72.6,-86.60000000000001],[-72.0,-87.0],[-71.0,-87.0],[-70.4,-86.60000000000001],[-68.25,-85.75],[-67.0,-86.0],[-66.0,-86.0],[-65.0,-85.66666666666666],[-64.0,-85.5],[-62.0,-85.5],[-61.0,-85.33333333333334],[-60.0,-85.5],[-59.0,-85.5],[-58.0,-86.0],[-57.0,-86.0],[-56.0,-85.66666666666666],[-55.0,-85.66666666666666],[-54.0,-86.0],[-53.0,-85.33333333333334],[-52.0,-85.25],[-49.0,-85.33333333333334],[-47.0,-84.66666666666667],[-46.0,-85.0],[-44.0,-85.0],[-43.400000000000006,-84.60000000000001],[-43.0,-84.0],[-41.0,-84.0],[-40.0,-83.66666666666667],[-39.66666666666667,-83.66666666666667],[-39.0,-84.0],[-35.0,-84.0],[-35.0,-83.0],[-34.0,-83.0],[-33.5,-82.5],[-31.0,-82.25],[-30.400000000000002,-82.4],[-30.0,-83.0],[-29.5,-82.5],[-29.0,-82.33333333333334],[-28.75,-82.0],[-28.6,-81.4],[-28.0,-81.0],[-27.555555555555554,-80.44444444444444],[-26.5,-80.0],[-26.166666666666664,-77.83333333333334],[-26.0,-77.66666666666667],[-25.0,-77.5],[-24.857142857142858,-77.0],[-24.444444444444443,-76.55555555555556],[-23.71428571428571,-76.28571428571428],[-21.0,-76.3],[-20.470588235294116,-76.47058823529412],[-20.0,-76.8],[-19.0,-76.5],[-18.0,-76.4],[-17.538461538461537,-76.53846153846153],[-17.0,-77.5],[-16.5,-77.5],[-16.0,-78.0],[-16.0,-79.0],[-13.0,-79.0],[-12.4,-78.60000000000001],[-11.666666666666668,-78.66666666666667],[-11.0,-79.0],[-10.0,-80.0],[-8.0,-80.0],[-6.6000000000000005,-80.60000000000001],[-6.0,-81.0],[-5.0,-81.33333333333334],[-3.2857142857142856,-80.71428571428572],[-2.0,-80.4],[-1.3333333333333335,-80.0],[-1.5,-79.0],[-1.5,-77.0],[-1.25,-76.75],[1.7142857142857142,-75.71428571428571],[4.0,-75.33333333333334],[4.5,-75.0],[5.5,-73.0],[5.0,-72.0],[4.4,-72.4],[4.0,-72.5],[3.5,-72.0],[3.0,-71.0],[2.5,-70.5],[2.0,-69.5],[1.0,-69.0],[0.2857142857142857,-68.71428571428571],[-1.0,-68.5],[-3.0,-68.5],[-4.0,-68.0],[-4.0,-67.0],[-5.0,-67.0],[-5.0,-66.0],[-12.0,-66.0],[-13.0,-67.0],[-15.0,-67.0],[-16.0,-67.33333333333333],[-17.0,-67.0],[-17.0,-66.0],[-17.5,-66.5],[-19.0,-66.5],[-20.0,-66.66666666666667],[-23.22222222222222,-66.22222222222223],[-24.0,-66.0],[-25.0,-66.0],[-26.0,-65.75],[-27.714285714285715,-65.71428571428571],[-29.0,-65.5],[-30.0,-65.6],[-31.285714285714285,-65.28571428571428],[-33.285714285714285,-65.28571428571428],[-34.0,-65.0],[-34.6,-65.4],[-35.0,-65.5],[-35.333333333333336,-65.33333333333334],[-36.0,-65.25],[-40.0,-65.33333333333333],[-41.81818181818182,-64.81818181818181],[-43.0,-64.66666666666667],[-43.5,-64.5],[-44.0,-64.0],[-46.0,-64.0],[-46.0,-63.0],[-47.0,-63.0],[-47.5,-62.5],[-48.0,-62.33333333333333],[-49.0,-62.5],[-49.400000000000006,-62.4],[-50.0,-62.0],[-53.0,-62.0],[-54.0,-61.0],[-54.0,-55.0],[-53.0,-55.0],[-53.0,-52.0],[-52.4,-51.6],[-51.5,-50.5],[-51.0,-49.0],[-50.0,-48.0],[-49.400000000000006,-47.6],[-46.6,-46.400000000000006],[-45.793103448275865,-46.20689655172414],[-45.0,-46.21052631578947],[-42.629629629629626,-45.37037037037037],[-37.0,-45.0],[-34.74358974358974,-44.25641025641025],[-33.0,-44.0],[-32.34285714285714,-43.65714285714286],[-31.0,-43.285714285714285],[-28.0,-42.666666666666664],[-27.0,-42.125],[-26.457142857142856,-41.542857142857144],[-25.57142857142857,-41.0],[-24.8,-40.2],[-24.0,-39.666666666666664],[-22.0,-37.333333333333336],[-21.0,-37.16666666666667],[-20.666666666666668,-37.0],[-20.400000000000002,-36.6],[-20.0,-36.333333333333336],[-19.0,-36.0],[-19.0,-35.0],[-20.0,-35.0],[-20.400000000000002,-34.400000000000006],[-22.0,-34.0],[-22.4,-33.4],[-23.0,-33.0],[-23.0,-32.0],[-23.6,-30.6],[-24.0,-30.0],[-24.0,-28.0],[-24.833333333333332,-26.833333333333336],[-26.0,-26.0],[-26.0,-25.0],[-25.0,-24.0],[-24.5,-23.0],[-24.2,-20.8],[-23.71428571428571,-20.285714285714285],[-23.666666666666664,-19.0],[-23.333333333333332,-18.0],[-23.333333333333332,-17.0],[-22.666666666666668,-16.0],[-22.666666666666668,-13.0],[-22.333333333333336,-12.0],[-22.333333333333336,-11.0],[-22.0,-10.666666666666668],[-21.5,-10.5],[-21.0,-10.0],[-19.5,-9.5],[-19.0,-9.0],[-18.0,-9.0],[-16.666666666666668,-8.333333333333334],[-16.5,-8.0],[-16.0,-7.666666666666666],[-14.600000000000001,-7.4],[-14.0,-7.0],[-13.0,-7.0],[-12.636363636363637,-6.363636363636363],[-12.6,-5.6000000000000005],[-13.0,-5.0],[-14.0,-4.714285714285714],[-15.0,-4.6],[-15.428571428571429,-4.428571428571429],[-15.75,-4.0],[-16.0,-3.888888888888889],[-18.0,-3.5],[-18.75,-3.0],[-19.77777777777778,-2.7777777777777777],[-21.0,-2.0],[-21.77777777777778,-1.7777777777777777],[-22.344827586206897,-1.3448275862068966],[-23.0,-0.5],[-23.6,0.0],[-24.0,1.0],[-23.470588235294116,2.4705882352941178],[-22.476190476190474,3.476190476190476],[-22.0,3.625],[-20.0,3.625],[-19.0,3.428571428571429],[-11.0,0.8571428571428572],[-10.0,0.2272727272727273],[-7.6,-0.6000000000000001],[-6.0,-1.0],[-4.0,-1.75],[-1.8,-1.8],[-1.0,-2.0],[1.0,-0.75],[2.0,0.33333333333333337],[3.0,1.0],[4.25,2.75],[5.0,3.0],[5.444444444444444,3.5555555555555554],[7.0,4.666666666666667],[8.0,4.666666666666667],[9.0,4.5],[10.714285714285715,3.7142857142857144],[11.5,3.0],[11.0,2.0],[9.600000000000001,1.4000000000000001],[9.0,1.0],[9.0,0.0],[9.600000000000001,-0.4],[10.0,-0.5],[10.5,-1.0],[10.5,-1.5],[10.0,-2.0],[11.0,-2.0],[11.0,-3.0],[11.400000000000002,-3.6000000000000005],[12.0,-4.0],[13.0,-4.0],[13.0,-7.0],[12.0,-7.0],[12.0,-9.0],[11.0,-9.0],[11.0,-10.0],[12.0,-10.0],[12.0,-12.0],[13.0,-12.0],[13.0,-15.0],[14.0,-15.0],[14.600000000000001,-15.4],[15.0,-15.5],[16.0,-15.5],[17.0,-15.333333333333336],[17.4,-15.600000000000001],[18.166666666666668,-15.833333333333332],[18.666666666666668,-16.333333333333336],[18.900000000000002,-17.0],[18.214285714285715,-18.0],[16.0,-18.73913043478261],[14.0,-19.75],[11.611940298507463,-20.611940298507463],[11.0,-21.0],[10.142857142857142,-21.142857142857142],[9.846153846153847,-21.846153846153847],[9.666666666666668,-22.0],[9.0,-22.333333333333336],[8.444444444444445,-22.444444444444443],[7.0,-23.333333333333332],[6.25,-24.25],[5.6000000000000005,-24.6],[5.0,-25.25],[4.0,-25.5],[3.0,-26.0],[1.0,-28.0],[0.6923076923076923,-28.692307692307693],[0.125,-29.125],[-0.2857142857142857,-29.714285714285715],[-1.0,-30.0],[-2.4000000000000004,-32.0],[-4.176470588235294,-34.0],[-6.532467532467532,-35.467532467532465],[-8.153846153846153,-37.0],[-12.32,-39.68],[-12.999999999999998,-39.95238095238095],[-14.0,-40.650000000000006],[-15.0,-41.06060606060606],[-16.22222222222222,-41.77777777777778],[-17.0,-42.434782608695656],[-19.203703703703702,-43.7962962962963],[-21.0,-45.434782608695656],[-21.92857142857143,-46.0],[-22.43137254901961,-46.568627450980394],[-24.0,-47.77777777777778],[-24.51219512195122,-48.48780487804878],[-25.619047619047617,-49.38095238095238],[-26.22222222222222,-49.77777777777778],[-27.0,-50.0],[-27.375,-50.625],[-29.166666666666664,-51.83333333333333],[-30.0,-52.0],[-28.0,-52.666666666666664],[-26.0,-52.666666666666664],[-24.11111111111111,-51.888888888888886],[-22.18181818181818,-51.81818181818182],[-21.0,-51.5],[-19.0,-51.6],[-18.0,-51.33333333333334],[-13.0,-51.0],[-10.0,-50.5],[-9.0,-51.0],[-9.0,-54.0],[-8.4,-54.400000000000006],[-8.0,-54.5],[-7.5,-55.0],[-7.4,-55.400000000000006],[-7.0,-56.0],[-7.0,-57.0],[-6.0,-57.0],[-6.0,-58.0],[-5.0,-58.0],[-5.0,-59.0],[-3.0,-59.0],[-3.0,-60.0],[-4.0,-61.0],[-3.0,-62.0],[-2.3333333333333335,-61.66666666666667],[-1.0,-61.5],[-0.6000000000000001,-61.6],[0.0,-62.0],[1.0,-61.0],[1.0,-60.0],[0.5,-60.5],[0.0,-60.5],[-0.33333333333333337,-60.333333333333336],[-0.5,-60.0],[-0.4,-59.6],[0.0,-59.0],[2.0,-59.0],[2.0,-58.0],[3.0,-58.0],[3.0,-57.0],[1.0,-57.0],[1.0,-55.0],[3.0,-55.0],[3.0,-54.0],[5.0,-54.0],[5.666666666666667,-53.66666666666667],[7.0,-53.66666666666667],[8.0,-53.333333333333336],[8.666666666666668,-52.66666666666667],[9.666666666666666,-52.0],[9.8,-50.8],[10.25,-50.25],[11.11111111111111,-48.111111111111114],[11.714285714285714,-47.71428571428571],[13.0,-47.272727272727266],[14.0,-47.0],[15.0,-47.0],[15.512195121951219,-46.51219512195122],[16.0,-46.375],[17.0,-46.333333333333336],[17.53333333333333,-46.46666666666667],[18.25,-46.75],[19.0,-47.30769230769231],[20.0,-47.699999999999996],[21.080000000000002,-47.92],[21.615384615384613,-48.38461538461539],[22.272727272727273,-48.72727272727273],[23.0,-49.4],[24.0,-49.5],[24.75,-50.25],[25.0,-51.0],[26.0,-51.66666666666667],[28.0,-52.25],[29.0,-53.0],[30.6,-53.400000000000006],[31.0,-54.0],[33.0,-54.0],[34.0,-54.66666666666667],[35.0,-55.0],[37.0,-55.0],[37.6,-55.400000000000006],[38.0,-55.5],[38.5,-56.0],[38.6,-56.400000000000006],[39.0,-56.5],[39.400000000000006,-56.400000000000006],[40.6,-55.60000000000001],[41.0,-55.0],[42.0,-55.0],[42.6,-54.6],[43.400000000000006,-54.400000000000006],[44.0,-54.0],[47.0,-54.0],[47.0,-53.0],[47.6,-52.6],[48.400000000000006,-52.4],[49.0,-52.0],[51.0,-52.0],[52.0,-53.0],[56.0,-53.0],[56.0,-55.0],[55.0,-56.0],[54.6,-56.6],[54.5,-57.0],[54.6,-57.4],[55.0,-58.0],[57.0,-58.0],[57.0,-59.0],[57.6,-59.400000000000006],[58.0,-59.5],[58.400000000000006,-59.400000000000006],[59.0,-59.0],[60.0,-59.0],[60.0,-60.0],[61.0,-60.33333333333334],[62.333333333333336,-60.333333333333336],[63.0,-60.0],[63.0,-59.0],[64.0,-59.0],[64.75,-58.75],[66.0,-59.0],[66.5,-59.5],[67.0,-59.66666666666667],[68.0,-59.66666666666667],[68.5,-59.5],[69.0,-59.0],[70.0,-59.0],[71.0,-60.0],[71.60000000000001,-59.6],[72.0,-59.5],[73.0,-60.0],[74.0,-59.66666666666667],[75.0,-59.66666666666667],[76.0,-59.2],[77.0,-59.42857142857143],[77.33333333333334,-59.333333333333336],[77.75,-59.0],[77.0,-58.0],[76.42105263157895,-57.57894736842105],[75.68421052631578,-57.315789473684205],[74.53846153846155,-56.46153846153846],[72.89473684210526,-56.10526315789473],[72.46153846153845,-55.53846153846154],[71.83333333333334,-55.16666666666667],[69.88235294117646,-55.11764705882353],[69.5,-55.0],[69.4,-53.60000000000001],[69.0,-53.0],[68.0,-53.0],[67.5,-53.5],[67.0,-53.5],[66.0,-53.0],[66.60000000000001,-52.6],[67.4,-52.4],[67.5,-52.0],[67.19999999999999,-51.8],[67.0,-51.0],[66.0952380952381,-50.904761904761905],[66.0,-50.66666666666667],[65.16666666666666,-49.83333333333333],[65.18181818181819,-49.0],[65.3076923076923,-48.30769230769231],[67.0,-47.5],[67.36363636363636,-47.63636363636364],[67.66666666666667,-48.0],[67.94736842105263,-48.05263157894737],[71.0,-48.0],[71.0,-46.0],[73.0,-46.0],[74.0,-45.0],[75.0,-45.0],[78.0,-44.0],[79.4,-43.400000000000006],[81.44444444444444,-43.44444444444444],[84.0,-42.75],[86.0,-42.75],[87.0,-43.0],[90.0,-43.0],[92.71428571428571,-42.285714285714285],[95.0,-42.25],[96.0,-41.66666666666667],[97.0,-42.0],[98.0,-42.0],[98.75,-42.25],[101.00000000000001,-42.2],[103.0,-42.666666666666664],[104.71428571428571,-43.28571428571428],[106.0,-44.0],[106.60000000000001,-43.60000000000001],[107.0,-43.5],[107.4,-43.60000000000001],[108.0,-44.0],[109.0,-44.0],[109.4,-44.6],[109.5,-46.0],[110.0,-46.5],[110.33333333333334,-46.333333333333336],[110.60000000000001,-45.6],[111.5,-44.0],[112.0,-43.75],[113.0,-43.75],[113.66666666666667,-44.333333333333336],[114.4,-44.6],[115.0,-45.0],[116.0,-45.333333333333336],[117.2,-45.2],[118.0,-44.66666666666667],[119.0,-44.75],[119.66666666666667,-44.66666666666667],[120.0,-44.5],[120.75,-45.25],[121.0,-45.333333333333336],[122.0,-45.25],[123.00000000000001,-45.333333333333336],[124.0,-45.2],[126.0,-45.25],[127.0,-45.0],[130.0,-45.0],[132.28571428571428,-44.285714285714285],[132.84615384615387,-43.84615384615385],[134.0,-43.8],[135.0,-43.333333333333336],[136.0,-43.5],[137.0,-43.5],[137.33333333333334,-43.333333333333336],[137.66666666666669,-42.66666666666667],[138.0,-42.0],[138.25,-41.0],[138.0,-40.5],[137.66666666666669,-40.333333333333336],[137.5,-40.0],[138.0,-39.0],[137.55555555555554,-38.44444444444444],[137.0,-37.0],[137.25,-36.0],[136.8,-35.2],[136.0,-33.0],[134.7142857142857,-32.285714285714285],[134.28571428571428,-31.714285714285715],[134.0,-31.0],[133.5,-30.5],[133.0,-29.0],[131.8181818181818,-28.18181818181818],[130.63636363636363,-26.363636363636363],[130.5,-26.0],[130.6,-24.0],[130.5,-22.0],[130.8,-21.799999999999997],[131.53846153846155,-20.53846153846154],[132.5,-20.0],[134.28571428571428,-18.285714285714285],[135.0,-18.0],[138.0,-18.0],[139.28571428571428,-18.285714285714285],[140.0,-18.0],[139.0,-17.0],[139.4,-16.400000000000002],[139.5,-16.0],[139.33333333333334,-15.666666666666668],[139.0,-15.0],[138.0,-14.0],[138.0,-13.0],[137.0,-12.0],[137.6,-11.600000000000001],[138.0,-11.0],[137.5,-10.0],[138.5,-9.0],[138.0,-8.0],[139.0,-7.0],[140.0,-7.0],[141.0,-6.0],[141.0,-5.0],[142.0,-5.0],[143.0,-4.0],[144.0,-4.0],[145.0,-3.6666666666666665],[145.28571428571428,-3.7142857142857144],[145.5,-4.0],[145.83333333333334,-4.166666666666667],[146.16666666666666,-4.166666666666667],[146.5,-3.5],[147.0,-3.0],[147.6,-3.4000000000000004],[148.36363636363637,-3.6363636363636362],[148.8181818181818,-4.181818181818182],[150.0,-5.0],[150.5,-5.5],[150.83333333333331,-6.166666666666667],[151.33333333333334,-6.666666666666667],[152.0,-7.666666666666666],[153.0,-8.333333333333334],[153.30769230769232,-8.692307692307693],[153.5,-9.0],[153.55555555555554,-9.444444444444445],[155.0,-11.0],[155.0,-12.0],[155.44444444444446,-12.555555555555555],[155.75,-13.25],[156.71428571428572,-14.285714285714285],[157.0,-15.0],[157.5,-15.5],[157.75,-16.0],[158.0,-17.0],[158.0,-18.0],[158.36363636363637,-18.636363636363637],[158.4,-19.0],[158.36363636363637,-19.363636363636363],[158.0,-20.0],[157.0,-19.5],[156.0,-19.333333333333336],[155.60000000000002,-19.6],[154.0,-20.0],[153.0,-21.0],[155.4,-21.6],[156.6,-22.4],[157.0,-23.0],[157.6,-23.400000000000002],[158.0,-24.0],[158.71428571428572,-23.71428571428571],[159.0,-23.75],[159.5,-24.5],[160.0,-24.75],[160.2,-25.0],[160.0,-26.0],[160.33333333333331,-27.0],[160.0,-28.0],[160.33333333333331,-29.0],[159.6923076923077,-29.692307692307693],[159.6,-30.0],[160.0,-31.0],[160.0,-32.0],[159.66666666666669,-33.0],[160.0,-34.0],[160.0,-36.0],[160.4,-36.6],[160.60000000000002,-37.4],[161.0,-38.0],[161.0,-40.0],[161.5,-40.5],[161.66666666666669,-41.0],[162.0,-42.0],[162.0,-43.0],[164.0,-43.0],[164.0,-44.0],[164.71428571428572,-45.285714285714285],[165.33333333333334,-47.0],[165.60000000000002,-47.4],[166.2,-47.8],[166.5,-48.5],[167.0,-49.0],[169.0,-49.0],[170.4,-48.400000000000006],[171.60000000000002,-47.6],[172.0,-47.0],[173.0,-46.333333333333336],[174.25,-46.25],[176.0,-45.5],[176.40000000000003,-46.6],[177.0,-46.8],[177.125,-47.125],[177.125,-47.875],[177.33333333333334,-48.0],[177.55555555555554,-48.44444444444444],[178.0,-48.666666666666664],[178.28571428571428,-49.285714285714285],[178.28571428571428,-49.71428571428571],[178.71428571428572,-49.71428571428571],[179.20000000000002,-50.0],[179.25,-52.75],[179.5,-53.5],[180.0,-54.0],[180.0,-68.16666666666667],[179.5,-68.5],[179.16666666666669,-69.0],[179.125,-70.0],[179.2,-70.80000000000001],[179.5,-71.0],[179.66666666666669,-71.33333333333334],[180.0,-71.5],[180.0,-90.0],[-119.0,-90.0],[-119.0,-88.0],[-119.60000000000001,-87.6],[-120.0,-87.5],[-122.0,-87.5],[-123.28571428571428,-87.71428571428572]],[[-107.0,-87.5],[-112.0,-87.5],[-112.4,-87.6],[-113.0,-88.0],[-112.4,-88.4],[-112.0,-88.5],[-107.0,-88.5],[-106.60000000000001,-88.4],[-106.0,-88.0],[-106.60000000000001,-87.6],[-107.0,-87.5]],[[-104.0,-87.0],[-105.0,-88.0],[-104.4,-88.4],[-104.0,-88.5],[-103.5,-88.0],[-104.0,-87.0]],[[-144.0,-87.0],[-144.0,-88.0],[-142.0,-88.0],[-142.0,-87.0],[-144.0,-87.0]],[[142.4,-16.400000000000002],[142.33333333333334,-16.0],[141.77777777777777,-15.777777777777779],[141.5,-16.0],[141.6,-16.400000000000002],[142.0,-17.0],[142.4,-16.400000000000002]],[[141.6,-17.6],[141.5,-18.0],[141.6,-18.400000000000002],[142.0,-19.0],[142.33333333333334,-18.333333333333336],[143.0,-18.0],[143.0,-17.0],[142.0,-17.0],[141.6,-17.6]],[[155.0,-86.0],[156.0,-86.25],[157.0,-86.0],[155.77777777777777,-85.77777777777777],[155.0,-86.0]],[[164.0,-59.0],[164.0,-57.0],[163.4,-56.6],[161.71428571428572,-56.285714285714285],[161.0,-56.0],[160.0,-55.0],[159.0,-55.0],[158.4,-55.400000000000006],[157.5,-55.5],[157.5,-56.0],[158.0,-56.5],[159.4,-56.6],[161.2,-57.8],[161.5,-58.5],[162.0,-59.0],[164.0,-59.0]],[[157.5,-55.0],[157.33333333333334,-54.66666666666667],[157.0,-54.5],[156.6,-54.6],[156.0,-55.0],[156.6,-55.400000000000006],[157.0,-55.5],[157.5,-55.5],[157.5,-55.0]],[[177.33333333333334,-55.66666666666667],[176.66666666666669,-55.33333333333334],[175.8181818181818,-55.18181818181819],[175.5,-55.0],[175.33333333333334,-54.66666666666667],[175.0,-54.5],[174.0,-54.5],[173.60000000000002,-54.6],[173.0,-55.0],[173.0,-56.0],[172.0,-56.0],[172.0,-57.0],[172.6,-57.4],[174.0,-58.0],[176.0,-58.0],[176.77777777777777,-57.77777777777777],[177.5,-57.0],[177.5,-56.0],[177.33333333333334,-55.66666666666667]],[[165.4,-69.4],[166.0,-69.0],[167.0,-69.0],[167.71428571428572,-68.71428571428571],[168.60000000000002,-68.60000000000001],[170.0,-68.0],[172.0,-68.0],[172.6,-67.6],[173.0,-67.0],[172.33333333333334,-65.66666666666667],[172.0,-65.5],[171.0,-65.5],[170.0,-65.33333333333333],[169.4,-65.4],[168.0,-66.0],[167.0,-65.5],[166.0,-65.5],[165.60000000000002,-65.60000000000001],[165.0,-66.0],[162.0,-66.0],[161.40000000000003,-65.60000000000001],[161.0,-65.5],[160.60000000000002,-65.60000000000001],[160.0,-66.0],[158.0,-66.0],[157.5,-66.5],[156.66666666666669,-66.66666666666667],[156.0,-67.0],[157.0,-68.0],[157.71428571428572,-68.28571428571428],[159.0,-68.5],[161.0,-69.5],[162.6,-69.6],[164.0,-70.0],[165.4,-69.4]],[[158.0,-88.70175438596492],[158.48484848484847,-88.4848484848485],[158.7904761904762,-87.7904761904762],[159.55555555555554,-87.55555555555554],[159.80851063829786,-87.0],[159.68965517241378,-86.6896551724138],[159.78947368421052,-86.21052631578948],[159.0,-86.07317073170732],[158.1142857142857,-86.11428571428571],[158.23529411764707,-86.76470588235294],[158.14117647058822,-87.14117647058823],[157.72093023255815,-87.27906976744185],[157.25641025641025,-87.25641025641025],[157.33898305084745,-87.66101694915254],[157.2,-88.0],[157.51807228915663,-88.48192771084337],[158.0,-88.70175438596492]],[[162.24489795918367,-88.0],[162.5194805194805,-88.48051948051948],[163.0,-88.71153846153847],[163.49333333333334,-88.49333333333334],[163.77083333333331,-88.0],[163.609756097561,-87.39024390243902],[163.0,-87.19565217391305],[162.41860465116278,-87.4186046511628],[162.24489795918367,-88.0]],[[174.6,-84.60000000000001],[175.0,-84.5],[175.33333333333334,-84.0],[175.5,-83.0],[175.5,-82.0],[175.33333333333334,-81.66666666666667],[174.66666666666669,-81.33333333333334],[174.33333333333334,-80.66666666666667],[173.60000000000002,-80.4],[173.4,-78.60000000000001],[173.0,-78.0],[172.0,-78.0],[172.0,-80.0],[171.0,-81.0],[171.0,-84.0],[172.0,-84.0],[172.6,-84.4],[173.4,-84.60000000000001],[174.0,-85.0],[174.6,-84.60000000000001]]],[[[23.0,-38.0],[23.5,-38.5],[23.5,-39.0],[23.0,-40.0],[22.5,-39.5],[22.5,-39.0],[22.799999999999997,-38.8],[23.0,-38.0]]],[[[-44.4,-28.0],[-44.0,-28.666666666666664],[-43.333333333333336,-29.333333333333336],[-43.0,-29.5],[-41.0,-30.0],[-39.0,-29.5],[-38.0,-29.666666666666668],[-37.0,-28.5],[-36.0,-28.333333333333336],[-34.285714285714285,-27.714285714285715],[-33.6,-27.6],[-33.0,-28.0],[-33.4,-28.6],[-33.6,-29.400000000000002],[-34.0,-30.0],[-34.333333333333336,-31.0],[-35.0,-31.666666666666668],[-37.5,-33.0],[-39.0,-34.0],[-40.0,-34.0],[-41.2,-34.8],[-41.63636363636364,-35.36363636363637],[-43.0,-36.333333333333336],[-43.75,-37.25],[-45.15384615384615,-37.84615384615385],[-46.0,-38.400000000000006],[-47.0,-38.0],[-47.666666666666664,-37.0],[-49.0,-36.333333333333336],[-50.0,-36.5],[-51.0,-36.4],[-52.0,-36.0],[-52.5,-35.0],[-52.0,-34.5],[-51.25,-32.75],[-50.28571428571428,-31.714285714285715],[-50.0,-31.0],[-49.0,-30.0],[-48.75,-28.0],[-48.5,-27.5],[-48.0,-27.0],[-47.5,-25.0],[-47.400000000000006,-24.0],[-47.25,-23.75],[-46.0,-22.6],[-45.0,-22.666666666666664],[-44.66666666666667,-23.0],[-44.6,-23.6],[-44.5,-26.0],[-44.6,-27.0],[-44.4,-28.0]]],[[[-25.0,-13.0],[-24.0,-14.0],[-24.0,-15.0],[-25.0,-15.5],[-25.400000000000002,-15.4],[-26.0,-15.0],[-27.0,-16.0],[-29.0,-16.0],[-30.0,-17.0],[-30.6,-17.4],[-31.0,-18.0],[-33.0,-18.0],[-33.0,-17.0],[-33.333333333333336,-16.333333333333336],[-33.5,-15.0],[-33.333333333333336,-14.0],[-33.5,-13.0],[-33.0,-12.0],[-33.0,-10.0],[-32.0,-10.0],[-32.0,-9.0],[-31.0,-8.5],[-30.0,-8.5],[-29.0,-9.0],[-28.6,-9.600000000000001],[-27.4,-10.4],[-27.0,-11.0],[-26.0,-12.0],[-25.0,-12.0],[-25.0,-13.0]]],[[[23.0,-14.0],[23.5,-14.5],[23.5,-15.0],[23.0,-16.0],[21.799999999999997,-16.8],[21.666666666666668,-17.0],[21.0,-17.11764705882353],[19.5,-17.0],[19.571428571428573,-15.571428571428573],[20.0,-15.0],[18.0,-14.0],[17.5,-13.5],[17.333333333333336,-13.0],[17.333333333333336,-12.0],[17.5,-11.5],[18.0,-11.0],[17.0,-10.0],[17.4,-9.4],[17.666666666666668,-8.666666666666668],[18.400000000000002,-8.4],[19.0,-8.0],[20.0,-8.0],[19.5,-7.5],[19.5,-7.0],[19.666666666666668,-6.666666666666667],[20.333333333333336,-6.333333333333334],[20.666666666666668,-5.666666666666667],[21.0,-5.5],[22.0,-5.333333333333334],[22.5,-5.0],[22.666666666666668,-4.666666666666667],[23.0,-4.5],[23.285714285714285,-4.7142857142857135],[23.333333333333332,-5.0],[23.636363636363633,-5.363636363636363],[24.181818181818183,-5.818181818181818],[25.0,-8.0],[25.0,-9.0],[24.0,-12.0],[24.0,-14.0],[23.0,-14.0]],[[21.0,-9.0],[21.5,-8.0],[21.0,-7.5],[20.6,-7.6],[20.0,-8.0],[21.0,-9.0]]],[[[19.78048780487805,9.0],[20.0,9.214285714285715],[21.17948717948718,9.0],[21.0,8.125],[20.42857142857143,8.428571428571429],[20.0,8.5],[19.78048780487805,9.0]]],[[[9.64,12.0],[10.0,12.152542372881356],[10.75,12.0],[11.019417475728154,10.980582524271846],[10.24074074074074,10.75925925925926],[9.796875,10.796875],[9.38095238095238,11.0],[9.64,12.0]]],[[[2.6666666666666665,27.000000000000004],[3.0,26.0],[2.666666666666667,25.333333333333336],[2.0,25.0],[1.0,25.0],[-3.25,25.75],[-3.6923076923076925,26.30769230769231],[-5.0,27.0],[-6.0,28.0],[-5.5,29.0],[-5.222222222222221,29.22222222222222],[-5.0,29.333333333333336],[-3.0,29.166666666666668],[-2.0,28.5],[-0.6000000000000001,28.400000000000002],[2.2666666666666666,27.266666666666666],[2.6666666666666665,27.000000000000004]]],[[[17.39622641509434,42.39622641509435],[19.555555555555557,42.0],[21.30188679245283,41.301886792452834],[22.6,41.0],[23.464285714285715,40.464285714285715],[25.0,39.88888888888889],[26.22222222222222,39.22222222222222],[29.0,38.58333333333333],[30.599999999999998,38.0],[31.105263157894736,37.0],[30.3,36.0],[27.041666666666668,34.95833333333333],[25.81818181818182,34.18181818181818],[25.090909090909093,33.90909090909091],[24.647058823529413,33.35294117647059],[23.75,33.0],[22.0,32.0],[21.0,30.333333333333336],[20.444444444444443,28.555555555555554],[19.470588235294116,27.529411764705884],[19.0,26.8],[18.285714285714285,26.714285714285715],[18.0,26.5],[17.666666666666668,26.666666666666668],[17.22222222222222,27.22222222222222],[17.0,28.0],[16.333333333333336,28.333333333333336],[16.0,32.0],[15.4,32.4],[15.0,33.0],[15.0,34.0],[13.0,34.25],[8.75,34.25],[8.0,34.0],[6.0,34.0],[6.0,33.0],[5.0,33.0],[4.4,33.4],[2.714285714285714,33.714285714285715],[1.25,34.25],[0.0,34.0],[-2.8,34.2],[-3.666666666666667,34.333333333333336],[-4.5,35.0],[-5.0,35.2],[-7.0,35.285714285714285],[-8.0,35.75],[-9.0,36.0],[-10.285714285714285,36.714285714285715],[-11.0,38.0],[-11.0,40.0],[-10.333333333333334,39.66666666666667],[-10.0,39.75],[-8.833333333333334,40.833333333333336],[-8.0,41.16666666666667],[-6.0,41.41666666666667],[-5.0,41.41666666666667],[-2.8499999999999996,41.85],[-0.14285714285714285,42.14285714285714],[1.0,42.58333333333333],[3.875,43.125],[5.32,43.68],[8.192307692307693,44.19230769230769],[12.285714285714285,44.0],[14.292134831460675,43.29213483146067],[15.888888888888888,43.0],[17.39622641509434,42.39622641509435]]],[[[63.333333333333336,-52.33333333333334],[62.714285714285715,-52.285714285714285],[62.0,-52.0],[63.0,-51.75],[64.0,-52.0],[63.333333333333336,-52.33333333333334]]],[[[58.33333333333334,-51.333333333333336],[58.0,-51.5],[57.66666666666667,-51.333333333333336],[57.5,-51.0],[58.0,-50.5],[58.5,-51.0],[58.33333333333334,-51.333333333333336]]],[[[32.0,-38.6],[30.0,-39.0],[29.5,-39.5],[28.857142857142858,-39.85714285714286],[27.92857142857143,-39.92857142857143],[26.200000000000003,-39.8],[25.545454545454543,-39.45454545454545],[25.285714285714285,-39.0],[25.0,-38.0],[25.0,-37.0],[26.0,-36.666666666666664],[26.333333333333336,-36.66666666666667],[27.0,-37.0],[28.285714285714285,-37.285714285714285],[28.799999999999997,-37.2],[29.0,-37.333333333333336],[30.0,-37.4],[30.666666666666664,-37.0],[30.75,-36.75],[31.0,-36.666666666666664],[31.166666666666668,-36.0],[31.461538461538463,-35.46153846153847],[32.0,-35.285714285714285],[33.6,-35.400000000000006],[34.5,-36.0],[34.23529411764706,-37.23529411764706],[33.0,-38.2],[32.0,-38.6]]],[[[45.8,-32.2],[46.0,-33.0],[46.0,-34.0],[45.35294117647059,-34.35294117647059],[44.0,-34.6],[41.18181818181818,-33.81818181818182],[40.0,-33.25],[39.0,-33.0],[39.0,-32.0],[40.0,-31.8],[41.0,-31.4],[42.0,-31.428571428571423],[42.26086956521739,-31.26086956521739],[43.0,-31.142857142857146],[44.68,-31.32],[45.8,-32.2]]],[[[165.0,-24.416666666666664],[164.6875,-24.3125],[164.5,-24.0],[164.33333333333334,-23.0],[164.6521739130435,-22.652173913043477],[165.0,-22.46666666666667],[166.0,-22.576923076923077],[166.47826086956522,-23.0],[166.3529411764706,-24.0],[166.21428571428572,-24.214285714285715],[166.0,-24.4],[165.0,-24.416666666666664]]],[[[164.56756756756758,-16.56756756756757],[165.0,-16.200000000000003],[165.5,-16.5],[166.0,-16.607142857142858],[166.5,-17.0],[165.95555555555555,-18.044444444444444],[165.0,-18.0],[164.54285714285714,-17.457142857142856],[164.38461538461542,-17.0],[164.56756756756758,-16.56756756756757]]],[[[118.0,0.0],[118.5,-0.5],[119.33333333333334,-0.6666666666666667],[120.0,-1.0],[121.0,-1.0],[121.66666666666669,-0.6666666666666667],[122.18181818181819,-0.8181818181818181],[123.0,-1.6666666666666665],[124.0,-1.5],[125.0,0.0],[124.66666666666666,1.0],[125.5,2.0],[126.0,2.333333333333333],[127.0,2.0],[128.0,1.0],[128.4,0.4],[128.5,-1.0],[128.0,-3.0],[127.42857142857143,-4.428571428571429],[127.0,-5.0],[126.0,-6.0],[125.0,-6.333333333333334],[124.3076923076923,-7.307692307692308],[123.0,-8.0],[122.6,-8.600000000000001],[122.5,-9.0],[122.25,-9.25],[121.5,-9.5],[120.0,-11.0],[118.77777777777777,-11.777777777777779],[118.36363636363637,-12.363636363636363],[117.77777777777777,-12.777777777777779],[117.15384615384616,-14.153846153846153],[116.0,-15.0],[115.18181818181819,-16.18181818181818],[114.0,-17.0],[113.0,-17.333333333333332],[111.36363636363636,-18.363636363636363],[110.60000000000001,-18.6],[110.0,-19.0],[108.60000000000001,-19.400000000000002],[108.0,-19.0],[108.0,-20.0],[107.5,-21.5],[106.44444444444443,-22.444444444444443],[105.5,-23.0],[105.4,-23.400000000000002],[105.0,-24.0],[104.0,-24.333333333333336],[103.33333333333333,-25.0],[102.66666666666667,-26.0],[101.66666666666667,-26.666666666666668],[101.28571428571428,-27.285714285714285],[101.0,-27.5],[99.0,-27.5],[97.33333333333334,-26.666666666666668],[97.0,-26.66666666666667],[96.5,-27.0],[96.33333333333334,-27.333333333333336],[95.0,-28.0],[94.0,-27.5],[92.0,-27.5],[91.66666666666667,-27.333333333333336],[91.5,-27.0],[91.0,-26.75],[90.0,-26.8],[89.5,-27.0],[89.5,-28.0],[90.0,-29.0],[89.4,-29.400000000000002],[89.0,-30.0],[88.0,-30.5],[86.0,-31.0],[85.0,-31.666666666666668],[84.0,-32.0],[83.0,-32.0],[81.81818181818181,-31.81818181818182],[81.0,-32.0],[80.4,-32.4],[79.66666666666667,-32.66666666666667],[79.0,-32.75],[77.81818181818181,-32.18181818181818],[77.33333333333334,-31.0],[77.6,-30.6],[78.16666666666667,-30.166666666666668],[78.5,-29.5],[79.0,-29.0],[79.36363636363636,-28.363636363636363],[80.66666666666667,-27.0],[82.23529411764706,-26.235294117647058],[83.0,-25.666666666666664],[83.57575757575758,-24.575757575757578],[84.0,-24.299999999999997],[84.52173913043478,-23.521739130434785],[86.30188679245283,-22.30188679245283],[87.63265306122449,-21.632653061224488],[89.0,-21.0],[91.20689655172413,-20.20689655172414],[93.0,-19.333333333333336],[94.64285714285714,-18.0],[95.25,-17.25],[96.38888888888889,-16.38888888888889],[97.4,-16.0],[98.23076923076923,-15.23076923076923],[99.0,-15.0],[99.52,-14.52],[101.0,-14.0],[101.25,-13.25],[102.0,-13.0],[102.0,-12.0],[102.6,-12.4],[103.0,-12.333333333333332],[103.2,-12.000000000000002],[103.33333333333334,-11.0],[104.0,-9.5],[105.0,-8.666666666666668],[105.33333333333334,-8.0],[106.00000000000001,-7.200000000000001],[106.4,-6.4],[107.0,-5.6],[108.10526315789474,-3.1052631578947367],[109.3030303030303,-1.3030303030303032],[110.0,-0.5],[110.85714285714286,0.14285714285714285],[113.0,3.0],[115.0,5.0],[116.0,5.428571428571429],[117.0,5.25],[118.2,4.2],[118.66666666666667,3.0],[118.5,2.0],[118.0,1.0],[118.0,0.0]],[[119.33333333333334,-3.0],[119.4,-2.6],[119.0,-2.0],[118.0,-3.0],[118.66666666666669,-3.3333333333333335],[119.0,-3.333333333333333],[119.33333333333334,-3.0]]],[[[159.0,-12.5],[158.6923076923077,-12.307692307692308],[158.26666666666665,-11.733333333333333],[158.1111111111111,-10.999999999999998],[158.29999999999998,-10.0],[158.6818181818182,-9.681818181818182],[159.0,-9.65],[160.0,-10.181818181818182],[160.4090909090909,-11.0],[160.32142857142856,-11.321428571428571],[160.0,-11.9],[159.25,-12.25],[159.0,-12.5]]],[[[33.05714285714286,0.05714285714285716],[33.0,-0.12],[32.0,-0.4736842105263158],[31.57142857142857,0.0],[32.0,0.9],[33.05714285714286,0.05714285714285716]]],[[[46.0,10.0],[47.0,9.625],[49.125,9.875],[49.733333333333334,10.266666666666666],[49.85,12.0],[50.425,12.575],[51.0,12.933333333333334],[52.0,13.0],[52.416666666666664,12.416666666666668],[52.54054054054055,12.0],[52.0,10.357142857142858],[51.166666666666664,10.0],[50.800000000000004,9.0],[49.32786885245902,6.672131147540984],[48.0,5.611111111111111],[46.5,5.0],[45.53846153846154,4.461538461538462],[44.0,3.9411764705882355],[43.0,3.9],[42.0,4.4],[41.11267605633803,6.112676056338028],[40.315789473684205,7.0],[38.42857142857143,8.428571428571429],[37.16666666666667,10.0],[37.0,11.0],[37.0,12.0],[37.6,12.4],[40.0,12.076923076923077],[41.0,11.363636363636363],[42.75,10.75],[44.0,10.363636363636363],[46.0,10.0]]],[[[37.0,12.0],[36.22222222222222,12.222222222222221],[35.0,11.75],[33.17142857142857,12.17142857142857],[32.647058823529406,12.647058823529411],[32.08333333333333,13.999999999999998],[31.894736842105264,15.105263157894738],[32.5,16.0],[35.0,16.125],[36.0,15.333333333333334],[36.629629629629626,13.62962962962963],[37.0,13.0],[37.0,12.0]]],[[[56.0,17.17241379310345],[57.0,17.304347826086957],[57.11570247933884,17.115702479338843],[57.0,16.794117647058826],[56.758620689655174,16.758620689655174],[56.0,16.75],[55.88636363636363,17.0],[56.0,17.17241379310345]]],[[[42.0,36.25581395348837],[43.17886178861789,36.17886178861789],[43.47826086956522,36.0],[43.0,35.214285714285715],[42.0,35.3125],[41.66666666666667,36.0],[42.0,36.25581395348837]]],[[[56.74074074074074,37.0],[57.241379310344826,37.0],[57.166666666666664,36.0],[57.0,35.90625],[56.5,36.0],[56.67567567567568,36.32432432432432],[56.74074074074074,37.0]]]]}}]}