{"type":"FeatureCollection","features":[{"type":"Feature","properties":{"ageMa":480},"geometry":{"type":"MultiPolygon","coordinates":[[[[-53.300000000000004,-63.300000000000004],[-52.400000000000006,-64.0],[-52.5,-65.0],[-52.785714285714285,-65.21428571428571],[-53.0,-65.75],[-54.400000000000006,-66.60000000000001],[-54.857142857142854,-67.14285714285714],[-57.0,-67.625],[-58.0,-67.5],[-59.61904761904761,-66.61904761904762],[-60.0,-66.55555555555556],[-60.882352941176464,-65.88235294117648],[-62.0,-65.4],[-62.33333333333333,-65.0],[-62.55555555555556,-64.0],[-62.5,-63.0],[-62.36363636363636,-62.63636363636363],[-60.81818181818182,-62.18181818181818],[-60.400000000000006,-61.6],[-59.6,-61.400000000000006],[-59.0,-61.0],[-58.44444444444444,-61.44444444444444],[-57.71428571428571,-61.71428571428571],[-57.0,-61.666666666666664],[-55.0,-62.0],[-54.5,-62.5],[-53.71428571428571,-62.714285714285715],[-53.300000000000004,-63.300000000000004]]],[[[-61.2,-61.00000000000001],[-61.55555555555555,-61.44444444444444],[-62.444444444444436,-61.44444444444444],[-63.0,-61.0],[-62.0,-60.2],[-61.400000000000006,-60.400000000000006],[-61.2,-61.00000000000001]]],[[[-78.33333333333334,-59.0],[-78.5,-60.0],[-79.0,-60.66666666666667],[-79.5,-60.5],[-81.0,-59.0],[-81.60000000000001,-58.60000000000001],[-82.33333333333334,-58.33333333333334],[-82.5,-58.0],[-82.5,-57.5],[-81.47058823529412,-56.52941176470588],[-80.61904761904762,-56.61904761904761],[-80.2,-57.0],[-80.18181818181819,-57.18181818181819],[-79.625,-57.625],[-79.28571428571428,-58.28571428571428],[-79.0,-58.333333333333336],[-78.61904761904762,-58.61904761904762],[-78.33333333333334,-59.0]]],[[[-69.0,-53.57142857142857],[-68.0,-54.0],[-68.79310344827586,-54.206896551724135],[-69.0,-54.46153846153847],[-70.0,-54.625],[-70.45454545454545,-54.45454545454545],[-71.0,-54.0],[-69.0,-53.57142857142857]]],[[[-66.71428571428572,-40.0],[-66.0,-39.5],[-64.78571428571428,-40.0],[-66.0,-40.204081632653065],[-66.71428571428572,-40.0]]],[[[-78.54166666666666,-39.0],[-79.13836477987421,-39.138364779874216],[-80.0,-39.0],[-79.0,-38.725],[-78.75,-38.75],[-78.54166666666666,-39.0]]],[[[-135.33333333333334,-22.0],[-135.76470588235293,-22.235294117647058],[-138.0,-22.666666666666668],[-138.75,-22.75],[-139.33333333333334,-22.666666666666668],[-140.0,-23.0],[-140.0,-22.0],[-139.60000000000002,-21.4],[-139.33333333333331,-20.0],[-139.55555555555554,-19.555555555555554],[-140.23529411764707,-19.235294117647058],[-140.4,-19.0],[-140.23529411764707,-18.764705882352942],[-140.0,-18.714285714285715],[-137.0,-18.833333333333332],[-136.32258064516128,-19.32258064516129],[-135.83333333333331,-19.833333333333332],[-135.16666666666666,-21.0],[-135.22222222222223,-21.77777777777778],[-135.33333333333334,-22.0]]],[[[-55.0,-0.5],[-54.71428571428571,-0.7142857142857142],[-54.75,-1.0],[-54.5,-1.5],[-54.0,-2.0],[-53.307692307692314,-3.3076923076923084],[-52.6,-3.6000000000000005],[-52.333333333333336,-4.0],[-51.529411764705884,-4.529411764705882],[-51.44444444444444,-5.444444444444444],[-51.25,-6.0],[-50.66666666666667,-6.666666666666667],[-50.400000000000006,-8.0],[-50.0,-9.0],[-49.6,-9.600000000000001],[-49.81818181818181,-13.181818181818183],[-50.22222222222222,-13.777777777777779],[-50.75,-15.0],[-50.769230769230774,-16.23076923076923],[-51.344827586206904,-16.655172413793103],[-51.76,-18.24],[-52.5,-19.0],[-53.22222222222222,-21.77777777777778],[-54.36363636363637,-22.636363636363637],[-54.66666666666667,-23.0],[-54.66666666666667,-23.333333333333336],[-55.0,-24.0],[-53.0,-24.6],[-52.0,-24.57142857142857],[-50.733333333333334,-24.266666666666666],[-49.0,-23.555555555555557],[-48.0,-23.28571428571429],[-47.21428571428571,-22.785714285714285],[-46.0,-22.666666666666664],[-45.0,-22.166666666666668],[-43.84615384615385,-21.846153846153847],[-43.0,-22.0],[-41.88235294117647,-21.88235294117647],[-41.333333333333336,-22.333333333333336],[-40.66666666666667,-22.666666666666668],[-40.400000000000006,-23.0],[-41.0,-25.0],[-41.5,-26.0],[-42.285714285714285,-26.285714285714285],[-42.71428571428571,-26.285714285714285],[-43.0,-27.0],[-44.0,-27.0],[-44.77777777777777,-27.22222222222222],[-45.5,-28.0],[-46.2,-28.200000000000003],[-47.0,-28.25],[-47.42857142857143,-28.571428571428573],[-47.77777777777778,-29.22222222222222],[-48.333333333333336,-29.333333333333336],[-48.75,-29.25],[-51.18181818181818,-29.81818181818182],[-52.5,-31.0],[-52.866666666666674,-31.133333333333333],[-57.0,-31.166666666666668],[-58.0,-31.285714285714285],[-63.18181818181819,-31.18181818181818],[-64.0,-31.0],[-64.0,-30.0],[-64.77777777777777,-30.22222222222222],[-65.0,-30.142857142857142],[-66.0,-30.333333333333336],[-66.23529411764706,-30.235294117647058],[-66.57142857142858,-29.571428571428573],[-67.0,-29.4],[-68.0,-29.57142857142857],[-69.15384615384616,-29.153846153846153],[-70.33333333333334,-28.333333333333336],[-70.5,-28.0],[-70.60000000000001,-26.6],[-71.5,-25.0],[-71.28571428571428,-23.71428571428571],[-71.0,-23.5],[-70.60000000000001,-23.6],[-70.0,-25.0],[-69.75,-24.0],[-70.0,-23.0],[-69.25,-22.0],[-69.2,-21.0],[-70.0,-20.0],[-71.16666666666666,-19.166666666666668],[-73.0,-18.5],[-73.8,-17.799999999999997],[-76.0,-17.0],[-76.5,-16.5],[-77.21052631578948,-16.210526315789473],[-78.25,-16.0],[-78.0,-15.75],[-77.0,-15.6],[-76.0,-15.25],[-71.66666666666667,-15.333333333333334],[-71.0,-15.0],[-70.33333333333333,-14.0],[-70.33333333333334,-13.666666666666668],[-70.0,-13.0],[-70.0,-11.0],[-69.0,-10.0],[-69.0,-9.0],[-68.5,-8.5],[-67.83333333333333,-8.166666666666666],[-67.25,-6.75],[-66.77777777777777,-6.222222222222222],[-66.44444444444444,-5.555555555555555],[-66.22222222222223,-4.777777777777778],[-65.75,-4.25],[-65.4,-3.6000000000000005],[-64.77777777777777,-3.2222222222222223],[-64.36363636363637,-1.6363636363636362],[-63.8,-1.2000000000000002],[-63.0,0.0],[-61.77777777777777,0.7777777777777778],[-61.28571428571428,1.2857142857142856],[-60.55555555555555,1.5555555555555554],[-59.0,1.75],[-58.0,1.3333333333333335],[-56.71428571428571,1.2857142857142856],[-56.66666666666667,1.0],[-56.333333333333336,0.6666666666666667],[-55.53846153846154,0.46153846153846156],[-55.0,-0.5]]],[[[-145.0,-15.857142857142858],[-146.0,-15.8],[-147.0,-15.4],[-147.23529411764707,-15.235294117647058],[-148.0,-14.0],[-147.875,-13.0],[-147.48275862068965,-12.517241379310345],[-146.60000000000002,-12.0],[-146.0,-11.892857142857142],[-145.0,-12.25],[-143.55555555555554,-13.0],[-143.125,-14.0],[-143.42105263157893,-14.578947368421051],[-144.0,-15.2],[-145.0,-15.857142857142858]]],[[[-155.0,-8.0],[-157.42857142857142,-6.428571428571429],[-157.66666666666669,-6.0],[-157.75,-5.0],[-157.38709677419354,-4.612903225806452],[-156.7037037037037,-4.296296296296296],[-156.0,-4.2],[-155.28571428571428,-4.285714285714286],[-154.02777777777777,-5.027777777777778],[-153.27272727272728,-6.0],[-152.71428571428572,-7.0],[-153.33333333333334,-7.666666666666668],[-154.0,-7.888888888888888],[-155.0,-8.0]]],[[[-164.20000000000002,3.0],[-164.73333333333335,3.2666666666666666],[-165.33333333333334,4.0],[-164.0,4.483870967741936],[-163.0,4.304347826086957],[-162.5,4.0],[-162.68,2.68],[-163.0,2.4285714285714284],[-164.0,2.75],[-164.20000000000002,3.0]]],[[[-161.0,12.0],[-162.0,11.444444444444445],[-162.21052631578948,11.210526315789473],[-163.7674418604651,11.232558139534884],[-164.7,11.999999999999998],[-165.0215053763441,12.978494623655914],[-165.0,13.25],[-164.7,13.7],[-163.93103448275863,13.931034482758621],[-163.0,13.941176470588236],[-162.35897435897436,13.64102564102564],[-162.0,13.3],[-161.76,13.239999999999998],[-161.0,12.0]]],[[[-163.0,18.666666666666668],[-163.33333333333331,19.0],[-163.0,19.142857142857142],[-161.19753086419752,18.80246913580247],[-161.01724137931035,18.0],[-161.03703703703704,17.037037037037038],[-162.76,17.240000000000002],[-163.0,18.666666666666668]]],[[[-172.0,26.75],[-172.06593406593407,26.934065934065934],[-173.0,27.0],[-172.4,27.4],[-171.5,27.0],[-171.75,26.75],[-172.0,26.75]]],[[[-174.0701754385965,28.070175438596493],[-172.8,28.0],[-172.63636363636363,27.636363636363637],[-173.0,27.0],[-173.07142857142858,27.92857142857143],[-173.92857142857144,27.92857142857143],[-174.0701754385965,28.070175438596493]]],[[[32.0,-77.0],[32.66666666666667,-76.66666666666667],[33.0,-76.75],[33.25,-77.0],[32.875,-77.125],[32.0,-77.0]]],[[[-16.210526315789473,-69.78947368421052],[-15.0,-69.75],[-14.0,-69.55555555555556],[-12.81818181818182,-69.81818181818181],[-12.173913043478262,-70.17391304347825],[-10.565217391304348,-70.56521739130434],[-8.0,-70.84615384615384],[-7.5,-71.0],[-7.0,-71.33333333333334],[-5.7333333333333325,-71.73333333333333],[-5.0,-71.875],[-4.0,-71.72727272727273],[-3.4,-72.0],[-2.714285714285714,-72.71428571428571],[-1.0,-73.0],[0.0,-73.33333333333334],[2.0,-73.16666666666667],[2.739130434782609,-72.7391304347826],[4.0,-72.5],[6.4,-72.4],[10.0,-72.42857142857142],[11.0,-72.33333333333334],[12.0,-72.63636363636364],[14.0,-72.77777777777777],[15.0,-72.69999999999999],[17.11764705882353,-72.88235294117646],[19.0,-72.875],[21.0,-72.63636363636364],[22.0,-72.66666666666667],[23.0,-72.875],[24.0,-72.625],[25.0,-72.75],[26.0,-72.66666666666667],[27.10526315789474,-72.89473684210526],[27.89473684210526,-72.89473684210526],[28.25,-73.0],[28.571428571428573,-73.42857142857143],[30.0,-74.0],[30.0,-75.0],[31.0,-75.2],[32.0,-76.0],[32.0,-77.0],[31.333333333333336,-77.33333333333334],[30.0,-77.5],[29.0,-77.83333333333333],[27.733333333333334,-77.73333333333333],[26.857142857142854,-77.85714285714286],[26.125,-78.125],[24.31578947368421,-78.3157894736842],[21.0,-78.25],[19.57894736842105,-78.42105263157895],[13.0,-78.63636363636364],[10.0,-78.66666666666667],[9.0,-78.44444444444444],[7.0,-78.55555555555556],[4.0,-77.875],[2.0,-78.4],[0.0,-78.33333333333334],[-1.0,-78.125],[-5.0,-78.25],[-6.0,-78.0],[-6.625,-77.625],[-8.0,-77.33333333333333],[-11.0,-77.66666666666667],[-12.0,-77.57142857142857],[-13.0,-77.14285714285714],[-14.0,-77.14285714285714],[-14.5,-76.5],[-15.0,-76.375],[-16.0,-76.4],[-17.0,-76.0],[-19.0,-76.0],[-20.0,-75.5],[-22.105263157894736,-75.10526315789474],[-23.0,-73.66666666666667],[-24.2,-73.2],[-24.666666666666668,-72.0],[-24.30769230769231,-71.6923076923077],[-22.0,-70.6],[-21.173913043478258,-69.82608695652173],[-20.80952380952381,-69.80952380952381],[-20.142857142857142,-70.14285714285714],[-19.88235294117647,-70.11764705882354],[-19.285714285714285,-69.71428571428572],[-19.0,-69.66666666666667],[-17.80952380952381,-69.80952380952381],[-17.0,-70.125],[-16.210526315789473,-69.78947368421052]]],[[[-26.333333333333336,-72.33333333333334],[-27.0,-72.0],[-26.0,-71.8],[-25.5,-72.0],[-26.0,-72.5],[-26.333333333333336,-72.33333333333334]]],[[[-27.0,-72.0],[-27.666666666666668,-72.33333333333334],[-29.0,-72.16666666666666],[-29.333333333333336,-72.0],[-29.0,-71.8],[-28.0,-71.66666666666667],[-27.0,-72.0]]],[[[-39.0,-71.0],[-41.0,-71.5],[-44.0,-71.5],[-46.0,-71.22222222222223],[-47.0,-71.3],[-48.0,-71.0],[-48.153846153846146,-70.15384615384616],[-48.0,-69.66666666666667],[-47.0,-69.33333333333334],[-46.888888888888886,-69.11111111111111],[-45.73913043478261,-68.26086956521739],[-44.17391304347826,-67.82608695652173],[-43.0,-68.0],[-41.90909090909091,-67.9090909090909],[-40.599999999999994,-68.0],[-39.785714285714285,-68.78571428571428],[-39.25,-69.0],[-38.8,-70.0],[-39.0,-71.0]]],[[[18.142857142857142,-32.0],[18.842105263157894,-33.0],[18.933333333333334,-34.0],[18.9,-34.9],[18.77777777777778,-35.22222222222222],[19.0,-36.0],[19.18181818181818,-37.81818181818181],[19.666666666666668,-38.333333333333336],[20.0,-38.44444444444444],[20.10526315789474,-38.89473684210526],[21.055555555555554,-40.0],[21.313253012048193,-41.31325301204819],[21.19607843137255,-41.80392156862745],[21.263157894736842,-42.26315789473685],[21.153846153846153,-42.84615384615385],[21.285714285714285,-43.28571428571428],[21.2,-43.8],[21.555555555555554,-44.444444444444436],[22.75,-46.0],[24.0,-47.333333333333336],[24.586206896551722,-48.41379310344828],[24.705882352941174,-49.0],[24.523809523809526,-50.0],[24.20183486238532,-50.201834862385326],[24.0,-50.785714285714285],[23.57142857142857,-51.0],[23.363636363636363,-51.36363636363636],[23.11111111111111,-52.0],[23.0,-53.0],[22.652173913043477,-53.652173913043484],[22.76470588235294,-57.0],[22.159090909090907,-58.15909090909091],[22.0,-59.0],[21.344827586206897,-59.3448275862069],[21.0,-59.83333333333333],[20.38095238095238,-60.38095238095238],[19.0,-60.625],[17.875,-60.125],[17.0,-59.2],[16.0,-58.66666666666667],[14.555555555555554,-58.44444444444444],[13.272727272727273,-57.72727272727272],[12.0,-57.599999999999994],[11.555555555555555,-57.44444444444444],[11.095238095238095,-56.904761904761905],[9.53846153846154,-56.46153846153846],[9.0,-56.0],[6.470588235294117,-55.529411764705884],[4.333333333333334,-54.66666666666667],[1.0,-54.5],[0.5384615384615385,-54.53846153846155],[0.0,-55.0],[-1.0,-55.0],[-2.0,-55.33333333333333],[-3.0,-55.400000000000006],[-4.0,-55.0],[-5.0,-55.0],[-5.692307692307693,-55.30769230769231],[-7.0,-55.33333333333333],[-8.0,-55.0],[-8.5,-54.5],[-9.307692307692308,-54.30769230769231],[-10.714285714285715,-53.71428571428571],[-12.421052631578947,-53.421052631578945],[-13.153846153846153,-53.15384615384616],[-14.3,-52.3],[-15.0,-51.0],[-14.666666666666668,-50.333333333333336],[-14.333333333333334,-50.333333333333336],[-13.0,-49.857142857142854],[-12.5,-49.5],[-12.09090909090909,-48.90909090909091],[-11.545454545454547,-48.45454545454545],[-11.23076923076923,-47.769230769230774],[-9.75,-47.25],[-9.5,-47.0],[-7.777777777777778,-46.22222222222222],[-7.333333333333334,-45.66666666666667],[-6.555555555555555,-45.44444444444444],[-6.333333333333334,-45.0],[-6.133333333333333,-44.86666666666667],[-5.0,-44.66666666666667],[-3.0,-44.625],[-1.0,-45.0],[1.0,-45.0],[1.7777777777777777,-45.22222222222222],[4.0,-45.400000000000006],[4.3076923076923075,-45.30769230769231],[5.0,-44.66666666666667],[5.333333333333334,-44.66666666666667],[5.5,-45.0],[5.8,-45.2],[7.0,-45.599999999999994],[7.461538461538462,-45.46153846153846],[7.75,-45.0],[7.666666666666668,-44.66666666666667],[8.0,-44.0],[8.600000000000001,-44.400000000000006],[9.4,-44.6],[10.0,-45.0],[11.0,-44.0],[11.0,-42.0],[8.0,-42.0],[8.0,-41.0],[7.0,-40.5],[6.6000000000000005,-40.6],[6.0,-41.0],[5.0,-41.0],[4.6,-40.4],[4.5,-40.0],[4.0,-39.5],[3.6000000000000005,-39.6],[3.0,-40.0],[2.0,-40.0],[2.0,-39.0],[1.0,-39.0],[1.0,-33.0],[0.4,-32.6],[0.0,-32.0],[1.2222222222222223,-31.22222222222222],[1.3333333333333335,-31.0],[2.6190476190476186,-30.619047619047617],[6.0,-30.333333333333336],[8.0,-29.799999999999997],[9.68421052631579,-30.315789473684212],[15.0,-30.444444444444443],[15.27027027027027,-30.729729729729733],[16.166666666666668,-31.0],[17.0,-31.5],[17.153846153846153,-31.846153846153847],[18.142857142857142,-32.0]],[[8.5,-45.5],[8.25,-46.0],[8.571428571428573,-46.42857142857143],[9.0,-46.6],[10.0,-46.5],[10.363636363636363,-46.36363636363637],[10.666666666666668,-46.0],[10.5,-45.5],[10.0,-45.0],[8.5,-45.5]]],[[[-52.27272727272727,-41.0],[-52.83333333333333,-41.16666666666667],[-53.248062015503876,-41.751937984496124],[-54.0,-42.0],[-55.0,-42.012195121951216],[-55.609756097560975,-41.609756097560975],[-56.0,-41.65217391304348],[-56.38461538461539,-41.38461538461538],[-57.599999999999994,-41.0],[-56.39473684210527,-40.60526315789474],[-56.0,-40.25],[-55.0,-40.95238095238095],[-54.5959595959596,-40.4040404040404],[-54.0,-40.324074074074076],[-53.41322314049587,-40.41322314049587],[-52.853211009174316,-40.853211009174316],[-52.27272727272727,-41.0]]],[[[-45.0,-39.88],[-46.0,-40.0],[-46.099999999999994,-39.0],[-45.43564356435644,-38.56435643564356],[-45.00925925925926,-37.99074074074074],[-43.872727272727275,-37.872727272727275],[-43.36363636363636,-38.0],[-43.79710144927536,-38.20289855072464],[-44.25,-38.75],[-44.21428571428571,-39.0],[-45.0,-39.88]]],[[[-7.0,-37.5],[-7.105263157894736,-37.10526315789473],[-7.0,-36.8],[-6.777777777777779,-36.77777777777778],[-6.5,-37.0],[-6.6000000000000005,-37.4],[-7.0,-37.5]]],[[[-90.0,-85.0],[-89.0,-85.0],[-88.0,-85.2],[-85.0,-85.0],[-84.22222222222223,-85.22222222222223],[-82.33333333333334,-85.33333333333334],[-79.18181818181819,-86.18181818181819],[-76.0,-86.25],[-75.33333333333334,-86.33333333333334],[-75.0,-86.5],[-74.0,-86.5],[-72.71428571428571,-86.71428571428571],[-72.0,-87.0],[-71.0,-87.0],[-69.44444444444444,-87.44444444444444],[-67.0,-87.5],[-65.0,-87.75],[-63.66666666666667,-87.66666666666667],[-63.0,-88.0],[-62.6,-87.4],[-62.0,-87.0],[-62.0,-86.0],[-61.0,-86.0],[-59.315789473684205,-85.68421052631578],[-53.0,-85.33333333333334],[-48.0,-85.44444444444444],[-46.0,-85.33333333333334],[-43.0,-85.61538461538461],[-42.0,-85.58333333333334],[-39.86666666666667,-85.86666666666667],[-36.0,-86.0],[-35.0,-86.16666666666667],[-34.0,-86.0],[-29.95081967213115,-85.95081967213115],[-29.25,-86.0],[-29.000000000000004,-86.2],[-28.5,-86.0],[-26.01526717557252,-85.98473282442748],[-22.71428571428571,-86.28571428571428],[-20.0,-86.0],[-18.0,-85.96153846153847],[-17.5,-86.0],[-17.0,-86.5],[-16.6,-86.60000000000001],[-16.0,-87.0],[-15.285714285714285,-86.71428571428571],[-14.0,-86.71428571428572],[-13.0,-87.4],[-12.0,-87.0],[-10.272727272727272,-86.72727272727272],[-7.0,-86.625],[2.0,-86.66666666666667],[5.0,-86.875],[7.307692307692308,-86.6923076923077],[10.0,-86.83333333333333],[11.400000000000002,-86.60000000000001],[12.0,-87.0],[13.0,-87.0],[14.0,-86.66666666666667],[16.0,-86.66666666666667],[17.0,-86.5],[17.4,-86.60000000000001],[18.0,-87.0],[18.666666666666668,-86.66666666666667],[20.0,-86.66666666666667],[21.0,-86.33333333333334],[21.333333333333336,-86.33333333333334],[22.77777777777778,-85.77777777777777],[25.0,-85.75],[25.666666666666668,-86.0],[25.30769230769231,-86.30769230769232],[24.0,-86.5],[23.0,-87.0],[23.6,-87.4],[24.400000000000002,-87.6],[26.0,-87.75],[26.666666666666668,-87.66666666666667],[27.0,-87.5],[28.0,-87.5],[28.333333333333336,-87.33333333333334],[28.5,-87.0],[28.0,-86.5],[27.0,-86.5],[26.5,-86.0],[27.0,-85.83333333333334],[37.0,-85.71428571428572],[38.333333333333336,-86.0],[38.5,-86.5],[39.0,-87.0],[39.5,-86.5],[39.666666666666664,-86.0],[39.888888888888886,-85.88888888888889],[44.0,-85.9],[44.333333333333336,-86.0],[44.400000000000006,-86.4],[44.0,-87.0],[47.0,-87.0],[47.6,-86.60000000000001],[48.0,-86.5],[49.0,-87.0],[50.0,-86.66666666666667],[51.400000000000006,-86.4],[52.0,-86.0],[54.0,-85.85714285714286],[55.0,-86.0],[55.75,-85.75],[56.0,-85.0],[57.0,-84.8888888888889],[60.0,-85.0],[62.095238095238095,-84.9047619047619],[63.0,-85.0],[63.60000000000001,-85.4],[64.0,-85.5],[65.0,-85.5],[66.0,-85.66666666666666],[67.0,-85.5],[68.0,-85.66666666666666],[69.0,-85.0],[69.6,-85.4],[70.0,-86.0],[70.60000000000001,-85.60000000000001],[71.4,-85.4],[72.0,-85.0],[72.5,-85.5],[73.0,-85.66666666666666],[76.0,-85.75],[77.0,-86.0],[78.0,-86.0],[78.71428571428571,-86.28571428571428],[79.33333333333334,-86.33333333333334],[80.0,-86.0],[81.0,-86.0],[82.0,-85.66666666666666],[83.0,-85.66666666666666],[84.0,-86.0],[85.0,-86.0],[85.5,-85.5],[88.0,-84.6],[89.0,-84.8],[90.0,-84.66666666666667],[92.0,-84.75],[93.0,-84.66666666666667],[94.22222222222223,-84.22222222222223],[95.0,-83.66666666666667],[96.0,-83.66666666666667],[97.0,-83.5],[98.0,-83.0],[99.0,-82.0],[99.66666666666667,-82.33333333333334],[101.0,-82.5],[102.0,-82.0],[103.0,-82.0],[103.66666666666669,-82.33333333333334],[105.00000000000001,-82.33333333333334],[106.0,-82.0],[107.0,-82.33333333333334],[108.0,-82.0],[109.0,-82.33333333333334],[110.66666666666667,-81.66666666666667],[111.0,-81.66666666666667],[113.0,-80.5],[113.5,-80.0],[113.4,-79.6],[113.0,-79.0],[112.0,-78.5],[110.60000000000001,-78.4],[109.0,-77.5],[107.6,-77.4],[107.0,-77.0],[106.0,-76.66666666666667],[105.75,-76.75],[105.28571428571428,-77.28571428571428],[105.0,-77.33333333333333],[104.0,-77.25],[103.0,-77.0],[99.0,-77.0],[98.28571428571428,-75.71428571428571],[98.0,-75.66666666666667],[97.0,-75.0],[96.66666666666667,-73.66666666666667],[97.0,-73.0],[96.0,-73.0],[95.44444444444444,-72.55555555555556],[94.5,-71.5],[93.88235294117646,-71.11764705882354],[93.71428571428571,-70.71428571428571],[93.71428571428571,-70.28571428571428],[93.0,-70.0],[92.625,-69.375],[92.0,-69.0],[91.42857142857142,-67.0],[91.6,-65.0],[91.83333333333333,-64.0],[91.71428571428572,-62.0],[91.84615384615385,-60.84615384615384],[93.10526315789474,-59.10526315789474],[92.78571428571428,-58.21428571428571],[92.85714285714286,-56.85714285714286],[93.22222222222223,-56.22222222222223],[93.73333333333333,-54.733333333333334],[94.3157894736842,-54.315789473684205],[95.0,-53.0],[96.0,-53.0],[96.57142857142858,-52.57142857142857],[97.3076923076923,-52.30769230769231],[97.63636363636363,-51.63636363636363],[97.71428571428571,-51.0],[97.45454545454545,-50.54545454545455],[96.88235294117646,-50.11764705882353],[96.0,-49.0],[96.33333333333333,-48.0],[96.28571428571428,-47.0],[97.0,-46.44444444444444],[100.0,-46.5],[102.72222222222223,-47.27777777777778],[103.0,-47.55555555555556],[105.0,-47.800000000000004],[105.60000000000001,-48.400000000000006],[106.0,-48.5],[109.0,-48.666666666666664],[109.88888888888889,-49.111111111111114],[112.0,-49.666666666666664],[115.0,-50.0],[118.0,-49.888888888888886],[121.27272727272727,-49.272727272727266],[122.0,-48.75],[124.0,-48.6],[125.0,-48.25],[126.28571428571428,-48.28571428571428],[127.0,-48.0],[128.0,-48.0],[129.0,-48.5],[129.5,-48.5],[129.5,-49.5],[129.0,-50.0],[130.0,-50.0],[130.60000000000002,-49.6],[131.0,-49.5],[131.28571428571428,-49.71428571428571],[133.44444444444443,-50.55555555555555],[134.0,-51.0],[135.0,-51.5],[136.25,-52.75],[137.0,-53.0],[139.0,-54.0],[140.0,-53.5],[140.44444444444443,-53.444444444444436],[141.0,-53.0],[140.5,-52.0],[140.4,-50.60000000000001],[140.0,-50.0],[139.0,-49.0],[138.66666666666669,-48.333333333333336],[137.0,-47.33333333333333],[136.66666666666669,-47.333333333333336],[136.0,-47.0],[135.0,-46.0],[135.33333333333334,-45.333333333333336],[135.33333333333334,-45.0],[135.0,-44.0],[134.60000000000002,-44.6],[133.5,-45.5],[133.0,-45.5],[132.66666666666669,-45.66666666666667],[132.25,-46.25],[131.77777777777777,-46.22222222222222],[131.5,-46.0],[131.4,-45.6],[131.0,-45.0],[132.44444444444443,-44.444444444444436],[132.66666666666666,-44.0],[132.0,-43.0],[132.4,-42.4],[133.0,-42.0],[134.0,-40.0],[134.42857142857144,-39.42857142857143],[134.6551724137931,-38.6551724137931],[135.4,-38.0],[136.125,-37.125],[136.25,-36.0],[137.0,-35.0],[139.0,-34.4],[139.66666666666666,-34.0],[142.0,-33.0],[143.0,-32.8],[143.85714285714286,-32.85714285714286],[145.0,-32.66666666666667],[145.5,-32.5],[145.92000000000002,-31.92],[148.0,-31.81818181818182],[148.57894736842104,-31.578947368421048],[149.0,-31.0],[149.68,-30.68],[152.0,-30.25],[153.30769230769232,-29.307692307692307],[153.73913043478262,-28.73913043478261],[154.42105263157896,-28.421052631578945],[155.60000000000002,-27.6],[156.0,-27.0],[157.38095238095238,-26.38095238095238],[158.0,-25.714285714285715],[158.71428571428572,-25.714285714285715],[159.0,-25.5],[160.0,-25.666666666666664],[161.0,-26.0],[164.0,-28.0],[165.0,-28.0],[165.60000000000002,-28.400000000000002],[166.0,-28.5],[166.40000000000003,-28.400000000000002],[167.0,-28.0],[168.0,-28.0],[168.0,-27.0],[169.0,-27.0],[169.0,-26.0],[168.60000000000002,-25.400000000000002],[168.5,-25.0],[169.0,-24.0],[169.0,-22.0],[169.66666666666669,-21.0],[169.75,-19.75],[170.5,-19.0],[170.5,-18.0],[171.5,-16.0],[171.33333333333334,-15.000000000000002],[171.33333333333334,-14.0],[171.14285714285714,-13.857142857142858],[171.14285714285714,-13.142857142857142],[171.0,-12.833333333333334],[170.4,-12.6],[170.0,-12.0],[169.28571428571428,-11.714285714285714],[169.0,-11.0],[168.0,-12.0],[167.5,-11.5],[166.0,-11.0],[164.85714285714286,-9.142857142857142],[165.0,-8.0],[164.6923076923077,-7.307692307692308],[164.33333333333334,-7.0],[164.5,-6.0],[164.44444444444443,-5.555555555555555],[164.0,-5.0],[163.875,-4.125],[164.0,-3.0],[163.53846153846155,-0.46153846153846156],[163.28571428571428,0.2857142857142857],[162.8,0.8],[162.83333333333334,2.0],[162.5,3.0],[162.6,3.4000000000000004],[163.0,4.0],[163.0,5.0],[163.5,7.0],[164.0,8.0],[163.8,9.0],[164.625,10.375],[165.33333333333334,11.0],[165.7037037037037,12.296296296296294],[166.40000000000003,12.6],[166.76923076923077,13.23076923076923],[167.46666666666667,13.533333333333333],[167.79310344827587,14.206896551724139],[168.46666666666667,14.533333333333333],[168.78571428571428,15.214285714285715],[169.42857142857144,15.571428571428573],[169.76923076923077,16.23076923076923],[170.4,16.6],[171.42105263157893,17.57894736842105],[171.8181818181818,18.181818181818183],[172.42105263157893,18.57894736842105],[172.9,19.1],[174.0,19.6],[175.15384615384613,19.153846153846153],[175.625,18.625],[176.0,18.5],[176.78947368421052,17.789473684210527],[178.30769230769232,17.30769230769231],[178.65217391304347,16.652173913043477],[179.5757575757576,15.575757575757576],[179.8571428571429,15.0],[180.0,14.5],[180.0,-90.0],[-180.0,-90.0],[-180.0,14.5],[-179.4375,12.5625],[-178.58333333333334,11.416666666666668],[-177.5,10.5],[-176.84615384615384,10.153846153846153],[-176.46153846153848,9.53846153846154],[-175.84,9.16],[-175.46153846153845,8.538461538461538],[-174.46666666666667,7.533333333333333],[-174.0,7.3],[-173.45714285714286,6.542857142857143],[-172.7,6.0],[-172.48275862068968,5.517241379310345],[-171.2,3.8],[-169.76923076923077,2.230769230769231],[-169.43478260869566,1.565217391304348],[-167.6470588235294,-0.6470588235294117],[-167.0,-2.5],[-166.60000000000002,-2.6],[-166.33333333333334,-4.333333333333334],[-165.60000000000002,-5.6000000000000005],[-165.25,-7.0],[-164.8,-7.8],[-164.57142857142856,-8.571428571428573],[-164.25,-10.0],[-164.22222222222223,-11.222222222222221],[-164.0,-12.0],[-163.5,-13.0],[-163.44444444444443,-14.444444444444443],[-163.0,-15.0],[-163.0,-17.0],[-162.63636363636363,-17.636363636363637],[-162.25,-19.0],[-161.375,-20.375],[-161.0,-20.75],[-160.0,-21.0],[-158.0,-21.0],[-157.6,-21.6],[-157.0,-22.0],[-156.6,-22.6],[-156.0,-23.0],[-155.4,-24.400000000000002],[-155.0,-25.0],[-154.0,-26.0],[-153.60000000000002,-26.6],[-153.0,-27.0],[-153.0,-28.0],[-152.33333333333334,-27.666666666666668],[-151.66666666666666,-28.0],[-151.44444444444443,-28.444444444444443],[-151.0,-28.666666666666664],[-150.71428571428572,-29.285714285714285],[-150.71428571428572,-29.714285714285715],[-150.28571428571428,-29.714285714285715],[-150.0,-29.857142857142854],[-149.75,-30.25],[-149.66666666666669,-30.666666666666668],[-148.92592592592592,-30.925925925925927],[-148.53846153846155,-31.53846153846154],[-147.78571428571428,-31.785714285714285],[-147.0,-32.42857142857143],[-146.0,-32.5],[-144.5,-33.0],[-143.0,-33.800000000000004],[-141.8,-33.8],[-140.30769230769232,-35.30769230769231],[-140.0,-35.333333333333336],[-139.0,-35.0],[-139.4,-34.400000000000006],[-139.5,-34.0],[-138.55555555555554,-33.44444444444444],[-137.35897435897436,-31.641025641025642],[-136.0,-30.714285714285715],[-135.47368421052633,-29.526315789473685],[-135.0,-29.18181818181818],[-134.8181818181818,-28.818181818181817],[-134.7142857142857,-26.714285714285715],[-135.0,-26.0],[-134.0,-25.875],[-133.0,-26.6],[-132.66666666666666,-27.0],[-132.13793103448276,-28.137931034482758],[-132.05882352941177,-29.0],[-132.7,-31.0],[-132.5,-31.5],[-131.4102564102564,-33.41025641025641],[-130.7837837837838,-33.78378378378379],[-130.54545454545453,-34.54545454545455],[-130.0,-35.16666666666667],[-129.72222222222223,-35.72222222222222],[-129.3448275862069,-37.3448275862069],[-128.8125,-37.8125],[-128.0,-39.5],[-127.0,-40.66666666666667],[-126.73913043478261,-41.73913043478261],[-125.91666666666666,-42.91666666666667],[-125.42857142857143,-44.0],[-125.0,-46.0],[-124.60000000000001,-46.6],[-124.36363636363636,-47.36363636363636],[-124.0,-48.0],[-123.00000000000001,-48.33333333333333],[-122.0,-48.5],[-121.0,-49.0],[-120.0,-49.0],[-119.42857142857143,-50.42857142857143],[-119.0,-50.75],[-118.60000000000001,-50.400000000000006],[-118.0,-49.0],[-115.0,-49.0],[-114.42857142857144,-49.42857142857143],[-113.0,-49.8],[-111.81818181818181,-49.81818181818181],[-110.0,-50.333333333333336],[-109.0,-51.0],[-108.5,-51.5],[-107.0,-52.0],[-106.0,-52.0],[-105.4,-52.4],[-104.0,-53.0],[-100.0,-53.0],[-99.0,-52.5],[-98.0,-52.333333333333336],[-97.0,-52.5],[-95.28571428571428,-53.28571428571428],[-94.0,-53.333333333333336],[-93.0,-54.0],[-91.0,-54.0],[-90.0,-54.66666666666667],[-89.0,-55.0],[-88.4,-55.400000000000006],[-88.0,-56.0],[-87.0,-56.0],[-86.60000000000001,-56.6],[-86.0,-57.0],[-85.60000000000001,-57.6],[-83.66666666666667,-58.66666666666667],[-83.28571428571428,-59.285714285714285],[-82.66666666666667,-59.66666666666667],[-82.28571428571428,-60.28571428571428],[-82.0,-60.5],[-80.60000000000001,-60.60000000000001],[-80.28571428571428,-61.28571428571428],[-79.66666666666667,-61.66666666666667],[-79.0,-62.5],[-78.91666666666666,-65.0],[-78.75,-66.25],[-79.0,-67.0],[-79.4,-67.6],[-79.6,-68.4],[-80.0,-69.0],[-80.0,-70.0],[-82.0,-70.0],[-82.0,-71.0],[-81.0,-71.0],[-81.0,-72.0],[-81.4,-72.6],[-81.66666666666667,-73.33333333333334],[-82.0,-75.0],[-82.44444444444444,-75.55555555555556],[-83.0,-77.0],[-84.33333333333334,-78.0],[-85.5,-78.5],[-86.0,-79.0],[-87.0,-78.66666666666667],[-88.71428571428571,-79.28571428571428],[-91.0,-79.5],[-92.0,-80.0],[-94.0,-80.0],[-94.5,-80.5],[-96.0,-81.0],[-95.4,-81.4],[-95.0,-81.5],[-93.0,-81.5],[-92.0,-81.33333333333334],[-89.60000000000001,-81.4],[-89.0,-81.0],[-88.0,-80.66666666666667],[-87.71428571428572,-80.71428571428572],[-87.5,-81.0],[-87.6,-81.4],[-88.0,-82.0],[-89.0,-82.0],[-89.5,-83.0],[-89.5,-83.5],[-90.0,-84.0],[-90.0,-85.0]],[[164.4,-3.6000000000000005],[165.0,-4.0],[165.25,-3.25],[165.2,-2.8],[165.0,-2.6666666666666665],[164.66666666666669,-2.666666666666667],[164.0,-3.0],[164.4,-3.6000000000000005]],[[-82.0,-68.0],[-83.0,-68.0],[-83.0,-70.0],[-82.0,-70.0],[-82.0,-68.0]],[[173.0,-54.75],[172.7777777777778,-55.0],[173.0,-55.2],[173.25,-55.0],[173.28571428571428,-54.71428571428571],[173.0,-54.75]],[[174.25806451612902,-54.25806451612903],[174.39999999999998,-54.0],[174.25806451612902,-53.74193548387097],[174.0,-53.63636363636363],[173.75,-53.75],[173.6,-54.0],[173.63636363636363,-54.36363636363637],[174.0,-54.4],[174.25806451612902,-54.25806451612903]],[[174.75,-22.0],[175.0,-22.25],[175.25,-22.0],[175.0,-21.714285714285715],[174.75,-22.0]],[[110.5,-60.0],[110.5,-60.5],[110.0,-61.0],[110.0,-62.0],[112.0,-62.0],[112.66666666666669,-63.333333333333336],[113.5,-63.5],[114.0,-64.0],[114.66666666666667,-64.33333333333334],[115.0,-65.0],[116.0,-64.0],[116.0,-62.0],[116.83333333333334,-61.83333333333333],[116.9090909090909,-61.0],[116.71428571428571,-60.28571428571428],[116.0,-60.09090909090909],[115.16666666666666,-60.16666666666667],[115.0,-61.0],[114.0,-61.0],[114.0,-60.0],[114.5,-59.5],[115.0,-59.5],[115.33333333333334,-59.333333333333336],[115.5,-59.0],[115.5,-58.5],[116.0,-58.0],[116.0,-57.0],[114.0,-57.0],[114.0,-59.0],[113.5,-59.5],[113.0,-59.5],[112.66666666666669,-59.333333333333336],[112.4,-58.60000000000001],[112.0,-58.5],[111.71428571428571,-58.71428571428571],[111.33333333333334,-59.333333333333336],[110.66666666666667,-59.66666666666667],[110.5,-60.0]]],[[[55.46153846153846,-30.0],[56.0,-29.450980392156865],[56.36842105263158,-29.631578947368425],[56.56,-30.0],[56.46280991735537,-30.462809917355372],[56.0,-31.11111111111111],[55.230769230769226,-31.23076923076923],[55.0,-31.5],[54.75,-31.0],[55.457142857142856,-30.45714285714286],[55.46153846153846,-30.0]]],[[[64.0,-23.200000000000003],[64.375,-23.375],[64.66666666666667,-23.333333333333336],[64.625,-23.625],[64.8,-24.000000000000004],[64.0,-24.352941176470587],[63.65217391304348,-24.347826086956523],[62.976470588235294,-24.023529411764706],[64.0,-23.200000000000003]]],[[[26.0,8.916666666666666],[29.0,8.2],[29.6,8.4],[31.0,8.5],[33.0,8.307692307692307],[34.0,8.333333333333334],[34.86666666666667,7.866666666666667],[35.125,7.0],[34.0,6.384615384615385],[33.0,6.444444444444445],[32.0,6.0],[31.32258064516129,4.67741935483871],[29.5,3.0],[28.523809523809522,2.4761904761904763],[28.11764705882353,1.8823529411764706],[27.444444444444443,1.5555555555555554],[27.0,1.0],[26.5,1.5],[26.181818181818183,2.1818181818181817],[25.5,2.5],[25.0,2.666666666666667],[24.0,2.666666666666667],[22.0,3.75],[21.0,3.5],[20.571428571428573,3.571428571428571],[20.0,4.0],[19.307692307692307,3.6923076923076925],[18.0,3.7142857142857144],[16.523809523809522,3.476190476190476],[13.43478260869565,2.5652173913043477],[11.636363636363637,2.3636363636363638],[10.0,1.6363636363636362],[8.0,1.8888888888888888],[7.0,1.7142857142857144],[4.809523809523809,1.8095238095238095],[3.3333333333333335,2.3333333333333335],[2.7777777777777777,2.7777777777777777],[2.2222222222222223,2.7777777777777777],[1.8333333333333335,3.0],[1.8,4.2],[1.6363636363636362,5.0],[2.0,6.0],[2.6,6.4],[4.333333333333334,7.0],[5.857142857142857,8.0],[7.719298245614034,8.280701754385964],[8.0,8.533333333333333],[8.38888888888889,8.61111111111111],[9.0,9.0],[9.971014492753623,9.028985507246377],[11.0,9.5],[13.0,10.0],[13.571428571428573,10.428571428571429],[14.0,10.545454545454545],[15.8,10.8],[17.0,11.222222222222221],[18.77777777777778,11.222222222222221],[21.0,11.0],[22.636363636363637,10.636363636363637],[23.266666666666666,10.266666666666666],[25.400000000000002,9.4],[26.0,8.916666666666666]]],[[[64.0,12.333333333333334],[64.0,11.928571428571427],[63.16666666666667,11.833333333333334],[62.84210526315789,12.0],[63.0,12.375],[63.400000000000006,12.4],[64.0,12.333333333333334]]],[[[53.881188118811885,14.118811881188119],[54.75,14.0],[54.0,13.5],[53.57142857142857,14.0],[53.881188118811885,14.118811881188119]]],[[[93.0,-75.5],[92.75,-75.0],[93.0,-74.8],[93.5,-75.0],[93.33333333333334,-75.33333333333334],[93.0,-75.5]]],[[[129.5,-48.5],[129.5,-48.0],[130.2,-47.8],[131.0,-48.0],[130.4,-48.400000000000006],[129.5,-48.5]]],[[[126.28571428571428,-18.285714285714285],[126.0,-18.42857142857143],[125.71428571428571,-18.285714285714285],[125.57142857142858,-18.0],[125.68421052631578,-17.684210526315788],[126.0,-17.4],[126.3157894736842,-17.684210526315788],[126.42857142857143,-18.0],[126.28571428571428,-18.285714285714285]]],[[[68.0,-16.82857142857143],[68.56122448979592,-16.56122448979592],[69.0,-16.50574712643678],[69.61428571428571,-17.0],[69.0,-17.518072289156628],[68.58454106280193,-17.415458937198068],[67.91044776119404,-17.0],[68.0,-16.82857142857143]]],[[[126.4,-14.0],[126.58620689655173,-13.586206896551724],[127.0,-13.333333333333334],[127.41379310344828,-13.586206896551724],[127.6,-14.0],[127.28571428571428,-15.285714285714285],[127.0,-15.428571428571429],[126.7142857142857,-15.285714285714285],[126.57142857142858,-15.0],[126.4,-14.0]]],[[[74.16666666666667,-8.0],[73.96428571428572,-8.0],[73.86666666666667,-7.0],[74.0,-6.851851851851851],[74.44444444444444,-7.0],[74.16666666666667,-8.0]]],[[[75.0,3.2222222222222223],[76.0,3.0],[75.0,2.0],[74.6,3.0],[75.0,3.2222222222222223]]],[[[136.75,13.0],[136.66666666666669,12.0],[137.0,11.5],[137.28571428571428,10.285714285714285],[137.44444444444443,5.555555555555555],[137.25,4.0],[136.625,3.375],[136.25,1.75],[135.6470588235294,1.352941176470588],[135.25,0.75],[134.66666666666669,0.33333333333333337],[134.43478260869566,-0.43478260869565216],[134.0,-1.0],[133.6,-2.0],[133.55555555555554,-3.0],[133.38461538461536,-3.384615384615384],[133.0,-3.625],[132.85454545454547,-4.8545454545454545],[132.45,-5.45],[132.0,-5.642857142857142],[131.75,-6.0],[131.57894736842104,-6.578947368421051],[130.8421052631579,-7.0],[130.7037037037037,-7.703703703703704],[129.7037037037037,-8.703703703703702],[129.55555555555554,-9.0],[129.6,-10.0],[129.4,-10.4],[128.68,-10.68],[128.3478260869565,-11.347826086956522],[128.0,-11.571428571428571],[127.5,-11.5],[127.0,-11.0],[127.94736842105263,-8.947368421052632],[128.0,-7.0],[128.44444444444443,-5.444444444444444],[128.9047619047619,-4.904761904761904],[129.14545454545453,-4.1454545454545455],[129.33333333333334,-4.0],[129.625,-3.0],[130.33333333333334,-2.0],[130.6470588235294,-0.6470588235294117],[131.44444444444446,1.0],[131.68421052631578,2.3157894736842106],[132.4,3.0],[131.60000000000002,4.0],[131.75,5.0],[131.42857142857144,5.428571428571429],[131.2,6.199999999999999],[130.66666666666666,7.0],[130.33333333333334,8.0],[130.44444444444446,8.555555555555555],[131.0,9.0],[130.0,9.333333333333334],[129.65217391304347,10.347826086956522],[129.44444444444446,12.0],[129.79999999999998,14.0],[129.57142857142856,15.0],[130.0,17.0],[129.60000000000002,17.6],[129.5,18.0],[129.66666666666666,19.0],[129.73333333333332,19.266666666666666],[130.60000000000002,20.400000000000002],[132.0,21.0],[133.0,21.2],[133.58333333333334,20.583333333333336],[134.23076923076923,20.23076923076923],[134.6,19.0],[135.0,18.6],[136.0,18.0],[136.0,15.0],[136.36363636363637,14.363636363636363],[136.75,13.0]]],[[[69.51388888888889,8.48611111111111],[70.0,8.897435897435898],[71.01923076923077,8.0],[70.87234042553192,7.127659574468085],[70.05555555555556,6.944444444444444],[69.42105263157895,7.421052631578947],[69.20454545454545,8.0],[69.51388888888889,8.48611111111111]]],[[[159.66666666666666,14.0],[159.77777777777777,14.222222222222221],[160.33333333333334,14.333333333333334],[160.22222222222223,13.777777777777779],[160.0,13.666666666666666],[159.66666666666666,14.0]]],[[[165.0,19.0],[164.14285714285714,17.857142857142858],[163.61904761904762,17.38095238095238],[163.23529411764707,16.764705882352942],[162.57142857142858,16.42857142857143],[162.0,16.333333333333336],[161.57142857142858,16.42857142857143],[161.25,16.0],[161.33333333333334,15.0],[161.22222222222223,14.777777777777779],[160.66666666666669,14.666666666666668],[160.8,16.0],[161.0,16.333333333333332],[161.40000000000003,16.6],[161.25,17.0],[161.6470588235294,18.352941176470587],[162.4,19.6],[162.68421052631578,20.31578947368421],[163.2,20.8],[163.86666666666667,22.133333333333333],[164.66666666666669,23.0],[164.86666666666667,25.133333333333333],[165.36363636363637,25.636363636363637],[165.66666666666669,26.333333333333336],[166.0,26.5],[167.0,26.6],[167.5,26.5],[167.85714285714286,24.0],[167.84615384615384,23.153846153846153],[167.4,21.6],[166.88235294117646,21.11764705882353],[166.5,20.5],[165.0,19.0]]],[[[168.0,26.666666666666668],[167.5,26.5],[167.66666666666669,27.0],[167.84615384615384,27.153846153846153],[168.2,27.2],[168.15384615384616,26.846153846153847],[168.0,26.666666666666668]]],[[[128.62962962962962,32.37037037037037],[129.0,32.55555555555556],[130.0,32.55555555555556],[130.37037037037035,32.37037037037037],[130.55555555555554,32.0],[130.37037037037035,31.629629629629626],[130.0,31.444444444444443],[129.0,31.375],[128.56521739130434,31.565217391304348],[128.44444444444446,32.0],[128.62962962962962,32.37037037037037]]],[[[164.23529411764707,39.23529411764706],[164.5,39.0],[164.63636363636363,38.63636363636363],[165.0,38.333333333333336],[166.0,38.25],[166.33333333333331,38.0],[166.2,37.8],[166.0,37.75],[165.0,37.8],[164.44444444444443,37.55555555555555],[164.0,37.0],[162.63636363636363,36.36363636363636],[162.13333333333333,35.86666666666667],[161.48,35.519999999999996],[160.71428571428572,35.285714285714285],[160.33333333333334,34.66666666666667],[160.0,34.5],[156.0,34.4],[155.53846153846155,34.53846153846154],[155.0,35.0],[154.13333333333333,35.13333333333333],[152.0,35.16666666666667],[151.0,35.4],[149.71428571428572,35.285714285714285],[148.53846153846155,35.53846153846154],[148.0,36.0],[147.6,36.6],[147.0,37.0],[146.3,38.3],[145.68421052631578,38.68421052631579],[145.5,39.0],[145.57142857142858,39.42857142857143],[146.0,40.0],[148.0,40.55555555555556],[151.0,40.285714285714285],[152.0,40.0],[155.0,40.0],[157.76190476190476,40.23809523809524],[162.0,40.0],[164.23529411764707,39.23529411764706]]]]}}]}