{"type":"FeatureCollection","features":[{"type":"Feature","properties":{"ageMa":370},"geometry":{"type":"MultiPolygon","coordinates":[[[[-131.0,-74.0],[-131.0,-75.0],[-131.71428571428572,-75.28571428571428],[-132.28571428571428,-75.28571428571428],[-133.0,-75.0],[-133.0,-74.0],[-131.0,-74.0]]],[[[-69.0,-55.0],[-69.25,-56.25],[-69.0,-57.0],[-69.4,-57.6],[-69.5,-58.0],[-69.16666666666667,-58.16666666666667],[-68.83333333333334,-58.83333333333333],[-68.75,-60.0],[-68.5,-60.5],[-67.81818181818181,-60.81818181818182],[-66.18181818181819,-61.18181818181819],[-65.77777777777779,-61.77777777777777],[-65.66666666666667,-62.0],[-66.33333333333334,-63.66666666666667],[-66.88235294117648,-64.11764705882354],[-67.58620689655172,-64.41379310344828],[-71.0,-64.9375],[-71.75999999999999,-65.24000000000001],[-75.15,-65.85],[-78.16,-66.84],[-79.0,-67.0],[-82.0,-68.2],[-83.0,-68.83333333333333],[-84.0,-69.25],[-85.0,-69.33333333333334],[-89.0,-70.4],[-90.0,-70.5],[-92.0,-71.0],[-93.0,-71.4],[-95.55555555555556,-71.55555555555554],[-97.00000000000001,-71.8],[-99.0,-71.75],[-100.0,-72.0],[-101.0,-72.0],[-102.00000000000001,-71.8],[-105.0,-72.0],[-106.0,-72.5],[-106.4,-72.4],[-107.0,-72.0],[-107.6,-72.4],[-108.4,-72.6],[-110.22222222222223,-72.77777777777777],[-111.0,-73.0],[-111.60000000000001,-73.4],[-112.4,-73.60000000000001],[-112.7142857142857,-74.28571428571428],[-114.0,-75.0],[-120.0,-75.0],[-120.7142857142857,-75.28571428571428],[-122.0,-75.5],[-123.0,-75.5],[-124.0,-75.0],[-125.0,-75.5],[-126.0,-75.5],[-127.0,-75.0],[-130.0,-75.0],[-130.0,-73.0],[-130.71428571428572,-72.71428571428571],[-133.0,-72.5],[-133.4,-72.6],[-134.0,-73.0],[-136.0,-73.0],[-136.0,-75.0],[-138.0,-75.0],[-138.0,-74.0],[-140.0,-74.0],[-140.60000000000002,-74.4],[-141.0,-74.5],[-142.28571428571428,-74.28571428571428],[-143.0,-74.0],[-144.0,-74.33333333333333],[-145.0,-74.0],[-146.0,-74.0],[-146.6,-73.60000000000001],[-147.4,-73.4],[-148.0,-73.0],[-149.0,-73.0],[-150.0,-72.80000000000001],[-152.33333333333334,-72.66666666666667],[-155.0,-73.0],[-157.0,-73.0],[-158.57142857142858,-72.57142857142857],[-160.0,-72.4],[-163.5238095238095,-72.47619047619047],[-166.3157894736842,-72.68421052631578],[-170.0,-72.38461538461539],[-173.0,-72.36363636363637],[-175.0,-73.22222222222223],[-175.52941176470588,-74.47058823529412],[-176.8181818181818,-76.18181818181819],[-179.3,-77.7],[-180.0,-78.0],[-180.0,-71.66666666666667],[-177.7560975609756,-71.2439024390244],[-177.16666666666666,-71.0],[-176.54545454545453,-70.45454545454545],[-176.0,-70.2],[-175.84615384615384,-69.84615384615384],[-176.0,-69.0],[-175.66666666666669,-68.0],[-175.89473684210526,-67.89473684210526],[-176.21052631578948,-67.21052631578948],[-176.1818181818182,-67.0],[-175.86666666666667,-66.0],[-175.51515151515153,-65.48484848484848],[-174.91666666666669,-65.08333333333334],[-173.91836734693877,-64.91836734693878],[-173.00000000000003,-65.1],[-172.0,-65.1111111111111],[-171.0,-64.85714285714286],[-170.0,-65.0],[-168.0,-65.0],[-167.0,-64.85714285714286],[-164.0,-65.0],[-159.0,-64.66666666666666],[-156.0,-64.83333333333334],[-153.0,-64.5],[-152.0,-64.66666666666666],[-149.0,-64.4],[-148.0,-64.6],[-147.0,-64.6],[-146.0,-65.0],[-145.0,-65.0],[-144.0,-64.8],[-143.0,-65.25],[-142.0,-65.5],[-141.0,-65.4],[-140.0,-65.5],[-138.86666666666667,-65.86666666666667],[-138.0,-65.89999999999999],[-137.38095238095238,-66.38095238095238],[-136.0,-66.7],[-135.0,-66.42857142857143],[-133.0,-66.2],[-132.45454545454544,-66.45454545454545],[-131.61904761904762,-66.61904761904762],[-130.0,-66.72727272727272],[-129.0,-66.5],[-128.0,-66.72727272727272],[-124.87878787878789,-66.87878787878788],[-119.34782608695652,-66.65217391304348],[-118.0,-66.72727272727272],[-117.0,-66.6],[-110.0,-66.92307692307692],[-105.08000000000001,-66.92],[-104.0,-66.8125],[-103.0,-66.93333333333334],[-97.0,-66.95238095238095],[-95.24242424242425,-66.75757575757575],[-92.68421052631578,-66.3157894736842],[-92.0,-66.0],[-90.0,-65.8],[-84.85454545454546,-64.14545454545454],[-80.55555555555556,-62.444444444444436],[-79.35714285714286,-61.64285714285714],[-78.75,-61.0],[-78.5,-60.0],[-78.27272727272727,-59.72727272727273],[-77.6875,-58.0],[-72.0,-51.29166666666666],[-71.0,-50.588235294117645],[-70.53488372093022,-50.46511627906977],[-69.0,-49.63636363636364],[-68.0,-49.6],[-67.0,-50.0],[-67.0,-51.0],[-67.27272727272727,-51.72727272727273],[-68.0,-53.0],[-68.46153846153847,-54.53846153846155],[-69.0,-55.0]]],[[[-15.789473684210527,10.210526315789473],[-15.0,10.0],[-14.0,9.428571428571429],[-11.0,8.6],[-10.0,8.181818181818182],[-8.181818181818182,7.818181818181818],[-8.0,7.666666666666667],[-7.5,8.0],[-6.0,8.272727272727273],[-3.0,10.538461538461538],[-2.0,10.777777777777779],[-1.375,10.625],[0.0,10.0],[0.4,9.4],[1.0,9.0],[1.0,7.0],[2.0,7.0],[2.5,7.5],[6.0,9.25],[7.0,10.0],[8.0,10.5],[9.0,10.5],[10.0,10.666666666666668],[10.600000000000001,10.600000000000001],[12.0,10.0],[13.0,9.0],[13.0,8.0],[12.714285714285714,7.285714285714286],[11.8,6.199999999999999],[11.0,6.0],[10.600000000000001,5.4],[10.0,5.0],[10.0,4.0],[9.4,3.6000000000000005],[9.0,3.0],[9.0,1.0],[8.600000000000001,0.4],[8.5,0.0],[9.0,-1.0],[9.0,-7.0],[10.0,-7.0],[10.0,-8.0],[10.555555555555554,-9.444444444444445],[12.0,-11.0],[13.0,-11.25],[14.18181818181818,-11.818181818181818],[14.333333333333332,-12.0],[14.166666666666666,-12.166666666666668],[14.0,-13.0],[13.0,-13.100000000000001],[11.53846153846154,-14.0],[10.0,-14.6875],[8.0,-15.0],[7.0,-16.0],[5.692307692307693,-16.692307692307693],[4.904761904761904,-16.904761904761905],[3.8181818181818183,-18.818181818181817],[3.666666666666667,-19.0],[3.1818181818181817,-19.18181818181818],[3.0,-20.0],[2.0,-20.333333333333332],[0.5,-22.0],[-0.25,-22.25],[-0.75,-22.25],[-1.3333333333333335,-23.0],[-1.9183673469387754,-23.081632653061224],[-2.4324324324324325,-23.56756756756757],[-3.375,-25.0],[-3.7590361445783134,-25.240963855421686],[-4.45,-26.0],[-5.4036697247706424,-26.59633027522936],[-5.807017543859649,-27.192982456140353],[-6.448275862068965,-27.551724137931036],[-6.911111111111111,-28.08888888888889],[-7.6231884057971016,-28.3768115942029],[-9.0,-29.25],[-9.407766990291263,-29.59223300970874],[-9.787234042553191,-30.212765957446805],[-12.448979591836736,-31.551020408163264],[-12.89873417721519,-32.10126582278481],[-14.142857142857142,-33.0],[-18.866666666666667,-35.13333333333333],[-20.441558441558442,-35.55844155844156],[-22.50943396226415,-36.490566037735846],[-23.0,-37.266666666666666],[-23.733333333333334,-38.0],[-23.5,-38.5],[-22.77777777777778,-38.77777777777778],[-22.0,-38.88],[-20.51111111111111,-38.48888888888889],[-19.133333333333333,-37.86666666666667],[-18.0,-37.6875],[-16.166666666666668,-37.166666666666664],[-15.038461538461538,-36.96153846153846],[-13.127659574468085,-36.87234042553192],[-11.0,-36.36363636363637],[-10.0,-36.6],[-5.153846153846154,-36.84615384615385],[-3.0,-36.0],[-2.0,-37.0],[-2.0,-38.0],[-1.0,-38.0],[-1.0,-37.0],[-0.5,-36.5],[1.0,-36.0],[3.0,-36.0],[4.0,-36.166666666666664],[6.0,-36.083333333333336],[8.0,-36.23529411764706],[8.615384615384615,-36.38461538461538],[9.75,-37.25],[11.0,-38.5],[12.2,-38.8],[13.0,-40.0],[13.666666666666668,-40.333333333333336],[13.666666666666668,-40.66666666666667],[14.000000000000002,-41.2],[14.285714285714285,-41.28571428571428],[15.0,-41.0],[16.0,-41.0],[17.0,-42.0],[17.0,-43.0],[18.0,-43.0],[19.0,-44.0],[20.0,-44.0],[21.0,-44.5],[22.25,-44.75],[23.285714285714285,-45.71428571428571],[24.0,-47.0],[24.666666666666668,-46.66666666666667],[25.285714285714285,-46.71428571428571],[26.0,-48.0],[26.6,-47.6],[27.0,-47.5],[29.400000000000002,-48.60000000000001],[30.0,-49.0],[29.666666666666668,-49.66666666666667],[29.66666666666667,-50.0],[29.81818181818182,-50.18181818181818],[30.25,-50.25],[31.0,-50.0],[32.0,-50.5],[32.4,-50.400000000000006],[33.0,-50.0],[35.6,-51.400000000000006],[37.4,-51.6],[38.6,-52.4],[40.0,-52.5],[40.4,-52.6],[41.0,-53.0],[41.6,-52.6],[42.0,-52.5],[42.333333333333336,-52.66666666666667],[42.66666666666667,-53.333333333333336],[43.333333333333336,-53.66666666666667],[43.5,-54.0],[44.0,-54.33333333333334],[46.5,-54.5],[47.6,-55.400000000000006],[48.0,-55.5],[48.400000000000006,-55.400000000000006],[49.0,-55.0],[50.0,-55.0],[50.0,-56.0],[51.0,-56.5],[52.0,-56.0],[52.0,-55.0],[54.0,-55.0],[55.28571428571428,-54.285714285714285],[56.0,-53.0],[55.400000000000006,-52.6],[54.6,-51.400000000000006],[54.36363636363637,-50.63636363636363],[54.0,-50.33333333333333],[53.0,-50.0],[53.0,-49.0],[52.0,-49.0],[52.0,-48.0],[51.5,-47.5],[51.0,-46.0],[51.33333333333334,-45.0],[50.5,-43.0],[50.5,-42.5],[51.0,-42.0],[51.285714285714285,-41.28571428571428],[51.5,-40.0],[52.0,-39.0],[53.0,-38.66666666666667],[54.0,-38.0],[55.0,-37.666666666666664],[56.0,-38.0],[57.4,-37.4],[58.0,-37.333333333333336],[59.0,-37.5],[61.0,-37.5],[61.33333333333334,-37.333333333333336],[62.0,-37.25],[63.333333333333336,-37.333333333333336],[64.0,-37.0],[64.6,-37.4],[65.0,-37.5],[69.25,-37.25],[70.0,-37.0],[72.0,-37.0],[73.0,-37.5],[74.0,-37.333333333333336],[75.0,-37.5],[76.0,-37.333333333333336],[77.0,-37.5],[78.0,-37.333333333333336],[78.60000000000001,-37.4],[80.0,-38.0],[81.0,-38.0],[82.0,-39.0],[82.71428571428571,-39.28571428571428],[83.77777777777777,-40.22222222222222],[85.0,-41.0],[86.0,-41.0],[87.0,-41.333333333333336],[88.0,-42.25],[89.0,-42.0],[91.0,-42.666666666666664],[92.0,-42.666666666666664],[93.0,-42.5],[93.5,-43.0],[93.6,-43.400000000000006],[94.4,-43.60000000000001],[95.0,-44.0],[95.60000000000001,-43.60000000000001],[96.0,-43.5],[97.4,-43.60000000000001],[98.66666666666667,-44.333333333333336],[99.00000000000001,-44.333333333333336],[99.44444444444444,-44.55555555555555],[100.0,-46.0],[100.60000000000001,-45.6],[101.0,-45.5],[102.4,-45.4],[103.0,-45.0],[103.60000000000001,-45.4],[104.4,-45.6],[105.0,-46.0],[108.0,-46.0],[108.60000000000001,-46.400000000000006],[109.0,-46.5],[109.4,-46.400000000000006],[110.0,-46.0],[111.00000000000001,-46.333333333333336],[112.0,-45.5],[112.4,-45.4],[113.0,-45.0],[114.0,-45.0],[113.5,-44.5],[113.5,-44.0],[114.0,-43.0],[114.60000000000001,-42.6],[115.0,-42.0],[115.28571428571428,-41.28571428571428],[115.4,-40.4],[115.66666666666669,-39.66666666666667],[115.71428571428571,-38.285714285714285],[115.0,-36.0],[114.25,-35.0],[114.5,-33.0],[113.33333333333334,-31.0],[112.77777777777777,-29.22222222222222],[112.5,-26.0],[112.5,-25.0],[112.66666666666669,-24.666666666666668],[113.57142857142858,-23.571428571428573],[114.5,-23.0],[115.0,-22.5],[115.4,-22.4],[116.0,-22.0],[117.0,-22.0],[118.0,-21.6],[120.0,-21.666666666666668],[121.0,-22.0],[122.0,-22.0],[122.5,-21.5],[122.66666666666667,-21.0],[122.66666666666667,-20.0],[122.0,-19.0],[121.33333333333334,-18.666666666666668],[121.0,-18.0],[121.0,-17.0],[122.44444444444444,-15.444444444444443],[123.0,-14.0],[123.4,-13.4],[123.60000000000001,-12.6],[124.4,-11.400000000000002],[125.55555555555554,-10.555555555555554],[127.4,-9.4],[129.0,-9.0],[130.0,-8.5],[130.4,-8.600000000000001],[131.0,-9.0],[131.6,-8.600000000000001],[132.0,-8.5],[133.33333333333334,-8.666666666666668],[134.0,-9.0],[135.0,-9.0],[136.0,-10.0],[136.0,-11.0],[136.4,-11.600000000000001],[136.77777777777777,-13.222222222222221],[137.33333333333334,-13.666666666666668],[138.0,-14.5],[139.0,-14.666666666666668],[139.55555555555554,-15.444444444444443],[140.1818181818182,-15.818181818181818],[140.5,-16.5],[141.0,-17.0],[141.0,-18.0],[142.0,-18.0],[142.66666666666669,-18.333333333333336],[143.0,-18.333333333333336],[143.125,-18.125],[144.0,-17.875],[144.60869565217394,-18.39130434782609],[145.0,-18.529411764705884],[145.4,-19.0],[145.0625,-20.0625],[144.56521739130434,-20.565217391304348],[144.0,-20.888888888888886],[142.75,-20.75],[142.5,-21.0],[142.6,-22.4],[143.0,-23.0],[142.66666666666669,-24.0],[143.46153846153848,-24.53846153846154],[143.8181818181818,-25.18181818181818],[144.5,-25.5],[146.0,-27.0],[145.0,-28.0],[145.0,-29.0],[145.33333333333334,-29.666666666666668],[145.33333333333331,-30.0],[146.33333333333334,-31.0],[146.5,-32.0],[146.0,-32.25],[144.0,-32.333333333333336],[143.60000000000002,-32.6],[143.36363636363637,-33.36363636363636],[143.0,-34.0],[142.0,-35.0],[142.0,-36.0],[141.4,-36.400000000000006],[140.5,-37.5],[140.33333333333334,-38.0],[140.5,-39.0],[139.5,-40.0],[139.5,-41.0],[139.33333333333331,-42.0],[139.71428571428572,-44.285714285714285],[140.7142857142857,-46.28571428571428],[141.28571428571428,-47.71428571428571],[141.66666666666669,-49.33333333333334],[142.5,-51.0],[142.55555555555554,-52.44444444444444],[143.0,-54.0],[142.5,-55.5],[141.0,-57.0],[139.55555555555554,-57.55555555555555],[139.0,-58.0],[138.28571428571428,-58.28571428571428],[135.0,-59.0],[135.0,-60.0],[134.0,-61.0],[134.0,-62.0],[133.5,-62.5],[132.5,-62.5],[132.0,-62.0],[132.0,-63.0],[131.0,-63.0],[131.5,-63.5],[131.5,-64.0],[132.0,-64.5],[132.25,-65.0],[132.7,-65.3],[133.0,-65.42857142857142],[134.36363636363637,-65.36363636363637],[135.0,-65.0],[137.0,-66.0],[137.75,-66.25],[138.33333333333334,-66.66666666666667],[139.0,-66.75],[139.6923076923077,-67.3076923076923],[142.0,-68.66666666666667],[143.0,-69.0],[142.0,-70.0],[141.0,-70.0],[140.0,-70.4],[136.0,-70.4],[135.0,-70.25],[132.0,-70.33333333333333],[131.0,-70.5],[130.0,-70.33333333333333],[129.0,-70.33333333333333],[127.0,-69.66666666666667],[126.00000000000001,-69.66666666666667],[125.0,-70.0],[124.0,-71.0],[123.60000000000001,-70.4],[123.0,-70.0],[122.0,-70.0],[121.4,-69.6],[121.0,-69.5],[120.0,-70.0],[119.0,-69.5],[118.60000000000001,-69.6],[118.0,-70.0],[118.60000000000001,-70.4],[119.4,-70.60000000000001],[119.5,-71.0],[119.33333333333334,-71.33333333333334],[118.60000000000001,-71.60000000000001],[118.0,-72.0],[119.4,-72.6],[120.60000000000001,-73.4],[121.36363636363636,-73.63636363636363],[122.0,-74.0],[123.0,-74.0],[124.0,-74.66666666666667],[125.0,-74.66666666666667],[126.0,-75.5],[129.0,-75.5],[129.33333333333334,-75.66666666666667],[130.0,-77.0],[130.0,-78.0],[132.0,-78.0],[133.0,-79.0],[132.5,-79.5],[131.6,-79.6],[131.0,-80.0],[132.0,-81.0],[131.4,-81.4],[131.0,-81.5],[128.0,-81.5],[126.33333333333334,-82.33333333333334],[124.5,-82.5],[123.0,-83.0],[123.0,-84.0],[123.60000000000001,-84.4],[124.4,-84.60000000000001],[125.5,-85.5],[126.0,-85.66666666666666],[129.0,-85.66666666666666],[130.0,-86.0],[132.84,-86.16],[137.0,-86.22222222222221],[138.0,-86.125],[139.25,-86.25],[139.83333333333334,-86.16666666666666],[141.0,-86.5],[142.0,-86.5],[143.0,-86.75],[145.15384615384616,-86.84615384615384],[146.0,-87.0],[149.0,-86.6],[149.04166666666669,-87.0],[149.3835616438356,-87.61643835616438],[150.0,-87.77966101694915],[150.62857142857143,-87.62857142857143],[150.95833333333334,-87.0],[151.0,-86.6],[152.22222222222223,-86.77777777777777],[154.0,-86.75],[155.0,-87.0],[157.0,-87.14285714285715],[157.1818181818182,-87.81818181818181],[157.1153846153846,-88.0],[157.46153846153845,-88.53846153846155],[158.0,-88.74193548387098],[158.60000000000002,-88.6],[158.92,-88.0],[159.0,-87.33333333333334],[160.0,-87.4],[162.0,-88.0],[164.48,-88.52],[165.0,-89.0],[165.0,-90.0],[-99.0,-90.0],[-99.0,-89.0],[-98.0,-88.66666666666666],[-92.0,-88.66666666666666],[-91.0,-88.33333333333334],[-89.75,-88.25],[-89.0,-88.0],[-86.0,-88.0],[-84.0,-87.5],[-83.0,-87.5],[-81.0,-87.25],[-80.0,-87.33333333333334],[-77.0,-87.25],[-74.0,-87.42857142857142],[-73.0,-87.25],[-72.0,-87.4],[-71.0,-87.33333333333334],[-70.0,-87.5],[-69.6,-87.4],[-69.0,-87.0],[-68.0,-87.33333333333334],[-67.0,-87.0],[-65.66666666666667,-87.66666666666667],[-65.5,-88.0],[-65.05555555555556,-88.05555555555556],[-59.0,-88.0],[-58.0,-87.0],[-56.0,-87.0],[-54.400000000000006,-86.60000000000001],[-54.0,-86.0],[-53.0,-86.0],[-52.22222222222222,-85.77777777777777],[-50.0,-85.5],[-49.733333333333334,-85.26666666666667],[-49.0,-85.18181818181819],[-47.99999999999999,-85.3],[-47.0,-85.13333333333334],[-44.5,-85.0],[-44.75,-84.75],[-45.55555555555556,-84.55555555555554],[-48.0,-84.4],[-51.00000000000001,-84.66666666666667],[-52.0,-84.4],[-54.0,-84.25],[-60.0,-84.25],[-61.0,-84.4],[-62.222222222222214,-84.22222222222223],[-69.13333333333333,-84.13333333333333],[-69.13333333333333,-83.86666666666666],[-68.4,-83.6],[-68.2,-83.0],[-68.0,-82.8],[-65.71428571428571,-82.28571428571428],[-65.0,-82.0],[-63.0,-82.0],[-63.0,-81.0],[-61.0,-81.0],[-61.0,-80.0],[-59.66666666666667,-79.33333333333334],[-59.5,-79.0],[-59.0,-78.75],[-57.4,-78.60000000000001],[-56.6,-78.4],[-56.0,-78.0],[-55.400000000000006,-78.4],[-54.6,-78.60000000000001],[-54.0,-79.0],[-53.0,-78.0],[-51.0,-78.0],[-50.0,-79.0],[-49.0,-79.0],[-49.5,-78.5],[-49.6,-77.6],[-50.0,-77.0],[-50.0,-75.0],[-59.0,-75.0],[-60.0,-74.6],[-61.733333333333334,-75.26666666666667],[-63.0,-75.5],[-65.33333333333334,-75.33333333333334],[-67.0,-75.0],[-66.0,-74.0],[-66.0,-72.0],[-64.71428571428571,-71.28571428571428],[-64.5,-71.0],[-64.5,-70.5],[-64.0,-70.0],[-64.0,-68.0],[-63.0,-68.0],[-62.0,-67.66666666666666],[-61.0,-68.0],[-61.0,-69.0],[-60.0,-69.0],[-59.22222222222222,-69.22222222222223],[-58.16666666666667,-69.16666666666667],[-57.5,-69.0],[-56.55555555555556,-68.44444444444444],[-54.875,-68.125],[-54.36363636363637,-67.63636363636364],[-54.0,-67.5],[-53.0,-67.5],[-50.0,-66.66666666666667],[-49.0,-66.5],[-48.60000000000001,-66.60000000000001],[-48.0,-67.0],[-47.0,-67.0],[-46.44444444444444,-66.55555555555556],[-46.0,-66.5],[-44.71428571428571,-66.71428571428571],[-43.28571428571428,-66.71428571428571],[-41.0,-66.0],[-40.0,-66.33333333333334],[-39.0,-66.0],[-38.0,-66.0],[-37.0,-65.75],[-36.0,-66.0],[-35.0,-65.6],[-34.0,-65.6],[-32.71428571428571,-65.28571428571428],[-29.0,-65.0],[-28.0,-64.8],[-25.0,-65.0],[-23.0,-65.4],[-22.0,-65.75],[-19.833333333333332,-65.83333333333334],[-17.42857142857143,-66.42857142857143],[-16.0,-66.5],[-14.692307692307693,-66.6923076923077],[-14.0,-67.0],[-13.0,-67.0],[-12.181818181818183,-67.18181818181819],[-11.0,-67.0],[-9.0,-67.0],[-7.0,-66.6],[-6.636363636363637,-66.63636363636364],[-6.0,-67.0],[-4.5,-66.5],[-3.0,-65.0],[-2.0,-65.33333333333334],[-0.6000000000000001,-63.400000000000006],[0.0,-63.0],[-0.6000000000000001,-62.6],[-1.4000000000000001,-62.4],[-2.0,-62.0],[-3.0,-62.0],[-2.6,-61.400000000000006],[-2.6666666666666665,-61.0],[-3.0,-60.5],[-3.4000000000000004,-60.400000000000006],[-4.0,-60.0],[-5.0,-61.0],[-6.0,-61.33333333333333],[-6.222222222222222,-61.22222222222223],[-6.5,-61.0],[-6.6000000000000005,-59.6],[-7.4,-59.400000000000006],[-8.0,-59.0],[-10.0,-59.0],[-11.0,-59.66666666666667],[-12.0,-59.5],[-14.0,-59.5],[-15.285714285714285,-59.285714285714285],[-16.0,-59.0],[-18.0,-59.0],[-20.0,-58.6],[-20.363636363636363,-58.63636363636364],[-21.0,-59.0],[-22.0,-58.33333333333333],[-23.0,-58.66666666666667],[-24.0,-58.33333333333333],[-26.0,-58.25],[-28.000000000000004,-57.800000000000004],[-29.0,-58.0],[-34.0,-58.0],[-35.0,-57.66666666666667],[-36.0,-58.0],[-37.0,-58.0],[-37.75,-58.25],[-39.0,-58.4],[-41.0,-58.0],[-41.8,-58.2],[-43.0,-58.25],[-44.0,-58.0],[-45.0,-58.0],[-46.400000000000006,-58.60000000000001],[-48.22222222222222,-58.77777777777778],[-49.0,-59.0],[-51.0,-58.0],[-52.0,-58.0],[-53.5,-57.5],[-55.0,-56.0],[-56.0,-56.0],[-57.0,-55.0],[-57.0,-51.0],[-58.0,-51.0],[-58.0,-47.0],[-57.0,-47.0],[-57.0,-46.0],[-56.0,-46.0],[-55.60000000000001,-45.4],[-55.5,-44.0],[-55.28571428571428,-43.71428571428571],[-55.0,-43.5],[-54.0,-43.5],[-53.333333333333336,-42.66666666666667],[-52.75,-42.25],[-52.0,-42.0],[-51.66666666666667,-41.333333333333336],[-50.400000000000006,-40.6],[-50.0,-40.0],[-49.0,-39.85714285714286],[-47.5,-39.0],[-46.208333333333336,-38.791666666666664],[-44.0,-38.11764705882353],[-42.66666666666667,-38.0],[-42.0,-37.77777777777778],[-36.0,-37.285714285714285],[-34.0,-36.666666666666664],[-29.888888888888886,-35.11111111111111],[-29.0,-35.0],[-28.625,-34.375],[-27.545454545454547,-33.45454545454545],[-27.090909090909093,-32.90909090909091],[-25.0,-31.666666666666664],[-24.27272727272727,-31.0],[-23.80952380952381,-30.19047619047619],[-23.333333333333332,-30.0],[-23.0,-29.5],[-22.0,-29.0],[-21.5,-28.0],[-22.22222222222222,-27.22222222222222],[-22.4,-26.400000000000002],[-23.0,-26.0],[-23.0,-25.0],[-24.0,-24.0],[-24.5,-23.0],[-24.666666666666668,-22.0],[-24.666666666666668,-21.0],[-24.5,-20.0],[-24.6,-19.6],[-25.0,-19.0],[-25.0,-18.0],[-24.0,-17.0],[-24.0,-12.0],[-23.0,-9.0],[-23.0,-8.0],[-22.666666666666668,-7.0],[-22.75,-6.0],[-22.666666666666668,-5.333333333333334],[-22.4,-4.6],[-22.333333333333336,-4.0],[-22.0,-3.5],[-21.0,-3.0],[-20.6,-2.4],[-20.5,-2.0],[-20.0,-1.6666666666666665],[-18.636363636363637,-1.3636363636363635],[-16.5,0.0],[-16.0,0.5],[-15.000000000000002,0.6666666666666667],[-14.0,1.0],[-14.400000000000002,1.6],[-14.5,2.0],[-15.555555555555554,2.4444444444444446],[-16.0,3.0],[-16.88235294117647,3.1176470588235294],[-17.6,3.4000000000000004],[-18.22222222222222,3.7777777777777777],[-19.666666666666668,4.333333333333334],[-20.166666666666664,4.833333333333333],[-21.0,5.0],[-22.0,5.7142857142857135],[-22.916666666666668,6.083333333333333],[-25.833333333333336,8.166666666666666],[-26.31578947368421,8.68421052631579],[-26.5,9.0],[-26.545454545454547,10.0],[-26.285714285714285,11.0],[-26.0,11.5],[-25.0,12.0],[-23.81818181818182,11.818181818181818],[-20.0,11.8],[-18.77777777777778,11.222222222222221],[-18.22222222222222,11.222222222222221],[-17.0,10.916666666666666],[-15.789473684210527,10.210526315789473]],[[115.0,-70.0],[115.0,-69.0],[114.0,-69.0],[114.0,-70.0],[115.0,-70.0]]],[[[20.833333333333336,-24.833333333333332],[20.5,-25.5],[20.0,-25.75],[19.444444444444443,-26.444444444444443],[18.0,-27.0],[17.181818181818183,-27.18181818181818],[16.0,-27.0],[15.461538461538462,-27.461538461538463],[14.0,-28.333333333333332],[13.714285714285714,-29.0],[14.0,-31.0],[13.714285714285714,-31.714285714285715],[13.0,-32.0],[12.6,-32.6],[12.0,-32.75],[11.0,-32.333333333333336],[9.818181818181818,-32.18181818181818],[8.0,-31.0],[8.0,-29.0],[8.666666666666668,-28.0],[8.882352941176471,-27.88235294117647],[9.333333333333334,-27.000000000000004],[12.0,-25.0],[14.363636363636363,-24.363636363636367],[16.714285714285715,-22.71428571428571],[18.0,-22.428571428571427],[19.0,-22.4375],[21.0,-23.0],[21.0,-24.0],[20.833333333333336,-24.833333333333332]]],[[[-44.0,-23.333333333333336],[-42.0,-24.0],[-41.0,-23.5],[-40.5,-23.0],[-40.4,-22.6],[-40.0,-22.0],[-39.28571428571428,-22.285714285714285],[-38.81818181818181,-22.18181818181818],[-38.5,-22.0],[-38.4,-21.6],[-38.0,-21.0],[-37.4,-20.6],[-36.5,-20.5],[-36.0,-21.0],[-36.0,-20.0],[-35.0,-20.0],[-34.0,-21.0],[-34.0,-24.0],[-35.0,-24.0],[-36.0,-25.0],[-37.0,-25.25],[-39.0,-26.4],[-40.0,-26.5],[-41.0,-27.0],[-43.0,-27.0],[-43.60000000000001,-27.4],[-44.0,-27.5],[-44.5,-28.0],[-45.0,-29.0],[-46.0,-29.5],[-47.0,-29.5],[-47.5,-29.0],[-48.0,-28.0],[-48.60000000000001,-27.6],[-49.0,-27.5],[-49.400000000000006,-27.6],[-50.0,-28.0],[-50.5,-27.5],[-50.5,-26.0],[-50.28571428571428,-25.714285714285715],[-49.66666666666667,-25.333333333333336],[-49.0,-23.0],[-48.0,-22.0],[-48.0,-20.0],[-47.0,-20.0],[-46.5,-21.0],[-46.66666666666667,-22.0],[-46.5,-22.5],[-46.0,-23.0],[-45.0,-23.333333333333336],[-44.0,-23.333333333333336]]],[[[-47.0,-20.0],[-47.5,-19.5],[-47.4,-18.6],[-47.0,-18.0],[-46.5,-19.0],[-47.0,-20.0]]],[[[24.333333333333336,-7.0],[23.6,-7.6],[23.333333333333332,-8.0],[23.0,-8.25],[22.0,-8.5],[21.166666666666668,-9.166666666666668],[20.0,-9.6],[19.0,-9.5],[18.0,-9.0],[17.6,-8.4],[17.5,-8.0],[19.125,-7.125],[19.846153846153847,-5.846153846153846],[21.75,-4.0],[22.5,-2.5],[23.0,-2.0],[24.0,-2.0],[24.5,-2.5],[25.0,-4.0],[25.0,-5.0],[24.5,-6.0],[24.333333333333336,-7.0]]],[[[-29.6,-4.4],[-29.0,-4.0],[-28.0,-5.0],[-28.0,-6.0],[-29.0,-6.0],[-29.6,-6.4],[-30.0,-6.5],[-30.333333333333336,-6.333333333333334],[-30.5,-6.0],[-29.6,-4.4]]],[[[35.0,-0.3571428571428571],[34.79591836734694,-0.20408163265306123],[34.77272727272727,0.2272727272727273],[35.2,1.0],[36.273972602739725,1.7260273972602738],[37.06896551724138,2.0689655172413794],[37.4954128440367,1.4954128440366972],[37.65853658536585,1.0],[37.0,0.12903225806451613],[36.239999999999995,-0.24],[36.0,-0.5],[35.0,-0.3571428571428571]]],[[[19.0,12.0],[19.545454545454547,12.454545454545453],[20.444444444444443,12.555555555555555],[20.571428571428573,13.0],[21.0,13.103448275862068],[21.176470588235293,13.0],[21.214285714285715,12.785714285714285],[21.0,12.399999999999999],[20.6,12.4],[20.714285714285715,12.0],[20.0,11.285714285714286],[19.5,11.5],[19.0,12.0]]],[[[38.25641025641025,18.256410256410255],[38.625,18.0],[39.2,17.2],[41.22222222222222,15.222222222222221],[43.76470588235294,13.764705882352942],[44.0,13.692307692307692],[45.875,13.875],[47.0,13.428571428571427],[49.0,13.333333333333332],[49.33333333333334,13.666666666666668],[49.333333333333336,14.0],[49.7037037037037,14.296296296296294],[51.0,14.5],[53.09302325581395,15.093023255813954],[53.78947368421052,14.789473684210526],[54.0,14.428571428571429],[54.07594936708861,14.075949367088608],[53.88095238095238,13.0],[53.0,11.53846153846154],[52.62162162162163,11.378378378378379],[52.1,10.9],[52.0,10.5],[51.12,9.879999999999999],[51.0,9.5],[50.75,9.25],[48.92727272727272,8.072727272727272],[46.85964912280702,7.140350877192983],[43.6875,6.3125],[43.0,6.0],[41.0,6.333333333333333],[40.733333333333334,7.0],[38.75675675675676,9.756756756756758],[37.76271186440678,10.762711864406779],[37.125,11.0],[36.550000000000004,11.55],[35.0,12.416666666666666],[33.54545454545455,14.545454545454545],[33.05263157894737,15.052631578947368],[32.87301587301587,15.873015873015873],[32.230769230769226,17.0],[32.0,18.0],[31.9,19.0],[32.0,20.0],[33.0,20.75],[34.125,20.875],[35.0,20.77777777777778],[35.45161290322581,20.451612903225808],[36.853658536585364,19.853658536585364],[37.800000000000004,19.0],[38.25641025641025,18.256410256410255]]],[[[8.0,15.285714285714286],[7.6875,15.6875],[7.666666666666666,16.0],[8.0,16.217391304347828],[9.0,16.458333333333332],[10.0,16.25],[10.545454545454545,16.454545454545453],[11.11111111111111,17.0],[12.0,17.18181818181818],[12.32,17.0],[12.5,16.5],[12.90909090909091,16.0],[12.555555555555555,15.444444444444443],[12.0,15.0],[10.818181818181818,15.181818181818182],[9.0,14.75],[8.0,15.285714285714286]]],[[[1.2857142857142856,33.285714285714285],[1.8,32.8],[4.0,32.0],[5.0,31.333333333333332],[6.0,31.0],[5.4,30.6],[4.5,29.5],[3.0,29.0],[1.5,29.5],[1.0,30.0],[0.0,30.25],[-1.0,30.333333333333336],[-2.5,32.0],[-4.6,33.4],[-4.75,34.0],[-4.5,34.5],[-4.0,35.0],[-3.5,36.0],[-3.5,36.5],[-3.0,37.0],[-2.4,36.6],[-2.0,36.5],[-1.5,36.0],[-1.0,35.0],[-0.4,34.6],[0.0,34.0],[1.0,34.0],[1.2857142857142856,33.285714285714285]]],[[[0.1111111111111111,47.88888888888889],[0.8888888888888888,47.88888888888889],[6.0,47.0],[7.863636363636363,47.13636363636363],[11.0,47.6875],[14.0,47.53333333333333],[16.0,47.111111111111114],[19.0,46.77777777777778],[21.11764705882353,46.11764705882353],[22.0,45.96551724137931],[25.318840579710145,44.31884057971014],[26.2,44.0],[27.233333333333334,43.233333333333334],[28.09090909090909,43.0],[28.555555555555554,42.55555555555556],[29.145833333333336,42.14583333333333],[29.636363636363633,42.0],[30.333333333333336,41.333333333333336],[30.909090909090907,41.0],[31.888888888888886,40.0],[32.25806451612903,39.25806451612903],[33.5,38.5],[35.4,38.0],[36.0,37.625],[36.5,37.0],[36.0,36.0],[34.36363636363636,35.63636363636364],[32.21333333333333,34.78666666666666],[30.900000000000002,34.0],[30.233766233766232,33.76623376623377],[29.294117647058826,33.0],[28.0,32.42307692307692],[26.823529411764707,32.17647058823529],[26.0,31.692307692307693],[25.470588235294116,31.529411764705884],[25.0,31.0],[24.0,31.0],[23.0,30.0],[22.0,30.0],[21.0,31.0],[21.0,32.0],[20.5,33.0],[20.333333333333336,34.0],[20.0,34.5],[19.0,35.0],[18.0,35.0],[17.0,34.5],[16.0,34.5],[15.25,33.75],[15.0,33.666666666666664],[14.0,34.0],[13.333333333333332,33.0],[13.0,32.75],[12.0,33.0],[11.0,32.66666666666667],[9.666666666666668,33.66666666666667],[8.0,34.0],[7.0,34.0],[5.0,34.5],[4.0,34.5],[3.6363636363636362,34.63636363636363],[3.0,35.5],[2.666666666666667,35.66666666666667],[1.7777777777777777,35.77777777777778],[1.5,36.0],[1.6666666666666665,37.0],[0.625,37.625],[0.0,38.16666666666667],[-1.0,38.333333333333336],[-2.0,38.0],[-3.0,38.0],[-3.0,37.0],[-4.0,37.0],[-4.5,38.0],[-3.6000000000000005,39.6],[-3.5,40.0],[-2.5,41.0],[-3.0,42.0],[-3.5555555555555554,42.44444444444444],[-6.0,43.333333333333336],[-7.0,44.0],[-7.285714285714286,44.71428571428571],[-8.2,45.8],[-8.75,47.0],[-7.666666666666667,48.0],[-6.0,48.46666666666667],[-4.0,48.375],[-3.0,48.125],[-2.0,48.2],[0.1111111111111111,47.88888888888889]]],[[[179.22222222222223,-88.77777777777777],[179.33333333333334,-89.0],[179.33333333333334,-90.0],[178.33333333333334,-90.0],[178.33333333333334,-89.0],[179.0,-88.66666666666666],[179.22222222222223,-88.77777777777777]]],[[[141.0,-80.0],[142.0,-79.75],[143.0,-80.0],[143.0,-81.0],[142.0,-81.0],[141.4,-81.4],[141.0,-81.5],[140.0,-81.0],[140.60000000000002,-80.60000000000001],[141.0,-80.0]]],[[[134.4,-79.6],[133.5,-79.5],[133.0,-79.0],[133.60000000000002,-78.60000000000001],[134.0,-78.5],[136.28571428571428,-78.71428571428571],[137.0,-79.0],[137.0,-80.0],[135.0,-80.0],[134.4,-79.6]]],[[[176.0,-65.45454545454545],[177.25,-66.0],[177.54545454545453,-67.0],[177.8,-69.0],[178.0,-69.5],[178.5,-70.0],[179.00000000000003,-70.16666666666667],[180.0,-71.66666666666667],[180.0,-78.0],[179.5,-77.5],[179.0,-75.66666666666667],[177.36363636363637,-74.63636363636363],[175.0,-72.5],[174.0,-72.0],[173.0,-71.66666666666667],[171.57142857142856,-71.42857142857143],[170.0,-70.80000000000001],[169.0,-70.75],[167.55555555555554,-70.44444444444444],[167.0,-70.4],[166.0,-70.6],[165.0,-70.5],[163.6923076923077,-70.6923076923077],[161.0,-70.66666666666667],[160.55555555555554,-70.44444444444444],[160.2,-70.0],[159.23529411764707,-69.76470588235294],[158.625,-69.375],[158.4,-69.0],[157.55555555555554,-68.44444444444444],[157.33333333333334,-68.0],[157.6470588235294,-66.6470588235294],[158.4,-66.4],[160.0,-66.25],[161.0,-66.5],[163.0,-66.75],[163.5,-67.0],[165.0,-67.05],[165.33333333333334,-67.0],[166.2,-66.2],[167.0,-66.0],[168.0,-66.0],[169.0,-65.75],[173.0,-65.6],[173.36363636363637,-65.63636363636364],[174.0,-66.0],[174.6,-65.60000000000001],[176.0,-65.45454545454545]]],[[[163.63636363636363,-53.36363636363637],[164.5,-54.0],[164.4,-54.400000000000006],[164.0,-55.0],[164.0,-56.0],[163.0,-56.400000000000006],[162.0,-56.5],[161.0,-56.400000000000006],[159.28571428571428,-55.71428571428571],[158.14285714285714,-54.857142857142854],[157.33333333333334,-54.00000000000001],[156.53846153846155,-53.46153846153847],[156.25,-53.0],[156.0,-52.0],[156.6,-51.6],[158.3157894736842,-51.315789473684205],[159.60000000000002,-51.400000000000006],[161.0,-52.0],[162.6,-52.4],[163.16666666666666,-52.83333333333333],[163.63636363636363,-53.36363636363637]]],[[[149.3,-33.0],[148.79310344827587,-33.206896551724135],[148.0,-33.0],[148.68421052631578,-32.68421052631579],[149.26086956521738,-32.73913043478261],[149.3,-33.0]]],[[[150.0952380952381,-31.095238095238095],[150.0,-32.0],[149.83333333333331,-31.0],[150.0,-30.75],[150.0952380952381,-31.095238095238095]]],[[[150.1818181818182,-25.999999999999996],[150.4,-25.6],[150.0,-25.0],[150.54545454545453,-25.454545454545453],[151.0,-25.357142857142854],[152.0,-25.833333333333336],[152.0,-26.11764705882353],[151.0,-26.42857142857143],[150.5909090909091,-26.409090909090907],[150.1818181818182,-25.999999999999996]]],[[[107.0,-9.5],[108.0,-9.666666666666666],[108.5,-10.0],[107.0,-10.166666666666668],[106.5,-10.0],[106.63636363636363,-9.636363636363637],[107.0,-9.5]]],[[[105.66666666666667,-1.3333333333333333],[106.0,-2.0],[105.0,-2.5],[104.28571428571428,-3.2857142857142856],[104.0,-3.3333333333333335],[103.5,-4.0],[103.63636363636364,-4.363636363636363],[104.0,-4.666666666666666],[105.00000000000001,-4.333333333333334],[106.0,-5.0],[106.60000000000001,-4.6],[107.0,-4.0],[108.0,-4.0],[108.4,-4.6],[109.0,-5.0],[109.0,-6.0],[110.4,-6.4],[111.0,-6.0],[111.0,-7.0],[109.0,-7.333333333333333],[107.71428571428571,-7.285714285714286],[105.0,-6.0],[104.4,-6.4],[102.77777777777777,-6.777777777777779],[102.5,-7.0],[102.66666666666667,-8.0],[103.0,-8.5],[103.4,-8.4],[104.0,-8.0],[104.5,-9.0],[104.4,-9.4],[104.0,-10.0],[103.0,-10.0],[102.0,-10.285714285714286],[98.76,-11.76],[96.19999999999999,-13.2],[94.0,-15.0],[92.63636363636364,-15.636363636363637],[92.2,-16.0],[91.25806451612902,-16.258064516129032],[89.43478260869564,-17.434782608695652],[89.0,-18.0],[87.53846153846155,-18.53846153846154],[87.1,-19.0],[86.24489795918367,-19.244897959183675],[85.58974358974358,-19.58974358974359],[85.33333333333334,-20.0],[85.0,-20.22222222222222],[84.38461538461539,-20.384615384615383],[83.75,-21.0],[82.7,-21.3],[82.30000000000001,-21.3],[82.0,-21.5],[81.0,-21.666666666666668],[80.0,-22.0],[79.0,-22.0],[78.0,-21.8],[77.0,-22.0],[75.0,-21.5],[74.0,-21.6],[73.0,-22.0],[71.11111111111111,-22.11111111111111],[70.0,-22.6],[69.0,-22.75],[68.5,-23.0],[66.0,-23.714285714285715],[62.77777777777777,-24.22222222222222],[61.0,-24.263157894736842],[58.9047619047619,-24.095238095238095],[58.333333333333336,-24.0],[58.0,-23.5],[57.833333333333336,-23.0],[58.0,-22.0],[58.46153846153846,-21.461538461538463],[58.6,-21.0],[59.5,-20.5],[60.0,-20.0],[60.2,-19.0],[60.69230769230769,-18.692307692307693],[61.333333333333336,-18.0],[62.48275862068966,-17.482758620689655],[63.0,-17.0],[64.4,-16.400000000000002],[64.8,-16.0],[66.0,-15.6],[69.04444444444445,-14.955555555555556],[74.0,-14.5],[77.0,-13.476190476190476],[78.52,-12.52],[80.0,-11.785714285714286],[81.0,-11.46153846153846],[83.0,-11.166666666666668],[84.0,-10.857142857142858],[85.6,-10.0],[87.22222222222223,-8.222222222222221],[88.0,-7.0],[91.0,-5.142857142857143],[92.5111111111111,-3.511111111111111],[93.0,-3.1538461538461537],[93.47826086956522,-2.4782608695652173],[95.0,-1.0666666666666667],[98.0,0.5625],[102.0,4.0],[102.77777777777777,4.222222222222222],[103.25,4.75],[104.0,5.0],[105.0,5.0],[106.0,5.333333333333333],[107.0,5.0],[107.5,4.0],[107.33333333333334,3.0],[106.66666666666667,1.0],[106.0,0.0],[105.71428571428571,-0.7142857142857142],[105.66666666666667,-1.3333333333333333]]],[[[111.33333333333334,-5.333333333333334],[111.25,-5.0],[111.5,-4.0],[112.0,-3.333333333333333],[112.33333333333334,-3.3333333333333335],[113.0,-3.0],[113.33333333333334,-4.0],[113.33333333333334,-4.333333333333334],[113.0,-5.0],[112.0,-6.0],[111.0,-6.0],[111.33333333333334,-5.333333333333334]]],[[[46.29268292682927,35.29268292682927],[47.0,35.357142857142854],[47.55555555555556,35.0],[47.0,34.791666666666664],[46.0,34.73913043478261],[45.333333333333336,35.0],[46.29268292682927,35.29268292682927]]],[[[63.74509803921568,35.745098039215684],[62.18181818181818,36.0],[62.1578947368421,37.0],[63.0,37.55172413793103],[64.0,37.82857142857143],[65.0,37.66666666666667],[66.0625,37.0],[65.73684210526316,36.26315789473684],[65.44444444444444,36.0],[63.74509803921568,35.745098039215684]]]]}}]}