{"type":"FeatureCollection","features":[{"type":"Feature","properties":{"ageMa":400},"geometry":{"type":"MultiPolygon","coordinates":[[[[-80.28571428571428,-57.71428571428571],[-81.0,-58.33333333333333],[-82.0,-58.5],[-83.0,-59.33333333333333],[-83.25,-60.0],[-83.57142857142858,-60.42857142857143],[-84.0,-60.66666666666667],[-84.61538461538461,-61.38461538461539],[-85.0,-61.55555555555556],[-85.1951219512195,-61.80487804878049],[-86.33333333333334,-62.0],[-86.63636363636364,-62.36363636363636],[-87.36363636363637,-62.63636363636363],[-91.0,-62.785714285714285],[-92.66666666666667,-62.66666666666667],[-94.75,-61.75],[-95.33333333333334,-61.33333333333334],[-96.19999999999999,-61.2],[-96.5,-61.0],[-96.0,-60.8],[-95.0,-60.8],[-92.73333333333333,-59.266666666666666],[-90.66666666666667,-59.0],[-89.0,-58.35],[-84.93103448275862,-58.06896551724138],[-84.0,-57.714285714285715],[-82.53846153846155,-57.46153846153847],[-82.0,-57.0],[-80.33333333333334,-56.66666666666667],[-80.0,-56.5],[-79.63636363636364,-56.63636363636364],[-79.5,-57.0],[-80.0,-57.66666666666667],[-80.28571428571428,-57.71428571428571]]],[[[-139.9047619047619,-51.904761904761905],[-141.0,-51.57142857142857],[-141.38095238095238,-51.38095238095238],[-141.66666666666669,-51.00000000000001],[-142.0,-50.0],[-142.0,-49.0],[-141.0,-48.8],[-140.0,-48.0],[-138.43478260869566,-47.565217391304344],[-136.63636363636363,-47.36363636363636],[-135.0,-47.57575757575758],[-134.0,-48.0],[-132.66666666666666,-49.0],[-132.63636363636363,-49.63636363636363],[-132.0,-51.0],[-132.0,-52.0],[-131.4,-52.4],[-131.0,-53.0],[-130.0,-53.0],[-130.0,-54.0],[-129.0,-54.0],[-129.0,-55.0],[-128.0,-55.0],[-127.44444444444444,-55.44444444444444],[-127.0,-55.57142857142857],[-126.0,-55.0],[-124.0,-54.66666666666667],[-123.0,-54.9],[-121.62962962962962,-54.629629629629626],[-119.85185185185185,-54.85185185185185],[-119.05405405405405,-55.054054054054056],[-117.16666666666666,-57.0],[-117.0,-58.0],[-117.77777777777777,-59.22222222222222],[-118.33333333333334,-59.66666666666667],[-121.0,-60.5],[-124.0,-60.66666666666667],[-126.0,-60.57142857142857],[-128.0,-60.69230769230769],[-128.58333333333334,-60.583333333333336],[-129.30769230769232,-60.30769230769231],[-130.8,-59.0],[-130.66666666666669,-57.66666666666667],[-131.0,-57.0],[-132.0,-57.0],[-132.4,-56.400000000000006],[-133.0,-56.0],[-134.0,-55.0],[-134.4,-54.400000000000006],[-134.60000000000002,-53.60000000000001],[-135.0,-53.0],[-134.4,-52.6],[-134.0,-52.0],[-134.66666666666669,-51.66666666666667],[-135.0,-51.66666666666667],[-136.0,-52.0],[-137.0,-53.0],[-137.57142857142858,-52.57142857142857],[-138.375,-52.375],[-139.0,-52.0],[-139.9047619047619,-51.904761904761905]]],[[[-152.3125,-50.6875],[-153.875,-51.125],[-155.0,-51.166666666666664],[-155.84615384615384,-50.84615384615385],[-156.42857142857144,-50.0],[-156.0,-49.4],[-155.66666666666669,-48.333333333333336],[-154.4,-47.6],[-154.0,-47.57142857142857],[-152.92857142857144,-47.07142857142857],[-152.0,-47.0],[-150.0,-46.916666666666664],[-149.26666666666665,-47.266666666666666],[-149.0,-48.0],[-149.25,-49.0],[-150.23076923076923,-49.769230769230774],[-151.20000000000002,-50.0],[-152.3125,-50.6875]]],[[[157.66666666666669,-1.3333333333333333],[158.0,-1.6666666666666665],[159.0,-2.0],[160.0,-3.0],[160.25,-3.75],[161.5,-5.0],[161.66666666666669,-5.333333333333334],[162.25,-5.75],[163.0,-6.0],[163.0,-7.0],[163.5,-7.5],[163.5,-8.0],[163.77777777777777,-8.222222222222221],[164.0,-9.0],[165.0,-10.0],[166.0,-10.0],[166.36363636363637,-10.636363636363637],[167.0,-13.0],[167.0,-14.0],[167.4,-14.600000000000001],[167.5,-15.0],[167.4,-15.4],[167.0,-16.0],[166.0,-16.0],[165.33333333333334,-16.333333333333336],[164.0,-16.5],[162.0,-16.5],[161.66666666666669,-16.666666666666668],[161.0,-16.75],[160.75,-17.0],[160.8181818181818,-17.181818181818183],[161.0,-17.5],[163.0,-17.5],[166.0,-18.75],[166.5,-19.0],[167.28571428571428,-19.714285714285715],[168.0,-20.0],[168.4,-20.6],[168.66666666666669,-22.0],[169.33333333333334,-22.666666666666668],[169.5,-23.0],[169.77777777777777,-24.22222222222222],[169.83333333333334,-28.0],[170.2,-28.799999999999997],[170.5,-30.0],[171.5,-32.0],[172.0,-34.5],[172.4,-34.6],[173.0,-36.0],[173.66666666666669,-37.0],[173.66666666666669,-37.333333333333336],[174.0,-38.0],[174.5,-37.5],[175.0,-37.333333333333336],[176.0,-38.0],[176.375,-38.625],[176.53846153846155,-39.46153846153847],[177.0,-40.0],[177.33333333333334,-41.0],[177.33333333333334,-41.333333333333336],[176.66666666666669,-41.66666666666667],[176.66666666666669,-42.0],[177.0,-42.5],[177.4,-42.6],[177.5,-43.0],[178.0,-43.333333333333336],[178.33333333333334,-43.333333333333336],[179.0,-43.0],[179.36363636363637,-43.63636363636364],[179.39999999999998,-44.0],[180.0,-44.6],[180.0,-90.0],[-180.0,-90.0],[-180.0,-44.6],[-179.79999999999998,-45.0],[-179.66666666666669,-48.0],[-179.2,-51.2],[-179.0,-51.5],[-178.0,-51.0],[-177.0,-51.2],[-176.0,-51.66666666666667],[-175.36363636363637,-52.36363636363636],[-175.0,-53.0],[-175.0,-54.0],[-174.6,-54.6],[-174.5,-55.0],[-175.0,-56.0],[-175.0,-58.0],[-175.25,-59.0],[-175.0,-60.0],[-174.22222222222223,-60.22222222222222],[-173.0,-61.0],[-172.0,-61.400000000000006],[-170.0,-61.75],[-167.22222222222223,-61.77777777777777],[-166.0,-62.0],[-162.0,-62.0],[-160.0,-62.2],[-159.4,-62.4],[-158.0,-63.2],[-156.57142857142856,-63.57142857142857],[-156.0,-64.0],[-154.0,-64.6],[-153.0,-64.6],[-152.0,-65.125],[-151.0,-65.0],[-148.33333333333334,-65.33333333333334],[-145.0,-65.4],[-143.0,-65.6],[-142.33333333333334,-66.0],[-142.0,-66.06666666666666],[-139.0,-66.05882352941177],[-137.75,-66.25],[-137.21428571428572,-66.21428571428572],[-136.0,-66.5],[-134.0,-66.71428571428572],[-133.33333333333334,-67.0],[-132.0,-67.27272727272727],[-128.0,-67.71428571428571],[-125.0,-67.57142857142857],[-122.0,-68.0],[-121.0,-67.83333333333334],[-120.0,-68.0],[-118.0,-68.0],[-115.0,-67.625],[-106.0,-67.85714285714286],[-103.18181818181819,-67.81818181818181],[-102.0,-67.5],[-101.0,-67.42857142857143],[-98.0,-67.42857142857143],[-94.60000000000001,-67.6],[-93.0,-67.8],[-90.0,-67.4],[-88.0,-67.4],[-85.0,-67.75],[-83.0,-68.33333333333334],[-81.0,-68.0],[-80.0,-68.0],[-78.0,-68.75],[-76.0,-70.0],[-74.44444444444443,-70.44444444444444],[-73.15384615384616,-71.15384615384616],[-71.66666666666667,-71.66666666666667],[-70.0,-73.0],[-69.5,-73.5],[-69.33333333333334,-74.0],[-69.66666666666667,-75.0],[-69.66666666666667,-75.33333333333334],[-70.0,-76.0],[-69.28571428571428,-76.28571428571428],[-68.66666666666667,-77.0],[-68.5,-78.0],[-68.5,-80.0],[-68.33333333333334,-81.0],[-68.66666666666667,-82.0],[-69.0,-82.33333333333334],[-69.4,-82.4],[-70.0,-82.0],[-70.0,-83.0],[-70.60000000000001,-82.6],[-71.0,-82.66666666666667],[-72.0,-83.33333333333333],[-74.0,-83.75],[-75.22222222222223,-83.77777777777777],[-76.0,-84.0],[-76.4,-84.60000000000001],[-77.5,-85.5],[-78.0,-85.66666666666667],[-80.0,-85.66666666666667],[-81.0,-86.0],[-80.0,-86.16666666666667],[-77.22222222222223,-86.22222222222223],[-76.0,-86.6],[-74.0,-86.5],[-72.0,-85.66666666666666],[-71.0,-85.66666666666666],[-70.0,-85.5],[-66.0,-85.5],[-64.71428571428571,-85.28571428571428],[-64.0,-85.0],[-62.0,-85.0],[-61.0,-85.33333333333334],[-60.0,-85.5],[-58.0,-86.4],[-55.0,-86.2],[-54.0,-85.75],[-53.0,-85.5],[-51.0,-86.16666666666667],[-49.84615384615385,-86.15384615384616],[-49.0,-86.0],[-45.0,-86.0],[-44.2,-85.80000000000001],[-42.0,-85.8],[-41.0,-85.66666666666666],[-38.0,-85.75],[-37.0,-86.0],[-36.22222222222222,-85.77777777777777],[-33.0,-85.5],[-32.0,-85.57142857142857],[-31.0,-85.4],[-28.6,-85.4],[-26.0,-85.0],[-25.0,-84.5],[-24.0,-84.5],[-23.0,-85.0],[-22.0,-84.66666666666667],[-20.0,-84.66666666666667],[-19.0,-84.33333333333334],[-17.0,-84.33333333333334],[-16.0,-83.75],[-15.0,-83.6],[-14.636363636363637,-83.63636363636363],[-14.0,-84.0],[-12.0,-84.0],[-11.285714285714285,-83.71428571428571],[-9.0,-83.25],[-8.0,-83.25],[-7.0,-83.66666666666667],[-6.0,-83.75],[-4.0,-83.5],[-1.0,-83.0],[0.36363636363636365,-82.36363636363636],[2.0,-82.0],[3.0,-82.16666666666667],[4.153846153846153,-82.15384615384616],[5.0,-82.0],[5.0,-81.0],[5.6000000000000005,-81.4],[6.0,-81.33333333333334],[6.6000000000000005,-80.60000000000001],[7.0,-80.33333333333334],[7.200000000000001,-80.0],[7.5,-78.0],[7.0,-77.0],[6.0,-77.0],[5.0,-76.0],[3.6000000000000005,-73.4],[2.4,-72.6],[2.0,-72.0],[2.5,-70.0],[3.333333333333333,-69.0],[3.6666666666666665,-68.0],[5.133333333333334,-67.13333333333334],[6.266666666666667,-66.26666666666667],[7.0,-65.0],[8.666666666666668,-64.0],[10.571428571428571,-62.57142857142858],[11.0,-62.4],[12.0,-62.5],[12.333333333333334,-62.333333333333336],[14.0,-62.0],[14.25,-61.0],[14.333333333333334,-60.00000000000001],[15.0,-59.0],[16.5,-58.0],[17.333333333333336,-56.333333333333336],[18.0,-56.0],[18.5,-55.5],[19.5,-55.0],[20.0,-54.0],[20.22222222222222,-53.22222222222222],[21.0,-52.666666666666664],[21.242424242424242,-52.24242424242425],[23.0,-51.55555555555556],[26.666666666666668,-52.33333333333334],[27.666666666666668,-53.0],[28.647058823529413,-53.35294117647058],[30.0,-54.6],[30.363636363636367,-54.63636363636364],[32.0,-55.666666666666664],[33.0,-55.666666666666664],[33.6,-56.400000000000006],[35.0,-57.0],[35.8,-57.199999999999996],[37.0,-58.0],[37.8,-58.2],[38.44444444444444,-58.55555555555556],[39.0,-59.0],[40.0,-59.2],[41.00000000000001,-59.2],[42.5,-59.5],[43.22222222222222,-59.77777777777778],[43.8,-60.2],[44.5,-61.0],[44.0,-62.0],[44.400000000000006,-62.6],[45.0,-63.0],[44.0,-64.0],[45.285714285714285,-64.71428571428571],[45.66666666666667,-65.33333333333334],[46.0,-65.5],[47.0,-65.5],[47.333333333333336,-65.33333333333334],[49.0,-65.0],[48.400000000000006,-64.6],[47.66666666666667,-64.33333333333334],[47.5,-64.0],[47.5,-63.5],[49.0,-62.0],[49.333333333333336,-61.0],[49.63636363636363,-60.63636363636364],[50.28571428571428,-60.28571428571428],[51.0,-59.0],[52.0,-58.666666666666664],[53.0,-58.666666666666664],[54.16666666666667,-58.16666666666667],[54.69230769230769,-57.69230769230769],[56.333333333333336,-57.333333333333336],[57.0,-57.0],[57.75,-56.0],[58.0,-55.0],[58.0,-54.0],[58.4,-53.0],[59.0,-52.400000000000006],[60.0,-52.0],[61.5,-53.0],[62.0,-53.2],[63.2,-53.2],[65.0,-53.42857142857143],[66.0,-53.333333333333336],[67.0,-53.8],[68.0,-53.71428571428571],[69.0,-54.0],[70.0,-54.0],[71.2,-53.8],[72.0,-54.0],[72.75,-53.75],[74.28571428571428,-53.71428571428571],[75.47058823529412,-53.470588235294116],[78.30769230769232,-52.30769230769231],[79.33333333333334,-50.333333333333336],[79.4,-50.0],[81.0,-48.75],[81.5,-48.5],[81.88235294117646,-47.88235294117647],[82.75,-47.75],[83.0,-47.5],[84.0,-47.333333333333336],[85.33333333333334,-47.333333333333336],[87.0,-46.66666666666667],[88.0,-46.5],[89.0,-46.5],[91.0,-45.599999999999994],[92.28571428571428,-45.71428571428571],[93.0,-46.0],[93.53846153846153,-45.53846153846154],[95.0,-45.166666666666664],[96.15384615384615,-45.15384615384615],[97.0,-45.0],[103.0,-45.0],[104.0,-44.5],[106.0,-44.5],[107.0,-44.0],[107.28571428571428,-43.28571428571428],[108.0,-43.0],[110.0,-43.285714285714285],[114.00000000000001,-43.333333333333336],[115.5,-43.5],[116.22222222222221,-43.77777777777778],[117.44444444444444,-44.55555555555555],[118.2,-44.8],[118.77777777777777,-45.22222222222222],[119.5,-46.0],[121.5,-46.5],[122.0,-47.0],[122.33333333333334,-48.0],[122.71428571428571,-48.28571428571428],[126.0,-49.25],[127.0,-49.333333333333336],[128.0,-49.0],[127.0,-48.0],[126.0,-48.0],[126.0,-47.0],[124.0,-47.0],[124.0,-46.0],[125.0,-45.0],[127.0,-45.0],[127.7142857142857,-45.285714285714285],[129.0,-45.5],[134.0,-45.5],[136.0,-44.6],[137.0,-44.5],[139.0,-44.66666666666667],[140.4,-44.400000000000006],[141.0,-44.0],[143.0,-44.0],[144.0,-43.25],[144.54545454545453,-42.54545454545454],[145.0,-42.285714285714285],[146.0,-42.0],[148.0,-42.0],[148.66666666666666,-41.0],[149.0,-40.0],[149.66666666666669,-40.333333333333336],[150.0,-40.333333333333336],[150.25,-40.0],[150.33333333333334,-38.0],[150.25,-37.0],[150.0,-36.0],[149.0,-35.0],[148.75,-34.0],[148.20000000000002,-33.0],[148.16666666666666,-31.833333333333336],[148.0,-31.5],[147.66666666666669,-31.333333333333336],[147.0,-30.0],[147.0,-29.0],[146.4,-29.400000000000002],[146.0,-29.333333333333336],[145.66666666666666,-29.0],[145.5,-28.5],[144.8181818181818,-28.18181818181818],[144.4,-27.6],[143.8181818181818,-27.18181818181818],[143.5,-26.5],[143.0,-26.0],[141.55555555555554,-25.444444444444443],[141.0,-25.0],[140.6,-23.0],[140.75,-21.25],[140.66666666666669,-21.0],[141.0,-20.0],[142.0,-20.0],[142.0,-18.0],[143.0,-18.0],[144.0,-16.0],[145.5,-15.5],[146.0,-15.0],[146.66666666666669,-14.666666666666668],[147.0,-14.600000000000001],[148.0,-14.75],[148.5,-15.0],[148.66666666666669,-15.333333333333334],[149.0,-15.5],[150.0,-15.4],[150.42857142857142,-15.571428571428573],[152.0,-16.666666666666664],[153.0,-16.5],[154.0,-16.0],[154.0,-14.0],[153.25,-13.75],[152.66666666666669,-13.333333333333336],[151.8181818181818,-13.181818181818183],[150.6470588235294,-12.352941176470587],[150.0,-11.5],[149.0,-11.0],[149.0,-10.0],[148.20000000000002,-9.0],[148.25,-8.25],[149.0,-6.0],[149.66666666666669,-5.0],[150.0,-4.0],[151.0,-3.0],[151.0,-2.0],[151.71428571428572,-1.7142857142857142],[152.25,-1.25],[152.88235294117646,0.11764705882352944],[154.0,0.33333333333333337],[156.11764705882354,0.11764705882352944],[156.6,-0.4],[156.88235294117646,-1.1176470588235294],[157.66666666666669,-1.3333333333333333]],[[-176.8,-61.00000000000001],[-177.0,-60.5],[-177.33333333333334,-61.0],[-177.0,-61.2],[-176.8,-61.00000000000001]]],[[[-166.5,-43.5],[-166.0,-44.0],[-166.44444444444446,-44.55555555555555],[-166.5,-45.0],[-166.44444444444446,-45.44444444444444],[-166.0,-46.0],[-167.0,-46.25],[-168.0,-46.0],[-168.5,-45.5],[-169.25,-45.25],[-169.66666666666669,-44.66666666666667],[-170.8,-43.8],[-173.16666666666669,-43.166666666666664],[-173.86666666666667,-42.86666666666667],[-174.30769230769232,-42.30769230769231],[-174.39999999999998,-42.0],[-174.26666666666665,-41.733333333333334],[-172.68421052631578,-40.315789473684205],[-172.34782608695653,-40.34782608695652],[-170.28571428571428,-39.71428571428571],[-168.73333333333335,-39.733333333333334],[-168.0,-40.0],[-167.28571428571428,-41.0],[-167.33333333333334,-42.0],[-166.6923076923077,-42.69230769230769],[-166.5,-43.5]]],[[[11.0,-1.0],[11.600000000000001,-1.4000000000000001],[12.4,-1.6],[13.0,-2.0],[14.0,-3.0],[15.0,-3.0],[16.0,-4.0],[19.0,-4.0],[20.0,-5.0],[21.0,-5.0],[22.0,-4.0],[23.0,-4.0],[24.0,-5.0],[24.400000000000002,-5.6000000000000005],[24.8,-7.000000000000001],[25.22222222222222,-7.777777777777778],[25.400000000000002,-8.4],[25.333333333333336,-8.666666666666668],[26.0,-9.0],[25.714285714285715,-9.714285714285714],[26.2,-12.0],[25.846153846153847,-12.846153846153847],[25.6,-14.0],[25.833333333333336,-15.0],[25.833333333333336,-16.0],[25.266666666666666,-17.266666666666666],[25.08695652173913,-18.086956521739133],[24.0,-19.0],[23.270270270270274,-19.27027027027027],[22.125,-20.0],[21.0,-20.24137931034483],[20.0,-20.666666666666668],[18.0,-21.833333333333336],[17.125,-22.125],[15.821428571428571,-22.82142857142857],[15.166666666666666,-23.0],[15.0,-23.200000000000003],[14.0,-23.5],[13.0,-24.0],[11.352941176470587,-25.352941176470587],[10.684210526315788,-25.684210526315788],[10.235294117647058,-26.235294117647058],[9.555555555555555,-26.555555555555554],[8.375,-27.375],[7.315789473684211,-28.315789473684212],[6.0,-28.5],[4.894736842105264,-28.894736842105264],[4.25,-30.0],[3.0,-31.0],[2.5,-32.0],[0.625,-33.625],[0.0,-34.0],[-0.33333333333333337,-34.66666666666667],[-1.0,-35.333333333333336],[-1.1176470588235294,-35.88235294117647],[-1.5333333333333332,-36.46666666666667],[-2.0,-36.77777777777778],[-2.434782608695652,-37.56521739130435],[-3.0,-37.8125],[-3.5384615384615383,-38.46153846153847],[-4.5,-39.0],[-5.181818181818182,-39.81818181818181],[-6.0,-40.33333333333333],[-6.2926829268292686,-40.707317073170735],[-7.083333333333333,-40.99999999999999],[-7.511111111111111,-41.48888888888889],[-9.243902439024389,-42.756097560975604],[-10.11111111111111,-43.0],[-11.093023255813954,-43.906976744186046],[-12.0,-44.15789473684211],[-14.0,-45.3],[-19.17910447761194,-49.820895522388064],[-19.75,-50.0],[-20.372093023255815,-50.627906976744185],[-22.444444444444443,-52.0],[-23.0,-52.5],[-24.666666666666664,-53.0],[-25.333333333333336,-53.66666666666667],[-26.0,-54.0],[-26.375,-54.625],[-27.076923076923077,-54.92307692307693],[-28.0,-55.0],[-28.6,-55.400000000000006],[-29.363636363636367,-55.63636363636364],[-30.0,-56.0],[-29.5,-57.0],[-29.000000000000004,-57.2],[-28.0,-57.0],[-25.0,-57.0],[-23.142857142857146,-56.85714285714286],[-21.0,-56.400000000000006],[-20.0,-56.400000000000006],[-19.0,-56.66666666666667],[-18.0,-56.5],[-16.6,-56.6],[-13.0,-56.5],[-11.692307692307693,-56.307692307692314],[-11.0,-56.0],[-9.0,-56.0],[-8.0,-55.833333333333336],[-5.0,-55.0],[-3.7777777777777777,-55.22222222222222],[-3.0,-54.8],[-2.5,-55.0],[-2.0,-56.0],[-3.0,-57.0],[-4.0,-57.0],[-5.0,-58.0],[-6.0,-58.33333333333333],[-8.0,-59.66666666666667],[-9.0,-61.0],[-11.0,-63.0],[-11.666666666666668,-64.0],[-12.0,-65.0],[-12.666666666666668,-66.33333333333334],[-13.636363636363637,-67.36363636363636],[-14.0,-67.66666666666667],[-15.0,-68.0],[-16.0,-68.0],[-17.0,-68.66666666666667],[-18.0,-68.75],[-19.0,-69.0],[-20.0,-69.0],[-22.0,-69.66666666666667],[-24.0,-69.33333333333334],[-25.0,-69.33333333333334],[-26.0,-69.5],[-27.0,-69.0],[-28.0,-69.0],[-29.0,-68.75],[-30.25,-68.75],[-31.0,-69.0],[-33.0,-69.0],[-34.0,-68.66666666666667],[-35.0,-68.5],[-36.0,-68.5],[-37.0,-68.0],[-38.0,-68.66666666666667],[-40.0,-68.33333333333333],[-43.63636363636364,-68.36363636363636],[-46.0,-67.75],[-47.0,-67.25],[-49.0,-67.0],[-49.6,-66.60000000000001],[-51.0,-66.0],[-50.0,-65.0],[-50.44444444444444,-64.44444444444444],[-50.5,-64.0],[-51.0,-63.0],[-51.22222222222223,-62.222222222222214],[-51.333333333333336,-61.0],[-51.0,-60.0],[-51.0,-59.0],[-50.599999999999994,-57.0],[-50.25,-56.0],[-50.199999999999996,-55.0],[-48.64705882352941,-53.35294117647058],[-48.25,-52.75],[-45.44444444444444,-50.55555555555555],[-43.46153846153846,-49.53846153846154],[-40.0,-48.75],[-38.67741935483871,-48.32258064516129],[-36.0,-48.05882352941176],[-34.35897435897436,-47.64102564102564],[-32.0,-47.470588235294116],[-30.829787234042552,-47.170212765957444],[-29.0,-47.0],[-28.0,-46.6],[-26.684210526315788,-46.315789473684205],[-25.0,-45.625],[-24.080000000000002,-44.92],[-20.235294117647058,-42.76470588235294],[-19.0,-42.2],[-16.764705882352942,-41.23529411764706],[-15.0,-40.800000000000004],[-13.153846153846153,-39.84615384615385],[-10.666666666666668,-39.0],[-8.4,-37.0],[-7.6,-36.0],[-7.0,-35.0],[-7.0,-33.0],[-7.6,-33.4],[-8.0,-33.333333333333336],[-11.0,-34.75],[-12.0,-36.0],[-14.0,-37.0],[-15.636363636363637,-37.36363636363636],[-17.0,-37.5],[-18.0,-37.4],[-19.0,-37.0],[-20.18181818181818,-36.18181818181819],[-21.0,-35.0],[-21.5,-34.5],[-21.75,-34.0],[-21.666666666666668,-32.333333333333336],[-21.4,-31.6],[-20.6,-31.400000000000002],[-20.0,-31.0],[-20.0,-30.0],[-20.5,-30.5],[-21.4,-30.6],[-22.0,-31.0],[-22.555555555555557,-30.555555555555554],[-24.0,-30.25],[-25.0,-30.25],[-27.444444444444443,-30.555555555555554],[-29.0,-31.0],[-30.5,-32.0],[-32.0,-33.66666666666667],[-33.0,-34.33333333333333],[-33.714285714285715,-35.285714285714285],[-34.833333333333336,-36.16666666666667],[-36.0,-36.5],[-36.83333333333333,-37.166666666666664],[-38.0,-37.6],[-38.84615384615385,-38.15384615384615],[-40.0,-38.6],[-40.733333333333334,-39.266666666666666],[-42.0,-40.0],[-44.0,-41.5],[-45.0,-41.6],[-45.866666666666674,-40.86666666666667],[-48.0,-40.0],[-50.0,-40.0],[-50.63636363636363,-39.63636363636363],[-51.25,-39.0],[-51.4,-38.0],[-51.0,-37.0],[-50.14285714285714,-35.85714285714286],[-48.66666666666667,-34.333333333333336],[-48.153846153846146,-32.84615384615385],[-47.71428571428571,-32.285714285714285],[-47.0,-30.5],[-46.25,-27.75],[-45.833333333333336,-27.0],[-45.0,-26.0],[-44.0,-25.5],[-43.0,-26.0],[-43.0,-27.0],[-43.42857142857143,-29.571428571428573],[-43.25,-31.25],[-43.0,-32.0],[-41.266666666666666,-33.266666666666666],[-39.81818181818181,-33.81818181818182],[-39.0,-34.0],[-37.44444444444444,-33.55555555555555],[-36.5,-33.0],[-35.71428571428571,-32.285714285714285],[-35.0,-32.0],[-34.0,-31.0],[-32.77777777777778,-29.22222222222222],[-31.714285714285715,-28.285714285714285],[-30.0,-27.666666666666664],[-26.0,-27.75],[-24.636363636363637,-27.363636363636363],[-23.0,-26.5],[-22.5,-26.0],[-21.333333333333336,-23.666666666666668],[-20.75,-23.0],[-20.22222222222222,-21.77777777777778],[-20.0,-21.5],[-19.0,-21.0],[-18.714285714285715,-20.285714285714285],[-18.5,-19.0],[-17.6,-17.4],[-17.0,-17.0],[-16.6,-16.400000000000002],[-16.0,-16.0],[-15.600000000000001,-15.4],[-15.0,-15.0],[-13.714285714285714,-13.285714285714285],[-13.375,-12.625],[-13.0,-12.25],[-11.0,-11.4],[-10.0,-11.5],[-8.692307692307693,-10.307692307692308],[-8.0,-9.0],[-8.333333333333334,-8.0],[-9.421052631578947,-7.421052631578947],[-9.8,-7.000000000000001],[-11.666666666666668,-6.666666666666667],[-12.0,-6.5],[-13.0,-6.428571428571429],[-16.0,-6.6000000000000005],[-17.375,-6.375],[-19.666666666666668,-5.666666666666667],[-21.545454545454543,-4.545454545454545],[-22.53846153846154,-3.5384615384615383],[-23.166666666666668,-2.0],[-22.93548387096774,-1.064516129032258],[-22.61904761904762,-0.38095238095238093],[-22.0,0.0],[-21.133333333333333,0.13333333333333336],[-18.275862068965516,-0.27586206896551724],[-16.0,-1.2999999999999998],[-15.000000000000002,-1.3333333333333335],[-11.999999999999998,-2.0588235294117645],[-10.698630136986301,-2.698630136986301],[-7.692307692307693,-3.6923076923076925],[-6.0,-4.0],[-4.0,-4.857142857142858],[-2.0,-5.0],[-1.0,-4.8],[2.0,-3.333333333333333],[4.25,-1.25],[5.0,0.0],[7.0,2.0],[9.0,2.0],[10.0,1.0],[10.0,0.0],[9.0,0.0],[9.0,-1.0],[11.0,-1.0]]],[[[-25.42857142857143,-14.428571428571429],[-24.846153846153847,-14.846153846153847],[-24.0,-16.0],[-23.5,-17.0],[-23.5,-18.0],[-24.25,-19.0],[-25.0,-19.75],[-27.000000000000004,-20.666666666666668],[-28.0,-20.6],[-28.285714285714285,-20.714285714285715],[-30.625,-22.375],[-32.0,-22.800000000000004],[-33.0,-22.6],[-33.35294117647059,-22.352941176470587],[-34.0,-21.0],[-34.0,-19.0],[-34.2,-18.0],[-34.2,-17.0],[-33.800000000000004,-15.0],[-33.77777777777778,-13.222222222222221],[-33.75,-13.0],[-33.4,-12.6],[-32.285714285714285,-11.714285714285714],[-30.0,-11.200000000000001],[-28.625,-11.625],[-26.75,-12.75],[-25.42857142857143,-14.428571428571429]]],[[[21.6,-2.4],[21.0,-2.0],[21.0,-1.0],[22.0,-0.5],[22.285714285714285,-0.7142857142857142],[24.0,-1.0],[24.0,-2.0],[23.6,-2.6],[23.0,-3.0],[21.6,-2.4]]],[[[12.515151515151516,10.0],[12.0,9.433333333333334],[11.645833333333332,9.645833333333332],[11.149999999999999,10.0],[12.0,10.326923076923077],[12.222222222222221,10.222222222222221],[12.515151515151516,10.0]]],[[[34.0,10.625],[33.57142857142857,11.0],[33.6,12.0],[34.0,12.5],[35.0,13.0],[36.0,12.666666666666668],[36.285714285714285,12.0],[36.0,11.0],[35.0,10.571428571428573],[34.0,10.625]]],[[[3.0,23.0],[-1.0,23.0],[-1.8,23.2],[-3.3636363636363633,23.636363636363633],[-4.555555555555555,24.444444444444443],[-5.0,25.0],[-4.7142857142857135,25.714285714285715],[-4.181818181818182,26.181818181818183],[0.0,27.333333333333336],[1.0,27.0],[2.0,27.0],[2.4,26.400000000000002],[3.5,25.5],[3.75,25.0],[3.8000000000000003,24.000000000000004],[3.5555555555555554,23.444444444444443],[3.0,23.0]]],[[[20.0,41.0],[21.242424242424242,40.24242424242424],[22.0,40.0],[24.0,39.46666666666667],[26.0,39.470588235294116],[28.88235294117647,38.88235294117647],[30.129032258064516,38.12903225806452],[30.57142857142857,38.0],[30.75,37.0],[30.272727272727273,36.72727272727272],[29.555555555555557,36.0],[28.32941176470588,35.67058823529412],[27.0,35.1],[26.092307692307692,34.90769230769231],[25.0,34.2],[23.0,33.42857142857143],[22.0,32.8],[21.2,32.0],[20.75,31.0],[20.428571428571427,30.0],[20.57142857142857,28.0],[20.285714285714285,27.714285714285715],[20.066666666666666,27.0],[19.0,25.692307692307693],[18.526315789473685,25.473684210526315],[18.0,24.9],[17.166666666666664,24.833333333333332],[17.0,24.5],[16.666666666666668,24.666666666666668],[16.0,25.5],[15.5,25.5],[14.400000000000002,26.400000000000002],[13.600000000000001,26.6],[13.0,27.0],[11.0,29.0],[9.5,29.5],[9.0,30.0],[8.4,29.6],[8.0,29.5],[7.0,30.0],[6.4,29.6],[6.0,29.0],[5.4,29.400000000000002],[4.6,29.6],[4.0,30.0],[-2.0,30.0],[-2.6,30.400000000000002],[-3.4000000000000004,30.6],[-4.0,31.0],[-5.0,31.0],[-5.5,31.5],[-5.666666666666666,32.0],[-6.0,32.16666666666667],[-8.0,32.125],[-9.0,32.25],[-10.333333333333334,32.66666666666667],[-11.0,33.0],[-12.0,34.0],[-12.105263157894736,35.10526315789474],[-11.400000000000002,36.400000000000006],[-11.0,36.66666666666667],[-6.5,38.0],[-5.642857142857143,38.64285714285714],[-4.923076923076923,38.92307692307692],[-4.0,39.083333333333336],[-2.0,39.75],[-0.19999999999999996,40.0],[2.0,41.0],[2.48,41.519999999999996],[3.7435897435897436,42.25641025641025],[5.0,42.78947368421052],[6.0,43.0],[9.0,43.0],[11.0,42.52173913043478],[16.970149253731343,42.02985074626866],[18.0,41.833333333333336],[20.0,41.0]]],[[[47.5,-61.5],[47.5,-62.5],[47.0,-63.0],[46.0,-63.0],[46.0,-61.0],[47.0,-61.0],[47.5,-61.5]]],[[[41.6,-44.0],[41.333333333333336,-44.333333333333336],[39.5,-45.0],[38.0,-46.0],[34.07272727272728,-45.92727272727272],[33.23076923076923,-45.76923076923077],[32.85714285714286,-45.142857142857146],[32.57142857142857,-44.0],[33.04651162790698,-43.04651162790698],[33.55555555555555,-42.55555555555556],[34.0,-42.4],[35.0,-42.44444444444444],[37.0,-43.2],[38.0,-43.333333333333336],[38.78947368421053,-42.78947368421053],[39.0,-42.77777777777777],[39.529411764705884,-41.52941176470588],[40.21212121212121,-41.21212121212122],[41.87755102040816,-41.12244897959184],[43.0,-42.0],[43.0,-43.0],[42.55555555555556,-43.55555555555555],[41.6,-44.0]]],[[[53.0,-40.0],[51.04761904761905,-39.95238095238095],[50.315789473684205,-39.68421052631579],[49.733333333333334,-39.266666666666666],[49.0,-38.0],[50.0,-37.0],[51.54545454545455,-36.54545454545455],[52.5,-36.5],[53.38095238095238,-36.61904761904761],[54.699999999999996,-37.3],[56.0,-39.0],[54.71428571428571,-39.71428571428571],[53.0,-40.0]]],[[[175.55555555555554,-19.0],[175.0,-19.416666666666664],[174.72972972972974,-19.27027027027027],[174.6153846153846,-19.0],[175.0,-18.166666666666668],[175.55555555555554,-19.0]]],[[[126.66666666666667,3.0],[126.60000000000001,2.4],[126.5,2.0],[125.66666666666669,1.0],[125.71428571428571,0.2857142857142857],[125.81818181818183,-0.18181818181818182],[126.4,-0.6000000000000001],[126.66666666666667,-1.0],[126.60000000000001,-1.4000000000000001],[127.0,-1.5],[127.7142857142857,-0.7142857142857142],[128.28571428571428,-0.2857142857142857],[130.0,-0.16666666666666666],[130.5,0.0],[131.2,0.8],[132.33333333333334,1.6666666666666665],[133.0,2.0],[134.0,3.0],[135.0,3.0],[135.5,2.5],[135.77777777777777,1.7777777777777777],[135.8181818181818,0.18181818181818182],[135.6,-1.0],[134.63636363636363,-2.6363636363636367],[134.0,-3.0],[133.60000000000002,-3.6000000000000005],[133.0,-4.0],[132.6,-4.6],[131.0,-5.75],[130.0,-6.0],[129.66666666666669,-6.666666666666667],[129.5,-8.0],[128.76470588235293,-8.764705882352942],[128.5,-9.5],[128.0,-10.333333333333332],[126.44444444444444,-11.444444444444443],[125.0,-12.0],[125.71428571428571,-12.285714285714285],[126.5,-13.0],[125.0,-14.5],[124.4,-15.4],[124.0,-15.666666666666668],[123.46153846153847,-16.461538461538463],[122.86666666666666,-16.866666666666667],[122.46153846153847,-17.46153846153846],[121.25,-18.25],[119.73333333333333,-18.733333333333334],[119.28571428571428,-19.285714285714285],[117.55555555555556,-19.555555555555554],[117.0,-20.0],[117.0,-21.0],[117.4,-21.6],[118.0,-22.0],[117.28571428571428,-22.285714285714285],[116.0,-22.5],[115.4,-23.400000000000002],[114.84615384615384,-23.846153846153843],[114.66666666666667,-24.666666666666668],[114.22222222222223,-25.22222222222222],[112.5,-26.0],[112.25,-26.25],[110.0,-26.66666666666667],[109.0,-27.0],[108.4,-27.4],[107.0,-28.0],[106.5,-28.5],[105.2,-29.2],[104.77777777777777,-29.22222222222222],[104.0,-29.0],[102.0,-29.0],[101.0,-28.833333333333336],[100.0,-28.833333333333336],[99.8,-29.000000000000004],[99.4,-30.0],[99.66666666666667,-31.0],[99.5,-32.0],[99.0,-32.5],[98.0,-33.0],[97.5,-33.5],[97.0,-33.75],[95.0,-34.0],[94.4,-34.400000000000006],[94.0,-34.5],[92.00000000000001,-34.8],[91.0,-34.66666666666667],[90.0,-35.0],[89.0,-35.0],[89.0,-33.0],[89.66666666666667,-31.0],[91.0,-29.5],[92.0,-29.4],[93.0,-29.0],[93.73333333333333,-27.733333333333334],[94.0,-27.5],[94.77777777777777,-25.77777777777778],[95.0,-25.6],[95.1875,-25.1875],[96.0,-24.57142857142857],[96.21052631578948,-24.210526315789473],[96.9375,-23.9375],[97.41176470588235,-23.41176470588235],[98.0,-23.0],[98.73913043478261,-22.73913043478261],[100.0,-22.0],[100.81818181818181,-21.81818181818182],[101.25,-21.0],[101.83333333333334,-20.833333333333336],[102.0,-20.5],[102.31578947368419,-20.31578947368421],[102.5,-20.0],[102.84210526315789,-19.842105263157894],[103.0,-19.57142857142857],[105.15,-18.15],[106.0,-18.0],[106.28571428571428,-17.285714285714285],[106.92857142857143,-16.92857142857143],[107.41666666666667,-16.416666666666668],[109.0,-15.8],[110.0,-15.0],[110.4,-14.400000000000002],[111.0,-14.0],[111.0,-13.0],[111.28571428571429,-12.0],[112.0,-10.75],[115.28571428571428,-6.0],[116.0,-4.0],[116.14814814814815,-3.148148148148148],[116.93939393939394,-1.9393939393939394],[117.23529411764707,-1.2352941176470589],[117.74193548387098,-0.7419354838709677],[118.05405405405405,-0.05405405405405406],[118.8,1.0],[119.0,2.0],[119.4,2.6],[120.0,4.0],[120.85714285714286,5.142857142857143],[122.77777777777779,5.777777777777778],[124.0,5.833333333333333],[125.28571428571428,5.285714285714286],[125.81818181818183,4.818181818181818],[126.18181818181819,4.181818181818182],[126.66666666666667,3.0]],[[125.60000000000001,-2.6],[125.0,-3.0],[125.0,-4.0],[125.5,-3.5],[126.0,-3.5],[126.5,-3.0],[126.4,-1.6],[125.81818181818183,-1.8181818181818181],[125.60000000000001,-2.6]]],[[[172.42857142857142,-12.0],[172.57894736842104,-11.578947368421053],[173.0,-11.200000000000001],[174.0,-11.416666666666666],[174.48275862068965,-12.0],[174.39999999999998,-13.0],[174.0,-13.461538461538462],[172.91304347826087,-13.08695652173913],[172.42857142857142,-12.0]]],[[[169.40909090909093,-7.0],[169.33962264150944,-7.339622641509434],[168.95238095238093,-7.9523809523809526],[168.4,-8.4],[168.0,-8.555555555555555],[167.54545454545456,-8.454545454545453],[166.375,-7.625],[166.23529411764707,-6.0],[166.43478260869563,-5.434782608695652],[167.05263157894737,-5.052631578947368],[168.0,-5.1764705882352935],[168.55555555555554,-5.444444444444444],[169.17857142857142,-6.0],[169.40909090909093,-7.0]]],[[[52.0,9.399999999999999],[51.6,9.0],[51.333333333333336,8.0],[50.583333333333336,7.416666666666666],[50.0,6.666666666666666],[49.33333333333334,6.666666666666667],[48.66666666666667,6.333333333333334],[48.5,6.0],[48.18181818181819,5.818181818181818],[47.833333333333336,5.0],[46.63076923076923,3.3692307692307697],[46.0,3.0],[45.0,2.6999999999999997],[44.75,2.75],[44.255319148936174,3.2553191489361706],[44.095238095238095,4.904761904761904],[44.19047619047619,5.19047619047619],[44.11764705882352,5.882352941176471],[44.25,6.0],[44.0,6.5],[43.85714285714286,6.142857142857142],[43.22222222222222,6.222222222222222],[42.885714285714286,6.114285714285715],[42.0,6.242424242424242],[39.62376237623762,7.623762376237623],[39.24,8.0],[39.0,8.75],[38.77777777777778,9.0],[39.0,10.0],[40.0,10.5],[41.0,10.75],[44.66666666666667,10.0],[45.333333333333336,9.333333333333334],[47.0,8.8],[48.0,8.2],[49.0,8.666666666666668],[49.25,9.0],[49.75,9.25],[50.23529411764706,9.764705882352942],[50.40625,11.0],[51.0,12.136363636363637],[52.0,12.727272727272727],[52.5,12.5],[52.9607843137255,11.96078431372549],[53.0,11.0],[52.728813559322035,10.271186440677965],[52.27272727272727,10.0],[52.0,9.399999999999999]]],[[[123.56521739130434,12.434782608695652],[124.0,13.0],[125.0,12.666666666666668],[125.33333333333334,12.0],[125.0,11.6],[124.0,11.166666666666668],[123.46153846153847,11.461538461538463],[123.0,12.0],[123.56521739130434,12.434782608695652]]],[[[55.78260869565217,18.0],[56.0,18.096153846153847],[56.5,18.0],[56.650000000000006,17.0],[56.0,16.717391304347828],[55.434782608695656,17.0],[55.78260869565217,18.0]]],[[[58.815384615384616,31.815384615384616],[58.47826086956522,32.0],[59.0,32.31578947368421],[59.33333333333333,32.0],[58.815384615384616,31.815384615384616]]],[[[41.53846153846153,37.0],[42.0,37.23076923076923],[43.15,37.0],[43.0,35.975],[42.0,35.72549019607843],[41.44,36.0],[41.53846153846153,37.0]]]]}}]}