{"type":"FeatureCollection","features":[{"type":"Feature","properties":{"ageMa":280},"geometry":{"type":"MultiPolygon","coordinates":[[[[48.5,-27.5],[49.0,-27.77777777777778],[49.470588235294116,-28.529411764705884],[50.099999999999994,-28.900000000000002],[50.421052631578945,-29.57894736842105],[51.044444444444444,-29.955555555555556],[51.0,-30.333333333333336],[50.0,-30.5],[49.63636363636363,-30.363636363636367],[49.25,-29.75],[48.60000000000001,-29.400000000000002],[48.266666666666666,-28.733333333333334],[47.66666666666667,-28.333333333333336],[47.4,-27.6],[46.857142857142854,-27.142857142857142],[46.66666666666667,-26.0],[46.77777777777777,-25.77777777777778],[47.0,-25.666666666666664],[47.285714285714285,-26.285714285714285],[47.285714285714285,-26.714285714285715],[47.63636363636364,-26.636363636363637],[48.0,-26.77777777777778],[48.5,-27.5]]],[[[48.13333333333333,-19.866666666666667],[48.44444444444444,-20.555555555555554],[49.0,-21.0],[49.63636363636363,-22.363636363636363],[50.166666666666664,-22.833333333333332],[50.53846153846155,-23.461538461538463],[51.142857142857146,-23.857142857142854],[51.400000000000006,-24.6],[52.266666666666666,-25.733333333333334],[52.625,-27.0],[52.4,-27.4],[52.0,-27.625],[51.375,-27.0],[51.333333333333336,-26.666666666666668],[51.0,-26.4],[50.69230769230769,-25.692307692307693],[50.69230769230769,-25.30769230769231],[50.0,-25.09090909090909],[49.839999999999996,-24.16],[48.9746835443038,-24.025316455696206],[48.87096774193548,-23.12903225806452],[48.5,-23.0],[48.36363636363636,-22.636363636363637],[48.0,-22.333333333333336],[47.95454545454545,-22.045454545454547],[47.75,-22.0],[47.42857142857143,-21.571428571428573],[47.0,-21.4],[46.906976744186046,-21.093023255813954],[46.0,-20.666666666666668],[45.78947368421052,-20.210526315789473],[45.333333333333336,-20.0],[45.0,-19.5],[44.91780821917808,-19.08219178082192],[44.57142857142857,-19.0],[44.68421052631579,-18.684210526315788],[45.0,-18.5],[46.0,-18.333333333333336],[46.41379310344827,-18.586206896551722],[46.71428571428571,-19.285714285714285],[47.0,-19.5],[48.13333333333333,-19.866666666666667]]],[[[43.625,-22.375],[44.0,-22.6],[44.1025641025641,-22.897435897435898],[44.66666666666667,-23.0],[45.0,-23.333333333333336],[45.15384615384615,-23.846153846153843],[45.5,-24.0],[45.333333333333336,-25.0],[45.18181818181819,-25.18181818181818],[44.0,-25.0],[42.84615384615385,-24.153846153846153],[42.6,-23.400000000000002],[41.2,-21.0],[41.6,-20.6],[42.0,-20.5],[42.170212765957444,-20.829787234042552],[42.66666666666667,-21.0],[42.71428571428571,-21.285714285714285],[43.0,-21.4],[43.13636363636364,-21.863636363636363],[43.5,-22.0],[43.625,-22.375]]],[[[5.285714285714286,47.71428571428571],[5.7142857142857135,47.71428571428571],[7.0,47.0],[7.0,45.0],[6.333333333333334,44.0],[6.0,43.0],[5.555555555555555,42.44444444444444],[4.833333333333333,42.16666666666667],[3.571428571428571,41.42857142857143],[3.0,40.75],[2.0,40.333333333333336],[1.6,40.4],[1.0,40.0],[-0.5,39.5],[-1.4000000000000001,38.4],[-1.6,37.6],[-2.0,37.0],[-1.4000000000000001,36.6],[-0.6000000000000001,36.400000000000006],[0.0,36.0],[2.0,36.0],[3.0,36.333333333333336],[4.0,36.5],[5.0,37.0],[7.0,37.0],[8.0,36.66666666666667],[9.0,37.0],[12.0,37.0],[12.4,36.400000000000006],[13.846153846153847,35.84615384615385],[15.0,35.5],[16.0,35.599999999999994],[16.42857142857143,35.42857142857143],[16.857142857142858,34.857142857142854],[17.46153846153846,34.46153846153846],[17.77777777777778,33.77777777777778],[17.714285714285715,31.714285714285715],[18.333333333333336,30.333333333333336],[19.0,30.0],[20.0,30.5],[20.733333333333334,31.266666666666666],[21.333333333333336,31.66666666666667],[21.647058823529413,32.35294117647059],[22.692307692307693,33.30769230769231],[25.0,33.75],[25.6,33.6],[28.400000000000002,33.4],[29.666666666666668,32.66666666666667],[31.0,32.25],[31.647058823529413,31.647058823529413],[32.30769230769231,31.30769230769231],[33.4,30.400000000000002],[34.333333333333336,28.333333333333336],[35.14285714285714,28.142857142857142],[35.25,27.0],[35.470588235294116,26.470588235294116],[36.0,24.0],[36.4,23.0],[37.0,22.0],[39.0,21.857142857142858],[39.8,22.2],[40.22222222222222,22.22222222222222],[41.71428571428571,21.714285714285715],[42.333333333333336,21.333333333333336],[42.81818181818182,20.81818181818182],[43.0,20.0],[42.833333333333336,19.0],[42.6,18.400000000000002],[41.44444444444444,17.555555555555557],[41.0,17.5],[40.0,17.0],[39.0,17.0],[38.6,16.400000000000002],[38.0,16.0],[38.85714285714286,15.857142857142858],[40.0,16.0],[40.5,16.5],[41.0,16.5],[42.0,16.8],[45.0,16.666666666666668],[46.400000000000006,16.400000000000002],[47.0,16.0],[48.44444444444444,15.444444444444443],[49.0,15.0],[49.5,13.0],[49.35294117647059,12.647058823529411],[48.77777777777778,12.222222222222221],[48.75,11.0],[47.19130434782609,10.808695652173913],[42.333333333333336,9.666666666666668],[42.02247191011236,9.0],[42.0,8.6],[41.57142857142857,8.0],[41.12307692307692,7.876923076923077],[39.0,7.644444444444444],[36.0,7.8076923076923075],[32.33707865168539,7.662921348314606],[31.0,7.34375],[30.153846153846153,7.0],[28.377049180327866,6.6229508196721305],[25.585185185185185,5.4148148148148145],[24.43859649122807,4.56140350877193],[24.040816326530614,3.9591836734693877],[23.730769230769234,3.0],[23.25,1.0],[23.142857142857146,-0.14285714285714285],[22.75,-1.0],[22.0,-2.0],[21.666666666666668,-2.666666666666667],[21.5,-4.0],[20.4,-8.0],[20.285714285714285,-8.285714285714285],[19.764705882352942,-8.764705882352942],[19.444444444444443,-9.444444444444445],[18.894736842105264,-9.894736842105264],[18.4,-11.0],[18.25,-13.0],[18.400000000000002,-13.600000000000001],[19.555555555555554,-14.444444444444443],[21.0,-15.0],[23.0,-17.0],[23.799999999999997,-18.2],[24.8,-19.200000000000003],[26.333333333333336,-19.333333333333336],[27.0,-19.0],[27.4,-19.6],[28.200000000000003,-19.8],[29.0,-20.5],[30.0,-21.0],[31.0,-22.0],[32.333333333333336,-22.666666666666668],[33.2,-22.799999999999997],[33.8,-23.2],[34.25,-23.25],[36.0,-22.75],[37.0,-22.75],[38.0,-23.0],[38.5,-24.0],[39.2,-24.8],[39.6,-26.400000000000002],[40.0,-27.0],[40.0,-28.0],[40.25,-29.0],[40.0,-30.0],[40.0,-31.0],[40.25,-32.0],[40.333333333333336,-35.66666666666667],[40.71428571428571,-36.285714285714285],[41.22222222222222,-36.77777777777778],[41.5,-37.5],[42.4,-38.6],[43.0,-39.0],[43.77777777777778,-40.22222222222222],[44.333333333333336,-40.333333333333336],[45.0,-40.0],[45.333333333333336,-40.66666666666667],[46.0,-41.0],[46.57894736842105,-40.57894736842105],[47.0,-40.5],[47.21052631578948,-40.21052631578947],[48.8,-40.0],[49.272727272727266,-39.272727272727266],[50.333333333333336,-39.0],[50.578947368421055,-38.57894736842105],[51.66666666666667,-38.0],[51.44444444444444,-37.55555555555555],[51.36363636363636,-36.63636363636364],[51.0,-36.0],[51.8,-35.8],[52.13333333333334,-35.86666666666667],[52.6,-36.400000000000006],[53.28571428571428,-36.714285714285715],[53.69230769230769,-37.30769230769231],[54.44444444444444,-37.55555555555555],[55.44444444444444,-38.55555555555556],[55.6,-39.0],[55.23529411764706,-40.23529411764706],[54.760000000000005,-40.76],[54.0,-41.14285714285714],[53.57142857142858,-41.57142857142858],[51.78378378378378,-42.78378378378378],[50.888888888888886,-43.0],[50.457142857142856,-43.457142857142856],[49.81395348837209,-43.81395348837209],[47.666666666666664,-44.0],[47.4,-44.400000000000006],[47.0,-44.66666666666667],[46.0,-44.4],[44.0,-45.0],[44.444444444444436,-45.55555555555556],[44.5,-46.0],[43.400000000000006,-47.4],[43.0,-47.599999999999994],[41.77777777777778,-47.77777777777778],[41.36363636363637,-48.36363636363636],[40.0,-49.33333333333333],[38.0,-49.66666666666667],[34.0,-49.75],[33.0,-49.66666666666667],[31.81818181818182,-49.81818181818181],[31.5,-50.0],[32.285714285714285,-50.71428571428571],[32.66666666666667,-51.333333333333336],[33.4,-51.6],[34.0,-51.66666666666667],[38.0,-51.75],[42.0,-51.33333333333334],[43.0,-51.5],[44.25,-51.25],[44.77777777777777,-50.77777777777778],[45.44444444444444,-50.44444444444444],[46.0,-49.5],[46.400000000000006,-49.6],[47.0,-50.0],[48.0,-50.0],[48.0,-49.0],[48.77777777777778,-48.77777777777778],[50.0,-48.75],[51.0,-49.0],[52.285714285714285,-48.71428571428571],[53.0,-48.666666666666664],[53.22222222222222,-48.77777777777778],[53.400000000000006,-49.400000000000006],[53.0,-50.0],[54.0,-50.0],[54.400000000000006,-50.60000000000001],[55.0,-51.0],[55.33333333333333,-52.0],[55.0,-53.0],[55.18181818181819,-53.81818181818181],[55.28571428571428,-55.71428571428571],[55.66666666666667,-57.00000000000001],[56.42857142857143,-57.57142857142858],[56.66666666666667,-58.33333333333334],[57.30769230769231,-58.69230769230769],[57.66666666666667,-59.333333333333336],[58.28571428571428,-59.71428571428571],[58.71428571428571,-60.28571428571428],[59.400000000000006,-60.60000000000001],[59.81818181818181,-61.18181818181819],[60.400000000000006,-61.6],[60.6,-62.0],[60.60000000000001,-62.4],[61.33333333333333,-63.0],[61.0,-64.0],[60.0,-63.0],[58.0,-63.0],[57.0,-62.0],[56.6,-62.6],[56.0,-63.0],[56.0,-64.0],[56.81818181818182,-64.18181818181819],[57.5,-64.5],[58.0,-65.0],[60.0,-65.375],[63.36363636363636,-65.63636363636364],[64.2,-65.80000000000001],[65.0,-66.14285714285715],[67.0,-66.14285714285715],[67.8,-65.80000000000001],[69.0,-65.6],[75.0,-65.6],[76.0,-65.0],[76.81818181818181,-63.81818181818181],[77.5,-63.5],[79.0,-62.25],[81.125,-61.125],[81.60000000000001,-60.60000000000001],[82.26666666666667,-60.266666666666666],[82.71428571428571,-59.71428571428571],[84.0,-59.5],[85.0,-59.6],[85.25,-59.75],[85.6470588235294,-60.35294117647059],[86.0,-60.5],[87.0,-60.8],[87.33333333333334,-60.66666666666667],[87.5,-61.0],[87.4,-61.400000000000006],[87.42857142857142,-63.0],[87.65217391304348,-63.347826086956516],[88.36363636363636,-63.63636363636363],[88.77777777777777,-64.22222222222223],[89.0,-64.33333333333334],[90.0,-64.44444444444444],[91.00000000000001,-64.16666666666667],[91.16666666666667,-64.0],[90.56521739130434,-63.434782608695656],[90.24000000000001,-62.76],[88.85714285714286,-62.14285714285714],[88.15384615384616,-60.84615384615384],[87.6,-60.400000000000006],[87.66666666666667,-60.0],[87.5,-59.0],[87.625,-58.625],[88.15384615384616,-58.15384615384615],[88.52941176470588,-57.529411764705884],[89.71428571428571,-56.71428571428571],[90.0,-56.599999999999994],[91.0,-56.599999999999994],[92.14285714285715,-56.14285714285714],[93.0,-56.0],[94.0,-55.285714285714285],[95.0,-55.54545454545455],[96.0,-55.25],[96.65957446808511,-54.659574468085104],[98.25,-54.0],[98.53846153846155,-53.53846153846154],[99.0,-53.25],[100.0,-53.0],[100.44444444444444,-53.55555555555555],[101.54545454545453,-54.45454545454545],[103.0,-54.8],[103.60000000000001,-55.400000000000006],[104.33333333333334,-55.66666666666667],[105.0,-56.25],[106.0,-56.66666666666667],[107.125,-56.875],[107.55555555555556,-57.44444444444444],[108.0,-57.66666666666667],[109.125,-57.875],[109.55555555555554,-58.44444444444444],[110.0,-58.666666666666664],[111.25,-58.75],[112.0,-59.0],[112.57142857142857,-59.42857142857144],[115.4,-59.6],[117.0,-60.0],[117.6,-59.6],[118.0,-59.0],[117.33333333333334,-58.66666666666667],[116.0,-58.4],[115.76470588235294,-58.23529411764706],[115.4,-57.6],[115.0,-57.42857142857143],[113.75,-57.25],[113.28571428571428,-56.71428571428571],[113.0,-56.599999999999994],[112.0,-56.57142857142857],[110.71428571428571,-56.285714285714285],[110.44444444444443,-55.55555555555555],[109.66666666666669,-54.333333333333336],[109.6,-54.0],[109.5,-51.0],[109.66666666666669,-50.66666666666667],[111.18181818181819,-50.18181818181818],[111.64705882352942,-49.647058823529406],[112.0,-49.5],[114.0,-49.25],[118.0,-49.5],[119.30769230769232,-49.69230769230769],[119.81818181818181,-50.18181818181818],[120.2,-50.2],[120.84615384615385,-47.84615384615384],[121.42857142857144,-47.42857142857143],[121.84615384615384,-46.84615384615385],[122.63636363636363,-46.63636363636364],[123.28571428571428,-46.71428571428571],[123.71428571428571,-47.285714285714285],[124.0,-47.400000000000006],[126.0,-47.5],[127.00000000000001,-48.2],[129.125,-48.125],[129.5,-48.0],[130.0,-47.5],[131.0,-47.0],[131.33333333333334,-46.0],[131.5,-45.0],[132.36363636363637,-43.36363636363636],[132.8,-42.8],[133.4,-42.4],[134.0,-42.2],[136.8181818181818,-42.18181818181818],[137.71428571428572,-42.285714285714285],[139.0,-43.0],[139.84615384615384,-43.15384615384615],[141.1818181818182,-43.81818181818182],[141.73333333333335,-44.266666666666666],[142.0,-44.66666666666667],[142.71428571428572,-45.285714285714285],[142.71428571428572,-45.71428571428571],[143.0,-46.5],[143.66666666666669,-47.333333333333336],[144.0,-48.0],[146.0,-50.0],[146.46153846153845,-50.53846153846155],[146.60000000000002,-51.0],[147.6,-51.400000000000006],[148.00000000000003,-52.10000000000001],[149.0,-52.142857142857146],[149.53846153846155,-52.46153846153847],[150.0,-53.125],[150.71428571428572,-53.28571428571428],[151.33333333333334,-53.66666666666667],[151.5,-54.0],[152.33333333333334,-54.333333333333336],[152.66666666666669,-54.333333333333336],[153.5,-55.0],[155.47058823529412,-55.529411764705884],[156.0,-56.0],[157.4,-56.6],[157.8095238095238,-57.19047619047619],[158.0,-57.285714285714285],[159.0,-57.33333333333334],[159.47058823529412,-57.529411764705884],[160.0,-58.0],[161.3478260869565,-58.65217391304348],[161.76923076923077,-59.230769230769226],[162.48,-59.519999999999996],[162.9090909090909,-60.09090909090909],[163.48000000000002,-60.519999999999996],[163.82608695652175,-61.17391304347826],[164.42105263157893,-61.57894736842105],[165.0,-63.0],[164.4,-64.4],[163.5,-65.0],[163.0,-66.0],[163.0,-67.0],[163.85714285714283,-67.14285714285714],[164.42857142857142,-67.57142857142857],[164.75,-68.0],[166.33333333333331,-69.0],[166.78947368421052,-69.21052631578947],[168.0,-69.4],[168.375,-69.625],[168.75,-70.25],[169.375,-70.625],[169.60000000000002,-71.0],[169.375,-71.375],[169.0,-71.6],[168.0,-71.66666666666667],[166.0,-72.5],[163.0,-73.0],[160.0,-73.0],[157.0,-73.6],[156.53846153846155,-73.46153846153847],[156.0,-73.0],[152.05555555555557,-72.94444444444444],[150.63636363636363,-72.63636363636363],[150.28571428571428,-72.71428571428571],[150.0,-72.0],[147.0,-72.0],[147.0,-74.0],[148.0,-74.0],[150.0,-74.25],[151.30769230769232,-74.6923076923077],[152.00000000000003,-75.14285714285715],[155.0,-75.5],[156.15384615384616,-75.84615384615384],[156.78947368421052,-76.21052631578948],[159.0,-76.5],[159.375,-76.625],[160.00000000000003,-77.14285714285714],[163.0,-77.42857142857142],[163.42105263157893,-77.57894736842104],[164.00000000000003,-78.2],[165.46153846153845,-78.53846153846155],[166.0,-79.0],[166.0,-80.0],[165.33333333333334,-79.66666666666667],[164.0,-80.0],[165.0,-81.0],[166.0,-81.0],[167.0,-81.33333333333334],[168.4,-81.60000000000001],[170.2962962962963,-82.7037037037037],[174.66666666666669,-83.0],[176.26373626373626,-83.73626373626374],[179.0,-83.93827160493827],[179.2135922330097,-85.7864077669903],[179.73333333333335,-86.0],[179.75,-87.0],[180.0,-87.4],[180.0,-90.0],[-180.0,-90.0],[-180.0,-87.4],[-155.0,-87.4],[-153.72727272727272,-87.27272727272728],[-153.0,-86.80000000000001],[-152.0,-86.66666666666667],[-151.0,-87.0],[-150.0,-87.0],[-149.0,-86.66666666666667],[-147.30769230769232,-86.6923076923077],[-144.0,-86.44444444444444],[-132.61904761904762,-86.38095238095238],[-131.71428571428572,-86.28571428571428],[-130.0,-85.66666666666666],[-129.0,-86.14285714285715],[-128.44444444444443,-85.55555555555556],[-128.0,-85.4],[-125.0,-85.33333333333334],[-123.35294117647058,-84.6470588235294],[-122.0,-84.4],[-120.0,-84.44444444444446],[-118.125,-85.125],[-117.00000000000001,-85.33333333333334],[-115.0,-85.5],[-111.57894736842104,-85.42105263157895],[-111.00000000000001,-85.33333333333334],[-110.15384615384615,-84.84615384615384],[-109.375,-84.625],[-106.78947368421052,-84.21052631578948],[-106.0,-83.8],[-104.0,-83.5],[-97.0,-83.16666666666667],[-96.33333333333334,-82.66666666666667],[-96.0,-82.57142857142857],[-95.0,-82.66666666666666],[-94.0,-82.5],[-91.0,-82.44444444444444],[-89.0,-81.57142857142857],[-87.0,-81.28571428571429],[-85.69999999999999,-81.3],[-84.28571428571428,-80.71428571428572],[-80.86666666666667,-80.13333333333334],[-79.0,-79.5],[-76.0,-79.16666666666667],[-75.0,-79.28571428571428],[-74.0,-78.6],[-70.0,-78.28571428571428],[-69.0,-78.0],[-68.33333333333334,-77.66666666666667],[-66.71428571428571,-77.28571428571428],[-64.66666666666667,-76.33333333333334],[-64.0,-76.16666666666667],[-63.00000000000001,-76.33333333333334],[-62.0,-76.0],[-61.0,-76.25],[-59.0,-75.66666666666667],[-58.5,-76.0],[-58.33333333333334,-76.33333333333334],[-58.0,-76.5],[-57.5,-76.5],[-57.0,-77.0],[-56.400000000000006,-76.60000000000001],[-56.0,-76.66666666666666],[-55.5,-77.0],[-55.33333333333334,-77.33333333333334],[-54.66666666666667,-77.66666666666667],[-53.846153846153854,-77.84615384615384],[-53.75,-78.25],[-54.0,-79.0],[-53.0,-79.66666666666666],[-52.0,-79.75],[-51.0,-80.0],[-50.0,-80.5],[-48.8,-80.80000000000001],[-47.53846153846154,-81.53846153846155],[-47.0,-82.0],[-43.8,-82.8],[-43.166666666666664,-83.16666666666666],[-42.0,-83.33333333333334],[-41.0,-83.25],[-40.0,-83.5],[-39.0,-84.0],[-38.0,-84.0],[-37.5,-84.5],[-36.66666666666667,-84.66666666666667],[-36.0,-85.0],[-34.0,-85.0],[-33.4,-84.60000000000001],[-32.0,-84.33333333333334],[-31.0,-84.5],[-30.0,-85.0],[-29.0,-84.66666666666667],[-27.77777777777778,-84.77777777777777],[-27.0,-85.0],[-26.0,-84.8],[-23.0,-85.0],[-11.0,-85.0],[-11.0,-86.0],[-10.0,-86.0],[-9.4,-86.4],[-9.0,-86.5],[-8.600000000000001,-86.4],[-8.0,-86.0],[-7.0,-86.0],[-5.6000000000000005,-85.4],[-5.0,-85.0],[-4.0,-85.0],[-3.4000000000000004,-85.4],[-2.0,-85.5],[-1.0,-86.0],[0.0,-85.66666666666666],[1.0,-86.0],[11.0,-86.0],[11.0,-85.0],[12.0,-85.0],[12.6,-85.4],[13.0,-85.5],[13.4,-85.4],[14.0,-85.0],[15.0,-84.875],[16.0,-85.0],[17.0,-84.875],[22.0,-85.0],[22.71428571428571,-85.28571428571428],[24.0,-85.5],[25.0,-85.0],[25.400000000000002,-85.60000000000001],[27.13793103448276,-85.86206896551724],[28.0,-86.16666666666667],[29.8125,-85.8125],[31.0,-85.875],[32.0,-85.73684210526315],[34.888888888888886,-86.11111111111111],[36.0,-85.73684210526315],[42.0,-85.93333333333334],[50.0,-85.85714285714286],[54.0,-86.0],[54.6,-86.4],[55.0,-86.5],[56.0,-86.0],[60.0,-86.0],[60.0,-87.0],[61.0,-87.0],[61.8,-86.8],[67.05882352941177,-86.94117647058823],[69.0,-86.85714285714286],[70.0,-86.63636363636363],[72.0,-86.86666666666667],[75.0,-86.5],[77.53846153846155,-86.53846153846155],[79.0,-86.3],[81.0,-86.27272727272728],[83.0,-86.5],[84.0,-86.4],[85.5,-86.0],[86.80645161290323,-85.80645161290323],[88.07142857142858,-85.92857142857143],[91.75757575757575,-85.75757575757575],[93.3125,-85.3125],[94.0,-84.33333333333334],[94.66666666666666,-84.0],[93.33333333333334,-83.0],[94.30769230769232,-82.30769230769232],[94.5,-82.0],[94.4,-81.60000000000001],[94.0,-81.0],[93.77777777777777,-80.22222222222223],[93.4,-79.6],[93.0,-79.33333333333334],[91.63636363636364,-79.36363636363636],[90.0,-79.0],[89.28571428571428,-78.71428571428571],[88.0,-78.5],[87.0,-78.5],[86.0,-78.66666666666667],[84.0,-78.66666666666667],[83.0,-78.5],[82.0,-79.0],[81.0,-79.0],[80.28571428571428,-79.28571428571428],[79.0,-79.4],[75.0,-79.25],[74.0,-79.4],[70.0,-79.33333333333334],[69.0,-79.5],[68.60000000000001,-79.4],[68.0,-79.0],[67.0,-79.25],[66.0,-79.0],[65.0,-79.6],[62.0,-79.4],[61.0,-79.5],[60.0,-79.25],[59.0,-79.5],[58.0,-79.25],[56.0,-79.5],[55.0,-79.5],[54.0,-79.75],[52.77777777777778,-79.77777777777777],[52.0,-80.0],[50.0,-80.0],[49.0,-79.5],[48.0,-79.5],[47.0,-79.66666666666667],[45.6,-79.6],[45.0,-80.0],[43.0,-80.0],[42.333333333333336,-79.66666666666667],[41.0,-79.5],[40.0,-80.0],[39.0,-79.5],[37.285714285714285,-80.28571428571428],[36.66666666666667,-80.33333333333334],[36.0,-80.0],[35.333333333333336,-80.33333333333334],[34.0,-80.5],[33.0,-80.0],[32.0,-80.33333333333333],[31.0,-80.0],[30.0,-80.25],[29.0,-80.0],[28.0,-80.0],[27.4,-79.6],[26.0,-79.0],[21.0,-79.0],[19.0,-78.66666666666667],[14.000000000000002,-78.80000000000001],[10.666666666666668,-78.33333333333334],[10.0,-78.0],[8.75,-78.25],[8.0,-78.0],[7.0,-78.0],[6.199999999999999,-77.8],[5.0,-78.0],[4.0,-77.66666666666667],[3.0,-77.66666666666667],[1.0,-78.0],[0.0,-77.66666666666667],[-2.0,-77.75],[-3.0,-77.4],[-5.0,-77.5],[-6.0,-78.0],[-7.0,-77.5],[-8.0,-77.4],[-9.0,-77.5],[-10.285714285714285,-77.28571428571428],[-11.0,-77.0],[-12.0,-77.25],[-14.0,-77.0],[-15.0,-77.0],[-15.714285714285712,-76.71428571428572],[-17.444444444444443,-76.44444444444444],[-18.0,-76.0],[-19.0,-76.0],[-19.666666666666668,-74.66666666666667],[-20.400000000000002,-74.4],[-21.0,-74.0],[-22.0,-74.0],[-22.0,-73.0],[-24.0,-73.0],[-24.6,-72.6],[-26.0,-72.5],[-26.5,-72.0],[-26.6,-71.60000000000001],[-27.0,-71.0],[-27.6,-70.60000000000001],[-28.0,-70.5],[-28.333333333333332,-70.0],[-28.5,-69.0],[-28.5,-68.0],[-29.333333333333336,-67.33333333333334],[-30.307692307692307,-65.3076923076923],[-30.6,-63.60000000000001],[-31.0,-63.0],[-31.0,-62.0],[-31.25,-61.0],[-31.333333333333332,-59.0],[-31.75,-57.0],[-32.166666666666664,-56.166666666666664],[-32.5,-55.0],[-32.5,-52.0],[-32.375,-51.625],[-31.5,-50.5],[-30.9,-50.099999999999994],[-30.476190476190474,-49.52380952380952],[-29.82608695652174,-49.17391304347826],[-29.38095238095238,-48.61904761904761],[-28.0,-48.272727272727266],[-27.869565217391305,-48.1304347826087],[-27.0,-48.0],[-26.636363636363637,-47.36363636363636],[-24.833333333333336,-47.00000000000001],[-24.6,-46.400000000000006],[-24.0,-46.0],[-23.75,-45.25],[-23.0,-45.0],[-22.5,-44.0],[-24.0,-43.33333333333333],[-24.666666666666668,-42.66666666666667],[-25.0,-41.5],[-25.5,-41.0],[-25.66666666666667,-40.66666666666667],[-25.75,-40.0],[-26.375,-39.375],[-27.0,-38.0],[-28.0,-36.5],[-29.0,-36.0],[-28.6,-35.400000000000006],[-28.5,-35.0],[-28.71428571428571,-33.714285714285715],[-29.0,-33.0],[-30.0,-34.0],[-30.25,-36.0],[-30.53846153846154,-36.46153846153846],[-31.11764705882353,-36.88235294117647],[-31.42857142857143,-37.57142857142858],[-32.315789473684205,-38.68421052631579],[-32.75,-40.0],[-33.333333333333336,-41.0],[-33.75,-43.0],[-33.5,-44.0],[-33.0,-44.66666666666667],[-32.0,-45.0],[-31.0,-45.0],[-30.666666666666668,-45.66666666666667],[-30.0,-46.0],[-30.0,-47.0],[-31.0,-47.0],[-31.0,-48.0],[-31.66666666666667,-48.333333333333336],[-32.0,-49.0],[-33.0,-49.0],[-34.0,-50.0],[-36.333333333333336,-50.66666666666667],[-36.69230769230769,-51.30769230769231],[-37.0,-51.5],[-38.0,-51.75],[-39.25,-53.0],[-40.375,-55.0],[-41.0,-57.0],[-41.0,-58.0],[-41.333333333333336,-59.0],[-41.5,-60.0],[-41.333333333333336,-61.0],[-41.75,-62.0],[-41.66666666666667,-63.0],[-41.76470588235294,-63.23529411764706],[-42.35294117647059,-63.647058823529406],[-43.0,-65.0],[-43.66666666666667,-65.33333333333334],[-44.0,-66.0],[-45.0,-66.0],[-46.0,-66.33333333333334],[-46.6,-67.4],[-47.0,-67.75],[-48.0,-67.66666666666667],[-48.25,-67.75],[-49.0,-68.5],[-50.0,-68.33333333333333],[-51.0,-69.0],[-52.0,-69.33333333333334],[-52.33333333333334,-69.33333333333334],[-53.0,-69.0],[-53.60000000000001,-69.4],[-54.0,-69.5],[-56.0,-69.5],[-56.8,-70.2],[-59.0,-71.0],[-60.0,-71.5],[-60.21052631578947,-71.78947368421053],[-60.84615384615384,-72.15384615384616],[-61.99999999999999,-72.57142857142857],[-63.285714285714285,-72.71428571428571],[-63.85714285714286,-73.14285714285714],[-65.28571428571428,-73.71428571428571],[-65.68421052631578,-74.3157894736842],[-66.0,-74.5],[-67.3,-74.69999999999999],[-68.0,-75.25],[-68.57142857142857,-75.42857142857143],[-70.3,-75.7],[-70.84615384615384,-76.15384615384616],[-71.2,-76.2],[-72.0,-76.0],[-72.6,-76.4],[-74.0,-76.5],[-75.0,-76.33333333333333],[-76.0,-76.0],[-75.0,-75.66666666666667],[-74.66666666666667,-75.33333333333334],[-74.42857142857143,-74.57142857142857],[-73.15384615384616,-72.84615384615385],[-72.15384615384616,-71.84615384615384],[-70.81818181818181,-71.18181818181819],[-70.35294117647058,-69.6470588235294],[-69.8,-69.2],[-69.47619047619048,-68.52380952380953],[-68.63636363636364,-67.36363636363636],[-68.0,-67.0],[-67.55555555555556,-66.44444444444444],[-66.86666666666667,-66.13333333333334],[-66.375,-65.625],[-65.75,-65.25],[-65.4,-64.6],[-64.88888888888889,-64.11111111111111],[-64.66666666666667,-62.0],[-64.8,-60.0],[-64.66666666666667,-59.0],[-64.42105263157895,-57.57894736842105],[-63.5,-55.0],[-63.333333333333336,-54.66666666666667],[-62.80952380952381,-54.19047619047619],[-62.55555555555555,-53.444444444444436],[-61.81818181818181,-52.18181818181819],[-61.42857142857143,-51.0],[-60.0,-49.2],[-59.72413793103448,-48.275862068965516],[-58.30769230769231,-45.69230769230769],[-58.0,-44.83333333333333],[-56.21621621621622,-42.78378378378378],[-54.4,-40.0],[-54.14814814814815,-39.85185185185185],[-53.63636363636363,-39.0],[-53.291666666666664,-38.70833333333333],[-53.083333333333336,-38.083333333333336],[-52.515151515151516,-37.0],[-52.25373134328358,-36.746268656716424],[-51.00000000000001,-34.2],[-50.69230769230769,-34.0],[-50.041666666666664,-32.958333333333336],[-49.5,-31.5],[-49.1,-30.9],[-49.0,-30.0],[-49.08510638297872,-29.085106382978722],[-48.77777777777778,-28.0],[-48.875,-27.0],[-48.77777777777778,-26.0],[-49.0,-25.0],[-49.067415730337075,-23.06741573033708],[-49.733333333333334,-21.0],[-50.28169014084507,-17.281690140845072],[-50.64285714285714,-16.0],[-50.625,-15.375],[-50.35294117647058,-14.647058823529411],[-49.88235294117647,-14.117647058823529],[-49.285714285714285,-13.714285714285714],[-49.0,-13.666666666666666],[-47.88888888888889,-13.88888888888889],[-46.550000000000004,-14.55],[-46.357142857142854,-15.0],[-46.266666666666666,-17.0],[-46.416666666666664,-18.0],[-46.08,-21.080000000000002],[-46.1875,-24.8125],[-46.3,-25.0],[-46.44444444444444,-27.0],[-46.315789473684205,-28.315789473684212],[-46.35294117647059,-29.64705882352941],[-46.5,-30.0],[-46.400000000000006,-30.400000000000002],[-46.0,-30.375],[-45.38461538461539,-29.615384615384613],[-44.794871794871796,-29.205128205128204],[-44.2,-29.0],[-44.13333333333333,-28.866666666666667],[-43.0,-28.666666666666664],[-42.05263157894737,-29.052631578947366],[-41.53333333333333,-29.533333333333335],[-41.36363636363636,-30.0],[-41.28571428571428,-31.714285714285715],[-41.57142857142858,-32.42857142857143],[-42.0,-32.5],[-42.5,-33.5],[-43.0,-33.77777777777778],[-43.142857142857146,-34.0],[-43.23529411764706,-34.23529411764706],[-43.15384615384615,-34.84615384615385],[-44.0,-35.0],[-44.148148148148145,-35.851851851851855],[-44.4,-36.0],[-44.333333333333336,-36.333333333333336],[-44.0,-36.666666666666664],[-43.63636363636364,-36.36363636363636],[-43.44444444444444,-35.55555555555556],[-42.77777777777778,-35.22222222222222],[-41.63636363636364,-34.36363636363636],[-40.66666666666667,-32.333333333333336],[-40.199999999999996,-30.0],[-40.199999999999996,-29.0],[-40.5,-28.0],[-40.25,-26.75],[-40.0,-26.5],[-39.8,-26.0],[-40.0,-25.666666666666668],[-40.44444444444444,-25.444444444444443],[-40.75,-24.75],[-41.0,-24.666666666666668],[-41.333333333333336,-24.0],[-41.28571428571428,-23.71428571428571],[-41.0,-23.333333333333336],[-40.66666666666667,-23.333333333333336],[-40.0,-23.0],[-36.0,-23.0],[-35.0,-22.75],[-30.799999999999997,-22.799999999999997],[-30.0,-23.0],[-29.0,-23.0],[-27.307692307692307,-23.307692307692307],[-26.0,-23.166666666666668],[-24.636363636363637,-23.363636363636363],[-23.0,-23.4],[-20.77777777777778,-23.77777777777778],[-20.0,-24.0],[-19.400000000000002,-24.400000000000002],[-19.0,-24.333333333333332],[-18.555555555555554,-24.555555555555554],[-17.0,-26.0],[-16.714285714285715,-26.714285714285715],[-16.400000000000002,-28.400000000000002],[-15.600000000000001,-29.6],[-15.0,-29.75],[-13.75,-29.25],[-13.0,-29.200000000000003],[-11.636363636363637,-29.363636363636367],[-11.0,-29.0],[-10.4,-29.400000000000002],[-9.666666666666668,-29.666666666666668],[-8.222222222222221,-31.22222222222222],[-8.142857142857142,-32.14285714285714],[-7.636363636363637,-32.63636363636364],[-7.5,-33.0],[-7.5,-34.0],[-7.0,-34.333333333333336],[-5.0,-34.25],[-4.666666666666667,-34.0],[-4.5,-33.5],[-4.0,-33.0],[-4.5,-32.5],[-4.666666666666667,-31.66666666666667],[-5.0,-31.0],[-4.6,-30.400000000000002],[-4.5,-29.0],[-5.285714285714286,-27.285714285714285],[-7.0,-25.5],[-8.0,-25.333333333333332],[-8.2,-25.200000000000003],[-9.0,-24.0],[-10.0,-23.0],[-11.0,-23.0],[-11.600000000000001,-22.6],[-13.0,-22.0],[-14.0,-22.333333333333336],[-15.222222222222221,-22.22222222222222],[-16.0,-22.0],[-17.0,-22.0],[-17.6,-21.6],[-18.333333333333336,-21.333333333333336],[-20.0,-21.42857142857143],[-21.142857142857142,-21.142857142857142],[-21.75,-20.75],[-23.2,-20.200000000000003],[-23.71428571428571,-20.285714285714285],[-26.0,-20.0],[-26.53846153846154,-19.53846153846154],[-27.0,-19.4],[-28.0,-19.4],[-30.0,-18.5],[-31.0,-18.5],[-32.71428571428571,-17.714285714285715],[-36.0,-17.333333333333332],[-37.0,-16.5],[-38.0,-16.0],[-40.0,-16.0],[-41.0,-15.0],[-42.0,-16.0],[-42.4,-15.4],[-42.5,-15.0],[-42.75,-14.75],[-43.28571428571428,-14.714285714285712],[-44.0,-15.0],[-44.69230769230769,-12.692307692307693],[-45.0,-11.0],[-45.421052631578945,-10.421052631578947],[-45.57142857142857,-9.0],[-45.272727272727266,-6.727272727272727],[-44.5,-5.0],[-43.61904761904761,-4.3809523809523805],[-42.625,-3.375],[-40.66666666666667,-2.0],[-40.34782608695652,-1.6521739130434783],[-39.66666666666667,-1.3333333333333333],[-38.0,-1.0],[-37.4,-0.6000000000000001],[-37.0,-0.5],[-34.0,-0.4],[-33.0,-0.16666666666666666],[-32.0,-0.25],[-30.764705882352942,0.7647058823529411],[-29.53846153846154,1.5384615384615383],[-28.0,2.0],[-27.333333333333336,2.3333333333333335],[-27.0,3.0],[-26.0,3.0],[-26.0,5.0],[-25.400000000000002,5.4],[-24.666666666666668,5.666666666666667],[-24.5,6.0],[-24.5,6.5],[-24.0,7.0],[-24.0,8.0],[-25.0,8.0],[-25.0,9.0],[-26.0,9.0],[-27.0,8.0],[-27.2,7.2],[-27.666666666666668,6.666666666666667],[-28.0,6.5],[-28.42857142857143,5.428571428571429],[-29.0,5.0],[-29.315789473684212,4.315789473684211],[-30.0,4.0],[-30.523809523809522,3.5238095238095237],[-31.0,3.375],[-33.0,3.1818181818181817],[-33.625,3.375],[-34.0,4.0],[-34.84,4.16],[-35.0,4.5],[-37.0,4.5],[-38.0,4.666666666666666],[-38.25,4.75],[-38.6,5.4],[-39.0,5.6],[-40.0,5.666666666666667],[-40.199999999999996,6.0],[-40.2,6.199999999999999],[-39.66666666666667,7.0],[-39.5,8.5],[-39.0,9.0],[-39.0,10.0],[-38.0,10.0],[-38.0,11.0],[-37.6,11.600000000000001],[-37.0,12.0],[-36.0,11.5],[-35.5,11.5],[-34.400000000000006,10.600000000000001],[-34.0,10.5],[-33.66666666666667,10.666666666666668],[-33.5,11.0],[-33.6,11.400000000000002],[-34.0,12.0],[-34.0,13.0],[-33.285714285714285,13.285714285714285],[-31.0,14.666666666666668],[-30.0,14.75],[-29.75,15.0],[-29.25,16.25],[-29.0,16.5],[-28.800000000000004,17.0],[-28.666666666666668,19.0],[-28.0,20.0],[-28.0,21.0],[-28.5,22.0],[-28.0,23.0],[-28.333333333333332,24.0],[-27.75,24.75],[-26.77777777777778,27.77777777777778],[-26.714285714285715,28.285714285714285],[-27.0,29.0],[-26.5,29.5],[-26.333333333333336,30.333333333333336],[-25.66666666666667,31.66666666666667],[-25.66666666666667,32.333333333333336],[-26.0,33.0],[-25.6,33.6],[-25.0,35.0],[-25.0,36.0],[-23.6,38.6],[-21.666666666666668,39.66666666666667],[-21.4,40.4],[-21.0,41.0],[-20.333333333333336,41.333333333333336],[-20.2,42.0],[-19.666666666666664,42.0],[-19.363636363636363,41.63636363636364],[-19.0,41.6],[-18.0,42.0],[-16.789473684210527,42.21052631578948],[-16.133333333333333,42.13333333333333],[-15.666666666666668,42.333333333333336],[-15.333333333333334,42.333333333333336],[-15.0,43.0],[-14.444444444444443,42.55555555555556],[-14.0,42.5],[-12.846153846153847,42.84615384615385],[-12.0,43.33333333333333],[-11.400000000000002,43.400000000000006],[-10.666666666666668,43.333333333333336],[-10.0,43.0],[-9.0,43.33333333333333],[-8.0,44.0],[-7.0,44.0],[-6.333333333333334,44.333333333333336],[-6.0,45.0],[-5.0,45.0],[-4.181818181818182,46.18181818181819],[-3.6000000000000005,46.6],[-3.0,47.5],[-1.4000000000000001,48.400000000000006],[-1.0,48.333333333333336],[-0.6000000000000001,48.60000000000001],[0.0,49.5],[1.0,49.5],[2.0,49.0],[3.0,49.0],[3.7777777777777777,49.22222222222223],[4.181818181818182,49.18181818181818],[4.6,48.60000000000001],[4.875,47.875],[5.285714285714286,47.71428571428571]],[[-52.142857142857146,-40.00000000000001],[-52.0,-40.5],[-51.5,-40.0],[-51.66666666666667,-39.66666666666667],[-52.142857142857146,-40.00000000000001]],[[-50.769230769230774,-38.769230769230774],[-51.375,-39.0],[-51.42857142857143,-39.42857142857143],[-51.0,-39.75],[-50.625,-39.0],[-50.769230769230774,-38.769230769230774]],[[-49.55555555555556,-37.55555555555555],[-50.0,-37.5],[-50.18181818181818,-38.18181818181818],[-50.0,-38.285714285714285],[-49.81818181818181,-38.18181818181818],[-49.55555555555556,-37.55555555555555]],[[-49.0,-35.4],[-49.36363636363636,-36.63636363636364],[-49.666666666666664,-37.0],[-49.470588235294116,-37.47058823529412],[-49.0,-37.44444444444444],[-48.72413793103448,-37.27586206896552],[-48.6,-37.0],[-48.66666666666667,-36.0],[-48.57142857142858,-35.57142857142857],[-49.0,-35.4]],[[-48.42857142857143,-35.42857142857143],[-48.0,-35.333333333333336],[-47.80952380952381,-33.80952380952381],[-48.0,-33.6],[-48.2,-33.8],[-48.6,-35.0],[-48.42857142857143,-35.42857142857143]],[[-46.63636363636364,-30.636363636363637],[-47.0,-30.599999999999998],[-47.09090909090909,-32.09090909090909],[-47.0,-33.0],[-46.63636363636364,-30.636363636363637]]],[[[43.13333333333333,-13.866666666666667],[43.66666666666667,-15.000000000000002],[43.0,-16.0],[42.46153846153847,-15.53846153846154],[42.0,-15.4],[41.44444444444444,-14.555555555555554],[40.7,-14.3],[40.285714285714285,-13.714285714285714],[40.0,-13.600000000000001],[39.5,-13.0],[39.375,-12.625],[38.66666666666667,-12.0],[38.400000000000006,-11.0],[38.68421052631579,-10.684210526315788],[39.0,-10.571428571428573],[40.0,-10.666666666666668],[40.21052631578947,-10.789473684210526],[40.8,-12.2],[41.400000000000006,-12.6],[42.13333333333333,-12.866666666666667],[42.4,-13.600000000000001],[43.13333333333333,-13.866666666666667]]],[[[62.6923076923077,16.30769230769231],[62.0,15.0],[59.24242424242424,14.757575757575758],[58.0,14.285714285714285],[57.22222222222222,14.222222222222221],[56.53846153846154,14.538461538461538],[56.25,15.0],[56.66666666666667,15.333333333333334],[57.0,15.428571428571429],[59.23529411764706,15.764705882352942],[59.625,16.375],[60.22222222222222,16.77777777777778],[60.60000000000001,17.4],[62.0,17.75],[62.66666666666667,17.666666666666668],[63.0,17.5],[63.333333333333336,17.0],[62.6923076923077,16.30769230769231]]],[[[74.0,22.5],[73.65217391304348,22.347826086956523],[73.5,22.0],[73.0,21.733333333333334],[72.3,21.700000000000003],[71.61904761904762,21.38095238095238],[71.42857142857143,21.0],[70.72727272727272,20.727272727272727],[70.27272727272727,20.727272727272727],[70.0,20.5],[68.75,20.75],[68.75,21.25],[70.0,22.0],[70.53846153846155,22.461538461538463],[71.26666666666667,22.733333333333334],[71.60000000000001,23.400000000000002],[72.0,23.6],[73.0,23.6],[73.83333333333333,24.166666666666668],[75.0,24.25],[75.25,24.0],[74.66666666666667,23.333333333333336],[74.66666666666667,23.0],[74.21621621621622,22.783783783783782],[74.0,22.5]]],[[[84.4,33.0],[84.25,32.75],[84.0,32.6],[83.0,32.5],[82.30769230769232,31.692307692307693],[81.5,31.5],[78.0,31.285714285714285],[77.0,31.428571428571423],[76.61904761904762,31.61904761904762],[76.16666666666667,33.0],[76.4,34.0],[76.6470588235294,34.35294117647059],[79.77777777777777,35.22222222222222],[81.0,35.4],[82.63636363636363,34.63636363636363],[83.42857142857144,34.42857142857143],[84.0,34.0],[84.33333333333334,33.333333333333336],[84.4,33.0]]],[[[-46.0,37.66666666666667],[-45.714285714285715,37.0],[-45.0,36.166666666666664],[-43.76470588235294,33.23529411764706],[-43.0,33.0],[-42.976470588235294,32.023529411764706],[-42.470588235294116,31.529411764705884],[-42.0,30.57142857142857],[-41.88679245283019,29.113207547169814],[-41.71428571428571,28.71428571428571],[-41.8,28.200000000000003],[-41.66666666666667,28.0],[-41.92682926829268,27.926829268292686],[-42.0,27.666666666666664],[-42.09375,27.90625],[-43.0,28.1],[-44.96666666666667,30.03333333333333],[-45.21739130434783,30.782608695652172],[-45.55555555555556,31.0],[-46.0,31.615384615384613],[-46.08,31.92],[-46.80952380952381,33.0],[-47.18181818181819,34.81818181818182],[-47.75757575757576,35.24242424242424],[-48.0,35.66666666666667],[-48.1639344262295,36.83606557377049],[-48.57446808510639,37.42553191489362],[-49.0,38.44444444444444],[-49.31818181818182,40.0],[-49.0,41.16666666666667],[-48.0,41.5],[-47.09090909090909,40.90909090909091],[-46.66666666666667,40.333333333333336],[-46.36363636363637,39.63636363636363],[-46.0,37.66666666666667]]],[[[65.16666666666666,67.16666666666667],[65.25,66.0],[64.75,64.25],[64.6923076923077,63.307692307692314],[64.84,62.84],[66.14285714285714,62.14285714285714],[66.65217391304348,61.65217391304348],[67.4,61.400000000000006],[68.0,60.800000000000004],[69.33333333333334,60.333333333333336],[69.8,59.8],[71.35294117647058,59.35294117647058],[71.875,58.875],[72.6,58.60000000000001],[74.0,57.75],[75.0,57.75],[75.75,57.0],[75.5,56.5],[75.0,56.0],[75.4,55.400000000000006],[75.63636363636364,54.63636363636364],[75.83333333333333,53.833333333333336],[75.85714285714286,53.0],[76.45454545454545,52.45454545454545],[76.81818181818181,51.81818181818182],[77.35294117647058,51.35294117647059],[77.5,51.0],[77.66666666666667,49.0],[77.6,46.0],[77.07142857142857,44.92857142857143],[76.93548387096774,44.064516129032256],[76.54545454545455,43.45454545454545],[76.0,43.0],[75.86666666666666,42.13333333333333],[75.17391304347825,41.826086956521735],[75.0,41.0],[74.6,40.4],[74.0,40.16666666666667],[73.86666666666667,39.86666666666667],[74.0,39.66666666666667],[74.25,39.75],[74.66666666666667,39.66666666666667],[76.0,40.0],[77.0,39.875],[79.0,40.3448275862069],[79.9090909090909,40.0],[79.66666666666667,39.333333333333336],[79.0,39.0],[78.52941176470587,38.470588235294116],[77.77777777777777,38.22222222222222],[77.3157894736842,37.68421052631579],[76.0,37.333333333333336],[75.0,37.22222222222222],[74.6,37.0],[74.5,35.0],[74.6,34.0],[74.6923076923077,33.69230769230769],[75.36363636363637,33.36363636363636],[75.66666666666667,33.0],[75.18181818181819,31.81818181818182],[74.66666666666667,31.333333333333336],[74.5,31.0],[74.16666666666666,29.833333333333336],[73.33333333333333,29.0],[73.5,28.0],[73.30769230769232,27.692307692307693],[72.0,27.0],[72.0,26.0],[71.0,25.5],[70.71428571428571,24.285714285714285],[70.33333333333334,23.666666666666668],[70.0,23.5],[69.87878787878788,23.121212121212125],[69.6,23.0],[69.46153846153847,22.53846153846154],[69.0,22.4],[68.80952380952381,22.19047619047619],[67.0,21.75],[66.0,21.375],[65.80645161290323,21.193548387096776],[63.5,21.0],[62.73913043478261,20.26086956521739],[60.71428571428571,20.0],[60.45454545454545,19.545454545454547],[59.78947368421052,19.210526315789473],[59.266666666666666,18.733333333333334],[57.99999999999999,18.428571428571427],[57.38461538461538,17.615384615384613],[56.33333333333333,17.0],[55.724137931034484,16.275862068965516],[55.19047619047619,16.19047619047619],[54.85714285714286,16.0],[54.625,15.375],[53.87234042553192,15.127659574468085],[52.66666666666667,15.000000000000002],[52.285714285714285,14.714285714285712],[52.0,14.666666666666668],[51.66666666666667,15.0],[51.5,16.0],[51.625,16.375],[52.0,16.75],[52.11111111111111,17.88888888888889],[52.666666666666664,20.0],[52.0,22.5],[51.400000000000006,23.400000000000002],[51.125,25.0],[50.75,25.25],[50.333333333333336,25.333333333333336],[50.0,26.0],[49.13333333333333,26.133333333333333],[48.400000000000006,26.400000000000002],[47.5,27.0],[47.00000000000001,27.166666666666664],[46.0,27.25],[45.57142857142857,27.571428571428573],[45.0,28.333333333333336],[43.66666666666667,29.666666666666668],[43.0,31.0],[42.6,31.6],[42.0,32.0],[41.5,33.0],[41.0,33.25],[40.6,33.6],[40.23529411764706,34.23529411764706],[39.625,34.625],[39.0,36.0],[38.44444444444444,36.44444444444444],[38.0,37.333333333333336],[37.0,37.5],[36.0,38.2],[34.0,37.75],[32.0,37.75],[31.0,38.5],[30.0,39.0],[30.5,39.5],[30.846153846153847,40.15384615384615],[32.578947368421055,41.421052631578945],[34.0,41.6],[37.0,41.66666666666667],[37.6,42.0],[38.5,43.0],[38.5,44.0],[38.36363636363636,46.36363636363637],[37.81818181818181,46.81818181818182],[37.46153846153847,47.46153846153846],[36.81818181818182,47.81818181818182],[36.44444444444444,48.44444444444444],[36.0,48.666666666666664],[34.8,48.8],[34.666666666666664,49.0],[35.0,50.0],[34.5,50.5],[33.81818181818182,50.81818181818181],[33.6,51.400000000000006],[34.0,52.0],[33.4,51.6],[32.8,51.8],[32.5,52.0],[32.5,53.0],[32.0,53.25],[31.0,53.0],[30.5,53.5],[30.285714285714285,54.285714285714285],[29.63636363636364,54.63636363636364],[29.333333333333336,55.0],[29.5,55.5],[30.0,56.0],[30.0,58.0],[30.400000000000002,58.60000000000001],[31.0,59.0],[31.333333333333336,60.00000000000001],[31.22222222222222,60.22222222222222],[30.77777777777778,60.22222222222222],[30.5,60.0],[30.400000000000002,59.6],[30.0,59.5],[29.6,59.6],[29.666666666666668,61.0],[31.0,62.2],[32.0,62.0],[33.0,62.2],[35.2,62.199999999999996],[36.0,62.0],[38.0,62.0],[39.0,63.0],[39.77777777777777,63.22222222222222],[40.36363636363637,63.63636363636363],[41.30769230769231,64.6923076923077],[41.57142857142858,65.42857142857143],[42.0,66.0],[43.0,66.0],[44.0,66.66666666666667],[45.71428571428571,67.28571428571428],[47.0,68.0],[48.0,68.2],[48.5,68.0],[48.66666666666667,67.66666666666667],[49.0,67.5],[52.0,67.5],[53.0,67.25],[53.71428571428571,67.28571428571428],[55.0,67.5],[56.0,68.0],[56.77777777777778,68.22222222222223],[57.25,68.25],[58.0,68.0],[58.5,68.5],[58.666666666666664,69.0],[58.88235294117647,69.11764705882352],[61.0,69.0],[62.0,69.16666666666666],[63.0,69.0],[64.0,69.0],[64.66666666666667,67.66666666666667],[65.0,67.5],[65.16666666666666,67.16666666666667]],[[40.18181818181818,61.81818181818181],[40.2,62.199999999999996],[40.0,62.5],[39.6,62.4],[39.5,62.0],[40.0,61.66666666666667],[40.18181818181818,61.81818181818181]]],[[[30.333333333333336,52.33333333333334],[30.333333333333336,52.0],[30.71428571428571,51.71428571428571],[31.0,51.0],[31.571428571428577,50.57142857142858],[32.0,49.6],[32.375,49.375],[32.5,49.0],[32.79310344827586,48.79310344827586],[33.0,48.0],[33.63636363636363,47.63636363636364],[33.6,47.4],[34.0,46.4],[34.25,46.25],[34.625,45.625],[34.7,44.0],[34.45161290322581,43.54838709677419],[34.0,43.36363636363636],[32.0,43.5],[31.578947368421048,43.57894736842105],[31.0,44.0],[30.000000000000004,44.333333333333336],[27.0,44.8],[25.0,44.8],[24.0,45.0],[23.0,45.0],[21.0,45.75],[20.0,45.800000000000004],[19.666666666666664,46.0],[19.333333333333336,47.0],[19.333333333333336,47.333333333333336],[19.0,48.0],[18.933333333333334,49.06666666666667],[19.0,49.33333333333333],[19.444444444444443,49.55555555555556],[20.0,51.0],[21.22222222222222,51.77777777777778],[22.0,53.0],[23.0,53.0],[24.0,53.2],[25.0,53.0],[26.0,53.33333333333333],[27.0,53.25],[28.0,53.6],[28.461538461538463,53.46153846153847],[29.6,52.6],[30.333333333333336,52.33333333333334]]],[[[29.0,59.33333333333333],[29.400000000000002,59.400000000000006],[29.5,58.5],[29.0,58.0],[28.77777777777778,58.77777777777778],[28.818181818181817,59.18181818181819],[29.0,59.33333333333333]]],[[[115.0,-41.0],[113.98591549295776,-41.014084507042256],[113.0,-41.0],[114.0,-40.5],[114.4,-40.6],[115.0,-41.0]]],[[[91.0,-38.0],[90.4,-38.4],[90.0,-38.5],[89.0,-38.5],[87.0,-38.25],[86.66666666666667,-38.0],[86.33333333333334,-37.0],[86.6190476190476,-36.61904761904761],[88.0,-36.333333333333336],[89.0,-36.666666666666664],[91.0,-36.57142857142857],[91.3157894736842,-36.68421052631579],[91.5,-37.0],[91.0,-38.0]]],[[[113.42857142857143,-33.0],[113.28571428571428,-33.285714285714285],[112.0,-33.66666666666667],[111.0,-33.55555555555556],[110.6153846153846,-33.38461538461538],[110.3,-32.7],[109.75,-32.0],[110.54545454545455,-31.545454545454547],[111.0,-31.444444444444443],[112.30000000000001,-31.7],[112.7142857142857,-32.285714285714285],[113.3,-32.7],[113.42857142857143,-33.0]]],[[[97.76470588235294,-23.235294117647058],[98.375,-23.625],[98.71428571428571,-24.285714285714285],[99.4,-24.6],[99.71428571428571,-25.285714285714285],[100.0,-25.333333333333336],[100.38095238095238,-25.619047619047617],[100.57142857142856,-26.0],[100.5,-26.5],[100.0,-27.0],[99.0,-26.0],[98.0,-26.0],[97.25,-25.75],[97.00000000000001,-25.8],[96.0,-25.0],[95.57894736842105,-24.42105263157895],[95.0,-24.11111111111111],[94.58333333333333,-23.416666666666668],[94.0,-23.0],[93.6,-22.4],[93.0,-22.0],[93.0,-21.0],[94.0,-20.8],[95.14285714285714,-20.857142857142858],[95.625,-21.375],[96.26666666666667,-21.733333333333334],[96.66666666666667,-22.333333333333336],[97.35294117647058,-22.64705882352941],[97.76470588235294,-23.235294117647058]]],[[[105.0,-24.57142857142857],[104.0,-24.625],[102.85714285714286,-24.142857142857142],[102.75,-24.0],[102.75,-23.0],[102.85714285714286,-22.857142857142858],[104.18181818181819,-22.81818181818182],[107.0,-23.666666666666668],[107.33333333333334,-24.0],[107.25,-24.25],[106.0,-24.714285714285715],[105.0,-24.57142857142857]]],[[[108.11764705882352,-8.117647058823529],[107.66666666666669,-9.0],[107.4,-12.0],[106.80000000000001,-13.0],[106.57142857142856,-14.0],[106.57142857142856,-15.0],[106.4,-15.4],[105.73333333333333,-15.733333333333333],[105.0,-16.333333333333332],[104.0,-16.57142857142857],[103.57894736842104,-16.421052631578945],[103.2,-16.0],[102.71428571428571,-15.285714285714285],[102.66666666666666,-15.0],[102.75,-14.75],[103.4,-14.0],[103.75,-12.75],[104.28571428571429,-12.0],[104.5,-10.0],[104.4,-7.0],[104.5,-6.0],[104.63636363636363,-5.636363636363637],[105.22222222222223,-5.222222222222221],[105.61904761904762,-4.619047619047619],[106.0,-4.428571428571429],[107.0,-4.428571428571429],[107.4,-4.6],[108.17391304347827,-5.826086956521739],[108.3,-7.0],[108.11764705882352,-8.117647058823529]]],[[[101.66666666666667,-3.0],[101.66666666666667,-2.0],[101.78947368421052,-1.7894736842105263],[103.0,-1.5],[103.3,-1.7],[103.55555555555556,-3.0],[103.37037037037035,-3.3703703703703702],[103.0,-3.5555555555555554],[101.77777777777777,-3.2222222222222223],[101.66666666666667,-3.0]]],[[[96.23255813953489,28.232558139534884],[96.87878787878788,27.87878787878788],[97.25641025641025,27.256410256410255],[98.0,27.0],[98.34482758620689,26.344827586206897],[99.07142857142857,26.0],[99.41379310344827,25.413793103448274],[100.1,25.0],[100.52631578947368,24.526315789473685],[101.0,24.25],[101.0625,24.0625],[101.3,24.0],[102.0,23.363636363636363],[102.07407407407408,23.074074074074073],[102.66666666666667,23.0],[103.0,22.75],[103.1081081081081,22.108108108108105],[103.6,22.0],[104.0,21.636363636363637],[104.11965811965813,21.11965811965812],[104.58333333333333,21.0],[104.77777777777777,20.77777777777778],[105.0677966101695,20.06779661016949],[106.0,19.125],[106.24489795918367,18.244897959183675],[107.0,17.68],[107.2125,17.2125],[108.0,16.61111111111111],[108.25730994152046,16.257309941520468],[108.84615384615384,16.0],[109.33576642335767,15.335766423357665],[110.08071748878925,15.080717488789237],[110.52317880794702,14.52317880794702],[111.11320754716982,14.11320754716981],[111.5,14.0],[112.11881188118812,13.118811881188119],[112.66666666666667,13.0],[113.0,10.857142857142858],[114.0,10.833333333333334],[116.0,10.333333333333332],[119.0,10.2],[119.42857142857143,10.0],[118.21621621621622,9.783783783783784],[118.0,9.428571428571427],[117.15789473684211,8.842105263157894],[117.0,8.4],[116.5,8.0],[116.07142857142857,7.928571428571429],[116.0,7.714285714285714],[115.0,7.5],[114.0,7.6],[112.0,7.428571428571429],[111.55555555555554,7.555555555555555],[111.0,8.0],[110.22222222222223,7.777777777777778],[109.0,7.666666666666666],[108.0,8.0],[107.0,8.0],[106.5,8.5],[106.0,8.75],[105.5,8.5],[105.0,7.0],[104.4,6.6000000000000005],[104.0,6.5],[103.5,7.0],[102.0,8.0],[101.30769230769232,9.307692307692308],[100.66666666666666,10.0],[100.0,11.5],[98.0,12.399999999999999],[96.73333333333333,12.733333333333334],[95.625,13.625],[94.5,15.0],[94.16,15.16],[93.0,15.307692307692308],[92.53846153846155,15.53846153846154],[92.15094339622641,16.150943396226417],[92.0,17.0],[91.625,17.625],[91.23529411764706,20.235294117647058],[91.0,22.0],[91.16666666666667,23.0],[90.33333333333334,25.333333333333336],[90.0,27.0],[89.6,28.0],[89.5,29.0],[89.5,31.0],[89.66666666666667,32.0],[90.0,33.0],[91.0,33.0],[91.4,32.0],[91.66666666666667,31.66666666666667],[92.0,31.57142857142857],[92.44444444444444,31.0],[94.0,30.0],[95.10526315789474,29.105263157894736],[95.42857142857143,29.0],[96.23255813953489,28.232558139534884]]],[[[112.65517241379311,34.65517241379311],[116.0,34.46666666666667],[120.5,34.0],[124.16216216216216,33.16216216216216],[124.77777777777777,33.22222222222222],[126.15384615384616,33.0],[126.60714285714285,32.607142857142854],[127.28947368421053,32.28947368421053],[128.8,32.0],[129.42857142857144,31.42857142857143],[130.35714285714286,31.0],[131.0,29.5],[132.0,28.666666666666668],[132.125,28.0],[132.0,27.5],[131.66666666666669,27.333333333333336],[130.75,26.0],[130.28571428571428,25.714285714285715],[129.0,25.4],[127.0,25.25],[125.38095238095238,25.38095238095238],[123.0,25.142857142857146],[120.0,25.5],[119.0,25.5],[118.0,25.333333333333336],[117.0,25.5],[116.0,24.75],[115.89473684210526,24.894736842105264],[115.0,25.0],[113.8,25.8],[113.0,26.0],[112.36842105263159,26.36842105263158],[109.0,27.18181818181818],[105.0,29.714285714285715],[103.84615384615384,30.153846153846153],[103.15384615384616,30.153846153846153],[102.0,30.5],[101.5,31.0],[101.4,31.400000000000002],[101.0,32.0],[101.0,33.0],[100.0,33.0],[100.0,35.0],[100.71428571428571,35.285714285714285],[104.0,35.8],[105.99999999999999,35.7],[111.33333333333334,35.0],[112.65517241379311,34.65517241379311]]],[[[98.0,35.0],[97.4,35.400000000000006],[97.0,35.333333333333336],[96.75,35.75],[96.33333333333333,36.0],[96.0,37.0],[96.53846153846155,37.46153846153847],[97.0,37.6],[98.0,37.66666666666667],[99.30769230769232,37.30769230769231],[99.66666666666667,37.0],[99.36363636363636,36.63636363636364],[98.0,36.0],[98.0,35.0]]],[[[93.0,39.2],[91.0,39.2],[90.0,39.0],[89.0,39.0],[88.0,39.333333333333336],[87.55555555555554,39.55555555555555],[87.33333333333334,40.0],[87.65217391304348,40.34782608695652],[88.30000000000001,40.7],[88.5,41.0],[93.5,41.0],[93.75,40.75],[94.0,40.0],[93.55555555555554,39.44444444444444],[93.0,39.2]]]]}}]}